[
{"STATE":"IL","ZIP":60617,"LATTITUDE":41.726329231442904,"ADDRESS":"2320 E 93RD ST 1 ","YEAR":2008,"DOING_BUSINESS_AS_NAME":"AVP, INC. -- See Comments","POP_AT_RISK":123864,"BUSINESS_TYPE":"Public Garage","LEGAL_NAME":"AVP, INC.","LONGITUDE":-87.56727090823563},
{"STATE":"IL","ZIP":60609,"LATTITUDE":41.82368445199922,"ADDRESS":"426 W PERSHING RD GROUND ","YEAR":2008,"DOING_BUSINESS_AS_NAME":"EGJR, LLC","POP_AT_RISK":61626,"BUSINESS_TYPE":"Public Garage","LEGAL_NAME":"EGJR, LLC.","LONGITUDE":-87.63719418165383},
{"STATE":"IL","ZIP":60621,"LATTITUDE":41.77365127547508,"ADDRESS":"6629 S WENTWORTH AVE  1","YEAR":2008,"DOING_BUSINESS_AS_NAME":"AUTOTRUCK PARKING & STOR INC","POP_AT_RISK":294300,"BUSINESS_TYPE":"Public Garage","LEGAL_NAME":"JOHN STILP","LONGITUDE":-87.62985023814868},
{"STATE":"IL","ZIP":60615,"LATTITUDE":41.802238709769085,"ADDRESS":"500 E 51ST ST  INDOO","YEAR":2008,"DOING_BUSINESS_AS_NAME":"INTERPARK","POP_AT_RISK":291912,"BUSINESS_TYPE":"Public Garage","LEGAL_NAME":"INTERPARK LLC","LONGITUDE":-87.61399572714086},
{"STATE":"IL","ZIP":60649,"LATTITUDE":41.765323060530186,"ADDRESS":"7139 S EXCHANGE AVE  ","YEAR":2008,"DOING_BUSINESS_AS_NAME":"7139 SELF PARK","POP_AT_RISK":364947,"BUSINESS_TYPE":"Public Garage","LEGAL_NAME":"JOHN R BOLDEN","LONGITUDE":-87.56547170951188},
{"STATE":"IL","ZIP":60609,"LATTITUDE":41.83067697104952,"ADDRESS":"3501 S EMERALD AVE  ","YEAR":2008,"DOING_BUSINESS_AS_NAME":"RAMEL PHILLIPS 66","POP_AT_RISK":33924,"BUSINESS_TYPE":"Public Garage","LEGAL_NAME":"JOSEPH M RAMEL","LONGITUDE":-87.6447405582136},
{"STATE":"IL","ZIP":60638,"LATTITUDE":41.80771214039897,"ADDRESS":"4832 - 34 W 47TH ST  ","YEAR":2008,"DOING_BUSINESS_AS_NAME":"AIRPORT PARKING","POP_AT_RISK":61434,"BUSINESS_TYPE":"Public Garage","LEGAL_NAME":"AIRPORT PARKING","LONGITUDE":-87.74443951507291},
{"STATE":"IL","ZIP":60631,"LATTITUDE":41.98118072487806,"ADDRESS":"8500 W BRYN MAWR AVE  ","YEAR":2008,"DOING_BUSINESS_AS_NAME":"RENAISSANCE CHICAGO O'HARE HOTEL AS OF 7\/25\/2013 Paying under account 381630","POP_AT_RISK":21169,"BUSINESS_TYPE":"Public Garage","LEGAL_NAME":"RCO Hotel, Inc.","LONGITUDE":-87.83916755770461},
{"STATE":"IL","ZIP":60641,"LATTITUDE":41.93511935803638,"ADDRESS":"4625 W WELLINGTON AVE  ","YEAR":2008,"DOING_BUSINESS_AS_NAME":"ALLS STORAGE L.L.C.","POP_AT_RISK":679445,"BUSINESS_TYPE":"Public Garage","LEGAL_NAME":"ALLS STORAGE LCC.","LONGITUDE":-87.74322159707353},
{"STATE":"IL","ZIP":60630,"LATTITUDE":41.969196775538116,"ADDRESS":"4849 N MILWAUKEE AVE 1ST ","YEAR":2008,"DOING_BUSINESS_AS_NAME":"MEGA PROPERTIES INC","POP_AT_RISK":304632,"BUSINESS_TYPE":"Public Garage","LEGAL_NAME":"MEGA PROPERTIES INC","LONGITUDE":-87.76171988022168},
{"STATE":"IL","ZIP":60647,"LATTITUDE":41.91801539468696,"ADDRESS":"2021 N POINT ST  ","YEAR":2008,"DOING_BUSINESS_AS_NAME":"CONGRESS CORPORATION","POP_AT_RISK":902790,"BUSINESS_TYPE":"Public Garage","LEGAL_NAME":"ONE STOP LOANS, LLC","LONGITUDE":-87.69454143776636},
{"STATE":"IL","ZIP":60612,"LATTITUDE":41.86926445997663,"ADDRESS":"1900 W TAYLOR ST  ","YEAR":2008,"DOING_BUSINESS_AS_NAME":"STANDARD PARKING","POP_AT_RISK":29393,"BUSINESS_TYPE":"Public Garage","LEGAL_NAME":"SP PLUS CORPORATION","LONGITUDE":-87.67381637462078},
{"STATE":"IL","ZIP":60656,"LATTITUDE":41.98221573286358,"ADDRESS":"5550 N HARLEM AVE  1600","YEAR":2008,"DOING_BUSINESS_AS_NAME":"STANDARD PARKING","POP_AT_RISK":177684,"BUSINESS_TYPE":"Public Garage","LEGAL_NAME":"SP PLUS CORPORATION","LONGITUDE":-87.80708846765953},
{"STATE":"IL","ZIP":60632,"LATTITUDE":41.79319266338371,"ADDRESS":"4532 W 55TH ST  OUTDO","YEAR":2008,"DOING_BUSINESS_AS_NAME":"AIRWAYS PARKING","POP_AT_RISK":37692,"BUSINESS_TYPE":"Public Garage","LEGAL_NAME":"AIRWAYS PARKING CORP","LONGITUDE":-87.73684553047367},
{"STATE":"IL","ZIP":60625,"LATTITUDE":41.981447658191406,"ADDRESS":"2524-2532 W CATALPA AVE 1ST 1","YEAR":2008,"DOING_BUSINESS_AS_NAME":"LATIN BLISS CAFE","POP_AT_RISK":204624,"BUSINESS_TYPE":"Public Garage","LEGAL_NAME":"CLUB CONTINENTAL, INC.","LONGITUDE":-87.6927851305354},
{"STATE":"IL","ZIP":60623,"LATTITUDE":41.83964358422834,"ADDRESS":"2842 S KEDZIE AVE 1 ","YEAR":2008,"DOING_BUSINESS_AS_NAME":"M & M USA TRUCKING, INC.","POP_AT_RISK":231028,"BUSINESS_TYPE":"Public Garage","LEGAL_NAME":"M & M USA TRUCKING, INC.","LONGITUDE":-87.70504096609815},
{"STATE":"IL","ZIP":60636,"LATTITUDE":41.79216504745647,"ADDRESS":"2220 W 56TH ST  ","YEAR":2008,"DOING_BUSINESS_AS_NAME":"AMERICAN SELF-STORAGE LLC","POP_AT_RISK":774288,"BUSINESS_TYPE":"Public Garage","LEGAL_NAME":"AMERICAN SELF-STORAGE LLC","LONGITUDE":-87.67975328180451},
{"STATE":"IL","ZIP":60608,"LATTITUDE":41.84525827123362,"ADDRESS":"2540 S CALIFORNIA AVE  ","YEAR":2008,"DOING_BUSINESS_AS_NAME":"COURT PARKING CORPORATION","POP_AT_RISK":58799,"BUSINESS_TYPE":"Public Garage","LEGAL_NAME":"COURT PARKING CORPORATION","LONGITUDE":-87.6953767373641},
{"STATE":"IL","ZIP":60626,"LATTITUDE":42.006458430277874,"ADDRESS":"1677 W FARWELL AVE  ","YEAR":2008,"DOING_BUSINESS_AS_NAME":"SYSTEM PARKING INC","POP_AT_RISK":387305,"BUSINESS_TYPE":"Public Garage","LEGAL_NAME":"ABM PARKING SERVICES, INC.","LONGITUDE":-87.67286603186704},
{"STATE":"IL","ZIP":60622,"LATTITUDE":41.90891372160672,"ADDRESS":"1501 N GREENVIEW AVE  ","YEAR":2008,"DOING_BUSINESS_AS_NAME":"SYSTEM PARKING, INC.","POP_AT_RISK":250260,"BUSINESS_TYPE":"Public Garage","LEGAL_NAME":"ABM PARKING SERVICES, INC.","LONGITUDE":-87.66505758217578},
{"STATE":"IL","ZIP":60660,"LATTITUDE":41.98915734238827,"ADDRESS":"5900 N WINTHROP AVE  ","YEAR":2008,"DOING_BUSINESS_AS_NAME":"AMPCO SYSTEM PARKING, INC.","POP_AT_RISK":117622,"BUSINESS_TYPE":"Public Garage","LEGAL_NAME":"ABM PARKING SERVICES, INC.","LONGITUDE":-87.65833342161731},
{"STATE":"IL","ZIP":60629,"LATTITUDE":41.78562796054326,"ADDRESS":"4607 W 59TH ST  ","YEAR":2008,"DOING_BUSINESS_AS_NAME":"MIDWAY PARK SAVER","POP_AT_RISK":96774,"BUSINESS_TYPE":"Public Garage","LEGAL_NAME":"CAPITAL COUNSELORS LIMITED","LONGITUDE":-87.73804241580194},
{"STATE":"IL","ZIP":60640,"LATTITUDE":41.96914762119851,"ADDRESS":"1130 W LAWRENCE AVE  ","YEAR":2008,"DOING_BUSINESS_AS_NAME":"CPS Parking","POP_AT_RISK":73134,"BUSINESS_TYPE":"Public Garage","LEGAL_NAME":"CENTRAL PARKING SYSTEM, INC.","LONGITUDE":-87.6588631027059},
{"STATE":"IL","ZIP":60608,"LATTITUDE":41.86093729800648,"ADDRESS":"2705 W 15TH ST  ","YEAR":2008,"DOING_BUSINESS_AS_NAME":"MT SINAI HOSPITAL MEDICAL CENTER","POP_AT_RISK":211330,"BUSINESS_TYPE":"Public Garage","LEGAL_NAME":"MT SINAI HOSPITAL MEDICAL CENTER","LONGITUDE":-87.69368470776661},
{"STATE":"IL","ZIP":60609,"LATTITUDE":41.827339819897354,"ADDRESS":"3658 S WENTWORTH AVE  ","YEAR":2008,"DOING_BUSINESS_AS_NAME":"PROGRESSIVE BAPTIST CHURCH INC OF CHICAGO","POP_AT_RISK":29229,"BUSINESS_TYPE":"Public Garage","LEGAL_NAME":"PROGRESSIVE BAPTIST CHURCH INC OF CHICAGO","LONGITUDE":-87.63156878978693},
{}]