[
{"STATE":"IL","ZIP":60612,"LATTITUDE":41.87763441014909,"ADDRESS":"2456 W JACKSON BLVD # 1ST","YEAR":2005,"DOING_BUSINESS_AS_NAME":"JACKSON LIQUORS","POP_AT_RISK":147295,"BUSINESS_TYPE":"Package Goods","LEGAL_NAME":"S F INC","LONGITUDE":-87.68855666541482},
{"STATE":"IL","ZIP":60651,"LATTITUDE":41.89571267475986,"ADDRESS":"807 N MONTICELLO AVE  ","YEAR":2005,"DOING_BUSINESS_AS_NAME":"MS EVA'S GROCERY\/DELI","POP_AT_RISK":228230,"BUSINESS_TYPE":"Package Goods","LEGAL_NAME":"GEORGE PERSON","LONGITUDE":-87.71739403529439},
{"STATE":"IL","ZIP":60613,"LATTITUDE":41.95017256462572,"ADDRESS":"3660 N LAKE SHORE DR  ","YEAR":2005,"DOING_BUSINESS_AS_NAME":"NEW YORK MARKET","POP_AT_RISK":1009760,"BUSINESS_TYPE":"Package Goods","LEGAL_NAME":"MIC-MAC, INC.","LONGITUDE":-87.6445481581548},
{"STATE":"IL","ZIP":60626,"LATTITUDE":42.0080014356504,"ADDRESS":"1420 W MORSE AVE  ","YEAR":2005,"DOING_BUSINESS_AS_NAME":"SOO & HAN INC","POP_AT_RISK":71531,"BUSINESS_TYPE":"Package Goods","LEGAL_NAME":"SOO & HAN INC","LONGITUDE":-87.66679499606407},
{"STATE":"IL","ZIP":60610,"LATTITUDE":41.895375850474665,"ADDRESS":"714 N CLARK ST  ","YEAR":2005,"DOING_BUSINESS_AS_NAME":"7 ELEVEN","POP_AT_RISK":1926162,"BUSINESS_TYPE":"Package Goods","LEGAL_NAME":"7-ELEVEN, INC.","LONGITUDE":-87.63136270867454},
{"STATE":"IL","ZIP":60619,"LATTITUDE":41.7797424789354,"ADDRESS":"1122 W 63RD ST 1ST ","YEAR":2005,"DOING_BUSINESS_AS_NAME":"NEIGHBORHOOD FOOD & LIQUORS","POP_AT_RISK":582726,"BUSINESS_TYPE":"Package Goods","LEGAL_NAME":"EUGENE HAMPTON","LONGITUDE":-87.65306067555657},
{"STATE":"IL","ZIP":60622,"LATTITUDE":41.903040338177476,"ADDRESS":"2744 W DIVISION ST  ","YEAR":2005,"DOING_BUSINESS_AS_NAME":"YAUCO","POP_AT_RISK":239048,"BUSINESS_TYPE":"Package Goods","LEGAL_NAME":"YAUCO FOODS INC.","LONGITUDE":-87.69622240403106},
{"STATE":"IL","ZIP":60624,"LATTITUDE":41.87301726926058,"ADDRESS":"616 S PULASKI RD 1ST #","YEAR":2005,"DOING_BUSINESS_AS_NAME":"BIB ENTERPRISES INC","POP_AT_RISK":580215,"BUSINESS_TYPE":"Package Goods","LEGAL_NAME":"BIB ENTERPRISES INC","LONGITUDE":-87.72555236706093},
{"STATE":"IL","ZIP":60617,"LATTITUDE":41.70465581724394,"ADDRESS":"10459 S EWING AVE  FIRST","YEAR":2005,"DOING_BUSINESS_AS_NAME":"EWING LIQUORS","POP_AT_RISK":109765,"BUSINESS_TYPE":"Package Goods","LEGAL_NAME":"EWING LIQUORS, INC.","LONGITUDE":-87.5351381725916},
{"STATE":"IL","ZIP":60612,"LATTITUDE":41.86969675852099,"ADDRESS":"916 S WESTERN AVE  1","YEAR":2005,"DOING_BUSINESS_AS_NAME":"TOP LESS LIQUOR INC","POP_AT_RISK":121196,"BUSINESS_TYPE":"Package Goods","LEGAL_NAME":"TOP-LESS LIQUORS, INC.","LONGITUDE":-87.6862705664506},
{"STATE":"IL","ZIP":60647,"LATTITUDE":41.92476817256731,"ADDRESS":"3402 W FULLERTON AVE 1ST ","YEAR":2005,"DOING_BUSINESS_AS_NAME":"MONEIL FOOD & LIQUOR","POP_AT_RISK":1729442,"BUSINESS_TYPE":"Package Goods","LEGAL_NAME":"JAY KHODIAR CORPORATION","LONGITUDE":-87.7122484231239},
{"STATE":"IL","ZIP":60625,"LATTITUDE":41.96785458744626,"ADDRESS":"4750 N LINCOLN AVE 1ST ","YEAR":2005,"DOING_BUSINESS_AS_NAME":"DELICATESSEN MEYER, INC.","POP_AT_RISK":735064,"BUSINESS_TYPE":"Package Goods","LEGAL_NAME":"DELICATESSEN MEYER, INC.","LONGITUDE":-87.6882379497922},
{"STATE":"IL","ZIP":60626,"LATTITUDE":42.003646528550505,"ADDRESS":"6703 N CLARK ST 1ST ","YEAR":2005,"DOING_BUSINESS_AS_NAME":"EL MEXICANO GROCERY","POP_AT_RISK":247194,"BUSINESS_TYPE":"Package Goods","LEGAL_NAME":"THE UNITED JERICHO, INC.","LONGITUDE":-87.67237255895857},
{"STATE":"IL","ZIP":60619,"LATTITUDE":41.75125884439508,"ADDRESS":"444 E 79TH ST  ","YEAR":2005,"DOING_BUSINESS_AS_NAME":"D J FOODS & LIQUORS","POP_AT_RISK":412907,"BUSINESS_TYPE":"Package Goods","LEGAL_NAME":"D & J FOODS & LIQUORS, INC.","LONGITUDE":-87.61315243647212},
{"STATE":"IL","ZIP":60631,"LATTITUDE":41.9867885856625,"ADDRESS":"8535 W HIGGINS RD  1","YEAR":2005,"DOING_BUSINESS_AS_NAME":"CHICAGO O'HARE MARRIOTT HOTEL","POP_AT_RISK":70592,"BUSINESS_TYPE":"Package Goods","LEGAL_NAME":"MARRIOTT INTERNATIONAL, INC.","LONGITUDE":-87.84012417346162},
{"STATE":"IL","ZIP":60613,"LATTITUDE":41.95409114287415,"ADDRESS":"1829 W IRVING PARK RD  ","YEAR":2005,"DOING_BUSINESS_AS_NAME":"HOUSTON'S LIQUOR & FOODS","POP_AT_RISK":900930,"BUSINESS_TYPE":"Package Goods","LEGAL_NAME":"HOUSTON'S LIQUOR & FOOD STORE, INC.","LONGITUDE":-87.67534122542398},
{}]