[
  {
    "BUSINESS_TYPE": "Peddler, non-food", 
    "LEGAL_NAME": "HOWARD K. KADET", 
    "STATE": "IL", 
    "DOING_BUSINESS_AS_NAME": "HOWARD K. KADET", 
    "POP_AT_RISK": 14869, 
    "ZIP": 60646, 
    "ADDRESS": "6333 N LEONA AVE", 
    "YEAR": 2003, 
    "LONGITUDE": -87.753843753, 
    "LATTITUDE": 41.996910445
  }, 
  {
    "BUSINESS_TYPE": "Peddler, non-food", 
    "LEGAL_NAME": "MARTIN A BUCARO", 
    "STATE": "IL", 
    "DOING_BUSINESS_AS_NAME": "MARTIN A BUCARO", 
    "POP_AT_RISK": 36314, 
    "ZIP": 60646, 
    "ADDRESS": "5849 N NAGLE AVE 2ND", 
    "YEAR": 2003, 
    "LONGITUDE": -87.787502128, 
    "LATTITUDE": 41.987485121
  }, 
  {
    "BUSINESS_TYPE": "Peddler, non-food", 
    "LEGAL_NAME": "AMANDA MOTA", 
    "STATE": "IL", 
    "DOING_BUSINESS_AS_NAME": "AMANDA MOTA", 
    "POP_AT_RISK": 10918, 
    "ZIP": 60617, 
    "ADDRESS": "3700 E 97TH ST 1ST", 
    "YEAR": 2003, 
    "LONGITUDE": -87.534020252, 
    "LATTITUDE": 41.719680488
  }, 
  {
    "BUSINESS_TYPE": "Peddler, non-food", 
    "LEGAL_NAME": "JOSE MANUEL TORRES SR.", 
    "STATE": "IL", 
    "DOING_BUSINESS_AS_NAME": "JOSE M TORRES SR.", 
    "POP_AT_RISK": 15852, 
    "ZIP": 60631, 
    "ADDRESS": "7715 W JARLATH ST", 
    "YEAR": 2003, 
    "LONGITUDE": -87.819487912, 
    "LATTITUDE": 42.012193229
  }, 
  {
    "BUSINESS_TYPE": "Peddler, non-food", 
    "LEGAL_NAME": "AINSWORTH ROSE", 
    "STATE": "IL", 
    "DOING_BUSINESS_AS_NAME": "JAMAICAN ONE MAN BAND", 
    "POP_AT_RISK": 13585, 
    "ZIP": 60655, 
    "ADDRESS": "2525 W 99TH ST", 
    "YEAR": 2003, 
    "LONGITUDE": -87.684998335, 
    "LATTITUDE": 41.713529031
  }, 
  {
    "BUSINESS_TYPE": "Peddler, non-food", 
    "LEGAL_NAME": "DOLORA M. SMITH", 
    "STATE": "IL", 
    "DOING_BUSINESS_AS_NAME": "DOLORA M. SMITH", 
    "POP_AT_RISK": 22463, 
    "ZIP": 60638, 
    "ADDRESS": "6111 W 64TH PL", 
    "YEAR": 2003, 
    "LONGITUDE": -87.774327077, 
    "LATTITUDE": 41.774970592
  }, 
  {
    "BUSINESS_TYPE": "Peddler, non-food", 
    "LEGAL_NAME": "JOHN M.O'LEARY", 
    "STATE": "IL", 
    "DOING_BUSINESS_AS_NAME": "JOHN M.O'LEARY", 
    "POP_AT_RISK": 15437, 
    "ZIP": 60656, 
    "ADDRESS": "4937 N NOTTINGHAM AVE", 
    "YEAR": 2003, 
    "LONGITUDE": -87.803504468, 
    "LATTITUDE": 41.971196939
  }, 
  {
    "BUSINESS_TYPE": "Peddler, non-food", 
    "LEGAL_NAME": "LARRY J. BROGAARD, JR", 
    "STATE": "IL", 
    "DOING_BUSINESS_AS_NAME": "LARRY J. BROGAARD, JR.", 
    "POP_AT_RISK": 19762, 
    "ZIP": 60634, 
    "ADDRESS": "3314 N OZARK AVE", 
    "YEAR": 2003, 
    "LONGITUDE": -87.820413626, 
    "LATTITUDE": 41.940003256
  }
]