[
{"STATE":"IL","ZIP":60638,"LATTITUDE":41.7920723897783,"ADDRESS":"6725 W ARCHER AVE  ","YEAR":2013,"DOING_BUSINESS_AS_NAME":"VIP POODLE SALON","POP_AT_RISK":148075,"BUSINESS_TYPE":"Animal Care Facility","LEGAL_NAME":"MARY JO KRUK","LONGITUDE":-87.79020446550868},
{"STATE":"IL","ZIP":60614,"LATTITUDE":41.91764728810409,"ADDRESS":"1997 N CLYBOURN AVE 1 ","YEAR":2013,"DOING_BUSINESS_AS_NAME":"PAWS CHICAGO","POP_AT_RISK":548490,"BUSINESS_TYPE":"Animal Care Facility","LEGAL_NAME":"PAWS CHICAGO","LONGITUDE":-87.65869131631877},
{"STATE":"IL","ZIP":60631,"LATTITUDE":42.00276925583087,"ADDRESS":"6702 N NORTHWEST HWY 1ST ","YEAR":2013,"DOING_BUSINESS_AS_NAME":"V I P ALBREED GROOMING","POP_AT_RISK":94590,"BUSINESS_TYPE":"Animal Care Facility","LEGAL_NAME":"CAPRICE SMITH","LONGITUDE":-87.81636646266041},
{"STATE":"IL","ZIP":60616,"LATTITUDE":41.85843919371323,"ADDRESS":"1717 S STATE ST  ","YEAR":2013,"DOING_BUSINESS_AS_NAME":"DOGONE FUN INC","POP_AT_RISK":122094,"BUSINESS_TYPE":"Animal Care Facility","LEGAL_NAME":"DOGONE FUN INC","LONGITUDE":-87.62706390230666},
{"STATE":"IL","ZIP":60638,"LATTITUDE":41.777771632322505,"ADDRESS":"5935 W 63RD ST  1","YEAR":2013,"DOING_BUSINESS_AS_NAME":"FEE FEE'S","POP_AT_RISK":56814,"BUSINESS_TYPE":"Animal Care Facility","LEGAL_NAME":"LAURIE BENNETT","LONGITUDE":-87.77048696136391},
{"STATE":"IL","ZIP":60607,"LATTITUDE":41.86888971111206,"ADDRESS":"1101 S CANAL ST  ","YEAR":2013,"DOING_BUSINESS_AS_NAME":"PETSMART","POP_AT_RISK":129912,"BUSINESS_TYPE":"Animal Care Facility","LEGAL_NAME":"PETSMART, INC.","LONGITUDE":-87.63909892808796},
{"STATE":"IL","ZIP":60647,"LATTITUDE":41.93014937988974,"ADDRESS":"2665 N ELSTON AVE  ","YEAR":2013,"DOING_BUSINESS_AS_NAME":"PETSMART #428","POP_AT_RISK":419877,"BUSINESS_TYPE":"Animal Care Facility","LEGAL_NAME":"PETSMART, INC.","LONGITUDE":-87.68464688578122},
{"STATE":"IL","ZIP":60607,"LATTITUDE":41.88621099410984,"ADDRESS":"219 N CARPENTER ST  ","YEAR":2013,"DOING_BUSINESS_AS_NAME":"TUCKER PUPS LLC","POP_AT_RISK":40317,"BUSINESS_TYPE":"Animal Care Facility","LEGAL_NAME":"TUCKER PUPS LLC","LONGITUDE":-87.65317607295003},
{"STATE":"IL","ZIP":60613,"LATTITUDE":41.9540055084986,"ADDRESS":"3945 N SHERIDAN RD 1ST ","YEAR":2013,"DOING_BUSINESS_AS_NAME":"THE HOUNDRYS","POP_AT_RISK":1101425,"BUSINESS_TYPE":"Animal Care Facility","LEGAL_NAME":"SANDRA FERNANDEZ","LONGITUDE":-87.65438451736664},
{"STATE":"IL","ZIP":60646,"LATTITUDE":41.98535719407338,"ADDRESS":"5706 N NORTHWEST HWY 1 1","YEAR":2013,"DOING_BUSINESS_AS_NAME":"KIRBYS","POP_AT_RISK":254198,"BUSINESS_TYPE":"Animal Care Facility","LEGAL_NAME":"JESSICA ABERNATHY","LONGITUDE":-87.78687295943976},
{"STATE":"IL","ZIP":60629,"LATTITUDE":41.77857267592709,"ADDRESS":"3919 W 63RD ST 1ST ","YEAR":2013,"DOING_BUSINESS_AS_NAME":"PET PARADISE GROOMING SALON","POP_AT_RISK":537410,"BUSINESS_TYPE":"Animal Care Facility","LEGAL_NAME":"PET PARADISE INC.","LONGITUDE":-87.72111171936355},
{"STATE":"IL","ZIP":60640,"LATTITUDE":41.97530210542812,"ADDRESS":"1744 W WINONA ST 1ST 1","YEAR":2013,"DOING_BUSINESS_AS_NAME":"BOWWOW LOUNGE LLC","POP_AT_RISK":127064,"BUSINESS_TYPE":"Animal Care Facility","LEGAL_NAME":"BOWWOW LOUNGE, LLC","LONGITUDE":-87.67381914611022},
{"STATE":"IL","ZIP":60618,"LATTITUDE":41.961117505420496,"ADDRESS":"3800 W MONTROSE AVE 1 1","YEAR":2013,"DOING_BUSINESS_AS_NAME":"DIAMOND DOGS, LTD.","POP_AT_RISK":315885,"BUSINESS_TYPE":"Animal Care Facility","LEGAL_NAME":"DIAMOND DOGS, LTD.","LONGITUDE":-87.72299357641774},
{"STATE":"IL","ZIP":60640,"LATTITUDE":41.98184934637018,"ADDRESS":"5505 N CLARK ST 1ST ","YEAR":2013,"DOING_BUSINESS_AS_NAME":"BARK SIDE OF THE MOON","POP_AT_RISK":558936,"BUSINESS_TYPE":"Animal Care Facility","LEGAL_NAME":"JEFFREY WAYNE HALLEAD","LONGITUDE":-87.66830230114387},
{"STATE":"IL","ZIP":60612,"LATTITUDE":41.8842379856099,"ADDRESS":"2916 W LAKE ST  ","YEAR":2013,"DOING_BUSINESS_AS_NAME":"ACTION K-9 SECURITY, INC","POP_AT_RISK":383578,"BUSINESS_TYPE":"Animal Care Facility","LEGAL_NAME":"ACTION K-9 SECURITY, INC","LONGITUDE":-87.69957175448842},
{"STATE":"IL","ZIP":60625,"LATTITUDE":41.968463488354,"ADDRESS":"2559 W LAWRENCE AVE 1 1","YEAR":2013,"DOING_BUSINESS_AS_NAME":"JACK AND GINGER'S DOGCARE, INC.","POP_AT_RISK":506208,"BUSINESS_TYPE":"Animal Care Facility","LEGAL_NAME":"JACK AND GINGER'S DOGCARE, INC.","LONGITUDE":-87.6936605940906},
{"STATE":"IL","ZIP":60614,"LATTITUDE":41.93209585394741,"ADDRESS":"2750 N ASHLAND AVE  ","YEAR":2013,"DOING_BUSINESS_AS_NAME":"FURTASTIK","POP_AT_RISK":135712,"BUSINESS_TYPE":"Animal Care Facility","LEGAL_NAME":"A. I.  INTERNATIONAL COMPANY, INC.","LONGITUDE":-87.66852806873025},
{"STATE":"IL","ZIP":60618,"LATTITUDE":41.95247965581376,"ADDRESS":"3927 N ELSTON AVE 1ST ","YEAR":2013,"DOING_BUSINESS_AS_NAME":"FUZZY DOG DAY CARE","POP_AT_RISK":193389,"BUSINESS_TYPE":"Animal Care Facility","LEGAL_NAME":"A. I.  INTERNATIONAL COMPANY, INC.","LONGITUDE":-87.71716175853965},
{"STATE":"IL","ZIP":60624,"LATTITUDE":41.88995022534283,"ADDRESS":"500 N PULASKI RD 1ST 102","YEAR":2013,"DOING_BUSINESS_AS_NAME":"INTERNATIONAL SCENT SOLUTIONS, LLC","POP_AT_RISK":438300,"BUSINESS_TYPE":"Animal Care Facility","LEGAL_NAME":"INTERNATIONAL SCENT SOLUTIONS, LLC","LONGITUDE":-87.72607520391509},
{"STATE":"IL","ZIP":60612,"LATTITUDE":41.88531386288645,"ADDRESS":"1724 W LAKE ST 1ST ","YEAR":2013,"DOING_BUSINESS_AS_NAME":"CHASING TAILS 4 U PET FITNESS, INC.","POP_AT_RISK":115722,"BUSINESS_TYPE":"Animal Care Facility","LEGAL_NAME":"CHASING TAILS 4 U PET FITNESS, INC.","LONGITUDE":-87.67042684504214},
{"STATE":"IL","ZIP":60610,"LATTITUDE":41.90791055539471,"ADDRESS":"1407 N WELLS ST  GW","YEAR":2013,"DOING_BUSINESS_AS_NAME":"ANIMALSENSE CANINE TRAINING AND BEHAVIOR, INC.","POP_AT_RISK":863660,"BUSINESS_TYPE":"Animal Care Facility","LEGAL_NAME":"ANIMALSENSE CANINE TRAINING AND BEHAVIOR, INC.","LONGITUDE":-87.63446505875015},
{}]