[
{"STATE":"IL","ZIP":60639,"LATTITUDE":41.924273889407615,"ADDRESS":"5018 W FULLERTON AVE  MAIN","YEAR":2013,"DOING_BUSINESS_AS_NAME":"FOUR BOYS LABOR SERVICE","POP_AT_RISK":368200,"BUSINESS_TYPE":"Day Labor Agency","LEGAL_NAME":"SMRJ, INC.","LONGITUDE":-87.752038845423},
{"STATE":"IL","ZIP":60623,"LATTITUDE":41.84403422163486,"ADDRESS":"4333 W 26TH ST  ","YEAR":2013,"DOING_BUSINESS_AS_NAME":"TEMPS PDQ","POP_AT_RISK":45902,"BUSINESS_TYPE":"Day Labor Agency","LEGAL_NAME":"TEMPS  P.D.Q., INC","LONGITUDE":-87.73234207594318},
{"STATE":"IL","ZIP":60623,"LATTITUDE":41.851961641245865,"ADDRESS":"2904 W CERMAK RD  ","YEAR":2013,"DOING_BUSINESS_AS_NAME":"UNITED TEMPS","POP_AT_RISK":203877,"BUSINESS_TYPE":"Day Labor Agency","LEGAL_NAME":"UNITED TEMPS, INC.","LONGITUDE":-87.69941016346398},
{"STATE":"IL","ZIP":60623,"LATTITUDE":41.84242320635649,"ADDRESS":"2700 S LAWNDALE AVE 1ST ","YEAR":2013,"DOING_BUSINESS_AS_NAME":"CUSTOM STAFFING INC","POP_AT_RISK":63898,"BUSINESS_TYPE":"Day Labor Agency","LEGAL_NAME":"CUSTOM STAFFING, INC","LONGITUDE":-87.71732389772104},
{"STATE":"IL","ZIP":60639,"LATTITUDE":41.92600330246242,"ADDRESS":"2451 N PULASKI RD  ","YEAR":2013,"DOING_BUSINESS_AS_NAME":"CUSTOM STAFFING, INC.","POP_AT_RISK":1155300,"BUSINESS_TYPE":"Day Labor Agency","LEGAL_NAME":"CUSTOM STAFFING, INC","LONGITUDE":-87.72666741384603},
{"STATE":"IL","ZIP":60631,"LATTITUDE":41.98121020982407,"ADDRESS":"8430 W BRYN MAWR AVE  250","YEAR":2013,"DOING_BUSINESS_AS_NAME":"FURST STAFFING","POP_AT_RISK":161688,"BUSINESS_TYPE":"Day Labor Agency","LEGAL_NAME":"FURST SERVICES COMPANY","LONGITUDE":-87.83801331542305},
{"STATE":"IL","ZIP":60617,"LATTITUDE":41.70373450399325,"ADDRESS":"10526 S EWING AVE 1ST ","YEAR":2013,"DOING_BUSINESS_AS_NAME":"PRONTO STAFFING SERVICES INC","POP_AT_RISK":109765,"BUSINESS_TYPE":"Day Labor Agency","LEGAL_NAME":"PRONTO STAFFING SERVICES INC","LONGITUDE":-87.53543154188513},
{"STATE":"IL","ZIP":60639,"LATTITUDE":41.931674514756146,"ADDRESS":"4700 W DIVERSEY AVE  ","YEAR":2013,"DOING_BUSINESS_AS_NAME":"RON'S TEMPORARY HELP SERVICES, INC.","POP_AT_RISK":208644,"BUSINESS_TYPE":"Day Labor Agency","LEGAL_NAME":"RON'S TEMPORARY HELP SERVICES, INC.","LONGITUDE":-87.74420824391973},
{"STATE":"IL","ZIP":60608,"LATTITUDE":41.847978844323016,"ADDRESS":"2413 S WESTERN AVE  ","YEAR":2013,"DOING_BUSINESS_AS_NAME":"Ron's Temporary Help Services, Inc.","POP_AT_RISK":43140,"BUSINESS_TYPE":"Day Labor Agency","LEGAL_NAME":"RON'S TEMPORARY HELP SERVICES, INC.","LONGITUDE":-87.68537868303889},
{"STATE":"IL","ZIP":60632,"LATTITUDE":41.80772111499567,"ADDRESS":"4117 W 47TH ST  106","YEAR":2013,"DOING_BUSINESS_AS_NAME":"DEBBIE'S CUSTOMIZED STAFFING","POP_AT_RISK":206046,"BUSINESS_TYPE":"Day Labor Agency","LEGAL_NAME":"DEBBIE'S CUSTOMIZED STAFFING, INCORPORATED","LONGITUDE":-87.72682517366316},
{}]