[
  {
    "BUSINESS_TYPE": "Junk Peddler", 
    "LEGAL_NAME": "CONSTANTINO GUZMAN", 
    "STATE": "IL", 
    "DOING_BUSINESS_AS_NAME": "CONSTANTINO GUZMAN", 
    "POP_AT_RISK": 62109, 
    "ZIP": 60623, 
    "ADDRESS": "2643 S TRUMBULL AVE", 
    "YEAR": 2010, 
    "LONGITUDE": -87.710945878, 
    "LATTITUDE": 41.843153194
  }, 
  {
    "BUSINESS_TYPE": "Junk Peddler", 
    "LEGAL_NAME": "TERENCE TOWAN HARRISON", 
    "STATE": "IL", 
    "DOING_BUSINESS_AS_NAME": "TERENCE TOWAN HARRISON", 
    "POP_AT_RISK": 18937, 
    "ZIP": 60619, 
    "ADDRESS": "9114 S HARPER AVE", 
    "YEAR": 2010, 
    "LONGITUDE": -87.586892612, 
    "LATTITUDE": 41.729090469
  }, 
  {
    "BUSINESS_TYPE": "Junk Peddler", 
    "LEGAL_NAME": "AGUSTIN CORREA", 
    "STATE": "IL", 
    "DOING_BUSINESS_AS_NAME": "AGUSTIN CORREA", 
    "POP_AT_RISK": 67050, 
    "ZIP": 60659, 
    "ADDRESS": "6211 N OAKLEY AVE", 
    "YEAR": 2010, 
    "LONGITUDE": -87.68717843, 
    "LATTITUDE": 41.994510361
  }, 
  {
    "BUSINESS_TYPE": "Junk Peddler", 
    "LEGAL_NAME": "NORMAN JACKSON", 
    "STATE": "IL", 
    "DOING_BUSINESS_AS_NAME": "NORMAN JACKSON", 
    "POP_AT_RISK": 44006, 
    "ZIP": 60620, 
    "ADDRESS": "8120 S LOOMIS BLVD 2ND", 
    "YEAR": 2010, 
    "LONGITUDE": -87.658622142, 
    "LATTITUDE": 41.746127934
  }, 
  {
    "BUSINESS_TYPE": "Junk Peddler", 
    "LEGAL_NAME": "ANNA DZIEDZIC", 
    "STATE": "IL", 
    "DOING_BUSINESS_AS_NAME": "ANNA DZIEDZIC", 
    "POP_AT_RISK": 14302, 
    "ZIP": 60638, 
    "ADDRESS": "5310 S MASSASOIT AVE", 
    "YEAR": 2010, 
    "LONGITUDE": -87.766208648, 
    "LATTITUDE": 41.795998374
  }, 
  {
    "BUSINESS_TYPE": "Junk Peddler", 
    "LEGAL_NAME": "RAUL LEDESMA", 
    "STATE": "IL", 
    "DOING_BUSINESS_AS_NAME": "RAUL'S SCRAP METALS RECYCLING", 
    "POP_AT_RISK": 39016, 
    "ZIP": 60651, 
    "ADDRESS": "5901 W DIVISION ST", 
    "YEAR": 2010, 
    "LONGITUDE": -87.772995744, 
    "LATTITUDE": 41.901923585
  }, 
  {
    "BUSINESS_TYPE": "Junk Peddler", 
    "LEGAL_NAME": "GILBERTO R. RUIZ", 
    "STATE": "IL", 
    "DOING_BUSINESS_AS_NAME": "GILBERTO R. RUIZ", 
    "POP_AT_RISK": 37901, 
    "ZIP": 60609, 
    "ADDRESS": "1221 W 49TH PL 1", 
    "YEAR": 2010, 
    "LONGITUDE": -87.65600313, 
    "LATTITUDE": 41.804059211
  }, 
  {
    "BUSINESS_TYPE": "Junk Peddler", 
    "LEGAL_NAME": "MARCO A. VELA", 
    "STATE": "IL", 
    "DOING_BUSINESS_AS_NAME": "MARCO A. VELA", 
    "POP_AT_RISK": 43630, 
    "ZIP": 60632, 
    "ADDRESS": "3042 W 41ST ST", 
    "YEAR": 2010, 
    "LONGITUDE": -87.701202329, 
    "LATTITUDE": 41.819157414
  }, 
  {
    "BUSINESS_TYPE": "Junk Peddler", 
    "LEGAL_NAME": "ARTURO ASCENCIO", 
    "STATE": "IL", 
    "DOING_BUSINESS_AS_NAME": "ARTURO ASCENCIO", 
    "POP_AT_RISK": 48917, 
    "ZIP": 60612, 
    "ADDRESS": "2556 W SUPERIOR ST 2ND", 
    "YEAR": 2010, 
    "LONGITUDE": -87.691547041, 
    "LATTITUDE": 41.894886506
  }, 
  {
    "BUSINESS_TYPE": "Junk Peddler", 
    "LEGAL_NAME": "ALFREDO GONZALEZ", 
    "STATE": "IL", 
    "DOING_BUSINESS_AS_NAME": "ALFREDO GONZALEZ", 
    "POP_AT_RISK": 53446, 
    "ZIP": 60618, 
    "ADDRESS": "2907 W ROSCOE ST BSMT B", 
    "YEAR": 2010, 
    "LONGITUDE": -87.700857572, 
    "LATTITUDE": 41.942664105
  }, 
  {
    "BUSINESS_TYPE": "Junk Peddler", 
    "LEGAL_NAME": "MACARIO ARREDONDO", 
    "STATE": "IL", 
    "DOING_BUSINESS_AS_NAME": "MACARIO ARREDONDO", 
    "POP_AT_RISK": 53211, 
    "ZIP": 60608, 
    "ADDRESS": "2742 W 23RD ST 1 1", 
    "YEAR": 2010, 
    "LONGITUDE": -87.694669406, 
    "LATTITUDE": 41.850200415
  }, 
  {
    "BUSINESS_TYPE": "Junk Peddler", 
    "LEGAL_NAME": "MARCELINO ROA", 
    "STATE": "IL", 
    "DOING_BUSINESS_AS_NAME": "MARCELINO ROA", 
    "POP_AT_RISK": 44715, 
    "ZIP": 60651, 
    "ADDRESS": "5143 W POTOMAC AVE 1", 
    "YEAR": 2010, 
    "LONGITUDE": -87.755082768, 
    "LATTITUDE": 41.903961135
  }, 
  {
    "BUSINESS_TYPE": "Junk Peddler", 
    "LEGAL_NAME": "CRISTOBAL B. GONZALEZ", 
    "STATE": "IL", 
    "DOING_BUSINESS_AS_NAME": "CRISTOBAL B. GONZALEZ", 
    "POP_AT_RISK": 45576, 
    "ZIP": 60609, 
    "ADDRESS": "4947 S WINCHESTER AVE 2", 
    "YEAR": 2010, 
    "LONGITUDE": -87.673203505, 
    "LATTITUDE": 41.803482574
  }, 
  {
    "BUSINESS_TYPE": "Junk Peddler", 
    "LEGAL_NAME": "ARISTEO NAVARRETE SR.", 
    "STATE": "IL", 
    "DOING_BUSINESS_AS_NAME": "WE COLLECT SCRAP METAL", 
    "POP_AT_RISK": 30396, 
    "ZIP": 60609, 
    "ADDRESS": "3628 S HOYNE AVE", 
    "YEAR": 2010, 
    "LONGITUDE": -87.677795632, 
    "LATTITUDE": 41.827651512
  }, 
  {
    "BUSINESS_TYPE": "Junk Peddler", 
    "LEGAL_NAME": "ALEXANDER GARCIA", 
    "STATE": "IL", 
    "DOING_BUSINESS_AS_NAME": "A1 USED TIRES", 
    "POP_AT_RISK": 49315, 
    "ZIP": 60630, 
    "ADDRESS": "4915 N KEDVALE AVE 1ST", 
    "YEAR": 2010, 
    "LONGITUDE": -87.731647159, 
    "LATTITUDE": 41.970505949
  }, 
  {
    "BUSINESS_TYPE": "Junk Peddler", 
    "LEGAL_NAME": "IGNACIO GONZALEZ", 
    "STATE": "IL", 
    "DOING_BUSINESS_AS_NAME": "IGNACIO GONZALEZ", 
    "POP_AT_RISK": 29979, 
    "ZIP": 60617, 
    "ADDRESS": "8010 S BRANDON AVE", 
    "YEAR": 2010, 
    "LONGITUDE": -87.546945402, 
    "LATTITUDE": 41.749801558
  }, 
  {
    "BUSINESS_TYPE": "Junk Peddler", 
    "LEGAL_NAME": "ABEL APOLINAR", 
    "STATE": "IL", 
    "DOING_BUSINESS_AS_NAME": "ABEL APOLINAR", 
    "POP_AT_RISK": 39954, 
    "ZIP": 60630, 
    "ADDRESS": "4707 N KEATING AVE 1ST", 
    "YEAR": 2010, 
    "LONGITUDE": -87.746340508, 
    "LATTITUDE": 41.966482924
  }, 
  {
    "BUSINESS_TYPE": "Junk Peddler", 
    "LEGAL_NAME": "JOSE JAVIER VILCHIS - RUIZ", 
    "STATE": "IL", 
    "DOING_BUSINESS_AS_NAME": "JOSE JAVIER VILCHIS - RUIZ", 
    "POP_AT_RISK": 73905, 
    "ZIP": 60618, 
    "ADDRESS": "4309 N ALBANY AVE 1 1", 
    "YEAR": 2010, 
    "LONGITUDE": -87.7056089, 
    "LATTITUDE": 41.959701617
  }, 
  {
    "BUSINESS_TYPE": "Junk Peddler", 
    "LEGAL_NAME": "TIMOTEO ROJAS", 
    "STATE": "IL", 
    "DOING_BUSINESS_AS_NAME": "TIMOTEO ROJAS", 
    "POP_AT_RISK": 44620, 
    "ZIP": 60608, 
    "ADDRESS": "1449 W 16TH ST 1 1", 
    "YEAR": 2010, 
    "LONGITUDE": -87.663305016, 
    "LATTITUDE": 41.859545459
  }, 
  {
    "BUSINESS_TYPE": "Junk Peddler", 
    "LEGAL_NAME": "MARIA ZACATENCO", 
    "STATE": "IL", 
    "DOING_BUSINESS_AS_NAME": "MARIA ZACATENCO", 
    "POP_AT_RISK": 48242, 
    "ZIP": 60707, 
    "ADDRESS": "2615 N NEWCASTLE AVE 1ST", 
    "YEAR": 2010, 
    "LONGITUDE": -87.796446448, 
    "LATTITUDE": 41.92771745
  }, 
  {
    "BUSINESS_TYPE": "Junk Peddler", 
    "LEGAL_NAME": "JAMES BRYANT", 
    "STATE": "IL", 
    "DOING_BUSINESS_AS_NAME": "JAMES BRYANT", 
    "POP_AT_RISK": 49726, 
    "ZIP": 60651, 
    "ADDRESS": "935 N HAMLIN AVE 2ND", 
    "YEAR": 2010, 
    "LONGITUDE": -87.721138396, 
    "LATTITUDE": 41.89829414
  }, 
  {
    "BUSINESS_TYPE": "Junk Peddler", 
    "LEGAL_NAME": "SALVADOR FLORES", 
    "STATE": "IL", 
    "DOING_BUSINESS_AS_NAME": "SALVADOR FLORES", 
    "POP_AT_RISK": 21953, 
    "ZIP": 60617, 
    "ADDRESS": "10437 S AVENUE M", 
    "YEAR": 2010, 
    "LONGITUDE": -87.537559463, 
    "LATTITUDE": 41.705285902
  }, 
  {
    "BUSINESS_TYPE": "Junk Peddler", 
    "LEGAL_NAME": "LUIS A AGUILAR", 
    "STATE": "IL", 
    "DOING_BUSINESS_AS_NAME": "LUIS A AGUILAR", 
    "POP_AT_RISK": 44120, 
    "ZIP": 60608, 
    "ADDRESS": "1131 W 17TH ST", 
    "YEAR": 2010, 
    "LONGITUDE": -87.654640708, 
    "LATTITUDE": 41.858775081
  }, 
  {
    "BUSINESS_TYPE": "Junk Peddler", 
    "LEGAL_NAME": "FELIPE FINO", 
    "STATE": "IL", 
    "DOING_BUSINESS_AS_NAME": "FELIPE FINO", 
    "POP_AT_RISK": 55196, 
    "ZIP": 60647, 
    "ADDRESS": "2509 W CORTLAND ST", 
    "YEAR": 2010, 
    "LONGITUDE": -87.690231646, 
    "LATTITUDE": 41.915626655
  }
]