[
{"STATE":"IL","ZIP":60616,"LATTITUDE":41.838011550080296,"ADDRESS":"537 W 31ST ST  ","YEAR":2002,"DOING_BUSINESS_AS_NAME":"ICE","POP_AT_RISK":536316,"BUSINESS_TYPE":"Retail Food Establishment","LEGAL_NAME":"ICE, INC","LONGITUDE":-87.64042421886397},
{"STATE":"IL","ZIP":60630,"LATTITUDE":41.97525809526954,"ADDRESS":"5200 N ELSTON AVE  ","YEAR":2002,"DOING_BUSINESS_AS_NAME":"BERK, INC.","POP_AT_RISK":103290,"BUSINESS_TYPE":"Retail Food Establishment","LEGAL_NAME":"BERK, INC.","LONGITUDE":-87.75199055715778},
{"STATE":"IL","ZIP":60616,"LATTITUDE":41.85294483663146,"ADDRESS":"228-234 W CERMAK RD  ","YEAR":2002,"DOING_BUSINESS_AS_NAME":"Genki Sushi","POP_AT_RISK":82617,"BUSINESS_TYPE":"Retail Food Establishment","LEGAL_NAME":"HEE HA INC","LONGITUDE":-87.6332244476211},
{"STATE":"IL","ZIP":60629,"LATTITUDE":41.77893296761536,"ADDRESS":"3001 W 63RD ST  ","YEAR":2002,"DOING_BUSINESS_AS_NAME":"TASTE OF GREAT","POP_AT_RISK":489752,"BUSINESS_TYPE":"Retail Food Establishment","LEGAL_NAME":"ISHER INC.","LONGITUDE":-87.6983240663863},
{"STATE":"IL","ZIP":60654,"LATTITUDE":41.8880742810662,"ADDRESS":"222 W MERCHANDISE MART PLZ 1ST ","YEAR":2002,"DOING_BUSINESS_AS_NAME":"BANKERS LIFE","POP_AT_RISK":197853,"BUSINESS_TYPE":"Retail Food Establishment","LEGAL_NAME":"CANTEEN CORP","LONGITUDE":-87.63495520292739},
{"STATE":"IL","ZIP":60615,"LATTITUDE":41.7950817700313,"ADDRESS":"1617 E 55TH ST  ","YEAR":2002,"DOING_BUSINESS_AS_NAME":"CAFE SIENA","POP_AT_RISK":644317,"BUSINESS_TYPE":"Retail Food Establishment","LEGAL_NAME":"CAFE SIENA INC","LONGITUDE":-87.58694077019393},
{"STATE":"IL","ZIP":60653,"LATTITUDE":41.80921877834854,"ADDRESS":"225 E 47TH ST  ","YEAR":2002,"DOING_BUSINESS_AS_NAME":"NEW CHINA CAFE","POP_AT_RISK":639084,"BUSINESS_TYPE":"Retail Food Establishment","LEGAL_NAME":"NEW CHINA CAFE","LONGITUDE":-87.62003481112403},
{"STATE":"IL","ZIP":60645,"LATTITUDE":42.00501814636587,"ADDRESS":"2638 W PRATT BLVD  ","YEAR":2002,"DOING_BUSINESS_AS_NAME":"NORIC VENDING","POP_AT_RISK":772296,"BUSINESS_TYPE":"Retail Food Establishment","LEGAL_NAME":"NORMAN L STEIN","LONGITUDE":-87.69649121160431},
{"STATE":"IL","ZIP":60601,"LATTITUDE":41.8846320757672,"ADDRESS":"200 E RANDOLPH ST  ","YEAR":2002,"DOING_BUSINESS_AS_NAME":"GREEN APPLE FRUITS & DRINKS","POP_AT_RISK":159729,"BUSINESS_TYPE":"Retail Food Establishment","LEGAL_NAME":"PHILIP IN SHIN","LONGITUDE":-87.6222479910888},
{"STATE":"IL","ZIP":60625,"LATTITUDE":41.968372953872795,"ADDRESS":"3035 W LAWRENCE AVE  ","YEAR":2002,"DOING_BUSINESS_AS_NAME":"KING FALAFEL INC","POP_AT_RISK":76239,"BUSINESS_TYPE":"Retail Food Establishment","LEGAL_NAME":"KING FALAFEL INC","LONGITUDE":-87.7050251615327},
{"STATE":"IL","ZIP":60640,"LATTITUDE":41.968977954641844,"ADDRESS":"1626 W LAWRENCE AVE  ","YEAR":2002,"DOING_BUSINESS_AS_NAME":"EFRAIN'S BAKERY #2","POP_AT_RISK":1220161,"BUSINESS_TYPE":"Retail Food Establishment","LEGAL_NAME":"LAURIANO E. CAMEY","LONGITUDE":-87.6706078814874},
{"STATE":"IL","ZIP":60620,"LATTITUDE":41.73650528840047,"ADDRESS":"8637 S ASHLAND AVE 1ST ","YEAR":2002,"DOING_BUSINESS_AS_NAME":"MAXWELL'S ON ASHLAND","POP_AT_RISK":142744,"BUSINESS_TYPE":"Retail Food Establishment","LEGAL_NAME":"GKP PROPERTIES INC","LONGITUDE":-87.6629352326755},
{"STATE":"IL","ZIP":60651,"LATTITUDE":41.89530273536019,"ADDRESS":"3801 W CHICAGO AVE  ","YEAR":2002,"DOING_BUSINESS_AS_NAME":"O J's Fish And Chicken","POP_AT_RISK":99204,"BUSINESS_TYPE":"Retail Food Establishment","LEGAL_NAME":"KHALED K ELZAYYATE","LONGITUDE":-87.72125106704621},
{"STATE":"IL","ZIP":60617,"LATTITUDE":41.7420295916715,"ADDRESS":"8450 S COMMERCIAL AVE 1ST ","YEAR":2002,"DOING_BUSINESS_AS_NAME":"HIENIE'S CARRY OUT","POP_AT_RISK":247122,"BUSINESS_TYPE":"Retail Food Establishment","LEGAL_NAME":"ROBERT J MC CARTHY","LONGITUDE":-87.55166462680745},
{"STATE":"IL","ZIP":60622,"LATTITUDE":41.895527077955165,"ADDRESS":"2859 W CHICAGO AVE  ","YEAR":2002,"DOING_BUSINESS_AS_NAME":"LET'S MEX'AN IT","POP_AT_RISK":303416,"BUSINESS_TYPE":"Retail Food Establishment","LEGAL_NAME":"RODOLFO P HERNANDEZ","LONGITUDE":-87.69909818297548},
{"STATE":"IL","ZIP":60625,"LATTITUDE":41.96580456062015,"ADDRESS":"4638 N KEDZIE AVE  ","YEAR":2002,"DOING_BUSINESS_AS_NAME":"NAZARETH SWEETS","POP_AT_RISK":242667,"BUSINESS_TYPE":"Retail Food Establishment","LEGAL_NAME":"NAZARETH SWEETS CORP","LONGITUDE":-87.70854044515234},
{"STATE":"IL","ZIP":60629,"LATTITUDE":41.764801893673564,"ADDRESS":"2408 W 71ST ST  ","YEAR":2002,"DOING_BUSINESS_AS_NAME":"BEST GYROS","POP_AT_RISK":317072,"BUSINESS_TYPE":"Retail Food Establishment","LEGAL_NAME":"BEST GYROS & SUBS INC","LONGITUDE":-87.683647620377},
{"STATE":"IL","ZIP":60652,"LATTITUDE":41.736515082215064,"ADDRESS":"8555 S CICERO AVE  ","YEAR":2002,"DOING_BUSINESS_AS_NAME":"HOME SWEET HOME BAKERY","POP_AT_RISK":119615,"BUSINESS_TYPE":"Retail Food Establishment","LEGAL_NAME":"HOME SWEET HOME BAKERY","LONGITUDE":-87.74078241840255},
{"STATE":"IL","ZIP":60620,"LATTITUDE":41.727041452634225,"ADDRESS":"9149 S ASHLAND AVE  ","YEAR":2002,"DOING_BUSINESS_AS_NAME":"PRINCE ALEXANDER INC","POP_AT_RISK":28167,"BUSINESS_TYPE":"Retail Food Establishment","LEGAL_NAME":"PRINCE ALEXANDER, INC.","LONGITUDE":-87.66266831572061},
{"STATE":"IL","ZIP":60632,"LATTITUDE":41.81634499467931,"ADDRESS":"4225 S KEDZIE AVE 1ST ","YEAR":2002,"DOING_BUSINESS_AS_NAME":"TAQUERIA EL CARMEN INC","POP_AT_RISK":436360,"BUSINESS_TYPE":"Retail Food Establishment","LEGAL_NAME":"TAQUERIA EL CARMEN INC","LONGITUDE":-87.70415361629732},
{"STATE":"IL","ZIP":60056,"LATTITUDE":41.9068028430262,"ADDRESS":"200 E EVERGREEN   1ST","YEAR":2002,"DOING_BUSINESS_AS_NAME":"VENDING CONSULTANTS INC","POP_AT_RISK":754116,"BUSINESS_TYPE":"Retail Food Establishment","LEGAL_NAME":"VENDING CONSULTANTS INC","LONGITUDE":-87.63467124811764},
{"STATE":"IL","ZIP":60643,"LATTITUDE":41.684892605819506,"ADDRESS":"1648 W 115TH ST  ","YEAR":2002,"DOING_BUSINESS_AS_NAME":"BEST BARBECUE","POP_AT_RISK":140922,"BUSINESS_TYPE":"Retail Food Establishment","LEGAL_NAME":"BEST BARBECUE & LIQUOR INC","LONGITUDE":-87.6636402929156},
{"STATE":"IL","ZIP":60624,"LATTITUDE":41.89194263700593,"ADDRESS":"3424 W OHIO ST  ","YEAR":2002,"DOING_BUSINESS_AS_NAME":"CHI-TOWN-FOOD MART","POP_AT_RISK":30413,"BUSINESS_TYPE":"Retail Food Establishment","LEGAL_NAME":"MAJED WARDEH & SAMIH MDAUALEH","LONGITUDE":-87.71248780539938},
{"STATE":"IL","ZIP":60647,"LATTITUDE":41.91811081880893,"ADDRESS":"2011 N DAMEN AVE  STREE","YEAR":2002,"DOING_BUSINESS_AS_NAME":"NICK'S PIT STOP","POP_AT_RISK":1109556,"BUSINESS_TYPE":"Retail Food Establishment","LEGAL_NAME":"NICK'S CHICKEN ON THE GRILL IN","LONGITUDE":-87.67748669726599},
{}]