[
  {
    "BUSINESS_TYPE": "Outdoor Patio", 
    "LEGAL_NAME": "LIQUID WIDGETS, L.L.C.", 
    "STATE": "IL", 
    "DOING_BUSINESS_AS_NAME": "RICKY G'S", 
    "POP_AT_RISK": 53737, 
    "ZIP": 60645, 
    "ADDRESS": "7121 N WESTERN AVE", 
    "YEAR": 2018, 
    "LONGITUDE": -87.690087864, 
    "LATTITUDE": 42.011655182
  }, 
  {
    "BUSINESS_TYPE": "Outdoor Patio", 
    "LEGAL_NAME": "MEXCALTITAN, INC.", 
    "STATE": "IL", 
    "DOING_BUSINESS_AS_NAME": "LAS ISLAS BAR & GRILL", 
    "POP_AT_RISK": 39242, 
    "ZIP": 60707, 
    "ADDRESS": "6560 W FULLERTON AVE", 
    "YEAR": 2018, 
    "LONGITUDE": -87.78988086, 
    "LATTITUDE": 41.923750201
  }, 
  {
    "BUSINESS_TYPE": "Outdoor Patio", 
    "LEGAL_NAME": "GRANAT'S FIRST COUNT, INC.", 
    "STATE": "IL", 
    "DOING_BUSINESS_AS_NAME": "BOBBY G'S", 
    "POP_AT_RISK": 13444, 
    "ZIP": 60638, 
    "ADDRESS": "6843 W ARCHER AVE 1", 
    "YEAR": 2018, 
    "LONGITUDE": -87.793276429, 
    "LATTITUDE": 41.792013747
  }, 
  {
    "BUSINESS_TYPE": "Outdoor Patio", 
    "LEGAL_NAME": "WYLER ROAD INC.", 
    "STATE": "IL", 
    "DOING_BUSINESS_AS_NAME": "WYLER ROAD", 
    "POP_AT_RISK": 74505, 
    "ZIP": 60647, 
    "ADDRESS": "3581 W BELDEN AVE 1", 
    "YEAR": 2018, 
    "LONGITUDE": -87.71685582, 
    "LATTITUDE": 41.922665072
  }, 
  {
    "BUSINESS_TYPE": "Outdoor Patio", 
    "LEGAL_NAME": "2610 RESTAURANT INC.", 
    "STATE": "IL", 
    "DOING_BUSINESS_AS_NAME": "PICCOLO", 
    "POP_AT_RISK": 61951, 
    "ZIP": 60659, 
    "ADDRESS": "2610-2612 W PETERSON AVE", 
    "YEAR": 2018, 
    "LONGITUDE": -87.695051595, 
    "LATTITUDE": 41.990577712
  }, 
  {
    "BUSINESS_TYPE": "Outdoor Patio", 
    "LEGAL_NAME": "COLLETTIS, INC.", 
    "STATE": "IL", 
    "DOING_BUSINESS_AS_NAME": "COLLETTI'S RESTAURANT", 
    "POP_AT_RISK": 30331, 
    "ZIP": 60646, 
    "ADDRESS": "5707 N CENTRAL AVE", 
    "YEAR": 2018, 
    "LONGITUDE": -87.768152962, 
    "LATTITUDE": 41.984988217
  }, 
  {
    "BUSINESS_TYPE": "Outdoor Patio", 
    "LEGAL_NAME": "CERMAK FIELDS LLC", 
    "STATE": "IL", 
    "DOING_BUSINESS_AS_NAME": "CERMAK FRESH MARKET", 
    "POP_AT_RISK": 82344, 
    "ZIP": 60639, 
    "ADDRESS": "4000 W DIVERSEY AVE 1", 
    "YEAR": 2018, 
    "LONGITUDE": -87.72710503, 
    "LATTITUDE": 41.931897723
  }, 
  {
    "BUSINESS_TYPE": "Outdoor Patio", 
    "LEGAL_NAME": "CARNITAS DON RAFA, INC.", 
    "STATE": "IL", 
    "DOING_BUSINESS_AS_NAME": "CARNITAS DON RAFA, INC.", 
    "POP_AT_RISK": 34327, 
    "ZIP": 60632, 
    "ADDRESS": "4597 S ARCHER AVE 1", 
    "YEAR": 2018, 
    "LONGITUDE": -87.71099093, 
    "LATTITUDE": 41.809805615
  }, 
  {
    "BUSINESS_TYPE": "Outdoor Patio", 
    "LEGAL_NAME": "6154 RESTAURANT, INC.", 
    "STATE": "IL", 
    "DOING_BUSINESS_AS_NAME": "THE GARAGE BAR & SANDWICHES", 
    "POP_AT_RISK": 21514, 
    "ZIP": 60646, 
    "ADDRESS": "6154 N MILWAUKEE AVE 1-2", 
    "YEAR": 2018, 
    "LONGITUDE": -87.784434742, 
    "LATTITUDE": 41.993543217
  }, 
  {
    "BUSINESS_TYPE": "Outdoor Patio", 
    "LEGAL_NAME": "SOS SWAGGER LTD.,", 
    "STATE": "IL", 
    "DOING_BUSINESS_AS_NAME": "SWAGGER BAR  & GRILL", 
    "POP_AT_RISK": 29821, 
    "ZIP": 60615, 
    "ADDRESS": "5048-5050 S PRAIRIE AVE 1-2", 
    "YEAR": 2018, 
    "LONGITUDE": -87.619564966, 
    "LATTITUDE": 41.802424928
  }, 
  {
    "BUSINESS_TYPE": "Outdoor Patio", 
    "LEGAL_NAME": "SABU, INC.", 
    "STATE": "IL", 
    "DOING_BUSINESS_AS_NAME": "BEST INTENTIONS", 
    "POP_AT_RISK": 74672, 
    "ZIP": 60647, 
    "ADDRESS": "3281 W ARMITAGE AVE 1", 
    "YEAR": 2018, 
    "LONGITUDE": -87.710206128, 
    "LATTITUDE": 41.917251496
  }, 
  {
    "BUSINESS_TYPE": "Outdoor Patio", 
    "LEGAL_NAME": "EAT-N-PIE, INC.", 
    "STATE": "IL", 
    "DOING_BUSINESS_AS_NAME": "ANGIE'S", 
    "POP_AT_RISK": 27493, 
    "ZIP": 60652, 
    "ADDRESS": "8352 S PULASKI RD", 
    "YEAR": 2018, 
    "LONGITUDE": -87.721773481, 
    "LATTITUDE": 41.740568372
  }, 
  {
    "BUSINESS_TYPE": "Outdoor Patio", 
    "LEGAL_NAME": "LUNA RESTAURANT CORPORATION", 
    "STATE": "IL", 
    "DOING_BUSINESS_AS_NAME": "MARIA'S MEXICAN RESTURANT", 
    "POP_AT_RISK": 14499, 
    "ZIP": 60656, 
    "ADDRESS": "9440 W FOSTER AVE", 
    "YEAR": 2018, 
    "LONGITUDE": -87.863029981, 
    "LATTITUDE": 41.973400958
  }, 
  {
    "BUSINESS_TYPE": "Outdoor Patio", 
    "LEGAL_NAME": "HEARTLAND CAFE LLC", 
    "STATE": "IL", 
    "DOING_BUSINESS_AS_NAME": "HEARTLAND CAFE", 
    "POP_AT_RISK": 51049, 
    "ZIP": 60626, 
    "ADDRESS": "7000 N GLENWOOD AVE 1", 
    "YEAR": 2018, 
    "LONGITUDE": -87.666369399, 
    "LATTITUDE": 42.009176976
  }, 
  {
    "BUSINESS_TYPE": "Outdoor Patio", 
    "LEGAL_NAME": "CITY REFLECTIONS INC", 
    "STATE": "IL", 
    "DOING_BUSINESS_AS_NAME": "CITY REFLECTIONS INC", 
    "POP_AT_RISK": 46193, 
    "ZIP": 60632, 
    "ADDRESS": "4459 S KEDZIE AVE", 
    "YEAR": 2018, 
    "LONGITUDE": -87.703975055, 
    "LATTITUDE": 41.811853275
  }, 
  {
    "BUSINESS_TYPE": "Outdoor Patio", 
    "LEGAL_NAME": "GC PIZZA, INC.", 
    "STATE": "IL", 
    "DOING_BUSINESS_AS_NAME": "GOLDEN CRUST PIZZERIA", 
    "POP_AT_RISK": 84955, 
    "ZIP": 60625, 
    "ADDRESS": "4620 N KEDZIE AVE  1ST", 
    "YEAR": 2018, 
    "LONGITUDE": -87.708525226, 
    "LATTITUDE": 41.965353076
  }, 
  {
    "BUSINESS_TYPE": "Outdoor Patio", 
    "LEGAL_NAME": "POST TIME CATERING, INC.", 
    "STATE": "IL", 
    "DOING_BUSINESS_AS_NAME": "111TH STREET OTB", 
    "POP_AT_RISK": 10503, 
    "ZIP": 60628, 
    "ADDRESS": "11203 S CORLISS AVE 1", 
    "YEAR": 2018, 
    "LONGITUDE": -87.600677902, 
    "LATTITUDE": 41.690742007
  }, 
  {
    "BUSINESS_TYPE": "Outdoor Patio", 
    "LEGAL_NAME": "CASPER INC.", 
    "STATE": "IL", 
    "DOING_BUSINESS_AS_NAME": "RETRO CAFE RESTAURANT", 
    "POP_AT_RISK": 63636, 
    "ZIP": 60634, 
    "ADDRESS": "3246-3248 N CENTRAL AVE 1", 
    "YEAR": 2018, 
    "LONGITUDE": -87.766696606, 
    "LATTITUDE": 41.940000631
  }, 
  {
    "BUSINESS_TYPE": "Outdoor Patio", 
    "LEGAL_NAME": "WHITESTOCK INC", 
    "STATE": "IL", 
    "DOING_BUSINESS_AS_NAME": "SECOND TIME AROUND", 
    "POP_AT_RISK": 12734, 
    "ZIP": 60634, 
    "ADDRESS": "8301-8303 W IRVING PARK RD  GROUN", 
    "YEAR": 2018, 
    "LONGITUDE": -87.8343079, 
    "LATTITUDE": 41.95199012
  }, 
  {
    "BUSINESS_TYPE": "Outdoor Patio", 
    "LEGAL_NAME": "ROUNDY'S ILLINOIS, LLC", 
    "STATE": "IL", 
    "DOING_BUSINESS_AS_NAME": "MARIANO'S #8539", 
    "POP_AT_RISK": 35616, 
    "ZIP": 60653, 
    "ADDRESS": "3857 S DR MARTIN LUTHER KING JR DR 1", 
    "YEAR": 2018, 
    "LONGITUDE": -87.616853891, 
    "LATTITUDE": 41.823983252
  }, 
  {
    "BUSINESS_TYPE": "Outdoor Patio", 
    "LEGAL_NAME": "CPP ENTERPRISES II, INC.", 
    "STATE": "IL", 
    "DOING_BUSINESS_AS_NAME": "DANNY'S PIZZA PLACE", 
    "POP_AT_RISK": 20765, 
    "ZIP": 60638, 
    "ADDRESS": "6021 S ARCHER AVE 1", 
    "YEAR": 2018, 
    "LONGITUDE": -87.767280356, 
    "LATTITUDE": 41.794849958
  }, 
  {
    "BUSINESS_TYPE": "Outdoor Patio", 
    "LEGAL_NAME": "SMALL BATCH, LLC", 
    "STATE": "IL", 
    "DOING_BUSINESS_AS_NAME": "ANTIQUE TACO BRIDGEPORT", 
    "POP_AT_RISK": 41158, 
    "ZIP": 60609, 
    "ADDRESS": "1000 W 35TH ST 1", 
    "YEAR": 2018, 
    "LONGITUDE": -87.651091664, 
    "LATTITUDE": 41.830793576
  }, 
  {
    "BUSINESS_TYPE": "Outdoor Patio", 
    "LEGAL_NAME": "FRANKIE'S PLACE, INC.", 
    "STATE": "IL", 
    "DOING_BUSINESS_AS_NAME": "FRANKIE'S PLACE", 
    "POP_AT_RISK": 60121, 
    "ZIP": 60632, 
    "ADDRESS": "2607 W 47TH ST", 
    "YEAR": 2018, 
    "LONGITUDE": -87.689635534, 
    "LATTITUDE": 41.808244561
  }, 
  {
    "BUSINESS_TYPE": "Outdoor Patio", 
    "LEGAL_NAME": "BILL BABS, INC.", 
    "STATE": "IL", 
    "DOING_BUSINESS_AS_NAME": "KELLY'S TAVERN", 
    "POP_AT_RISK": 20203, 
    "ZIP": 60609, 
    "ADDRESS": "4403 S WALLACE ST 1ST", 
    "YEAR": 2018, 
    "LONGITUDE": -87.640668438, 
    "LATTITUDE": 41.814326117
  }, 
  {
    "BUSINESS_TYPE": "Outdoor Patio", 
    "LEGAL_NAME": "DAMENZO'S, INC.", 
    "STATE": "IL", 
    "DOING_BUSINESS_AS_NAME": "DAMENZO'S INC", 
    "POP_AT_RISK": 31436, 
    "ZIP": 60612, 
    "ADDRESS": "2322-2324 W TAYLOR ST", 
    "YEAR": 2018, 
    "LONGITUDE": -87.684583758, 
    "LATTITUDE": 41.869107738
  }, 
  {
    "BUSINESS_TYPE": "Outdoor Patio", 
    "LEGAL_NAME": "BL RESTAURANT OPERATIONS, LLC", 
    "STATE": "IL", 
    "DOING_BUSINESS_AS_NAME": "BAR LOUIE", 
    "POP_AT_RISK": 27340, 
    "ZIP": 60637, 
    "ADDRESS": "5500 S SHORE DR 1ST", 
    "YEAR": 2018, 
    "LONGITUDE": -87.580597772, 
    "LATTITUDE": 41.795185016
  }, 
  {
    "BUSINESS_TYPE": "Outdoor Patio", 
    "LEGAL_NAME": "Chicago Pizza Department Corp.", 
    "STATE": "IL", 
    "DOING_BUSINESS_AS_NAME": "Cork And Kerry", 
    "POP_AT_RISK": 21523, 
    "ZIP": 60643, 
    "ADDRESS": "10612-10614 S WESTERN AVE 1", 
    "YEAR": 2018, 
    "LONGITUDE": -87.681579292, 
    "LATTITUDE": 41.700471774
  }, 
  {
    "BUSINESS_TYPE": "Outdoor Patio", 
    "LEGAL_NAME": "B - J RESTAURANTS, INC.", 
    "STATE": "IL", 
    "DOING_BUSINESS_AS_NAME": "DINO'S PIZZA", 
    "POP_AT_RISK": 24680, 
    "ZIP": 60656, 
    "ADDRESS": "7004-7006 W HIGGINS AVE 1ST #", 
    "YEAR": 2018, 
    "LONGITUDE": -87.802542353, 
    "LATTITUDE": 41.980268752
  }, 
  {
    "BUSINESS_TYPE": "Outdoor Patio", 
    "LEGAL_NAME": "TRATTORIA, INC.", 
    "STATE": "IL", 
    "DOING_BUSINESS_AS_NAME": "RISTORANTE AGOSTINO", 
    "POP_AT_RISK": 30226, 
    "ZIP": 60707, 
    "ADDRESS": "2817 N HARLEM AVE 1ST", 
    "YEAR": 2018, 
    "LONGITUDE": -87.806366763, 
    "LATTITUDE": 41.931339545
  }, 
  {
    "BUSINESS_TYPE": "Outdoor Patio", 
    "LEGAL_NAME": "BON APPETIT MANAGEMENT CO.", 
    "STATE": "IL", 
    "DOING_BUSINESS_AS_NAME": "CAFE LOGAN", 
    "POP_AT_RISK": 38191, 
    "ZIP": 60637, 
    "ADDRESS": "915 E 60TH ST 1", 
    "YEAR": 2018, 
    "LONGITUDE": -87.603744686, 
    "LATTITUDE": 41.785790958
  }, 
  {
    "BUSINESS_TYPE": "Outdoor Patio", 
    "LEGAL_NAME": "CHIPOTLE MEXICAN GRILL, INC.", 
    "STATE": "IL", 
    "DOING_BUSINESS_AS_NAME": "CHIPOTLE MEXICAN GRILL #2796", 
    "POP_AT_RISK": 16758, 
    "ZIP": 60652, 
    "ADDRESS": "7561 S CICERO AVE", 
    "YEAR": 2018, 
    "LONGITUDE": -87.741392427, 
    "LATTITUDE": 41.754871852
  }
]