[
  {
    "BUSINESS_TYPE": "Massage Therapist", 
    "LEGAL_NAME": "DURON WISE-ARMOUR", 
    "STATE": "IL", 
    "DOING_BUSINESS_AS_NAME": "DURON WISE-ARMOUR", 
    "POP_AT_RISK": 19772, 
    "ZIP": 60643, 
    "ADDRESS": "2039 W 95TH ST  REAR", 
    "YEAR": 2004, 
    "LONGITUDE": -87.673946223, 
    "LATTITUDE": 41.720945958
  }, 
  {
    "BUSINESS_TYPE": "Massage Therapist", 
    "LEGAL_NAME": "OJILVIA AGUIRRE", 
    "STATE": "IL", 
    "DOING_BUSINESS_AS_NAME": "OJILVIA AGUIRRE", 
    "POP_AT_RISK": 55261, 
    "ZIP": 60632, 
    "ADDRESS": "5363 S MAPLEWOOD AVE", 
    "YEAR": 2004, 
    "LONGITUDE": -87.687606668, 
    "LATTITUDE": 41.795620923
  }, 
  {
    "BUSINESS_TYPE": "Massage Therapist", 
    "LEGAL_NAME": "NINA SMOLYAR", 
    "STATE": "IL", 
    "DOING_BUSINESS_AS_NAME": "NINA SMOLYAR", 
    "POP_AT_RISK": 35448, 
    "ZIP": 60025, 
    "ADDRESS": "3014  LEXINGTON LN  CONDO", 
    "YEAR": 2004, 
    "LONGITUDE": -87.701610311, 
    "LATTITUDE": 41.872019743
  }, 
  {
    "BUSINESS_TYPE": "Massage Therapist", 
    "LEGAL_NAME": "EDITH PEREZ", 
    "STATE": "IL", 
    "DOING_BUSINESS_AS_NAME": "EDITH PEREZ", 
    "POP_AT_RISK": 45493, 
    "ZIP": 60632, 
    "ADDRESS": "4000 S ROCKWELL ST", 
    "YEAR": 2004, 
    "LONGITUDE": -87.689826892, 
    "LATTITUDE": 41.820991803
  }, 
  {
    "BUSINESS_TYPE": "Massage Therapist", 
    "LEGAL_NAME": "GUSSIE  BRIDGEMAN", 
    "STATE": "IL", 
    "DOING_BUSINESS_AS_NAME": "GUSSIE    BRIDGEMAN", 
    "POP_AT_RISK": 25432, 
    "ZIP": 60628, 
    "ADDRESS": "9956 S LOWE AVE", 
    "YEAR": 2004, 
    "LONGITUDE": -87.639489059, 
    "LATTITUDE": 41.712577033
  }, 
  {
    "BUSINESS_TYPE": "Massage Therapist", 
    "LEGAL_NAME": "BEATA BAK", 
    "STATE": "IL", 
    "DOING_BUSINESS_AS_NAME": "BEATA BAK", 
    "POP_AT_RISK": 29862, 
    "ZIP": 60632, 
    "ADDRESS": "4818 S KILDARE AVE", 
    "YEAR": 2004, 
    "LONGITUDE": -87.731005331, 
    "LATTITUDE": 41.805347057
  }, 
  {
    "BUSINESS_TYPE": "Massage Therapist", 
    "LEGAL_NAME": "GABRIELA H. LOPEZ", 
    "STATE": "IL", 
    "DOING_BUSINESS_AS_NAME": "GABRIELA H. LOPEZ", 
    "POP_AT_RISK": 38502, 
    "ZIP": 60609, 
    "ADDRESS": "5032 S ASHLAND AVE", 
    "YEAR": 2004, 
    "LONGITUDE": -87.66494193, 
    "LATTITUDE": 41.802142459
  }, 
  {
    "BUSINESS_TYPE": "Massage Therapist", 
    "LEGAL_NAME": "DANGUOLE VILKIENE", 
    "STATE": "IL", 
    "DOING_BUSINESS_AS_NAME": "DANGUOLE VILKIENE", 
    "POP_AT_RISK": 28456, 
    "ZIP": 60559, 
    "ADDRESS": "604 W 65TH ST  1", 
    "YEAR": 2004, 
    "LONGITUDE": -87.63997959, 
    "LATTITUDE": 41.776281618
  }, 
  {
    "BUSINESS_TYPE": "Massage Therapist", 
    "LEGAL_NAME": "TINA ADDISON", 
    "STATE": "IN", 
    "DOING_BUSINESS_AS_NAME": "TINA ADDISON", 
    "POP_AT_RISK": 27493, 
    "ZIP": 46410, 
    "ADDRESS": "3942 W 79TH CT  30", 
    "YEAR": 2004, 
    "LONGITUDE": -87.721836296, 
    "LATTITUDE": 41.749681441
  }, 
  {
    "BUSINESS_TYPE": "Massage Therapist", 
    "LEGAL_NAME": "MAISHA  L GILBERT", 
    "STATE": "IL", 
    "DOING_BUSINESS_AS_NAME": "MAISHA  L  GILBERT", 
    "POP_AT_RISK": 23425, 
    "ZIP": 60652, 
    "ADDRESS": "2829 W 83RD PL", 
    "YEAR": 2004, 
    "LONGITUDE": -87.693595449, 
    "LATTITUDE": 41.741667161
  }, 
  {
    "BUSINESS_TYPE": "Massage Therapist", 
    "LEGAL_NAME": "VALERIE JEAN DAVIS", 
    "STATE": "IL", 
    "DOING_BUSINESS_AS_NAME": "VALERIE DAVIS", 
    "POP_AT_RISK": 46033, 
    "ZIP": 60620, 
    "ADDRESS": "7738 S BISHOP ST  1ST", 
    "YEAR": 2004, 
    "LONGITUDE": -87.660408583, 
    "LATTITUDE": 41.752875547
  }, 
  {
    "BUSINESS_TYPE": "Massage Therapist", 
    "LEGAL_NAME": "NKEM E. UWAGBOI", 
    "STATE": "IL", 
    "DOING_BUSINESS_AS_NAME": "NKEM UWAGBOI", 
    "POP_AT_RISK": 32160, 
    "ZIP": 60617, 
    "ADDRESS": "8513 S ESCANABA AVE  2N", 
    "YEAR": 2004, 
    "LONGITUDE": -87.553771617, 
    "LATTITUDE": 41.740559405
  }, 
  {
    "BUSINESS_TYPE": "Massage Therapist", 
    "LEGAL_NAME": "MARILYN G HENRY", 
    "STATE": "IL", 
    "DOING_BUSINESS_AS_NAME": "MARILYN G HENRY", 
    "POP_AT_RISK": 14869, 
    "ZIP": 60646, 
    "ADDRESS": "6338 N LENOX AVE 1ST", 
    "YEAR": 2004, 
    "LONGITUDE": -87.753023117, 
    "LATTITUDE": 41.996504621
  }, 
  {
    "BUSINESS_TYPE": "Massage Therapist", 
    "LEGAL_NAME": "NERISSA L. SMITH", 
    "STATE": "IL", 
    "DOING_BUSINESS_AS_NAME": "NERISSA L. SMITH", 
    "POP_AT_RISK": 45806, 
    "ZIP": 60651, 
    "ADDRESS": "1225 N MENARD AVE", 
    "YEAR": 2004, 
    "LONGITUDE": -87.770387337, 
    "LATTITUDE": 41.902839483
  }, 
  {
    "BUSINESS_TYPE": "Massage Therapist", 
    "LEGAL_NAME": "TAMMY LYNN SMITH", 
    "STATE": "IL", 
    "DOING_BUSINESS_AS_NAME": "TAMMY LYNN SMITH", 
    "POP_AT_RISK": 26262, 
    "ZIP": 60415, 
    "ADDRESS": "10500  FOREST LN", 
    "YEAR": 2004, 
    "LONGITUDE": -87.616249896, 
    "LATTITUDE": 41.703534753
  }, 
  {
    "BUSINESS_TYPE": "Massage Therapist", 
    "LEGAL_NAME": "ZBIGNIEW CHUCHRA", 
    "STATE": "IL", 
    "DOING_BUSINESS_AS_NAME": "ZBIGNIEW CHUCHRA", 
    "POP_AT_RISK": 30221, 
    "ZIP": 60632, 
    "ADDRESS": "3847 W 47TH ST", 
    "YEAR": 2004, 
    "LONGITUDE": -87.720546079, 
    "LATTITUDE": 41.807798847
  }, 
  {
    "BUSINESS_TYPE": "Massage Therapist", 
    "LEGAL_NAME": "PATRICIA BERNADETTE SWISTOWICZ", 
    "STATE": "IL", 
    "DOING_BUSINESS_AS_NAME": "PATRICIA SWISTOWICZ", 
    "POP_AT_RISK": 15425, 
    "ZIP": 60655, 
    "ADDRESS": "11450 S DRAKE AVE", 
    "YEAR": 2004, 
    "LONGITUDE": -87.709268167, 
    "LATTITUDE": 41.685148845
  }, 
  {
    "BUSINESS_TYPE": "Massage Therapist", 
    "LEGAL_NAME": "KAROLINA S. KUZIEL", 
    "STATE": "IL", 
    "DOING_BUSINESS_AS_NAME": "KAROLINA S. KUZIEL", 
    "POP_AT_RISK": 35816, 
    "ZIP": 60629, 
    "ADDRESS": "6054 S KOLMAR AVE", 
    "YEAR": 2004, 
    "LONGITUDE": -87.736452825, 
    "LATTITUDE": 41.78235085
  }, 
  {
    "BUSINESS_TYPE": "Massage Therapist", 
    "LEGAL_NAME": "ANDREA V JACKSON", 
    "STATE": "IL", 
    "DOING_BUSINESS_AS_NAME": "ANDREA V JACKSON", 
    "POP_AT_RISK": 58113, 
    "ZIP": 60651, 
    "ADDRESS": "1149 N KEYSTONE AVE", 
    "YEAR": 2004, 
    "LONGITUDE": -87.72737342, 
    "LATTITUDE": 41.902328547
  }, 
  {
    "BUSINESS_TYPE": "Massage Therapist", 
    "LEGAL_NAME": "CYNTHIA C MACK", 
    "STATE": "IL", 
    "DOING_BUSINESS_AS_NAME": "CYNTHIA C MACK", 
    "POP_AT_RISK": 40261, 
    "ZIP": 60624, 
    "ADDRESS": "4437 W WEST END AVE  1ST", 
    "YEAR": 2004, 
    "LONGITUDE": -87.737083485, 
    "LATTITUDE": 41.883117269
  }, 
  {
    "BUSINESS_TYPE": "Massage Therapist", 
    "LEGAL_NAME": "FELIX CRESPO JR.", 
    "STATE": "IL", 
    "DOING_BUSINESS_AS_NAME": "FELIX CRESPO JR", 
    "POP_AT_RISK": 38492, 
    "ZIP": 60624, 
    "ADDRESS": "3708 W FERDINAND ST # 2", 
    "YEAR": 2004, 
    "LONGITUDE": -87.719024777, 
    "LATTITUDE": 41.890028851
  }, 
  {
    "BUSINESS_TYPE": "Massage Therapist", 
    "LEGAL_NAME": "ELIZABETH JACKSON- DISMUKE", 
    "STATE": "IL", 
    "DOING_BUSINESS_AS_NAME": "ELIZABETH JACKSON- DISMUKE", 
    "POP_AT_RISK": 18730, 
    "ZIP": 60628, 
    "ADDRESS": "12630 S EDBROOKE AVE", 
    "YEAR": 2004, 
    "LONGITUDE": -87.618851763, 
    "LATTITUDE": 41.664098577
  }
]