[
{"STATE":"IL","ZIP":60652,"LATTITUDE":41.74526448928806,"ADDRESS":"8128 S KEDZIE AVE  ","YEAR":2008,"DOING_BUSINESS_AS_NAME":"THE LEARNING TREE PRE-SCHOOL","POP_AT_RISK":23425,"BUSINESS_TYPE":"Night Care Privilege","LEGAL_NAME":"NIA LTD","LONGITUDE":-87.70241488959012},
{"STATE":"IL","ZIP":60637,"LATTITUDE":41.783980381245314,"ADDRESS":"362-364 E 61ST ST  ","YEAR":2008,"DOING_BUSINESS_AS_NAME":"KIDS COUNT TOO DAYCARE","POP_AT_RISK":498420,"BUSINESS_TYPE":"Night Care Privilege","LEGAL_NAME":"VERONICA CLARK","LONGITUDE":-87.61646586717478},
{"STATE":"IL","ZIP":60613,"LATTITUDE":41.95880408212383,"ADDRESS":"4214  -4220 N BROADWAY  1ST ","YEAR":2008,"DOING_BUSINESS_AS_NAME":"A STEP AHEAD LEARNING CENTER","POP_AT_RISK":1002302,"BUSINESS_TYPE":"Night Care Privilege","LEGAL_NAME":"CARING HANDS, INC.","LONGITUDE":-87.65342019040853},
{"STATE":"IL","ZIP":60620,"LATTITUDE":41.756681702982,"ADDRESS":"7538 S HALSTED ST  ","YEAR":2008,"DOING_BUSINESS_AS_NAME":"KIDS R FIRST LEARNING CENTER","POP_AT_RISK":37988,"BUSINESS_TYPE":"Night Care Privilege","LEGAL_NAME":"PEYTYN D. WILLBORN","LONGITUDE":-87.64434492550367},
{"STATE":"IL","ZIP":60640,"LATTITUDE":41.97250505625872,"ADDRESS":"1333 W ARGYLE ST GROUND ","YEAR":2008,"DOING_BUSINESS_AS_NAME":"ST AUGUSTINE COLLEGE CANILLITA","POP_AT_RISK":910988,"BUSINESS_TYPE":"Night Care Privilege","LEGAL_NAME":"ST. AUGUSTINE COLLEGE","LONGITUDE":-87.66353663585565},
{"STATE":"IL","ZIP":60649,"LATTITUDE":41.75908547586528,"ADDRESS":"2334 E 75TH ST  ","YEAR":2008,"DOING_BUSINESS_AS_NAME":"KENYATTA'S DAYCARE","POP_AT_RISK":559429,"BUSINESS_TYPE":"Night Care Privilege","LEGAL_NAME":"KENYATTA DAYCARE CENTER","LONGITUDE":-87.56744784945764},
{"STATE":"IL","ZIP":60643,"LATTITUDE":41.721409457750035,"ADDRESS":"1318 W 95TH ST  ","YEAR":2008,"DOING_BUSINESS_AS_NAME":"THE KIDS PLACE II, INC","POP_AT_RISK":52888,"BUSINESS_TYPE":"Night Care Privilege","LEGAL_NAME":"THE KIDS PLACE II, INC.","LONGITUDE":-87.65620011485993},
{"STATE":"IL","ZIP":60628,"LATTITUDE":41.71235734507338,"ADDRESS":"708 E 100TH PL 1ST ","YEAR":2008,"DOING_BUSINESS_AS_NAME":"LONDON BRIDGES PRE-SCHOOL","POP_AT_RISK":18053,"BUSINESS_TYPE":"Night Care Privilege","LEGAL_NAME":"LONDON BRIDGES PRE-SCHOOL","LONGITUDE":-87.60476353346552},
{"STATE":"IL","ZIP":60628,"LATTITUDE":41.677862591235005,"ADDRESS":"157 W 119TH ST  ","YEAR":2008,"DOING_BUSINESS_AS_NAME":"GRANNY'S DAYCARE CENTER","POP_AT_RISK":208480,"BUSINESS_TYPE":"Night Care Privilege","LEGAL_NAME":"GRANNY'S DAYCARE CENTER, INC.","LONGITUDE":-87.6274010069214},
{"STATE":"IL","ZIP":60619,"LATTITUDE":41.73666986650331,"ADDRESS":"532-534 E 87TH ST  ","YEAR":2008,"DOING_BUSINESS_AS_NAME":"CHICAGO PRESCHOOL ACADEMY","POP_AT_RISK":101196,"BUSINESS_TYPE":"Night Care Privilege","LEGAL_NAME":"CHICAGO PRESCHOOL ACADEMY, INC.","LONGITUDE":-87.61074798462452},
{"STATE":"IL","ZIP":60707,"LATTITUDE":41.912443890238045,"ADDRESS":"1759 N HARLEM AVE  ","YEAR":2008,"DOING_BUSINESS_AS_NAME":"GOOD HANDS DAY CARE INCORPORATED","POP_AT_RISK":88820,"BUSINESS_TYPE":"Night Care Privilege","LEGAL_NAME":"GOOD HANDS DAY CARE INCORPORATED","LONGITUDE":-87.80574099458855},
{"STATE":"IL","ZIP":60619,"LATTITUDE":41.73185210877984,"ADDRESS":"8938-8940 S COTTAGE GROVE AVE  ","YEAR":2008,"DOING_BUSINESS_AS_NAME":"TOTS EXPRESS  LEARNING CENTER","POP_AT_RISK":45732,"BUSINESS_TYPE":"Night Care Privilege","LEGAL_NAME":"TOTS EXPRESS LEARNING CENTER NFP","LONGITUDE":-87.60485274319225},
{"STATE":"IL","ZIP":60620,"LATTITUDE":41.72933663322672,"ADDRESS":"9040 S VINCENNES AVE 1ST ","YEAR":2008,"DOING_BUSINESS_AS_NAME":"KIDS R FIRST LEARNING CENTER","POP_AT_RISK":167465,"BUSINESS_TYPE":"Night Care Privilege","LEGAL_NAME":"KIDS R FIRST LEARNING CENTER, INC.","LONGITUDE":-87.64786961995537},
{"STATE":"IL","ZIP":60652,"LATTITUDE":41.749914910076974,"ADDRESS":"3344 W 79TH ST 1 ","YEAR":2008,"DOING_BUSINESS_AS_NAME":"LORDANCHILD CHRISTIAN DAY CARE INC.","POP_AT_RISK":67080,"BUSINESS_TYPE":"Night Care Privilege","LEGAL_NAME":"LORDANCHILD CHRISTIAN DAY CARE INC.","LONGITUDE":-87.7066283407442},
{"STATE":"IL","ZIP":60623,"LATTITUDE":41.855378986280684,"ADDRESS":"2929 W 19TH ST  ","YEAR":2008,"DOING_BUSINESS_AS_NAME":"Carole Robertson Center for Learning","POP_AT_RISK":834649,"BUSINESS_TYPE":"Night Care Privilege","LEGAL_NAME":"CAROLE ROBERTSON CENTER FOR LEARNING","LONGITUDE":-87.70040521997677},
{"STATE":"IL","ZIP":60651,"LATTITUDE":41.902779671122865,"ADDRESS":"4000 W DIVISION ST  ","YEAR":2008,"DOING_BUSINESS_AS_NAME":"IT TAKES A VILLAGE CHILD","POP_AT_RISK":883830,"BUSINESS_TYPE":"Night Care Privilege","LEGAL_NAME":"IT TAKES A VILLAGE CHILD CARE SERVICES, INCORPORATED.","LONGITUDE":-87.72636902689327},
{"STATE":"IL","ZIP":60605,"LATTITUDE":41.86945883538021,"ADDRESS":"1020 S WABASH AVE # 100","YEAR":2008,"DOING_BUSINESS_AS_NAME":"A CHILD'S SPACE EARLY LITERACY AND LEARNING CENTER, INC.","POP_AT_RISK":306887,"BUSINESS_TYPE":"Night Care Privilege","LEGAL_NAME":"A CHILD'S SPACE EARLY LITERACY AND LEARNING CENTER, INC.","LONGITUDE":-87.62602744550121},
{}]