[
{"STATE":"IL","ZIP":60707,"LATTITUDE":41.928777768092374,"ADDRESS":"2653 N NEW ENGLAND AVE  ","YEAR":2013,"DOING_BUSINESS_AS_NAME":"OMAR POMPA","POP_AT_RISK":155037,"BUSINESS_TYPE":"Peddler, food (fruits and vegtables only)","LEGAL_NAME":"OMAR POMPA","LONGITUDE":-87.79769792589542},
{"STATE":"IL","ZIP":60647,"LATTITUDE":41.914409607489965,"ADDRESS":"1814 N TALMAN AVE 1 1","YEAR":2013,"DOING_BUSINESS_AS_NAME":"TOMAS VELA","POP_AT_RISK":916888,"BUSINESS_TYPE":"Peddler, food (fruits and vegtables only)","LEGAL_NAME":"TOMAS VELA","LONGITUDE":-87.69358630894587},
{"STATE":"IL","ZIP":60612,"LATTITUDE":41.87199374672571,"ADDRESS":"3120 W LEXINGTON ST 1 1","YEAR":2013,"DOING_BUSINESS_AS_NAME":"MACK MCNEIL","POP_AT_RISK":34788,"BUSINESS_TYPE":"Peddler, food (fruits and vegtables only)","LEGAL_NAME":"MACK MCNEIL","LONGITUDE":-87.70428814811154},
{"STATE":"IL","ZIP":60612,"LATTITUDE":41.881881738455725,"ADDRESS":"2803 W WARREN BLVD  ","YEAR":2013,"DOING_BUSINESS_AS_NAME":"CRAIG OUSLEY","POP_AT_RISK":214056,"BUSINESS_TYPE":"Peddler, food (fruits and vegtables only)","LEGAL_NAME":"CRAIG OUSLEY","LONGITUDE":-87.69650459063416},
{"STATE":"IL","ZIP":60609,"LATTITUDE":41.807662005385204,"ADDRESS":"4734 S ELIZABETH ST  ","YEAR":2013,"DOING_BUSINESS_AS_NAME":"DAVID ENCISO","POP_AT_RISK":94659,"BUSINESS_TYPE":"Peddler, food (fruits and vegtables only)","LEGAL_NAME":"DAVID ENCISO","LONGITUDE":-87.65657992801899},
{"STATE":"IL","ZIP":60636,"LATTITUDE":41.77281352221845,"ADDRESS":"6636 S WOLCOTT AVE  ","YEAR":2013,"DOING_BUSINESS_AS_NAME":"DEWAYNE CARR","POP_AT_RISK":115340,"BUSINESS_TYPE":"Peddler, food (fruits and vegtables only)","LEGAL_NAME":"DEWAYNE CARR","LONGITUDE":-87.67146691743494},
{"STATE":"IL","ZIP":60601,"LATTITUDE":41.884750538499375,"ADDRESS":"155 N HARBOR DR 42ND 4210","YEAR":2013,"DOING_BUSINESS_AS_NAME":"DAVID T MAHER","POP_AT_RISK":556963,"BUSINESS_TYPE":"Peddler, food (fruits and vegtables only)","LEGAL_NAME":"DAVID T MAHER","LONGITUDE":-87.61560395647253},
{"STATE":"IL","ZIP":60632,"LATTITUDE":41.79534644189283,"ADDRESS":"3452 W 54TH ST  ","YEAR":2013,"DOING_BUSINESS_AS_NAME":"GRISELDA SOTO","POP_AT_RISK":153318,"BUSINESS_TYPE":"Peddler, food (fruits and vegtables only)","LEGAL_NAME":"GRISELDA SOTO","LONGITUDE":-87.71060367978608},
{"STATE":"IL","ZIP":60628,"LATTITUDE":41.696457930814795,"ADDRESS":"310 E 109TH ST  ","YEAR":2013,"DOING_BUSINESS_AS_NAME":"LOREATHA CURB","POP_AT_RISK":27729,"BUSINESS_TYPE":"Peddler, food (fruits and vegtables only)","LEGAL_NAME":"LOREATHA CURB","LONGITUDE":-87.61538960165159},
{"STATE":"IL","ZIP":60618,"LATTITUDE":41.95002031343088,"ADDRESS":"3744 N DAMEN AVE  ","YEAR":2013,"DOING_BUSINESS_AS_NAME":"PEDRO HAISLER","POP_AT_RISK":939182,"BUSINESS_TYPE":"Peddler, food (fruits and vegtables only)","LEGAL_NAME":"PEDRO HAISLER","LONGITUDE":-87.67878756024841},
{"STATE":"IL","ZIP":60637,"LATTITUDE":41.773618654616996,"ADDRESS":"6642 S CHAMPLAIN AVE  ","YEAR":2013,"DOING_BUSINESS_AS_NAME":"GREGORY WAGNER","POP_AT_RISK":76592,"BUSINESS_TYPE":"Peddler, food (fruits and vegtables only)","LEGAL_NAME":"GREGORY WAGNER","LONGITUDE":-87.60957726746145},
{"STATE":"IL","ZIP":60651,"LATTITUDE":41.909114036109784,"ADDRESS":"1549 N LATROBE AVE  ","YEAR":2013,"DOING_BUSINESS_AS_NAME":"KEMEANA HOWARD","POP_AT_RISK":51074,"BUSINESS_TYPE":"Peddler, food (fruits and vegtables only)","LEGAL_NAME":"KEMEANA HOWARD","LONGITUDE":-87.75703578621439},
{"STATE":"IL","ZIP":60619,"LATTITUDE":41.72760774190779,"ADDRESS":"9153 S LANGLEY AVE  ","YEAR":2013,"DOING_BUSINESS_AS_NAME":"LAKEVIA TAYLOR","POP_AT_RISK":47758,"BUSINESS_TYPE":"Peddler, food (fruits and vegtables only)","LEGAL_NAME":"LAKEVIA TAYLOR","LONGITUDE":-87.60688259824913},
{"STATE":"IL","ZIP":60628,"LATTITUDE":41.70260800479825,"ADDRESS":"340 W 105TH PL  ","YEAR":2013,"DOING_BUSINESS_AS_NAME":"LAMONTE PAYTON","POP_AT_RISK":33872,"BUSINESS_TYPE":"Peddler, food (fruits and vegtables only)","LEGAL_NAME":"LAMONTE PAYTON","LONGITUDE":-87.63221429960814},
{"STATE":"IL","ZIP":60617,"LATTITUDE":41.695863119021226,"ADDRESS":"10946 S AVENUE C  1 1","YEAR":2013,"DOING_BUSINESS_AS_NAME":"VERONICA LEYVA","POP_AT_RISK":68600,"BUSINESS_TYPE":"Peddler, food (fruits and vegtables only)","LEGAL_NAME":"VERONICA LEYVA","LONGITUDE":-87.52716006168079},
{"STATE":"IL","ZIP":60634,"LATTITUDE":41.94680520938155,"ADDRESS":"5928 W PATTERSON AVE  ","YEAR":2013,"DOING_BUSINESS_AS_NAME":"YESENIA CORREA","POP_AT_RISK":131763,"BUSINESS_TYPE":"Peddler, food (fruits and vegtables only)","LEGAL_NAME":"YESENIA CORREA","LONGITUDE":-87.77528427370835},
{"STATE":"IL","ZIP":60630,"LATTITUDE":41.96502095988501,"ADDRESS":"4619 N KNOX AVE  ","YEAR":2013,"DOING_BUSINESS_AS_NAME":"MARTIN SOSTENES","POP_AT_RISK":139575,"BUSINESS_TYPE":"Peddler, food (fruits and vegtables only)","LEGAL_NAME":"MARTIN SOSTENES","LONGITUDE":-87.74381548404494},
{"STATE":"IL","ZIP":60628,"LATTITUDE":41.71662882141444,"ADDRESS":"9754 S DR MARTIN LUTHER KING JR DR  ","YEAR":2013,"DOING_BUSINESS_AS_NAME":"RONNIE D NELSON","POP_AT_RISK":25328,"BUSINESS_TYPE":"Peddler, food (fruits and vegtables only)","LEGAL_NAME":"RONNIE D NELSON","LONGITUDE":-87.6141540953251},
{"STATE":"IL","ZIP":60644,"LATTITUDE":41.89293424018102,"ADDRESS":"703 N AUSTIN BLVD  2A","YEAR":2013,"DOING_BUSINESS_AS_NAME":"RUTHIE M DUNCAN","POP_AT_RISK":156312,"BUSINESS_TYPE":"Peddler, food (fruits and vegtables only)","LEGAL_NAME":"RUTHIE M DUNCAN","LONGITUDE":-87.77492356425344},
{"STATE":"IL","ZIP":60614,"LATTITUDE":41.917182200195676,"ADDRESS":"1922 N CLEVELAND AVE  1","YEAR":2013,"DOING_BUSINESS_AS_NAME":"LARRY IAN NELSON","POP_AT_RISK":1323120,"BUSINESS_TYPE":"Peddler, food (fruits and vegtables only)","LEGAL_NAME":"LARRY IAN NELSON","LONGITUDE":-87.64135948489452},
{"STATE":"IL","ZIP":60649,"LATTITUDE":41.71745792110694,"ADDRESS":"9755  VANVLISSIGEN   ","YEAR":2013,"DOING_BUSINESS_AS_NAME":"MATTHEW K. DARKO","POP_AT_RISK":28444,"BUSINESS_TYPE":"Peddler, food (fruits and vegtables only)","LEGAL_NAME":"MATTHEW K. DARKO","LONGITUDE":-87.57584688787625},
{"STATE":"IL","ZIP":60628,"LATTITUDE":41.69059911507752,"ADDRESS":"203 W 112TH ST GROUND ","YEAR":2013,"DOING_BUSINESS_AS_NAME":"RICHARD WILLIAMS","POP_AT_RISK":29436,"BUSINESS_TYPE":"Peddler, food (fruits and vegtables only)","LEGAL_NAME":"RICHARD WILLIAMS","LONGITUDE":-87.62804895858362},
{"STATE":"IL","ZIP":60827,"LATTITUDE":41.65558269273145,"ADDRESS":"13201 S DR MARTIN LUTHER KING JR DR  ","YEAR":2013,"DOING_BUSINESS_AS_NAME":"TIFFANY M CONWAY","POP_AT_RISK":24447,"BUSINESS_TYPE":"Peddler, food (fruits and vegtables only)","LEGAL_NAME":"TIFFANY M CONWAY","LONGITUDE":-87.61301880788268},
{"STATE":"IL","ZIP":60619,"LATTITUDE":41.73419069670633,"ADDRESS":"8814 S CALUMET AVE 1ST ","YEAR":2013,"DOING_BUSINESS_AS_NAME":"WILLIAM S MARTIN","POP_AT_RISK":57892,"BUSINESS_TYPE":"Peddler, food (fruits and vegtables only)","LEGAL_NAME":"WILLIAM S MARTIN","LONGITUDE":-87.61622754774335},
{"STATE":"IL","ZIP":60619,"LATTITUDE":41.765198566328344,"ADDRESS":"1226 E 71ST PL  ","YEAR":2013,"DOING_BUSINESS_AS_NAME":"ANQUANEYCE S WEST","POP_AT_RISK":149868,"BUSINESS_TYPE":"Peddler, food (fruits and vegtables only)","LEGAL_NAME":"ANQUANEYCE S WEST","LONGITUDE":-87.59479825249757},
{"STATE":"IL","ZIP":60624,"LATTITUDE":41.86699618215448,"ADDRESS":"4528 W GRENSHAW ST  ","YEAR":2013,"DOING_BUSINESS_AS_NAME":"CATHERINE BURNETT","POP_AT_RISK":240000,"BUSINESS_TYPE":"Peddler, food (fruits and vegtables only)","LEGAL_NAME":"CATHERINE BURNETT","LONGITUDE":-87.73865305959102},
{"STATE":"IL","ZIP":60615,"LATTITUDE":41.802879778113265,"ADDRESS":"5050 S LAKE SHORE WEST DR 6TH 601","YEAR":2013,"DOING_BUSINESS_AS_NAME":"MARILYN DAUGHERTY","POP_AT_RISK":144955,"BUSINESS_TYPE":"Peddler, food (fruits and vegtables only)","LEGAL_NAME":"MARILYN DAUGHERTY","LONGITUDE":-87.58184369392683},
{"STATE":"IL","ZIP":60636,"LATTITUDE":41.79347298432838,"ADDRESS":"1845 W GARFIELD BLVD  ","YEAR":2013,"DOING_BUSINESS_AS_NAME":"JOSE L. ARROYO SR.","POP_AT_RISK":48565,"BUSINESS_TYPE":"Peddler, food (fruits and vegtables only)","LEGAL_NAME":"JOSE L. ARROYO SR.","LONGITUDE":-87.67120338263229},
{"STATE":"IL","ZIP":60617,"LATTITUDE":41.72280827749986,"ADDRESS":"3507 E 95TH ST 1ST ","YEAR":2013,"DOING_BUSINESS_AS_NAME":"MARGARITA ALMAGUER","POP_AT_RISK":13632,"BUSINESS_TYPE":"Peddler, food (fruits and vegtables only)","LEGAL_NAME":"MARGARITA ALMAGUER","LONGITUDE":-87.53860695110573},
{"STATE":"IL","ZIP":60619,"LATTITUDE":41.74960044985911,"ADDRESS":"910 E 80TH ST 1 1","YEAR":2013,"DOING_BUSINESS_AS_NAME":"PEDRO L. CASTANEDA","POP_AT_RISK":38768,"BUSINESS_TYPE":"Peddler, food (fruits and vegtables only)","LEGAL_NAME":"PEDRO L. CASTANEDA","LONGITUDE":-87.60223018420787},
{"STATE":"IL","ZIP":60615,"LATTITUDE":41.79808749177498,"ADDRESS":"5316 S MARYLAND AVE  ","YEAR":2013,"DOING_BUSINESS_AS_NAME":"TAMELA YVETTE DOWD","POP_AT_RISK":442440,"BUSINESS_TYPE":"Peddler, food (fruits and vegtables only)","LEGAL_NAME":"TAMELA YVETTE DOWD","LONGITUDE":-87.60526510036368},
{"STATE":"IL","ZIP":60629,"LATTITUDE":41.773665178487775,"ADDRESS":"6540 S KENNETH AVE  ","YEAR":2013,"DOING_BUSINESS_AS_NAME":"ARMANDO SERNA-LARA","POP_AT_RISK":111516,"BUSINESS_TYPE":"Peddler, food (fruits and vegtables only)","LEGAL_NAME":"ARMANDO SERNA- LARA","LONGITUDE":-87.7337546390289},
{"STATE":"IL","ZIP":60625,"LATTITUDE":41.97187012831186,"ADDRESS":"4941 N FRANCISCO AVE 1 1","YEAR":2013,"DOING_BUSINESS_AS_NAME":"HIPOLITO V. GONZALEZ","POP_AT_RISK":124300,"BUSINESS_TYPE":"Peddler, food (fruits and vegtables only)","LEGAL_NAME":"HIPOLITO V. GONZALEZ","LONGITUDE":-87.70109461698979},
{"STATE":"IL","ZIP":60636,"LATTITUDE":41.7596767226359,"ADDRESS":"1244 W 74TH ST  ","YEAR":2013,"DOING_BUSINESS_AS_NAME":"KENNETH M HUDDLESTON","POP_AT_RISK":532081,"BUSINESS_TYPE":"Peddler, food (fruits and vegtables only)","LEGAL_NAME":"KENNETH M HUDDLESTON","LONGITUDE":-87.65573840043908},
{"STATE":"IL","ZIP":60618,"LATTITUDE":41.93655196602866,"ADDRESS":"2743 W NELSON ST 1 ","YEAR":2013,"DOING_BUSINESS_AS_NAME":"JULIAN RAMIREZ GARCIA","POP_AT_RISK":350623,"BUSINESS_TYPE":"Peddler, food (fruits and vegtables only)","LEGAL_NAME":"JULIAN RAMIREZ GARCIA","LONGITUDE":-87.69701864441858},
{"STATE":"IL","ZIP":60644,"LATTITUDE":41.883244884686235,"ADDRESS":"4744 W WEST END AVE  ","YEAR":2013,"DOING_BUSINESS_AS_NAME":"MARIA APOLINAR ALONZO","POP_AT_RISK":225930,"BUSINESS_TYPE":"Peddler, food (fruits and vegtables only)","LEGAL_NAME":"MARIA APOLINAR ALONZO","LONGITUDE":-87.74472235374562},
{"STATE":"IL","ZIP":60626,"LATTITUDE":42.0086628307482,"ADDRESS":"6971 N CLARK ST 1 ","YEAR":2013,"DOING_BUSINESS_AS_NAME":"MARIA ELENA FERNANDEZ","POP_AT_RISK":290640,"BUSINESS_TYPE":"Peddler, food (fruits and vegtables only)","LEGAL_NAME":"MARIA ELENA FERNANDEZ","LONGITUDE":-87.67373705523627},
{"STATE":"IL","ZIP":60639,"LATTITUDE":41.91755375507022,"ADDRESS":"2034 N NARRAGANSETT AVE  ","YEAR":2013,"DOING_BUSINESS_AS_NAME":"LEONARDO FLORES-MATIAS","POP_AT_RISK":43692,"BUSINESS_TYPE":"Peddler, food (fruits and vegtables only)","LEGAL_NAME":"LEONARDO FLORES-MATIAS","LONGITUDE":-87.78540528913746},
{"STATE":"IL","ZIP":60651,"LATTITUDE":41.89553805753588,"ADDRESS":"3720 W CHICAGO AVE 1ST 160","YEAR":2013,"DOING_BUSINESS_AS_NAME":"FRESH MOVES","POP_AT_RISK":130851,"BUSINESS_TYPE":"Peddler, food (fruits and vegtables only)","LEGAL_NAME":"FOOD DESERT ACTION, NFP","LONGITUDE":-87.71973034221978},
{"STATE":"IL","ZIP":60645,"LATTITUDE":42.01522278082824,"ADDRESS":"7340 N DAMEN AVE  ","YEAR":2013,"DOING_BUSINESS_AS_NAME":"MARIA MAGDALENA AGUILAR","POP_AT_RISK":75861,"BUSINESS_TYPE":"Peddler, food (fruits and vegtables only)","LEGAL_NAME":"MARIA MAGDALENA AGUILAR","LONGITUDE":-87.68063033338018},
{"STATE":"IL","ZIP":60617,"LATTITUDE":41.74947813946925,"ADDRESS":"8018 S ESCANABA AVE 1 1","YEAR":2013,"DOING_BUSINESS_AS_NAME":"WILLIE MAE THOMAS - HAFIZ","POP_AT_RISK":309365,"BUSINESS_TYPE":"Peddler, food (fruits and vegtables only)","LEGAL_NAME":"WILLIE MAE THOMAS-HAFIZ","LONGITUDE":-87.55421296997248},
{"STATE":"IL","ZIP":60640,"LATTITUDE":41.98057495530794,"ADDRESS":"5417 N KENMORE AVE  409","YEAR":2013,"DOING_BUSINESS_AS_NAME":"RUFINA S VIVAR-CRUZ","POP_AT_RISK":1207548,"BUSINESS_TYPE":"Peddler, food (fruits and vegtables only)","LEGAL_NAME":"RUFINA SABINA VIVAR-CRUZ","LONGITUDE":-87.65638221473901},
{}]