[
{"STATE":"IL","ZIP":60647,"LATTITUDE":41.92117120427721,"ADDRESS":"2144 N LEAVITT ST  ","YEAR":2010,"DOING_BUSINESS_AS_NAME":"RAY'S BUCKTOWN BED & BREAKFAST","POP_AT_RISK":521686,"BUSINESS_TYPE":"Bed-And-Breakfast Establishment","LEGAL_NAME":"RAY REISS","LONGITUDE":-87.68278140920069},
{"STATE":"IL","ZIP":60613,"LATTITUDE":41.96082933888823,"ADDRESS":"1448 W PENSACOLA AVE  ","YEAR":2010,"DOING_BUSINESS_AS_NAME":"JOY'S JOY, A VICTORIAN BED AND BREAKFAST","POP_AT_RISK":76438,"BUSINESS_TYPE":"Bed-And-Breakfast Establishment","LEGAL_NAME":"JOY M. SCHAAD","LONGITUDE":-87.66627253898366},
{"STATE":"IL","ZIP":60637,"LATTITUDE":41.78307385935575,"ADDRESS":"6137 S KIMBARK AVE 1 ","YEAR":2010,"DOING_BUSINESS_AS_NAME":"UNIVERSITY QUARTERS","POP_AT_RISK":593856,"BUSINESS_TYPE":"Bed-And-Breakfast Establishment","LEGAL_NAME":"QB PARTNERS LLC","LONGITUDE":-87.59455735897593},
{"STATE":"IL","ZIP":60622,"LATTITUDE":41.90316856226991,"ADDRESS":"1745 W DIVISION ST 3 & 4 ","YEAR":2010,"DOING_BUSINESS_AS_NAME":"RUBY ROOM","POP_AT_RISK":126998,"BUSINESS_TYPE":"Bed-And-Breakfast Establishment","LEGAL_NAME":"RUBY ROOM, INC.","LONGITUDE":-87.67164495069692},
{"STATE":"IL","ZIP":60626,"LATTITUDE":42.016815596678676,"ADDRESS":"7421 N SHERIDAN RD  ","YEAR":2010,"DOING_BUSINESS_AS_NAME":"THE LANG HOUSE B&B ON SHERIDAN","POP_AT_RISK":578512,"BUSINESS_TYPE":"Bed-And-Breakfast Establishment","LEGAL_NAME":"CAT'S CRADLE LLC","LONGITUDE":-87.66515820029109},
{"STATE":"IL","ZIP":60660,"LATTITUDE":41.98847127357948,"ADDRESS":"5863 N GLENWOOD AVE 2 ","YEAR":2010,"DOING_BUSINESS_AS_NAME":"HOUSE 5863, INC.","POP_AT_RISK":67082,"BUSINESS_TYPE":"Bed-And-Breakfast Establishment","LEGAL_NAME":"HOUSE 5863, INC.","LONGITUDE":-87.66494926835773},
{"STATE":"IL","ZIP":60615,"LATTITUDE":41.807395667081856,"ADDRESS":"4810 S ELLIS AVE  ","YEAR":2010,"DOING_BUSINESS_AS_NAME":"HUTCHINS HOUSE LTD","POP_AT_RISK":752495,"BUSINESS_TYPE":"Bed-And-Breakfast Establishment","LEGAL_NAME":"HUTCHINS HOUSE LTD","LONGITUDE":-87.60180487566743},
{"STATE":"IL","ZIP":60640,"LATTITUDE":41.97527615293627,"ADDRESS":"1303 W WINONA ST 2 2","YEAR":2010,"DOING_BUSINESS_AS_NAME":"NINA'S BED AND BREAKFAST","POP_AT_RISK":150986,"BUSINESS_TYPE":"Bed-And-Breakfast Establishment","LEGAL_NAME":"BARNES & HENLEY LLC","LONGITUDE":-87.66264799211612},
{"STATE":"IL","ZIP":60613,"LATTITUDE":41.95327822988729,"ADDRESS":"3924 N JANSSEN AVE  ","YEAR":2010,"DOING_BUSINESS_AS_NAME":"NYBERG B & B","POP_AT_RISK":305968,"BUSINESS_TYPE":"Bed-And-Breakfast Establishment","LEGAL_NAME":"ANDERS AND MYRA NYBERG","LONGITUDE":-87.66596582772932},
{"STATE":"IL","ZIP":60614,"LATTITUDE":41.92788907216411,"ADDRESS":"607 W DEMING PL  ","YEAR":2010,"DOING_BUSINESS_AS_NAME":"WINDY CITY URBAN INN","POP_AT_RISK":136772,"BUSINESS_TYPE":"Bed-And-Breakfast Establishment","LEGAL_NAME":"CHICAGO BED & BREAKFAST INC","LONGITUDE":-87.64451569587148},
{"STATE":"IL","ZIP":60608,"LATTITUDE":41.837590524804014,"ADDRESS":"3111 S ABERDEEN ST  ","YEAR":2010,"DOING_BUSINESS_AS_NAME":"BENEDINTINE BED & BREAKFAST","POP_AT_RISK":85938,"BUSINESS_TYPE":"Bed-And-Breakfast Establishment","LEGAL_NAME":"MONASTERY OF THE HOLY CROSS","LONGITUDE":-87.65342653239723},
{"STATE":"IL","ZIP":60608,"LATTITUDE":41.83361886880686,"ADDRESS":"3322 S MORGAN ST  ","YEAR":2010,"DOING_BUSINESS_AS_NAME":"POLO CAFE AND CATERING BRIDGEPORT U.S.A.","POP_AT_RISK":39947,"BUSINESS_TYPE":"Bed-And-Breakfast Establishment","LEGAL_NAME":"BRIDGEPORT U.S.A. CORPORATION","LONGITUDE":-87.65118268844637},
{"STATE":"IL","ZIP":60657,"LATTITUDE":41.940625752567506,"ADDRESS":"3222 N SHEFFIELD AVE  ","YEAR":2010,"DOING_BUSINESS_AS_NAME":"OLD CHICAGO INN","POP_AT_RISK":810522,"BUSINESS_TYPE":"Bed-And-Breakfast Establishment","LEGAL_NAME":"OLD CHICAGO INN & TRANSIT COMPANY, LTD.","LONGITUDE":-87.65427606293785},
{}]