[
{"STATE":"IL","ZIP":60628,"LATTITUDE":41.69153338305453,"ADDRESS":"11127-11129 S HALSTED ST 1ST ","YEAR":2013,"DOING_BUSINESS_AS_NAME":"JOHN'S CLEANERS","POP_AT_RISK":277400,"BUSINESS_TYPE":"Hazardous Materials","LEGAL_NAME":"BOK NAM LEE","LONGITUDE":-87.64221082846956},
{"STATE":"IL","ZIP":60827,"LATTITUDE":41.64471651864612,"ADDRESS":"612 E 138TH ST  ","YEAR":2013,"DOING_BUSINESS_AS_NAME":"INNOPHOS INC.","POP_AT_RISK":26762,"BUSINESS_TYPE":"Hazardous Materials","LEGAL_NAME":"INNOPHOS INC.","LONGITUDE":-87.60679330792205},
{"STATE":"IL","ZIP":60646,"LATTITUDE":41.9900130594801,"ADDRESS":"4742 W PETERSON AVE 1ST ","YEAR":2013,"DOING_BUSINESS_AS_NAME":"EDENS DRY CLEANERS","POP_AT_RISK":19796,"BUSINESS_TYPE":"Hazardous Materials","LEGAL_NAME":"SEUNG KWAN YIM","LONGITUDE":-87.74767681867502},
{"STATE":"IL","ZIP":60615,"LATTITUDE":41.80209465985241,"ADDRESS":"60 E 51ST ST  ","YEAR":2013,"DOING_BUSINESS_AS_NAME":"ERIE VEHICLE CO","POP_AT_RISK":42816,"BUSINESS_TYPE":"Hazardous Materials","LEGAL_NAME":"ERIE VEHICLE CO","LONGITUDE":-87.62355599411882},
{"STATE":"IL","ZIP":60632,"LATTITUDE":41.80551447720303,"ADDRESS":"3421 W 48TH PL 1ST ","YEAR":2013,"DOING_BUSINESS_AS_NAME":"SNC OIL COMPANY","POP_AT_RISK":78676,"BUSINESS_TYPE":"Hazardous Materials","LEGAL_NAME":"SNC OIL COMPANY","LONGITUDE":-87.70967454767239},
{"STATE":"IL","ZIP":60653,"LATTITUDE":41.815820960921016,"ADDRESS":"4333 S COTTAGE GROVE AVE  ","YEAR":2013,"DOING_BUSINESS_AS_NAME":"FEWER BOILER INC","POP_AT_RISK":40116,"BUSINESS_TYPE":"Hazardous Materials","LEGAL_NAME":"FEWER BOILER INC","LONGITUDE":-87.60654326348008},
{"STATE":"IL","ZIP":60641,"LATTITUDE":41.93907897064031,"ADDRESS":"4346 W BELMONT AVE 1 ","YEAR":2013,"DOING_BUSINESS_AS_NAME":"PAULEN AUTO, INC.","POP_AT_RISK":107288,"BUSINESS_TYPE":"Hazardous Materials","LEGAL_NAME":"PAULEN AUTO, INC.","LONGITUDE":-87.73649179634803},
{"STATE":"IL","ZIP":60655,"LATTITUDE":41.70201325293075,"ADDRESS":"10522 S CALIFORNIA AVE  ","YEAR":2013,"DOING_BUSINESS_AS_NAME":"RIDGE COUNTRY CLUB","POP_AT_RISK":99942,"BUSINESS_TYPE":"Hazardous Materials","LEGAL_NAME":"RIDGE COUNTRY CLUB","LONGITUDE":-87.69152350224961},
{"STATE":"IL","ZIP":60707,"LATTITUDE":41.90920116163611,"ADDRESS":"6600 W NORTH AVE 1 ","YEAR":2013,"DOING_BUSINESS_AS_NAME":"CD ONE PRICE CLEANERS #9","POP_AT_RISK":30815,"BUSINESS_TYPE":"Hazardous Materials","LEGAL_NAME":"TIMOTHY P. DARVILLE","LONGITUDE":-87.78991462625102},
{"STATE":"IL","ZIP":60619,"LATTITUDE":41.7257025156594,"ADDRESS":"9300 S DREXEL AVE  YARD","YEAR":2013,"DOING_BUSINESS_AS_NAME":"GROBAN SUPPLY CO INC","POP_AT_RISK":82184,"BUSINESS_TYPE":"Hazardous Materials","LEGAL_NAME":"GROBAN SUPPLY CO INC","LONGITUDE":-87.601073308025},
{"STATE":"IL","ZIP":60620,"LATTITUDE":41.72616754095205,"ADDRESS":"9205 S WESTERN AVE  ","YEAR":2013,"DOING_BUSINESS_AS_NAME":"EVERGREEN KIA","POP_AT_RISK":51732,"BUSINESS_TYPE":"Hazardous Materials","LEGAL_NAME":"EVERGREEN MOTORS, INC","LONGITUDE":-87.68208155982708},
{"STATE":"IL","ZIP":60631,"LATTITUDE":42.01798908038859,"ADDRESS":"7532 N MILWAUKEE AVE  ","YEAR":2013,"DOING_BUSINESS_AS_NAME":"KRYSTYNA CLEANERS CO","POP_AT_RISK":112316,"BUSINESS_TYPE":"Hazardous Materials","LEGAL_NAME":"KRYSTYNA  CLEANERS CO","LONGITUDE":-87.80689743812405},
{"STATE":"IL","ZIP":60632,"LATTITUDE":41.79941334431843,"ADDRESS":"5259 S ARCHER AVE  ","YEAR":2013,"DOING_BUSINESS_AS_NAME":"THE HERTZ CORPORATION","POP_AT_RISK":25684,"BUSINESS_TYPE":"Hazardous Materials","LEGAL_NAME":"THE HERTZ CORPORATION","LONGITUDE":-87.73756205449563},
{"STATE":"IL","ZIP":60657,"LATTITUDE":41.93323242619162,"ADDRESS":"2815 N BROADWAY  1ST ","YEAR":2013,"DOING_BUSINESS_AS_NAME":"CD ONE PRICE CLEANERS","POP_AT_RISK":724977,"BUSINESS_TYPE":"Hazardous Materials","LEGAL_NAME":"VARNI INVESTMENT INC.","LONGITUDE":-87.64463537294792},
{"STATE":"IL","ZIP":60626,"LATTITUDE":42.00174201826304,"ADDRESS":"6601 N RIDGE BLVD  ","YEAR":2013,"DOING_BUSINESS_AS_NAME":"S & C ELECTRIC COMPANY","POP_AT_RISK":161148,"BUSINESS_TYPE":"Hazardous Materials","LEGAL_NAME":"S & C ELECTRIC COMPANY","LONGITUDE":-87.67841912356384},
{"STATE":"IL","ZIP":60620,"LATTITUDE":41.753839363236374,"ADDRESS":"7659 S WESTERN AVE  ","YEAR":2013,"DOING_BUSINESS_AS_NAME":"TALMAN AUTO REBUILDERS INC","POP_AT_RISK":29767,"BUSINESS_TYPE":"Hazardous Materials","LEGAL_NAME":"TALMAN AUTO REBUILDERS","LONGITUDE":-87.68279927421119},
{"STATE":"IL","ZIP":60630,"LATTITUDE":41.9613031308182,"ADDRESS":"4413-4421 N ELSTON AVE 1ST ","YEAR":2013,"DOING_BUSINESS_AS_NAME":"TEMPO AUTO GROUP","POP_AT_RISK":65290,"BUSINESS_TYPE":"Hazardous Materials","LEGAL_NAME":"TEMPO AUTO GROUP, LTD.","LONGITUDE":-87.73002140334124},
{"STATE":"IL","ZIP":60626,"LATTITUDE":42.01613306244196,"ADDRESS":"1524 W JARVIS AVE  1","YEAR":2013,"DOING_BUSINESS_AS_NAME":"ELITE FABRICATION, INC.","POP_AT_RISK":62296,"BUSINESS_TYPE":"Hazardous Materials","LEGAL_NAME":"ELITE FABRICATION, INC.","LONGITUDE":-87.66919601622935},
{"STATE":"IL","ZIP":60615,"LATTITUDE":41.79736200767711,"ADDRESS":"5422 S LAKE PARK AVE  UNIT C","YEAR":2013,"DOING_BUSINESS_AS_NAME":"HYDE PARK CLEANERS, LTD.","POP_AT_RISK":173685,"BUSINESS_TYPE":"Hazardous Materials","LEGAL_NAME":"HYDE PARK CLEANERS, LTD.","LONGITUDE":-87.58740539704812},
{"STATE":"IL","ZIP":60655,"LATTITUDE":41.70516058285971,"ADDRESS":"10323 S PULASKI RD 1ST ","YEAR":2013,"DOING_BUSINESS_AS_NAME":"C D ONE PRICE CLEANERS","POP_AT_RISK":91208,"BUSINESS_TYPE":"Hazardous Materials","LEGAL_NAME":"3951 W. 103RD STREET, LLC","LONGITUDE":-87.7207437519005},
{"STATE":"IL","ZIP":60609,"LATTITUDE":41.79649113133981,"ADDRESS":"5335 S WESTERN BLVD  ","YEAR":2013,"DOING_BUSINESS_AS_NAME":"ADVANCE WHEEL CORPORATION","POP_AT_RISK":54947,"BUSINESS_TYPE":"Hazardous Materials","LEGAL_NAME":"ADVANCE WHEEL CORPORATION","LONGITUDE":-87.68339356864853},
{"STATE":"IL","ZIP":60617,"LATTITUDE":41.74945060417943,"ADDRESS":"8012 S CRANDON AVE 1ST ","YEAR":2013,"DOING_BUSINESS_AS_NAME":"SOUTH SHORE HOSPITAL","POP_AT_RISK":75624,"BUSINESS_TYPE":"Hazardous Materials","LEGAL_NAME":"SOUTH SHORE HOSPITAL CORP","LONGITUDE":-87.5687786244394},
{"STATE":"IL","ZIP":60620,"LATTITUDE":41.729738814042655,"ADDRESS":"9035 S HALSTED ST  ","YEAR":2013,"DOING_BUSINESS_AS_NAME":"STEELE & LOEBER LUMBER CO","POP_AT_RISK":29492,"BUSINESS_TYPE":"Hazardous Materials","LEGAL_NAME":"STEELE & LOEBER LUMBER CO","LONGITUDE":-87.64329779002719},
{"STATE":"IL","ZIP":60646,"LATTITUDE":41.98505787598174,"ADDRESS":"5724 N PULASKI RD  ","YEAR":2013,"DOING_BUSINESS_AS_NAME":"AMERICAN LABLEMARK COMPANY","POP_AT_RISK":28641,"BUSINESS_TYPE":"Hazardous Materials","LEGAL_NAME":"AMERICAN LABELMARK COMPANY","LONGITUDE":-87.72864209214939},
{"STATE":"IL","ZIP":60634,"LATTITUDE":41.944103760261996,"ADDRESS":"3521-3527 N HARLEM AVE 1ST ","YEAR":2013,"DOING_BUSINESS_AS_NAME":"A & ZEE AUTO REPAIR, INC.","POP_AT_RISK":178860,"BUSINESS_TYPE":"Hazardous Materials","LEGAL_NAME":"CAROLINA REPAIR SHOP, INC.","LONGITUDE":-87.80681840529779},
{"STATE":"IL","ZIP":60621,"LATTITUDE":41.78873025430791,"ADDRESS":"809 W 58TH ST 1ST & 2ND ","YEAR":2013,"DOING_BUSINESS_AS_NAME":"BARONA LABS","POP_AT_RISK":62580,"BUSINESS_TYPE":"Hazardous Materials","LEGAL_NAME":"GUILLERMO C SALGADO-MORENO","LONGITUDE":-87.64543855633937},
{"STATE":"IL","ZIP":60616,"LATTITUDE":41.83139043521576,"ADDRESS":"3450 S GILES AVE  ","YEAR":2013,"DOING_BUSINESS_AS_NAME":"SHIN'S PRIDE CLEANERS, INC","POP_AT_RISK":34354,"BUSINESS_TYPE":"Hazardous Materials","LEGAL_NAME":"SHIN'S PRIDE CLEANERS,INC.","LONGITUDE":-87.61947770709344},
{"STATE":"IL","ZIP":60633,"LATTITUDE":41.67245417674511,"ADDRESS":"12200 S CARONDOLET AVE 1 ","YEAR":2013,"DOING_BUSINESS_AS_NAME":"SAVAGE SERVICES CORPORATION","POP_AT_RISK":6628,"BUSINESS_TYPE":"Hazardous Materials","LEGAL_NAME":"SAVAGE SERVICES CORPORATION","LONGITUDE":-87.54972577199817},
{"STATE":"IL","ZIP":60660,"LATTITUDE":41.98679682809448,"ADDRESS":"5800 N RAVENSWOOD AVE  ","YEAR":2013,"DOING_BUSINESS_AS_NAME":"ROSEHILL CEMETERY","POP_AT_RISK":169040,"BUSINESS_TYPE":"Hazardous Materials","LEGAL_NAME":"SCI ILLINOIS SERVICES, INC.","LONGITUDE":-87.6747540582017},
{"STATE":"IL","ZIP":60629,"LATTITUDE":41.766547079915554,"ADDRESS":"6938-6942 S PULASKI RD 1ST ","YEAR":2013,"DOING_BUSINESS_AS_NAME":"AMERICAN WELDING & GAS, INC.","POP_AT_RISK":100086,"BUSINESS_TYPE":"Hazardous Materials","LEGAL_NAME":"AMERICAN WELDING & GAS, INC.","LONGITUDE":-87.722602481931},
{"STATE":"IL","ZIP":60613,"LATTITUDE":41.95700315481594,"ADDRESS":"4131 N RAVENSWOOD AVE  ","YEAR":2013,"DOING_BUSINESS_AS_NAME":"DOMESTIC LINEN SUPPLY CO,INC","POP_AT_RISK":57544,"BUSINESS_TYPE":"Hazardous Materials","LEGAL_NAME":"DOMESTIC LINEN SUPPLY CO INC","LONGITUDE":-87.67372274739269},
{"STATE":"IL","ZIP":60652,"LATTITUDE":41.73796975839318,"ADDRESS":"8517 S PULASKI RD  ","YEAR":2013,"DOING_BUSINESS_AS_NAME":"THE SHERWIN WILLIAMS CO #3860","POP_AT_RISK":75699,"BUSINESS_TYPE":"Hazardous Materials","LEGAL_NAME":"THE SHERWIN-WILLIAMS COMPANY","LONGITUDE":-87.72139375052623},
{"STATE":"IL","ZIP":60647,"LATTITUDE":41.924893512632245,"ADDRESS":"2902-04 W FULLERTON AVE  ","YEAR":2013,"DOING_BUSINESS_AS_NAME":"SHERWIN WILLIAMS COMPANY- #3405","POP_AT_RISK":330410,"BUSINESS_TYPE":"Hazardous Materials","LEGAL_NAME":"THE SHERWIN-WILLIAMS COMPANY","LONGITUDE":-87.69999097828882},
{"STATE":"IL","ZIP":60638,"LATTITUDE":41.79511004287957,"ADDRESS":"6012 S ARCHER AVE 1 ","YEAR":2013,"DOING_BUSINESS_AS_NAME":"THE SHERWIN-WILLIAMS COMPANY #3321","POP_AT_RISK":24391,"BUSINESS_TYPE":"Hazardous Materials","LEGAL_NAME":"THE SHERWIN-WILLIAMS COMPANY","LONGITUDE":-87.76704724072515},
{"STATE":"IL","ZIP":60659,"LATTITUDE":41.99398473357089,"ADDRESS":"6158 N LINCOLN AVE 1 ","YEAR":2013,"DOING_BUSINESS_AS_NAME":"THE SHERWIN-WILLIAMS COMPANY #3707","POP_AT_RISK":210155,"BUSINESS_TYPE":"Hazardous Materials","LEGAL_NAME":"THE SHERWIN-WILLIAMS COMPANY","LONGITUDE":-87.71345841373895},
{"STATE":"IL","ZIP":60619,"LATTITUDE":41.76041363669296,"ADDRESS":"1229  -01241 E 74TH ST 1ST ","YEAR":2013,"DOING_BUSINESS_AS_NAME":"PRODUCTION TOOL CORP OF\/WIS LL","POP_AT_RISK":36582,"BUSINESS_TYPE":"Hazardous Materials","LEGAL_NAME":"PRODUCTION TOOL COMPANIES,LLC","LONGITUDE":-87.59382776989756},
{"STATE":"IL","ZIP":60613,"LATTITUDE":41.95656420313895,"ADDRESS":"4080 N BROADWAY  1ST ","YEAR":2013,"DOING_BUSINESS_AS_NAME":"EUROPEAN & US CAR SERVICE","POP_AT_RISK":72112,"BUSINESS_TYPE":"Hazardous Materials","LEGAL_NAME":"HAWK MOTOR SERVICE & SALES INC","LONGITUDE":-87.65198725983909},
{"STATE":"IL","ZIP":60619,"LATTITUDE":41.7447398795145,"ADDRESS":"8234 S COTTAGE GROVE AVE  ","YEAR":2013,"DOING_BUSINESS_AS_NAME":"NEW REAVES & SON CLEANERS, INC.","POP_AT_RISK":35145,"BUSINESS_TYPE":"Hazardous Materials","LEGAL_NAME":"NEW REAVES & SON CLEANERS, INC.","LONGITUDE":-87.60520125864468},
{"STATE":"IL","ZIP":60637,"LATTITUDE":41.77697084741451,"ADDRESS":"6445 S STATE ST 1ST ","YEAR":2013,"DOING_BUSINESS_AS_NAME":"OZINGA READY MIX CONCRETE, INC.","POP_AT_RISK":106242,"BUSINESS_TYPE":"Hazardous Materials","LEGAL_NAME":"OZINGA READY MIX CONCRETE, INC.","LONGITUDE":-87.62508483382355},
{"STATE":"IL","ZIP":60622,"LATTITUDE":41.900524957170965,"ADDRESS":"1044 N FRANCISCO AVE # 1","YEAR":2013,"DOING_BUSINESS_AS_NAME":"NORWEGIAN-AMERICIAN HOSPITAL","POP_AT_RISK":47457,"BUSINESS_TYPE":"Hazardous Materials","LEGAL_NAME":"NORWEGIAN AMERICAN HOSPITAL, INC.","LONGITUDE":-87.69943295362468},
{"STATE":"IL","ZIP":60707,"LATTITUDE":41.923454204082304,"ADDRESS":"6941 W GRAND AVE  ","YEAR":2013,"DOING_BUSINESS_AS_NAME":"HI-TECH AUTO BODY OF CHICAGO","POP_AT_RISK":40306,"BUSINESS_TYPE":"Hazardous Materials","LEGAL_NAME":"HI-TECH AUTO BODY OF CHICAGO, INC.","LONGITUDE":-87.79954580348426},
{"STATE":"IL","ZIP":60707,"LATTITUDE":41.9308061656852,"ADDRESS":"6655 W DIVERSEY AVE  ","YEAR":2013,"DOING_BUSINESS_AS_NAME":"TRIANGLE PACKAGE MACHINERY CO","POP_AT_RISK":48017,"BUSINESS_TYPE":"Hazardous Materials","LEGAL_NAME":"TRIANGLE PACKAGE MACHINERY COMPANY","LONGITUDE":-87.79280574492051},
{"STATE":"IL","ZIP":60630,"LATTITUDE":41.96936323046345,"ADDRESS":"4844 N LAMON AVE 1ST ","YEAR":2013,"DOING_BUSINESS_AS_NAME":"REILLEY EXCAVATING & WRECKING, INC.","POP_AT_RISK":127554,"BUSINESS_TYPE":"Hazardous Materials","LEGAL_NAME":"REILLEY EXCAVATING & WRECKING, INC.","LONGITUDE":-87.75041181984663},
{"STATE":"IL","ZIP":60655,"LATTITUDE":41.691031666973096,"ADDRESS":"4401 W 111TH ST GROUND ","YEAR":2013,"DOING_BUSINESS_AS_NAME":"ST. CASIMIR CEMETERY","POP_AT_RISK":48795,"BUSINESS_TYPE":"Hazardous Materials","LEGAL_NAME":"CATHOLIC CHURCH ARCHDIOCESE OF CHICAGO","LONGITUDE":-87.73010297363676},
{}]