[
  {
    "BUSINESS_TYPE": "Filling Station", 
    "LEGAL_NAME": "MARINE DRIVE BUSINESS INC.", 
    "STATE": "IL", 
    "DOING_BUSINESS_AS_NAME": "MARINE DRIVE BP", 
    "POP_AT_RISK": 52332, 
    "ZIP": 60640, 
    "ADDRESS": "755-759 W LAWRENCE AVE", 
    "YEAR": 2019, 
    "LONGITUDE": -87.649788676, 
    "LATTITUDE": 41.969052475
  }, 
  {
    "BUSINESS_TYPE": "Filling Station", 
    "LEGAL_NAME": "JMC FOOD MART INC", 
    "STATE": "IL", 
    "DOING_BUSINESS_AS_NAME": "HARLEM-HIGGINS, MOBIL", 
    "POP_AT_RISK": 24680, 
    "ZIP": 60656, 
    "ADDRESS": "7159 W HIGGINS AVE 1ST", 
    "YEAR": 2019, 
    "LONGITUDE": -87.806943106, 
    "LATTITUDE": 41.980997276
  }, 
  {
    "BUSINESS_TYPE": "Filling Station", 
    "LEGAL_NAME": "MADISON FOOD & FUEL, INC.", 
    "STATE": "IL", 
    "DOING_BUSINESS_AS_NAME": "GULF FUEL & MINI MART", 
    "POP_AT_RISK": 48029, 
    "ZIP": 60644, 
    "ADDRESS": "5103-5117 W MADISON ST 1ST", 
    "YEAR": 2019, 
    "LONGITUDE": -87.752768283, 
    "LATTITUDE": 41.880292815
  }, 
  {
    "BUSINESS_TYPE": "Filling Station", 
    "LEGAL_NAME": "J & T SERVICE CORPORATION", 
    "STATE": "IL", 
    "DOING_BUSINESS_AS_NAME": "BP", 
    "POP_AT_RISK": 22491, 
    "ZIP": 60643, 
    "ADDRESS": "10300 S WESTERN AVE 1ST", 
    "YEAR": 2019, 
    "LONGITUDE": -87.681763595, 
    "LATTITUDE": 41.706282332
  }, 
  {
    "BUSINESS_TYPE": "Filling Station", 
    "LEGAL_NAME": "PARKVIEW MART, INC.", 
    "STATE": "IL", 
    "DOING_BUSINESS_AS_NAME": "MOBIL", 
    "POP_AT_RISK": 28060, 
    "ZIP": 60649, 
    "ADDRESS": "6700-6718 S JEFFERY BLVD", 
    "YEAR": 2019, 
    "LONGITUDE": -87.576638552, 
    "LATTITUDE": 41.773368409
  }, 
  {
    "BUSINESS_TYPE": "Filling Station", 
    "LEGAL_NAME": "EASTSIDE MART LLC", 
    "STATE": "IL", 
    "DOING_BUSINESS_AS_NAME": "AMSTAR/EASTSIDE MART LLC", 
    "POP_AT_RISK": 37463, 
    "ZIP": 60615, 
    "ADDRESS": "368 E GARFIELD BLVD", 
    "YEAR": 2019, 
    "LONGITUDE": -87.616471792, 
    "LATTITUDE": 41.794908912
  }, 
  {
    "BUSINESS_TYPE": "Filling Station", 
    "LEGAL_NAME": "LAKE FRONT CITGO INC.", 
    "STATE": "IL", 
    "DOING_BUSINESS_AS_NAME": "PERSHING BP", 
    "POP_AT_RISK": 33939, 
    "ZIP": 60653, 
    "ADDRESS": "437 E PERSHING RD 1", 
    "YEAR": 2019, 
    "LONGITUDE": -87.61529192, 
    "LATTITUDE": 41.823747833
  }, 
  {
    "BUSINESS_TYPE": "Filling Station", 
    "LEGAL_NAME": "ST. ANTONY OIL INC.", 
    "STATE": "IL", 
    "DOING_BUSINESS_AS_NAME": "BP GAS", 
    "POP_AT_RISK": 17956, 
    "ZIP": 60646, 
    "ADDRESS": "6308 N CENTRAL AVE", 
    "YEAR": 2019, 
    "LONGITUDE": -87.764277038, 
    "LATTITUDE": 41.996371597
  }, 
  {
    "BUSINESS_TYPE": "Filling Station", 
    "LEGAL_NAME": "ADEN GAS, INC.", 
    "STATE": "IL", 
    "DOING_BUSINESS_AS_NAME": "PHILLIPS 66", 
    "POP_AT_RISK": 35686, 
    "ZIP": 60620, 
    "ADDRESS": "8645-8657 S ASHLAND AVE 1ST", 
    "YEAR": 2019, 
    "LONGITUDE": -87.662929959, 
    "LATTITUDE": 41.736278952
  }, 
  {
    "BUSINESS_TYPE": "Filling Station", 
    "LEGAL_NAME": "STEVENSON OIL INC.", 
    "STATE": "IL", 
    "DOING_BUSINESS_AS_NAME": "STEVENSON OIL", 
    "POP_AT_RISK": 38126, 
    "ZIP": 60634, 
    "ADDRESS": "3200 N HARLEM AVE 1ST", 
    "YEAR": 2019, 
    "LONGITUDE": -87.806896749, 
    "LATTITUDE": 41.938084468
  }, 
  {
    "BUSINESS_TYPE": "Filling Station", 
    "LEGAL_NAME": "AG NORTH AVENUE BEACH, INC.", 
    "STATE": "IL", 
    "DOING_BUSINESS_AS_NAME": "SHELL", 
    "POP_AT_RISK": 67649, 
    "ZIP": 60610, 
    "ADDRESS": "130 W NORTH AVE 1ST", 
    "YEAR": 2019, 
    "LONGITUDE": -87.633117174, 
    "LATTITUDE": 41.911272068
  }, 
  {
    "BUSINESS_TYPE": "Filling Station", 
    "LEGAL_NAME": "M & N GAS & FOOD INC.", 
    "STATE": "IL", 
    "DOING_BUSINESS_AS_NAME": "B. P. GAS", 
    "POP_AT_RISK": 29078, 
    "ZIP": 60612, 
    "ADDRESS": "101-111 N WESTERN AVE 1ST", 
    "YEAR": 2019, 
    "LONGITUDE": -87.686338746, 
    "LATTITUDE": 41.883040604
  }, 
  {
    "BUSINESS_TYPE": "Filling Station", 
    "LEGAL_NAME": "ABBAS MANAGEMENT, LLC", 
    "STATE": "IL", 
    "DOING_BUSINESS_AS_NAME": "LAWRENCE SHELL", 
    "POP_AT_RISK": 67172, 
    "ZIP": 60640, 
    "ADDRESS": "4800 N ASHLAND AVE", 
    "YEAR": 2019, 
    "LONGITUDE": -87.669590434, 
    "LATTITUDE": 41.96902343
  }, 
  {
    "BUSINESS_TYPE": "Filling Station", 
    "LEGAL_NAME": "NABIL ENTERPRISE INC.", 
    "STATE": "IL", 
    "DOING_BUSINESS_AS_NAME": "TOUHY-WESTERN MARATHON SERVICE STATION", 
    "POP_AT_RISK": 53737, 
    "ZIP": 60645, 
    "ADDRESS": "7130 N WESTERN AVE", 
    "YEAR": 2019, 
    "LONGITUDE": -87.690388134, 
    "LATTITUDE": 42.011883445
  }, 
  {
    "BUSINESS_TYPE": "Filling Station", 
    "LEGAL_NAME": "B. R. A., INC", 
    "STATE": "IL", 
    "DOING_BUSINESS_AS_NAME": "BP", 
    "POP_AT_RISK": 89155, 
    "ZIP": 60657, 
    "ADDRESS": "1200 W BELMONT AVE 1ST", 
    "YEAR": 2019, 
    "LONGITUDE": -87.659077619, 
    "LATTITUDE": 41.93994603
  }, 
  {
    "BUSINESS_TYPE": "Filling Station", 
    "LEGAL_NAME": "FULTON DESPLAINES GARAGE INC", 
    "STATE": "IL", 
    "DOING_BUSINESS_AS_NAME": "FULTON DESPLAINES GARAGE", 
    "POP_AT_RISK": 44233, 
    "ZIP": 60661, 
    "ADDRESS": "225 N DESPLAINES ST 1ST", 
    "YEAR": 2019, 
    "LONGITUDE": -87.644123652, 
    "LATTITUDE": 41.886568389
  }, 
  {
    "BUSINESS_TYPE": "Filling Station", 
    "LEGAL_NAME": "DEVONMIL, INC.", 
    "STATE": "IL", 
    "DOING_BUSINESS_AS_NAME": "CITGO", 
    "POP_AT_RISK": 16260, 
    "ZIP": 60646, 
    "ADDRESS": "6367-6373 N MILWAUKEE AVE 1", 
    "YEAR": 2019, 
    "LONGITUDE": -87.787086737, 
    "LATTITUDE": 41.996702622
  }, 
  {
    "BUSINESS_TYPE": "Filling Station", 
    "LEGAL_NAME": "SUFI FOODS CORPORATION", 
    "STATE": "IL", 
    "DOING_BUSINESS_AS_NAME": "B.P. GAS & FOOD MART", 
    "POP_AT_RISK": 24413, 
    "ZIP": 60643, 
    "ADDRESS": "11163 S VINCENNES AVE", 
    "YEAR": 2019, 
    "LONGITUDE": -87.664290906, 
    "LATTITUDE": 41.690425094
  }, 
  {
    "BUSINESS_TYPE": "Filling Station", 
    "LEGAL_NAME": "ULTIMATE GAS & MINI MART INC.", 
    "STATE": "IL", 
    "DOING_BUSINESS_AS_NAME": "ECONOGAS & FOOD MART / BP GAS", 
    "POP_AT_RISK": 17992, 
    "ZIP": 60609, 
    "ADDRESS": "4244-4248 S WENTWORTH AVE", 
    "YEAR": 2019, 
    "LONGITUDE": -87.631358463, 
    "LATTITUDE": 41.816934278
  }, 
  {
    "BUSINESS_TYPE": "Filling Station", 
    "LEGAL_NAME": "95TH ST FUEL MART INC.", 
    "STATE": "IL", 
    "DOING_BUSINESS_AS_NAME": "MARATHON", 
    "POP_AT_RISK": 21297, 
    "ZIP": 60617, 
    "ADDRESS": "1835-53 E 95TH ST 1ST", 
    "YEAR": 2019, 
    "LONGITUDE": -87.578854323, 
    "LATTITUDE": 41.722315219
  }, 
  {
    "BUSINESS_TYPE": "Filling Station", 
    "LEGAL_NAME": "SUNSET BAY MARINA, LLC", 
    "STATE": "IL", 
    "DOING_BUSINESS_AS_NAME": "SUNSET BAY MARINA, LLC", 
    "POP_AT_RISK": 2798, 
    "ZIP": 60633, 
    "ADDRESS": "13501 S BENSLEY AVE", 
    "YEAR": 2019, 
    "LONGITUDE": -87.562775906, 
    "LATTITUDE": 41.649904864
  }, 
  {
    "BUSINESS_TYPE": "Filling Station", 
    "LEGAL_NAME": "DIVERSEY YACHT CLUB INC.", 
    "STATE": "IL", 
    "DOING_BUSINESS_AS_NAME": "DIVERSEY YACHT CLUB", 
    "POP_AT_RISK": 54667, 
    "ZIP": 60614, 
    "ADDRESS": "2601 N CANNON DR  DIVER", 
    "YEAR": 2019, 
    "LONGITUDE": -87.635980716, 
    "LATTITUDE": 41.929782309
  }, 
  {
    "BUSINESS_TYPE": "Filling Station", 
    "LEGAL_NAME": "M & R SAHLOUL, INC.", 
    "STATE": "IL", 
    "DOING_BUSINESS_AS_NAME": "COMMUNITY GAS AND BP", 
    "POP_AT_RISK": 15621, 
    "ZIP": 60628, 
    "ADDRESS": "150 W 127TH ST", 
    "YEAR": 2019, 
    "LONGITUDE": -87.626506112, 
    "LATTITUDE": 41.66350259
  }, 
  {
    "BUSINESS_TYPE": "Filling Station", 
    "LEGAL_NAME": "STARCW, INC.", 
    "STATE": "IL", 
    "DOING_BUSINESS_AS_NAME": "STAR CAR WASH", 
    "POP_AT_RISK": 53542, 
    "ZIP": 60642, 
    "ADDRESS": "1901 N ELSTON AVE 1", 
    "YEAR": 2019, 
    "LONGITUDE": -87.666311679, 
    "LATTITUDE": 41.916547274
  }, 
  {
    "BUSINESS_TYPE": "Filling Station", 
    "LEGAL_NAME": "AG 26TH, INC.", 
    "STATE": "IL", 
    "DOING_BUSINESS_AS_NAME": "SHELL", 
    "POP_AT_RISK": 58534, 
    "ZIP": 60623, 
    "ADDRESS": "3201 W 26TH ST 1ST", 
    "YEAR": 2019, 
    "LONGITUDE": -87.705099849, 
    "LATTITUDE": 41.84440733
  }, 
  {
    "BUSINESS_TYPE": "Filling Station", 
    "LEGAL_NAME": "MBS PETROLEUM, INC.", 
    "STATE": "IL", 
    "DOING_BUSINESS_AS_NAME": "ARCHER SHELL", 
    "POP_AT_RISK": 30725, 
    "ZIP": 60638, 
    "ADDRESS": "6434 W ARCHER AVE 1ST", 
    "YEAR": 2019, 
    "LONGITUDE": -87.78317609, 
    "LATTITUDE": 41.792425779
  }, 
  {
    "BUSINESS_TYPE": "Filling Station", 
    "LEGAL_NAME": "A A & S INC.", 
    "STATE": "IL", 
    "DOING_BUSINESS_AS_NAME": "BP", 
    "POP_AT_RISK": 45315, 
    "ZIP": 60622, 
    "ADDRESS": "3153-3159 W CHICAGO AVE", 
    "YEAR": 2019, 
    "LONGITUDE": -87.706237541, 
    "LATTITUDE": 41.895446556
  }, 
  {
    "BUSINESS_TYPE": "Filling Station", 
    "LEGAL_NAME": "2310 E. 79TH INC.", 
    "STATE": "IL", 
    "DOING_BUSINESS_AS_NAME": "ALL STAR FUEL AND FOOD", 
    "POP_AT_RISK": 40097, 
    "ZIP": 60649, 
    "ADDRESS": "2310-2316 E 79TH ST 1", 
    "YEAR": 2019, 
    "LONGITUDE": -87.56818989, 
    "LATTITUDE": 41.751817802
  }, 
  {
    "BUSINESS_TYPE": "Filling Station", 
    "LEGAL_NAME": "MAL-NAJ CORPORATION", 
    "STATE": "IL", 
    "DOING_BUSINESS_AS_NAME": "MIDWAY GASMART / BP TOGO", 
    "POP_AT_RISK": 28777, 
    "ZIP": 60629, 
    "ADDRESS": "4710 W 63RD ST", 
    "YEAR": 2019, 
    "LONGITUDE": -87.740277214, 
    "LATTITUDE": 41.778563244
  }, 
  {
    "BUSINESS_TYPE": "Filling Station", 
    "LEGAL_NAME": "N & W ENTERPRISES, LLC", 
    "STATE": "IL", 
    "DOING_BUSINESS_AS_NAME": "NORTH SHELL", 
    "POP_AT_RISK": 73269, 
    "ZIP": 60647, 
    "ADDRESS": "1600 N WESTERN AVE 1ST", 
    "YEAR": 2019, 
    "LONGITUDE": -87.687370268, 
    "LATTITUDE": 41.910409024
  }, 
  {
    "BUSINESS_TYPE": "Filling Station", 
    "LEGAL_NAME": "POOVATHUR, INCORPORATED", 
    "STATE": "IL", 
    "DOING_BUSINESS_AS_NAME": "CITGO", 
    "POP_AT_RISK": 51736, 
    "ZIP": 60625, 
    "ADDRESS": "5547 N KEDZIE AVE", 
    "YEAR": 2019, 
    "LONGITUDE": -87.708703712, 
    "LATTITUDE": 41.982644005
  }, 
  {
    "BUSINESS_TYPE": "Filling Station", 
    "LEGAL_NAME": "TOM-JOE INCORPORATED", 
    "STATE": "IL", 
    "DOING_BUSINESS_AS_NAME": "MOBILE GAS STATION", 
    "POP_AT_RISK": 28635, 
    "ZIP": 60630, 
    "ADDRESS": "5949 W HIGGINS AVE", 
    "YEAR": 2019, 
    "LONGITUDE": -87.777786652, 
    "LATTITUDE": 41.972934494
  }, 
  {
    "BUSINESS_TYPE": "Filling Station", 
    "LEGAL_NAME": "CYTO TWO, INC.", 
    "STATE": "IL", 
    "DOING_BUSINESS_AS_NAME": "GRAND BP", 
    "POP_AT_RISK": 49523, 
    "ZIP": 60639, 
    "ADDRESS": "6359 W GRAND AVE", 
    "YEAR": 2019, 
    "LONGITUDE": -87.785169755, 
    "LATTITUDE": 41.922436537
  }, 
  {
    "BUSINESS_TYPE": "Filling Station", 
    "LEGAL_NAME": "ASHER PETROLEUM INC.", 
    "STATE": "IL", 
    "DOING_BUSINESS_AS_NAME": "MARATHON", 
    "POP_AT_RISK": 64859, 
    "ZIP": 60641, 
    "ADDRESS": "3050 N PULASKI RD", 
    "YEAR": 2019, 
    "LONGITUDE": -87.727272268, 
    "LATTITUDE": 41.93696637
  }, 
  {
    "BUSINESS_TYPE": "Filling Station", 
    "LEGAL_NAME": "CLEAN ENERGY (INC.)", 
    "STATE": "IL", 
    "DOING_BUSINESS_AS_NAME": "CLEAN ENERGY", 
    "POP_AT_RISK": 37171, 
    "ZIP": 60607, 
    "ADDRESS": "1121 S JEFFERSON ST", 
    "YEAR": 2019, 
    "LONGITUDE": -87.642079022, 
    "LATTITUDE": 41.86833974
  }, 
  {
    "BUSINESS_TYPE": "Filling Station", 
    "LEGAL_NAME": "63RD AND DREXEL MOBIL, L.L.C.", 
    "STATE": "IL", 
    "DOING_BUSINESS_AS_NAME": "63RD AND DREXEL MOBIL", 
    "POP_AT_RISK": 29323, 
    "ZIP": 60637, 
    "ADDRESS": "850 E 63RD ST", 
    "YEAR": 2019, 
    "LONGITUDE": -87.60393831, 
    "LATTITUDE": 41.780547574
  }
]