[
  {
    "BUSINESS_TYPE": "Peddler License", 
    "LEGAL_NAME": "HOWARD K. KADET", 
    "STATE": "IL", 
    "DOING_BUSINESS_AS_NAME": "HOWARD K. KADET", 
    "POP_AT_RISK": 14869, 
    "ZIP": 60646, 
    "ADDRESS": "6333 N LEONA AVE", 
    "YEAR": 2019, 
    "LONGITUDE": -87.753843753, 
    "LATTITUDE": 41.996910445
  }, 
  {
    "BUSINESS_TYPE": "Peddler License", 
    "LEGAL_NAME": "MAURICE HARRISON", 
    "STATE": "IL", 
    "DOING_BUSINESS_AS_NAME": "MAURICE HARRISON", 
    "POP_AT_RISK": 29713, 
    "ZIP": 60628, 
    "ADDRESS": "12019 S WALLACE ST", 
    "YEAR": 2019, 
    "LONGITUDE": -87.63686955, 
    "LATTITUDE": 41.675458958
  }, 
  {
    "BUSINESS_TYPE": "Peddler License", 
    "LEGAL_NAME": "LUKE PATRICK ELNER", 
    "STATE": "IL", 
    "DOING_BUSINESS_AS_NAME": "LUKE PATRICK ELNER", 
    "POP_AT_RISK": 10254, 
    "ZIP": 60638, 
    "ADDRESS": "5149 S NORDICA AVE", 
    "YEAR": 2019, 
    "LONGITUDE": -87.797740405, 
    "LATTITUDE": 41.797982135
  }, 
  {
    "BUSINESS_TYPE": "Peddler License", 
    "LEGAL_NAME": "FERNANDO MORENO", 
    "STATE": "IL", 
    "DOING_BUSINESS_AS_NAME": "FERNANDO MORENO", 
    "POP_AT_RISK": 44546, 
    "ZIP": 60634, 
    "ADDRESS": "3145 N NORMANDY AVE", 
    "YEAR": 2019, 
    "LONGITUDE": -87.793093924, 
    "LATTITUDE": 41.937716422
  }, 
  {
    "BUSINESS_TYPE": "Peddler License", 
    "LEGAL_NAME": "CHARLETTE BELL", 
    "STATE": "IL", 
    "DOING_BUSINESS_AS_NAME": "CHARLETTE BELL", 
    "POP_AT_RISK": 16578, 
    "ZIP": 60617, 
    "ADDRESS": "2557 E 97TH PL", 
    "YEAR": 2019, 
    "LONGITUDE": -87.561240676, 
    "LATTITUDE": 41.718011972
  }, 
  {
    "BUSINESS_TYPE": "Peddler License", 
    "LEGAL_NAME": "BARBARA  LYNN  MOMON", 
    "STATE": "IL", 
    "DOING_BUSINESS_AS_NAME": "BARBARA  LYNN  MOMON", 
    "POP_AT_RISK": 6482, 
    "ZIP": 60827, 
    "ADDRESS": "13078 S EVANS AVE  83", 
    "YEAR": 2019, 
    "LONGITUDE": -87.603552257, 
    "LATTITUDE": 41.657617607
  }, 
  {
    "BUSINESS_TYPE": "Peddler License", 
    "LEGAL_NAME": "JOHN JOSEPH TAUS", 
    "STATE": "IL", 
    "DOING_BUSINESS_AS_NAME": "JOHN JOSEPH TAUS", 
    "POP_AT_RISK": 19727, 
    "ZIP": 60617, 
    "ADDRESS": "10132 S EWING AVE", 
    "YEAR": 2019, 
    "LONGITUDE": -87.535427955, 
    "LATTITUDE": 41.711009451
  }, 
  {
    "BUSINESS_TYPE": "Peddler License", 
    "LEGAL_NAME": "JOSE MANUEL TORRES SR.", 
    "STATE": "IL", 
    "DOING_BUSINESS_AS_NAME": "JOSE M TORRES SR.", 
    "POP_AT_RISK": 15852, 
    "ZIP": 60631, 
    "ADDRESS": "7715 W JARLATH ST", 
    "YEAR": 2019, 
    "LONGITUDE": -87.819487912, 
    "LATTITUDE": 42.012193229
  }, 
  {
    "BUSINESS_TYPE": "Peddler License", 
    "LEGAL_NAME": "OLGA HERNANDEZ", 
    "STATE": "IL", 
    "DOING_BUSINESS_AS_NAME": "OLGA HERNANDEZ", 
    "POP_AT_RISK": 12734, 
    "ZIP": 60634, 
    "ADDRESS": "3843 N CUMBERLAND AVE", 
    "YEAR": 2019, 
    "LONGITUDE": -87.836456549, 
    "LATTITUDE": 41.949679989
  }, 
  {
    "BUSINESS_TYPE": "Peddler License", 
    "LEGAL_NAME": "LISA M. ARREGUIN", 
    "STATE": "IL", 
    "DOING_BUSINESS_AS_NAME": "LISA M. ARREGUIN", 
    "POP_AT_RISK": 26309, 
    "ZIP": 60656, 
    "ADDRESS": "6729 W TALCOTT AVE", 
    "YEAR": 2019, 
    "LONGITUDE": -87.795994103, 
    "LATTITUDE": 41.979795457
  }, 
  {
    "BUSINESS_TYPE": "Peddler License", 
    "LEGAL_NAME": "VERONICA PEEL", 
    "STATE": "IL", 
    "DOING_BUSINESS_AS_NAME": "VERONICA PEEL", 
    "POP_AT_RISK": 28278, 
    "ZIP": 60639, 
    "ADDRESS": "1719 N MOBILE AVE", 
    "YEAR": 2019, 
    "LONGITUDE": -87.783030224, 
    "LATTITUDE": 41.911519996
  }, 
  {
    "BUSINESS_TYPE": "Peddler License", 
    "LEGAL_NAME": "GEORGE GRIGSBY", 
    "STATE": "IL", 
    "DOING_BUSINESS_AS_NAME": "GEORGE GRIGSBY", 
    "POP_AT_RISK": 26625, 
    "ZIP": 60649, 
    "ADDRESS": "7733 S SOUTH SHORE DR", 
    "YEAR": 2019, 
    "LONGITUDE": -87.552570734, 
    "LATTITUDE": 41.756371029
  }, 
  {
    "BUSINESS_TYPE": "Peddler License", 
    "LEGAL_NAME": "SHARON DAWN  MIDDLETON", 
    "STATE": "IL", 
    "DOING_BUSINESS_AS_NAME": "SHARON  MIDDLETON", 
    "POP_AT_RISK": 26368, 
    "ZIP": 60631, 
    "ADDRESS": "6502 W DEVON AVE", 
    "YEAR": 2019, 
    "LONGITUDE": -87.7900211, 
    "LATTITUDE": 41.997447676
  }, 
  {
    "BUSINESS_TYPE": "Peddler License", 
    "LEGAL_NAME": "IESHA CONWAY", 
    "STATE": "IL", 
    "DOING_BUSINESS_AS_NAME": "IESHA CONWAY", 
    "POP_AT_RISK": 6547, 
    "ZIP": 60453, 
    "ADDRESS": "10036 S PULASKI ST 1", 
    "YEAR": 2019, 
    "LONGITUDE": -87.72120384, 
    "LATTITUDE": 41.710218068
  }, 
  {
    "BUSINESS_TYPE": "Peddler License", 
    "LEGAL_NAME": "JAMES KENSIK", 
    "STATE": "IL", 
    "DOING_BUSINESS_AS_NAME": "JAMES KENSIK", 
    "POP_AT_RISK": 63629, 
    "ZIP": 60618, 
    "ADDRESS": "3512 N DAMEN AVE", 
    "YEAR": 2019, 
    "LONGITUDE": -87.67866179, 
    "LATTITUDE": 41.94545416
  }, 
  {
    "BUSINESS_TYPE": "Peddler License", 
    "LEGAL_NAME": "DORIS  KATHLEEN  JUST", 
    "STATE": "IL", 
    "DOING_BUSINESS_AS_NAME": "DORIS  KATHLEEN  JUST", 
    "POP_AT_RISK": 27624, 
    "ZIP": 60638, 
    "ADDRESS": "6058 S MELVINA AVE", 
    "YEAR": 2019, 
    "LONGITUDE": -87.776665886, 
    "LATTITUDE": 41.781526298
  }, 
  {
    "BUSINESS_TYPE": "Peddler License", 
    "LEGAL_NAME": "EVERARDO ARAUJO", 
    "STATE": "IL", 
    "DOING_BUSINESS_AS_NAME": "EVERARDO ARAUJO", 
    "POP_AT_RISK": 67384, 
    "ZIP": 60622, 
    "ADDRESS": "1529 N MAPLEWOOD AVE", 
    "YEAR": 2019, 
    "LONGITUDE": -87.690735935, 
    "LATTITUDE": 41.909340564
  }
]