[
  {
    "BUSINESS_TYPE": "Street Performer", 
    "LEGAL_NAME": "CAROL EPHRAIM", 
    "STATE": "IL", 
    "DOING_BUSINESS_AS_NAME": "CAROL EPHRAIM", 
    "POP_AT_RISK": 32143, 
    "ZIP": 60652, 
    "ADDRESS": "3643 W 79TH ST", 
    "YEAR": 2002, 
    "LONGITUDE": -87.713778115, 
    "LATTITUDE": 41.749455613
  }, 
  {
    "BUSINESS_TYPE": "Street Performer", 
    "LEGAL_NAME": "Georzetta Deloney", 
    "STATE": "IL", 
    "DOING_BUSINESS_AS_NAME": "Georzetta Deloney", 
    "POP_AT_RISK": 29042, 
    "ZIP": 60628, 
    "ADDRESS": "10626 S NORMAL AVE", 
    "YEAR": 2002, 
    "LONGITUDE": -87.635542332, 
    "LATTITUDE": 41.700718633
  }, 
  {
    "BUSINESS_TYPE": "Street Performer", 
    "LEGAL_NAME": "JULIE MORENO", 
    "STATE": "IL", 
    "DOING_BUSINESS_AS_NAME": "JULIE MORENO", 
    "POP_AT_RISK": 51178, 
    "ZIP": 60645, 
    "ADDRESS": "6610 N CALIFORNIA AVE", 
    "YEAR": 2002, 
    "LONGITUDE": -87.699896325, 
    "LATTITUDE": 42.001573186
  }, 
  {
    "BUSINESS_TYPE": "Street Performer", 
    "LEGAL_NAME": "JOHN F. YOST", 
    "STATE": "IL", 
    "DOING_BUSINESS_AS_NAME": "JOHN F. YOST", 
    "POP_AT_RISK": 38079, 
    "ZIP": 60630, 
    "ADDRESS": "5218 W CARMEN AVE", 
    "YEAR": 2002, 
    "LONGITUDE": -87.758530015, 
    "LATTITUDE": 41.973500871
  }, 
  {
    "BUSINESS_TYPE": "Street Performer", 
    "LEGAL_NAME": "THOMAS J MADDEN", 
    "STATE": "IL", 
    "DOING_BUSINESS_AS_NAME": "THOMS J MADDEN", 
    "POP_AT_RISK": 9498, 
    "ZIP": 60453, 
    "ADDRESS": "4220 W 111TH ST", 
    "YEAR": 2002, 
    "LONGITUDE": -87.725334268, 
    "LATTITUDE": 41.691348286
  }, 
  {
    "BUSINESS_TYPE": "Street Performer", 
    "LEGAL_NAME": "MICHELLE HERRON", 
    "STATE": "IL", 
    "DOING_BUSINESS_AS_NAME": "MICHELLE HERRON", 
    "POP_AT_RISK": 24393, 
    "ZIP": 60628, 
    "ADDRESS": "11741 S YALE AVE 1ST", 
    "YEAR": 2002, 
    "LONGITUDE": -87.628589327, 
    "LATTITUDE": 41.680381836
  }, 
  {
    "BUSINESS_TYPE": "Street Performer", 
    "LEGAL_NAME": "MATTHEW L. HOLCOMB", 
    "STATE": "IL", 
    "DOING_BUSINESS_AS_NAME": "MATTHEW L. HOLCOMB", 
    "POP_AT_RISK": 34626, 
    "ZIP": 60605, 
    "ADDRESS": "1439 S MICHIGAN AVE", 
    "YEAR": 2002, 
    "LONGITUDE": -87.623906449, 
    "LATTITUDE": 41.863000325
  }, 
  {
    "BUSINESS_TYPE": "Street Performer", 
    "LEGAL_NAME": "Rafael Rodriguez", 
    "STATE": "IL", 
    "DOING_BUSINESS_AS_NAME": "Rafael Rodriguez", 
    "POP_AT_RISK": 64121, 
    "ZIP": 60629, 
    "ADDRESS": "5710 S RICHMOND ST  B-S", 
    "YEAR": 2002, 
    "LONGITUDE": -87.697492756, 
    "LATTITUDE": 41.789610894
  }, 
  {
    "BUSINESS_TYPE": "Street Performer", 
    "LEGAL_NAME": "SPIRO J DOUSIAS", 
    "STATE": "IL", 
    "DOING_BUSINESS_AS_NAME": "SPIRO", 
    "POP_AT_RISK": 34058, 
    "ZIP": 60632, 
    "ADDRESS": "4310 S HOMAN AVE", 
    "YEAR": 2002, 
    "LONGITUDE": -87.709296456, 
    "LATTITUDE": 41.815002206
  }, 
  {
    "BUSINESS_TYPE": "Street Performer", 
    "LEGAL_NAME": "RUFUS LUCKETT SR", 
    "STATE": "IL", 
    "DOING_BUSINESS_AS_NAME": "RUFUS LUCKETT SR", 
    "POP_AT_RISK": 37437, 
    "ZIP": 60624, 
    "ADDRESS": "438 N SPRINGFIELD AVE", 
    "YEAR": 2002, 
    "LONGITUDE": -87.723613301, 
    "LATTITUDE": 41.889176571
  }, 
  {
    "BUSINESS_TYPE": "Street Performer", 
    "LEGAL_NAME": "AMANDA MERDITH COHEN", 
    "STATE": "IL", 
    "DOING_BUSINESS_AS_NAME": "AMANDA COHEN", 
    "POP_AT_RISK": 56081, 
    "ZIP": 60659, 
    "ADDRESS": "5621 N CHRISTIANA AVE 3", 
    "YEAR": 2002, 
    "LONGITUDE": -87.712405688, 
    "LATTITUDE": 41.983679712
  }, 
  {
    "BUSINESS_TYPE": "Street Performer", 
    "LEGAL_NAME": "RAY ALVAREZ", 
    "STATE": "IL", 
    "DOING_BUSINESS_AS_NAME": "MISSION CRISTIAN ELIM CHURCH", 
    "POP_AT_RISK": 21759, 
    "ZIP": 60634, 
    "ADDRESS": "3833 N NOTTINGHAM AVE", 
    "YEAR": 2002, 
    "LONGITUDE": -87.804576771, 
    "LATTITUDE": 41.949949366
  }, 
  {
    "BUSINESS_TYPE": "Street Performer", 
    "LEGAL_NAME": "IRINA FILATOVA", 
    "STATE": "NY", 
    "DOING_BUSINESS_AS_NAME": "IRINA FILATOVA", 
    "POP_AT_RISK": 34642, 
    "ZIP": 10021, 
    "ADDRESS": "402 E 65TH ST", 
    "YEAR": 2002, 
    "LONGITUDE": -87.615395753, 
    "LATTITUDE": 41.776716192
  }, 
  {
    "BUSINESS_TYPE": "Street Performer", 
    "LEGAL_NAME": "JOSEPH H. SHIVE", 
    "STATE": "IL", 
    "DOING_BUSINESS_AS_NAME": "JOSEPH H. SHIVE", 
    "POP_AT_RISK": 21773, 
    "ZIP": 60643, 
    "ADDRESS": "10810 S HOYNE AVE", 
    "YEAR": 2002, 
    "LONGITUDE": -87.674166093, 
    "LATTITUDE": 41.696946671
  }, 
  {
    "BUSINESS_TYPE": "Street Performer", 
    "LEGAL_NAME": "ANGELA MARKS", 
    "STATE": "IL", 
    "DOING_BUSINESS_AS_NAME": "ANGELA MARKS", 
    "POP_AT_RISK": 40046, 
    "ZIP": 60629, 
    "ADDRESS": "2446 W MARQUETTE RD", 
    "YEAR": 2002, 
    "LONGITUDE": -87.685366675, 
    "LATTITUDE": 41.772057187
  }, 
  {
    "BUSINESS_TYPE": "Street Performer", 
    "LEGAL_NAME": "THOMAS JEFFERY URQUIZA", 
    "STATE": "IL", 
    "DOING_BUSINESS_AS_NAME": "URQUIZA MUSIC", 
    "POP_AT_RISK": 48835, 
    "ZIP": 60644, 
    "ADDRESS": "501 N CENTRAL AVE", 
    "YEAR": 2002, 
    "LONGITUDE": -87.765038653, 
    "LATTITUDE": 41.889383638
  }, 
  {
    "BUSINESS_TYPE": "Street Performer", 
    "LEGAL_NAME": "AMBER E. KELLY", 
    "STATE": "IL", 
    "DOING_BUSINESS_AS_NAME": "AMBER E. KELLY", 
    "POP_AT_RISK": 26882, 
    "ZIP": 60621, 
    "ADDRESS": "7419 S VINCENNES AVE", 
    "YEAR": 2002, 
    "LONGITUDE": -87.630637585, 
    "LATTITUDE": 41.759366612
  }, 
  {
    "BUSINESS_TYPE": "Street Performer", 
    "LEGAL_NAME": "MICHAEL MOODY", 
    "STATE": "IL", 
    "DOING_BUSINESS_AS_NAME": "MICHAEL MOODY", 
    "POP_AT_RISK": 19059, 
    "ZIP": 60609, 
    "ADDRESS": "4401 S LOWE AVE", 
    "YEAR": 2002, 
    "LONGITUDE": -87.641893478, 
    "LATTITUDE": 41.814327619
  }, 
  {
    "BUSINESS_TYPE": "Street Performer", 
    "LEGAL_NAME": "ROBERT FOWLER", 
    "STATE": "IL", 
    "DOING_BUSINESS_AS_NAME": "ROBERT FOWLER", 
    "POP_AT_RISK": 36777, 
    "ZIP": 60637, 
    "ADDRESS": "1463 E 66TH PL", 
    "YEAR": 2002, 
    "LONGITUDE": -87.589016692, 
    "LATTITUDE": 41.774117301
  }, 
  {
    "BUSINESS_TYPE": "Street Performer", 
    "LEGAL_NAME": "HOLGER  W. WOLLERT", 
    "STATE": "IL", 
    "DOING_BUSINESS_AS_NAME": "HOLGER W. WOLLERT", 
    "POP_AT_RISK": 41179, 
    "ZIP": 60632, 
    "ADDRESS": "3027 W 38TH ST", 
    "YEAR": 2002, 
    "LONGITUDE": -87.700660887, 
    "LATTITUDE": 41.824380041
  }, 
  {
    "BUSINESS_TYPE": "Street Performer", 
    "LEGAL_NAME": "LARRY LEE STEWART", 
    "STATE": "IL", 
    "DOING_BUSINESS_AS_NAME": "LARRY LEE STEWART", 
    "POP_AT_RISK": 20309, 
    "ZIP": 60628, 
    "ADDRESS": "739 E 105TH ST", 
    "YEAR": 2002, 
    "LONGITUDE": -87.604741925, 
    "LATTITUDE": 41.703684474
  }, 
  {
    "BUSINESS_TYPE": "Street Performer", 
    "LEGAL_NAME": "PABLO A VARELA", 
    "STATE": "IL", 
    "DOING_BUSINESS_AS_NAME": "PABLO A VARELA", 
    "POP_AT_RISK": 59030, 
    "ZIP": 60639, 
    "ADDRESS": "4876 W ARMITAGE AVE  3R", 
    "YEAR": 2002, 
    "LONGITUDE": -87.74910334, 
    "LATTITUDE": 41.917003658
  }, 
  {
    "BUSINESS_TYPE": "Street Performer", 
    "LEGAL_NAME": "WALTER G. NOWAK", 
    "STATE": "IL", 
    "DOING_BUSINESS_AS_NAME": "WALTER G. NOWAK", 
    "POP_AT_RISK": 37937, 
    "ZIP": 60629, 
    "ADDRESS": "6239 S KOLMAR AVE", 
    "YEAR": 2002, 
    "LONGITUDE": -87.736057246, 
    "LATTITUDE": 41.779160868
  }, 
  {
    "BUSINESS_TYPE": "Street Performer", 
    "LEGAL_NAME": "THOMAS M SEXTON", 
    "STATE": "IL", 
    "DOING_BUSINESS_AS_NAME": "THOMAS M SEXTON", 
    "POP_AT_RISK": 12033, 
    "ZIP": 60656, 
    "ADDRESS": "8615 W SUNNYSIDE AVE", 
    "YEAR": 2002, 
    "LONGITUDE": -87.842301739, 
    "LATTITUDE": 41.961202595
  }, 
  {
    "BUSINESS_TYPE": "Street Performer", 
    "LEGAL_NAME": "URIK HALLIDAY", 
    "STATE": "IL", 
    "DOING_BUSINESS_AS_NAME": "URIK HALLIDAY", 
    "POP_AT_RISK": 29012, 
    "ZIP": 60630, 
    "ADDRESS": "5360 N LOWELL AVE", 
    "YEAR": 2002, 
    "LONGITUDE": -87.737136201, 
    "LATTITUDE": 41.978942515
  }, 
  {
    "BUSINESS_TYPE": "Street Performer", 
    "LEGAL_NAME": "PETER D BURKE", 
    "STATE": "IL", 
    "DOING_BUSINESS_AS_NAME": "PETER D BURKE", 
    "POP_AT_RISK": 22491, 
    "ZIP": 60655, 
    "ADDRESS": "2435 W 103RD ST", 
    "YEAR": 2002, 
    "LONGITUDE": -87.683042767, 
    "LATTITUDE": 41.706268347
  }, 
  {
    "BUSINESS_TYPE": "Street Performer", 
    "LEGAL_NAME": "EILEEN RICHMOND", 
    "STATE": "IL", 
    "DOING_BUSINESS_AS_NAME": "EILEEN RICHMOND", 
    "POP_AT_RISK": 35151, 
    "ZIP": 60617, 
    "ADDRESS": "8615 S COLFAX AVE 1ST", 
    "YEAR": 2002, 
    "LONGITUDE": -87.561023065, 
    "LATTITUDE": 41.738590951
  }, 
  {
    "BUSINESS_TYPE": "Street Performer", 
    "LEGAL_NAME": "CECIL D LOCKE", 
    "STATE": "IL", 
    "DOING_BUSINESS_AS_NAME": "CECIL D LOCKE", 
    "POP_AT_RISK": 48881, 
    "ZIP": 60609, 
    "ADDRESS": "5347 S WOOD ST 1ST", 
    "YEAR": 2002, 
    "LONGITUDE": -87.669360606, 
    "LATTITUDE": 41.796248088
  }, 
  {
    "BUSINESS_TYPE": "Street Performer", 
    "LEGAL_NAME": "DEBORA A ROSS", 
    "STATE": "IL", 
    "DOING_BUSINESS_AS_NAME": "DEBORAH A ROSS", 
    "POP_AT_RISK": 16113, 
    "ZIP": 60643, 
    "ADDRESS": "1438 W 119TH ST", 
    "YEAR": 2002, 
    "LONGITUDE": -87.658056681, 
    "LATTITUDE": 41.677698403
  }, 
  {
    "BUSINESS_TYPE": "Street Performer", 
    "LEGAL_NAME": "Ozzie L. Stanford", 
    "STATE": "IL", 
    "DOING_BUSINESS_AS_NAME": "Ozzie L. Stamford", 
    "POP_AT_RISK": 42471, 
    "ZIP": 60651, 
    "ADDRESS": "4943 W KAMERLING AVE", 
    "YEAR": 2002, 
    "LONGITUDE": -87.750200148, 
    "LATTITUDE": 41.904923206
  }, 
  {
    "BUSINESS_TYPE": "Street Performer", 
    "LEGAL_NAME": "DALE S DUFFALA", 
    "STATE": "IL", 
    "DOING_BUSINESS_AS_NAME": "DRBLOOZ", 
    "POP_AT_RISK": 15852, 
    "ZIP": 60631, 
    "ADDRESS": "6822 N NORTHWEST HWY", 
    "YEAR": 2002, 
    "LONGITUDE": -87.819696593, 
    "LATTITUDE": 42.00487624
  }, 
  {
    "BUSINESS_TYPE": "Street Performer", 
    "LEGAL_NAME": "MOISES CASTRO", 
    "STATE": "IL", 
    "DOING_BUSINESS_AS_NAME": "MOISES CASTRO", 
    "POP_AT_RISK": 65391, 
    "ZIP": 60629, 
    "ADDRESS": "6047 S MOZART ST", 
    "YEAR": 2002, 
    "LONGITUDE": -87.694579379, 
    "LATTITUDE": 41.783174682
  }, 
  {
    "BUSINESS_TYPE": "Street Performer", 
    "LEGAL_NAME": "KEVIN ANDRI - BENJAMIN MARTIN", 
    "STATE": "IL", 
    "DOING_BUSINESS_AS_NAME": "KEVIN A MARTIN", 
    "POP_AT_RISK": 56575, 
    "ZIP": 60639, 
    "ADDRESS": "2231 N MASON AVE", 
    "YEAR": 2002, 
    "LONGITUDE": -87.774263301, 
    "LATTITUDE": 41.921267624
  }, 
  {
    "BUSINESS_TYPE": "Street Performer", 
    "LEGAL_NAME": "TOMMIE RANDLE JR.", 
    "STATE": "IL", 
    "DOING_BUSINESS_AS_NAME": "TOMMIE RANDLE JR.", 
    "POP_AT_RISK": 37302, 
    "ZIP": 60636, 
    "ADDRESS": "1652 W MARQUETTE RD 1ST", 
    "YEAR": 2002, 
    "LONGITUDE": -87.666157661, 
    "LATTITUDE": 41.772274502
  }, 
  {
    "BUSINESS_TYPE": "Street Performer", 
    "LEGAL_NAME": "WALTER WILLIS", 
    "STATE": "IL", 
    "DOING_BUSINESS_AS_NAME": "WALTER WILLIS", 
    "POP_AT_RISK": 40202, 
    "ZIP": 60653, 
    "ADDRESS": "740 E 43RD ST  412", 
    "YEAR": 2002, 
    "LONGITUDE": -87.607527679, 
    "LATTITUDE": 41.816909403
  }
]