[
  {
    "BUSINESS_TYPE": "Broker", 
    "LEGAL_NAME": "UNITED INVESTORS TVL INC", 
    "STATE": "IL", 
    "DOING_BUSINESS_AS_NAME": "UNITED INVESTORS TVL INC", 
    "POP_AT_RISK": 64872, 
    "ZIP": 60660, 
    "ADDRESS": "5960 N BROADWAY   1", 
    "YEAR": 2001, 
    "LONGITUDE": -87.6604382, 
    "LATTITUDE": 41.990809367
  }, 
  {
    "BUSINESS_TYPE": "Broker", 
    "LEGAL_NAME": "MAGNUM TRAVEL SERVICES, INC.", 
    "STATE": "IL", 
    "DOING_BUSINESS_AS_NAME": "MAGNUM INSURANCE AGENCY", 
    "POP_AT_RISK": 63090, 
    "ZIP": 60639, 
    "ADDRESS": "5010 W FULLERTON AVE", 
    "YEAR": 2001, 
    "LONGITUDE": -87.751734076, 
    "LATTITUDE": 41.924278592
  }, 
  {
    "BUSINESS_TYPE": "Broker", 
    "LEGAL_NAME": "TRADE WINGS INC", 
    "STATE": "IL", 
    "DOING_BUSINESS_AS_NAME": "TRADE WINGS TRAVEL AGENCY", 
    "POP_AT_RISK": 54500, 
    "ZIP": 60645, 
    "ADDRESS": "6406 N FAIRFIELD AVE 1ST", 
    "YEAR": 2001, 
    "LONGITUDE": -87.698583932, 
    "LATTITUDE": 41.997839695
  }, 
  {
    "BUSINESS_TYPE": "Broker", 
    "LEGAL_NAME": "BEST SEATS AVAILABLE", 
    "STATE": "IL", 
    "DOING_BUSINESS_AS_NAME": "BEST SEATS AVAILABLE", 
    "POP_AT_RISK": 31167, 
    "ZIP": 60612, 
    "ADDRESS": "1645 W JACKSON BLVD 1ST", 
    "YEAR": 2001, 
    "LONGITUDE": -87.668521042, 
    "LATTITUDE": 41.877485535
  }, 
  {
    "BUSINESS_TYPE": "Broker", 
    "LEGAL_NAME": "LETICIA PRADO", 
    "STATE": "IL", 
    "DOING_BUSINESS_AS_NAME": "PRADO TRAVEL AGENCY", 
    "POP_AT_RISK": 20967, 
    "ZIP": 60617, 
    "ADDRESS": "10603 S EWING AVE", 
    "YEAR": 2001, 
    "LONGITUDE": -87.535136766, 
    "LATTITUDE": 41.702587193
  }, 
  {
    "BUSINESS_TYPE": "Broker", 
    "LEGAL_NAME": "AMERICAN EXPRESS TRAVEL RELATED SERVICES COMPANY, INC.", 
    "STATE": "IL", 
    "DOING_BUSINESS_AS_NAME": "AMERICAN EXPRESS TRAVEL SVCS", 
    "POP_AT_RISK": 62090, 
    "ZIP": 60614, 
    "ADDRESS": "2338 N CLARK ST", 
    "YEAR": 2001, 
    "LONGITUDE": -87.640106814, 
    "LATTITUDE": 41.924731475
  }, 
  {
    "BUSINESS_TYPE": "Broker", 
    "LEGAL_NAME": "PATRICIA A. BRINKER", 
    "STATE": "IL", 
    "DOING_BUSINESS_AS_NAME": "PETER PAN TRAVEL", 
    "POP_AT_RISK": 33833, 
    "ZIP": 60626, 
    "ADDRESS": "1949 W HOWARD ST", 
    "YEAR": 2001, 
    "LONGITUDE": -87.679655168, 
    "LATTITUDE": 42.019330629
  }, 
  {
    "BUSINESS_TYPE": "Broker", 
    "LEGAL_NAME": "AMERICAN EXPRESS TRAVEL RELATED SERVICES COMPANY, INC.", 
    "STATE": "IL", 
    "DOING_BUSINESS_AS_NAME": "AMERICAN EXPRESS TRAVEL SRVCS", 
    "POP_AT_RISK": 81160, 
    "ZIP": 60611, 
    "ADDRESS": "625 N MICHIGAN AVE", 
    "YEAR": 2001, 
    "LONGITUDE": -87.624064697, 
    "LATTITUDE": 41.893299544
  }, 
  {
    "BUSINESS_TYPE": "Broker", 
    "LEGAL_NAME": "TORNADO BUS COMPANY, INC.", 
    "STATE": "IL", 
    "DOING_BUSINESS_AS_NAME": "TORNADO BUS COMPANY", 
    "POP_AT_RISK": 64382, 
    "ZIP": 60623, 
    "ADDRESS": "3222 W CERMAK RD", 
    "YEAR": 2001, 
    "LONGITUDE": -87.706070526, 
    "LATTITUDE": 41.851866199
  }, 
  {
    "BUSINESS_TYPE": "Broker", 
    "LEGAL_NAME": "CENTRAVEL, INC.", 
    "STATE": "IL", 
    "DOING_BUSINESS_AS_NAME": "COSTA AZUL TRAVEL", 
    "POP_AT_RISK": 63565, 
    "ZIP": 60625, 
    "ADDRESS": "3553 W LAWRENCE AVE 1ST", 
    "YEAR": 2001, 
    "LONGITUDE": -87.717955094, 
    "LATTITUDE": 41.968243167
  }, 
  {
    "BUSINESS_TYPE": "Broker", 
    "LEGAL_NAME": "MENA TOURS & TRAVEL, INC.", 
    "STATE": "IL", 
    "DOING_BUSINESS_AS_NAME": "MENA TOURS & TRAVEL AGENCY", 
    "POP_AT_RISK": 61704, 
    "ZIP": 60640, 
    "ADDRESS": "5209 N CLARK ST 1ST", 
    "YEAR": 2001, 
    "LONGITUDE": -87.668266718, 
    "LATTITUDE": 41.976506918
  }, 
  {
    "BUSINESS_TYPE": "Broker", 
    "LEGAL_NAME": "JEANNETTE IRBY", 
    "STATE": "IL", 
    "DOING_BUSINESS_AS_NAME": "TREASURE ISLAND TRAVEL", 
    "POP_AT_RISK": 30591, 
    "ZIP": 60619, 
    "ADDRESS": "214 E 71ST ST 1ST", 
    "YEAR": 2001, 
    "LONGITUDE": -87.619420258, 
    "LATTITUDE": 41.765734818
  }, 
  {
    "BUSINESS_TYPE": "Broker", 
    "LEGAL_NAME": "JETWAY WORLD TRAVEL, INC", 
    "STATE": "IL", 
    "DOING_BUSINESS_AS_NAME": "JETWAY WORLD TRAVEL,INC", 
    "POP_AT_RISK": 20884, 
    "ZIP": 60652, 
    "ADDRESS": "8503 S PULASKI RD 1ST", 
    "YEAR": 2001, 
    "LONGITUDE": -87.721408659, 
    "LATTITUDE": 41.738411503
  }, 
  {
    "BUSINESS_TYPE": "Broker", 
    "LEGAL_NAME": "MAGNUM TRAVEL SERVICES, INC.", 
    "STATE": "IL", 
    "DOING_BUSINESS_AS_NAME": "VIAJES MAGNUM", 
    "POP_AT_RISK": 67593, 
    "ZIP": 60618, 
    "ADDRESS": "4259 N WESTERN AVE", 
    "YEAR": 2001, 
    "LONGITUDE": -87.688481553, 
    "LATTITUDE": 41.959448021
  }, 
  {
    "BUSINESS_TYPE": "Broker", 
    "LEGAL_NAME": "UNIVERSITY TRAVEL INC.", 
    "STATE": "IL", 
    "DOING_BUSINESS_AS_NAME": "UNIVERSITY TRAVEL INC.", 
    "POP_AT_RISK": 38939, 
    "ZIP": 60615, 
    "ADDRESS": "1525 E 53RD ST  1", 
    "YEAR": 2001, 
    "LONGITUDE": -87.588098389, 
    "LATTITUDE": 41.799441872
  }, 
  {
    "BUSINESS_TYPE": "Broker", 
    "LEGAL_NAME": "SILVIA RICHART", 
    "STATE": "IL", 
    "DOING_BUSINESS_AS_NAME": "MUNDO INTERNATIONAL TRAVEL", 
    "POP_AT_RISK": 67842, 
    "ZIP": 60629, 
    "ADDRESS": "6161 S KEDZIE AVE", 
    "YEAR": 2001, 
    "LONGITUDE": -87.703042485, 
    "LATTITUDE": 41.78084306
  }, 
  {
    "BUSINESS_TYPE": "Broker", 
    "LEGAL_NAME": "DOMA INTERNATIONAL", 
    "STATE": "IL", 
    "DOING_BUSINESS_AS_NAME": "DOMA INTERNATIONAL", 
    "POP_AT_RISK": 44522, 
    "ZIP": 60630, 
    "ADDRESS": "4448 N MILWAUKEE AVE", 
    "YEAR": 2001, 
    "LONGITUDE": -87.755699317, 
    "LATTITUDE": 41.961838408
  }, 
  {
    "BUSINESS_TYPE": "Broker", 
    "LEGAL_NAME": "RAFAEL HERRERA", 
    "STATE": "IL", 
    "DOING_BUSINESS_AS_NAME": "AGENCIA DE VIAJES MORELIA", 
    "POP_AT_RISK": 82525, 
    "ZIP": 60647, 
    "ADDRESS": "3715 W FULLERTON AVE", 
    "YEAR": 2001, 
    "LONGITUDE": -87.720046814, 
    "LATTITUDE": 41.924455989
  }, 
  {
    "BUSINESS_TYPE": "Broker", 
    "LEGAL_NAME": "TRAVELWIDE SERVICES, INC", 
    "STATE": "IL", 
    "DOING_BUSINESS_AS_NAME": "TRAVELWIDE SERVICES INC", 
    "POP_AT_RISK": 60579, 
    "ZIP": 60659, 
    "ADDRESS": "5875 N LINCOLN AVE 1ST", 
    "YEAR": 2001, 
    "LONGITUDE": -87.703619497, 
    "LATTITUDE": 41.988290032
  }, 
  {
    "BUSINESS_TYPE": "Broker", 
    "LEGAL_NAME": "CABALLEROS DE SAN JUAN TRAVEL", 
    "STATE": "IL", 
    "DOING_BUSINESS_AS_NAME": "CABALLEROS DE SAN JUAN TRAVEL", 
    "POP_AT_RISK": 64785, 
    "ZIP": 60647, 
    "ADDRESS": "2725 W FULLERTON AVE  FIRST", 
    "YEAR": 2001, 
    "LONGITUDE": -87.695983856, 
    "LATTITUDE": 41.924711771
  }, 
  {
    "BUSINESS_TYPE": "Broker", 
    "LEGAL_NAME": "THOMAS F RYAN JR", 
    "STATE": "IL", 
    "DOING_BUSINESS_AS_NAME": "RYANS REGENT TRAVEL", 
    "POP_AT_RISK": 15272, 
    "ZIP": 60631, 
    "ADDRESS": "7218 W TOUHY AVE 1ST", 
    "YEAR": 2001, 
    "LONGITUDE": -87.807408096, 
    "LATTITUDE": 42.011807388
  }, 
  {
    "BUSINESS_TYPE": "Broker", 
    "LEGAL_NAME": "DOMA TRAVEL INC", 
    "STATE": "IL", 
    "DOING_BUSINESS_AS_NAME": "DOMA TRAVEL INC", 
    "POP_AT_RISK": 30856, 
    "ZIP": 60634, 
    "ADDRESS": "3410 N HARLEM AVE", 
    "YEAR": 2001, 
    "LONGITUDE": -87.807036531, 
    "LATTITUDE": 41.941988756
  }, 
  {
    "BUSINESS_TYPE": "Broker", 
    "LEGAL_NAME": "MULTIVIAJES ALEXANDRA INC", 
    "STATE": "IL", 
    "DOING_BUSINESS_AS_NAME": "MULTIVIAJES ALEXANDRA INC", 
    "POP_AT_RISK": 21953, 
    "ZIP": 60617, 
    "ADDRESS": "10455 S EWING AVE 1ST", 
    "YEAR": 2001, 
    "LONGITUDE": -87.535138247, 
    "LATTITUDE": 41.704769224
  }, 
  {
    "BUSINESS_TYPE": "Broker", 
    "LEGAL_NAME": "ESCAPE TRAVEL AGENCY INC.", 
    "STATE": "IL", 
    "DOING_BUSINESS_AS_NAME": "ESCAPE TRAVEL", 
    "POP_AT_RISK": 54839, 
    "ZIP": 60622, 
    "ADDRESS": "831 N ASHLAND AVE  1ST", 
    "YEAR": 2001, 
    "LONGITUDE": -87.667170527, 
    "LATTITUDE": 41.897008367
  }, 
  {
    "BUSINESS_TYPE": "Broker", 
    "LEGAL_NAME": "VIRGINIA P NEWMAN", 
    "STATE": "IL", 
    "DOING_BUSINESS_AS_NAME": "SEA SHIP-N-SHORE TRAVEL", 
    "POP_AT_RISK": 38146, 
    "ZIP": 60619, 
    "ADDRESS": "448 E 75TH ST 1ST", 
    "YEAR": 2001, 
    "LONGITUDE": -87.613156058, 
    "LATTITUDE": 41.758553272
  }, 
  {
    "BUSINESS_TYPE": "Broker", 
    "LEGAL_NAME": "ACTION TRAVEL INC", 
    "STATE": "IL", 
    "DOING_BUSINESS_AS_NAME": "ACTION TRAVEL", 
    "POP_AT_RISK": 72684, 
    "ZIP": 60618, 
    "ADDRESS": "3050 W IRVING PARK RD", 
    "YEAR": 2001, 
    "LONGITUDE": -87.705200205, 
    "LATTITUDE": 41.954047423
  }
]