[
{"STATE":"IL","ZIP":60608,"LATTITUDE":41.838132776878844,"ADDRESS":"834 - 36 W 31ST ST 1ST ","YEAR":2013,"DOING_BUSINESS_AS_NAME":"Small World Daycare Center","POP_AT_RISK":37207,"BUSINESS_TYPE":"Day Care Center Under 2 and 2 - 6 Years","LEGAL_NAME":"DALY CORP.","LONGITUDE":-87.64783889327761},
{"STATE":"IL","ZIP":60618,"LATTITUDE":41.95400765309425,"ADDRESS":"3250 W IRVING PARK RD  ","YEAR":2013,"DOING_BUSINESS_AS_NAME":"RAINBOW DAY CARE CENTER","POP_AT_RISK":341095,"BUSINESS_TYPE":"Day Care Center Under 2 and 2 - 6 Years","LEGAL_NAME":"N & K, CORP.","LONGITUDE":-87.7100919711299},
{"STATE":"IL","ZIP":60642,"LATTITUDE":41.89606693774048,"ADDRESS":"1333 W CHICAGO AVE 1ST ","YEAR":2013,"DOING_BUSINESS_AS_NAME":"NOBLE DAY CARE","POP_AT_RISK":44126,"BUSINESS_TYPE":"Day Care Center Under 2 and 2 - 6 Years","LEGAL_NAME":"NOBLE DAY CARE","LONGITUDE":-87.66071012810819},
{"STATE":"IL","ZIP":60633,"LATTITUDE":41.65908283643143,"ADDRESS":"2725 E 130TH ST 1ST 101","YEAR":2013,"DOING_BUSINESS_AS_NAME":"HEGEWISCH CHILD DEVELOPMENT CENTER","POP_AT_RISK":2798,"BUSINESS_TYPE":"Day Care Center Under 2 and 2 - 6 Years","LEGAL_NAME":"HENRY BOOTH HOUSE","LONGITUDE":-87.55699256526808},
{"STATE":"IL","ZIP":60629,"LATTITUDE":41.76815716687521,"ADDRESS":"2547 W LITHUANIAN PLAZA CT 1ST ","YEAR":2013,"DOING_BUSINESS_AS_NAME":"KIDS ACADEMY, LLC","POP_AT_RISK":44545,"BUSINESS_TYPE":"Day Care Center Under 2 and 2 - 6 Years","LEGAL_NAME":"KIDS ACADEMY, LLC","LONGITUDE":-87.6876649883635},
{"STATE":"IL","ZIP":60649,"LATTITUDE":41.75147769993615,"ADDRESS":"1921-1925 E 79TH ST 1 1","YEAR":2013,"DOING_BUSINESS_AS_NAME":"PRODIGY CHILD LEARNING CENTER","POP_AT_RISK":141450,"BUSINESS_TYPE":"Day Care Center Under 2 and 2 - 6 Years","LEGAL_NAME":"PRODIGY CHILD INC.","LONGITUDE":-87.57751722320249},
{"STATE":"IL","ZIP":60637,"LATTITUDE":41.783980381245314,"ADDRESS":"362-364 E 61ST ST  ","YEAR":2013,"DOING_BUSINESS_AS_NAME":"KARE BEAR ACADEMY INC.","POP_AT_RISK":33228,"BUSINESS_TYPE":"Day Care Center Under 2 and 2 - 6 Years","LEGAL_NAME":"KARE BEAR ACADEMY INC.","LONGITUDE":-87.61646586717478},
{"STATE":"IL","ZIP":60612,"LATTITUDE":41.87786014089072,"ADDRESS":"212 S FRANCISCO AVE  ","YEAR":2013,"DOING_BUSINESS_AS_NAME":"MARILLAC SOCIAL CENTER INC.","POP_AT_RISK":356560,"BUSINESS_TYPE":"Day Care Center Under 2 and 2 - 6 Years","LEGAL_NAME":"MARILLAC SOCIAL CENTER","LONGITUDE":-87.69877543162723},
{"STATE":"IL","ZIP":60620,"LATTITUDE":41.73596188169255,"ADDRESS":"1414 W 87TH ST 1ST ","YEAR":2013,"DOING_BUSINESS_AS_NAME":"SWEET PEA ACADEMY, INC.","POP_AT_RISK":200080,"BUSINESS_TYPE":"Day Care Center Under 2 and 2 - 6 Years","LEGAL_NAME":"SWEET PEA ACADEMY, INC.","LONGITUDE":-87.6589049465472},
{"STATE":"IL","ZIP":60609,"LATTITUDE":41.794210943335344,"ADDRESS":"1400 W GARFIELD BLVD 1 ","YEAR":2013,"DOING_BUSINESS_AS_NAME":"COMPUTER PRE-SCHOOL ACADEMY","POP_AT_RISK":939026,"BUSINESS_TYPE":"Day Care Center Under 2 and 2 - 6 Years","LEGAL_NAME":"ROSLYN FRANCINE PHILLIPS","LONGITUDE":-87.65978679572046},
{"STATE":"IL","ZIP":60613,"LATTITUDE":41.96159865788121,"ADDRESS":"1908-1912 W MONTROSE AVE 1ST ","YEAR":2013,"DOING_BUSINESS_AS_NAME":"SHORT STUFF CHICAGO","POP_AT_RISK":194325,"BUSINESS_TYPE":"Day Care Center Under 2 and 2 - 6 Years","LEGAL_NAME":"SHORT STUFF CHICAGO, LLC","LONGITUDE":-87.67641299633027},
{"STATE":"IL","ZIP":60707,"LATTITUDE":41.90909072583769,"ADDRESS":"6922-6924 W NORTH AVE  ","YEAR":2013,"DOING_BUSINESS_AS_NAME":"FRESH START DAYCARE, INC.","POP_AT_RISK":48436,"BUSINESS_TYPE":"Day Care Center Under 2 and 2 - 6 Years","LEGAL_NAME":"FRESH START DAYCARE, INC.","LONGITUDE":-87.79816372279038},
{"STATE":"IL","ZIP":60631,"LATTITUDE":41.98703322680841,"ADDRESS":"5801 N NORTHWEST HWY 1 1","YEAR":2013,"DOING_BUSINESS_AS_NAME":"HELEN LUCY CHILD CARE INC.","POP_AT_RISK":186360,"BUSINESS_TYPE":"Day Care Center Under 2 and 2 - 6 Years","LEGAL_NAME":"HELEN LUCY CHILD CARE INC.","LONGITUDE":-87.78938143174634},
{"STATE":"IL","ZIP":60618,"LATTITUDE":41.934680587613116,"ADDRESS":"2922-2930 N CAMPBELL AVE 1 1","YEAR":2013,"DOING_BUSINESS_AS_NAME":"KIDS NETWORK ACADEMY INC.","POP_AT_RISK":147396,"BUSINESS_TYPE":"Day Care Center Under 2 and 2 - 6 Years","LEGAL_NAME":"KIDS NETWORK ACADEMY INC.,","LONGITUDE":-87.6905091905425},
{"STATE":"IL","ZIP":60622,"LATTITUDE":41.91072118380229,"ADDRESS":"1634 W NORTH AVE 1 1","YEAR":2013,"DOING_BUSINESS_AS_NAME":"ABC DAYCARE & PRESCHOOL","POP_AT_RISK":377979,"BUSINESS_TYPE":"Day Care Center Under 2 and 2 - 6 Years","LEGAL_NAME":"ABC DAYCARE & PRESCHOOL LLC","LONGITUDE":-87.66905969538016},
{"STATE":"IL","ZIP":60608,"LATTITUDE":41.86505135416893,"ADDRESS":"1960 W 13TH ST 1ST ","YEAR":2013,"DOING_BUSINESS_AS_NAME":"ALL STAR KIDS ACADEMY, INC.","POP_AT_RISK":113064,"BUSINESS_TYPE":"Day Care Center Under 2 and 2 - 6 Years","LEGAL_NAME":"ALL STAR KIDS ACADEMY, INC.","LONGITUDE":-87.67600728666591},
{"STATE":"IL","ZIP":60609,"LATTITUDE":41.81511207847913,"ADDRESS":"4344 S WENTWORTH AVE  ","YEAR":2013,"DOING_BUSINESS_AS_NAME":"JONES ACADEMY, INCORPORATED","POP_AT_RISK":55281,"BUSINESS_TYPE":"Day Care Center Under 2 and 2 - 6 Years","LEGAL_NAME":"JONES ACADEMY, INCORPORATED","LONGITUDE":-87.63130757563485},
{"STATE":"IL","ZIP":60617,"LATTITUDE":41.7299824882975,"ADDRESS":"9100 S COMMERCIAL AVE 1ST 2 A","YEAR":2013,"DOING_BUSINESS_AS_NAME":"RAMONA'S LOVELY TOUCH ACADEMY","POP_AT_RISK":53106,"BUSINESS_TYPE":"Day Care Center Under 2 and 2 - 6 Years","LEGAL_NAME":"RAMONA LOVELY TOUCH ACADEMY","LONGITUDE":-87.55140126696199},
{"STATE":"IL","ZIP":60626,"LATTITUDE":42.018266967047175,"ADDRESS":"7510 N ASHLAND AVE  ","YEAR":2013,"DOING_BUSINESS_AS_NAME":"HOWARD AREA COMMUNITY CENTER","POP_AT_RISK":595683,"BUSINESS_TYPE":"Day Care Center Under 2 and 2 - 6 Years","LEGAL_NAME":"HOWARD AREA COMMUNITY CENTER","LONGITUDE":-87.67146123134698},
{"STATE":"IL","ZIP":60647,"LATTITUDE":41.92834420497909,"ADDRESS":"3640-3644 W WRIGHTWOOD AVE 1 ","YEAR":2013,"DOING_BUSINESS_AS_NAME":"LITTLE EINSTEINS DAYCARE, INC.","POP_AT_RISK":462432,"BUSINESS_TYPE":"Day Care Center Under 2 and 2 - 6 Years","LEGAL_NAME":"LITTLE EINSTEINS DAYCARE, INC.","LONGITUDE":-87.7187441443834},
{"STATE":"IL","ZIP":60618,"LATTITUDE":41.961359571316414,"ADDRESS":"2756  -02758 W MONTROSE AVE 1ST ","YEAR":2013,"DOING_BUSINESS_AS_NAME":"RAVENSWOOD MANOR CHILD CARE","POP_AT_RISK":215646,"BUSINESS_TYPE":"Day Care Center Under 2 and 2 - 6 Years","LEGAL_NAME":"RAVENSWOOD MANOR CHOLD CARE CE","LONGITUDE":-87.69834212111917},
{"STATE":"IL","ZIP":60616,"LATTITUDE":41.835954885922824,"ADDRESS":"501 E 32ND ST  1ST","YEAR":2013,"DOING_BUSINESS_AS_NAME":"THE CHILDREN'S HOUSE-LK MEADOW","POP_AT_RISK":132156,"BUSINESS_TYPE":"Day Care Center Under 2 and 2 - 6 Years","LEGAL_NAME":"THE CHILDREN'S HOUSE LAKE MEAD","LONGITUDE":-87.61335015397036},
{"STATE":"IL","ZIP":60646,"LATTITUDE":41.98389736844486,"ADDRESS":"5636 N PULASKI RD 1ST ","YEAR":2013,"DOING_BUSINESS_AS_NAME":"WONDER MONTESSORI SCHOOL","POP_AT_RISK":114564,"BUSINESS_TYPE":"Day Care Center Under 2 and 2 - 6 Years","LEGAL_NAME":"WONDER MONTESSORI SCHOOL, INC.","LONGITUDE":-87.72860923179358},
{"STATE":"IL","ZIP":60612,"LATTITUDE":41.86931831972721,"ADDRESS":"1000 S WESTERN AVE 1 ","YEAR":2013,"DOING_BUSINESS_AS_NAME":"SOLID FOUNDATION KIDS CARE INC.","POP_AT_RISK":30299,"BUSINESS_TYPE":"Day Care Center Under 2 and 2 - 6 Years","LEGAL_NAME":"SOLID FOUNDATION KIDS CARE INC.","LONGITUDE":-87.68625822553413},
{"STATE":"IL","ZIP":60640,"LATTITUDE":41.961950302699556,"ADDRESS":"4405-4407 N SHERIDAN RD 1ST ","YEAR":2013,"DOING_BUSINESS_AS_NAME":"418 FAMILY CHILDCARE CENTER","POP_AT_RISK":573867,"BUSINESS_TYPE":"Day Care Center Under 2 and 2 - 6 Years","LEGAL_NAME":"418 FAMILY CHILDCARE CENTER, LLC","LONGITUDE":-87.65460337596932},
{"STATE":"IL","ZIP":60637,"LATTITUDE":41.77726466431455,"ADDRESS":"6445 S COTTAGE GROVE AVE 1ST ","YEAR":2013,"DOING_BUSINESS_AS_NAME":"MILESTONES LEARNING ACADEMY INC.","POP_AT_RISK":76878,"BUSINESS_TYPE":"Day Care Center Under 2 and 2 - 6 Years","LEGAL_NAME":"MILESTONES LEARNING ACADEMY INC.","LONGITUDE":-87.60571373200004},
{"STATE":"IL","ZIP":60647,"LATTITUDE":41.913925247245835,"ADDRESS":"1800 N HUMBOLDT BLVD 1ST ","YEAR":2013,"DOING_BUSINESS_AS_NAME":"THE CHILDREN'S PLACE ASSN","POP_AT_RISK":831404,"BUSINESS_TYPE":"Day Care Center Under 2 and 2 - 6 Years","LEGAL_NAME":"THE CHILDREN'S PLACE ASSOCIATION","LONGITUDE":-87.70212764503852},
{"STATE":"IL","ZIP":60617,"LATTITUDE":41.71321088719611,"ADDRESS":"10009 S YATES AVE  ","YEAR":2013,"DOING_BUSINESS_AS_NAME":"A-ILLINOIS INSTITUTE FOR CHILDREN","POP_AT_RISK":23752,"BUSINESS_TYPE":"Day Care Center Under 2 and 2 - 6 Years","LEGAL_NAME":"A-ILLINOIS INSTITUTE FOR CHILDREN","LONGITUDE":-87.56443615534658},
{"STATE":"IL","ZIP":60621,"LATTITUDE":41.75849224541273,"ADDRESS":"7453 S VINCENNES AVE 1ST FL-GROUNDLEVEL ","YEAR":2013,"DOING_BUSINESS_AS_NAME":"KIDS ARE US LEARNING CENTER","POP_AT_RISK":26882,"BUSINESS_TYPE":"Day Care Center Under 2 and 2 - 6 Years","LEGAL_NAME":"KIDS ARE US LEARNING CENTER, INC.","LONGITUDE":-87.63105072780108},
{"STATE":"IL","ZIP":60617,"LATTITUDE":41.74007573456715,"ADDRESS":"8515 S STONY ISLAND AVE 1 ","YEAR":2013,"DOING_BUSINESS_AS_NAME":"LINKS TO LEARNING CHILD CARE","POP_AT_RISK":89121,"BUSINESS_TYPE":"Day Care Center Under 2 and 2 - 6 Years","LEGAL_NAME":"LINKS TO LEARNING CHILD CARE INC.","LONGITUDE":-87.58512838435209},
{"STATE":"IL","ZIP":60655,"LATTITUDE":41.69148728951806,"ADDRESS":"3656 W 111TH ST 1 ","YEAR":2013,"DOING_BUSINESS_AS_NAME":"MUSTARDSEED LEARNING CENTER, INC.","POP_AT_RISK":171816,"BUSINESS_TYPE":"Day Care Center Under 2 and 2 - 6 Years","LEGAL_NAME":"MUSTARDSEED LEARNING CENTER, INC.","LONGITUDE":-87.71287071367232},
{"STATE":"IL","ZIP":60639,"LATTITUDE":41.90965650098216,"ADDRESS":"4339-4341 W NORTH AVE  ","YEAR":2013,"DOING_BUSINESS_AS_NAME":"NORTH STAR CHILD DEVELOPMENT, INC","POP_AT_RISK":224960,"BUSINESS_TYPE":"Day Care Center Under 2 and 2 - 6 Years","LEGAL_NAME":"NORTH STAR CHILD DEVELOPMENT, INC","LONGITUDE":-87.73555554670955},
{"STATE":"IL","ZIP":60640,"LATTITUDE":41.97337729801931,"ADDRESS":"1108 W ARGYLE ST 1ST ","YEAR":2013,"DOING_BUSINESS_AS_NAME":"TENDER DAY CARE CENTER INCORPORATED","POP_AT_RISK":495568,"BUSINESS_TYPE":"Day Care Center Under 2 and 2 - 6 Years","LEGAL_NAME":"TENDER DAY CARE CENTER INCORPORATED","LONGITUDE":-87.65815899052997},
{"STATE":"IL","ZIP":60707,"LATTITUDE":41.915192484218764,"ADDRESS":"1927-1929 N HARLEM AVE  ","YEAR":2013,"DOING_BUSINESS_AS_NAME":"LOVING TOUCH DAYCARE PROVIDERS INC","POP_AT_RISK":100179,"BUSINESS_TYPE":"Day Care Center Under 2 and 2 - 6 Years","LEGAL_NAME":"LOVING TOUCH DAYCARE PROVIDERS, INC.","LONGITUDE":-87.80582794273202},
{"STATE":"IL","ZIP":60623,"LATTITUDE":41.862305336370426,"ADDRESS":"1400 S KOLIN AVE 1ST ","YEAR":2013,"DOING_BUSINESS_AS_NAME":"VILLAGE OF HOPE LEARNING CENTER","POP_AT_RISK":375540,"BUSINESS_TYPE":"Day Care Center Under 2 and 2 - 6 Years","LEGAL_NAME":"VILLAGE OF HOPE LEARNING CENTER, INC.","LONGITUDE":-87.73376910044355},
{"STATE":"IL","ZIP":60637,"LATTITUDE":41.79378821758089,"ADDRESS":"5548 S HYDE PARK BLVD 1ST ","YEAR":2013,"DOING_BUSINESS_AS_NAME":"AMERICAN KIDZ ACADEMY, LLC - HYDE PARK","POP_AT_RISK":292122,"BUSINESS_TYPE":"Day Care Center Under 2 and 2 - 6 Years","LEGAL_NAME":"AMERICAN KIDZ ACADEMY, LLC - HYDE PARK","LONGITUDE":-87.58406146354389},
{"STATE":"IL","ZIP":60607,"LATTITUDE":41.8719961299128,"ADDRESS":"801 S CANAL ST 1 1","YEAR":2013,"DOING_BUSINESS_AS_NAME":"THE NORTHERN TRUST CHILD CARE CENTER","POP_AT_RISK":36014,"BUSINESS_TYPE":"Day Care Center Under 2 and 2 - 6 Years","LEGAL_NAME":"BRIGHT HORIZONS CHILDREN'S CENTERS LLC","LONGITUDE":-87.63920429168549},
{"STATE":"IL","ZIP":60609,"LATTITUDE":41.82898408178605,"ADDRESS":"3575 S ARCHER AVE  ","YEAR":2013,"DOING_BUSINESS_AS_NAME":"ARCHER AVENUE LEARNING STATION, INC","POP_AT_RISK":91188,"BUSINESS_TYPE":"Day Care Center Under 2 and 2 - 6 Years","LEGAL_NAME":"MONTESSORI FOUNDATIONS OF CHICAGO, INC.","LONGITUDE":-87.67971508964543},
{"STATE":"IL","ZIP":60652,"LATTITUDE":41.74355478944242,"ADDRESS":"8225 - 8229 S KEDZIE AVE 1ST ","YEAR":2013,"DOING_BUSINESS_AS_NAME":"CHIPPER PRESCHOOL AND KINDERGARTEN, INC.","POP_AT_RISK":83454,"BUSINESS_TYPE":"Day Care Center Under 2 and 2 - 6 Years","LEGAL_NAME":"CHIPPER PRESCHOOL AND KINDERGARTEN, INC.","LONGITUDE":-87.70207306657721},
{"STATE":"IL","ZIP":60614,"LATTITUDE":41.92390630404291,"ADDRESS":"2301 N CLARK ST 1ST & 2ND 100&200","YEAR":2013,"DOING_BUSINESS_AS_NAME":"LITTLE GEMS INTERNATIONAL (BELDEN), INC.","POP_AT_RISK":672518,"BUSINESS_TYPE":"Day Care Center Under 2 and 2 - 6 Years","LEGAL_NAME":"LITTLE GEMS INTERNATIONAL (BELDEN), INC.","LONGITUDE":-87.63928669557026},
{"STATE":"IL","ZIP":60659,"LATTITUDE":41.997164131325896,"ADDRESS":"3613 W DEVON AVE  ","YEAR":2013,"DOING_BUSINESS_AS_NAME":"LITTLE ANGELS EARLY CHILDHOOD CENTER","POP_AT_RISK":133456,"BUSINESS_TYPE":"Day Care Center Under 2 and 2 - 6 Years","LEGAL_NAME":"LITTLE ANGELS EARLY CHILDHOOD CENTER, INC.","LONGITUDE":-87.71963744251987},
{"STATE":"IL","ZIP":60628,"LATTITUDE":41.67810462150491,"ADDRESS":"106 W 119TH ST 1 ","YEAR":2013,"DOING_BUSINESS_AS_NAME":"LAUGHS AND GIGGLES CHILDREN'S ACADEMY, INC.","POP_AT_RISK":208480,"BUSINESS_TYPE":"Day Care Center Under 2 and 2 - 6 Years","LEGAL_NAME":"LAUGHS AND GIGGLES CHILDREN'S ACADEMY, INC.","LONGITUDE":-87.62543873888082},
{"STATE":"IL","ZIP":60653,"LATTITUDE":41.809588233119534,"ADDRESS":"624-626 E 47TH ST 1ST ","YEAR":2013,"DOING_BUSINESS_AS_NAME":"PRECIOUS LITTLE ONE'S LEARNING CENTER, INC.","POP_AT_RISK":207670,"BUSINESS_TYPE":"Day Care Center Under 2 and 2 - 6 Years","LEGAL_NAME":"PRECIOUS LITTLE ONE'S LEARNING CENTER, INC.","LONGITUDE":-87.61036179915281},
{"STATE":"IL","ZIP":60636,"LATTITUDE":41.75937734623751,"ADDRESS":"1459 W 74TH ST 1 ","YEAR":2013,"DOING_BUSINESS_AS_NAME":"THE CRYSTAL PALACE EARLY LITERACY ZONE","POP_AT_RISK":85890,"BUSINESS_TYPE":"Day Care Center Under 2 and 2 - 6 Years","LEGAL_NAME":"THE CRYSTAL PALACE EARLY LITERACY ZONE, LLC","LONGITUDE":-87.66111539963164},
{"STATE":"IL","ZIP":60628,"LATTITUDE":41.70556659418179,"ADDRESS":"901 E 104TH ST 1 1","YEAR":2013,"DOING_BUSINESS_AS_NAME":"TEENCHY WEENCHY DAYCARE & LEARNING CENTER INC.,","POP_AT_RISK":44256,"BUSINESS_TYPE":"Day Care Center Under 2 and 2 - 6 Years","LEGAL_NAME":"TEENCHY WEENCHY DAYCARE & LEARNING CENTER INC.","LONGITUDE":-87.60107403032647},
{"STATE":"IL","ZIP":60657,"LATTITUDE":41.938253305553516,"ADDRESS":"3111 N ASHLAND AVE 1ST ","YEAR":2013,"DOING_BUSINESS_AS_NAME":"LITTLE GREEN TREE HOUSE","POP_AT_RISK":1024920,"BUSINESS_TYPE":"Day Care Center Under 2 and 2 - 6 Years","LEGAL_NAME":"CHILDREN'S ACADEMIES OF AMERICA ASHLAND II, LLC","LONGITUDE":-87.66846320182256},
{"STATE":"IL","ZIP":60617,"LATTITUDE":41.703336347386745,"ADDRESS":"10540 - 44 S EWING AVE 1 ","YEAR":2013,"DOING_BUSINESS_AS_NAME":"SHINING STAR CHILD DEVELOPMENT","POP_AT_RISK":122485,"BUSINESS_TYPE":"Day Care Center Under 2 and 2 - 6 Years","LEGAL_NAME":"SHINING STAR CHILD DEVELOPMENT INSTITUTE OF THE ARTS INC.","LONGITUDE":-87.5354317383637},
{"STATE":"IL","ZIP":60619,"LATTITUDE":41.72307016222301,"ADDRESS":"9415 S STATE ST 1 1","YEAR":2013,"DOING_BUSINESS_AS_NAME":"LEARN TOGETHER GROW TOGETHER CHILD DEVELOPMENT CENTER.","POP_AT_RISK":291220,"BUSINESS_TYPE":"Day Care Center Under 2 and 2 - 6 Years","LEGAL_NAME":"LEARN TOGETHER GROW TOGETHER CHILD DEVELOPMENT CENTER, INC.","LONGITUDE":-87.62363920238678},
{}]