[
{"STATE":"IL","ZIP":60609,"LATTITUDE":41.808019524670456,"ADDRESS":"4714 S DAMEN AVE  1","YEAR":2003,"DOING_BUSINESS_AS_NAME":"LETTY'S UNISEX","POP_AT_RISK":79874,"BUSINESS_TYPE":"Limited Business License","LEGAL_NAME":"JOSE DIAZ","LONGITUDE":-87.67481984864939},
{"STATE":"IL","ZIP":60656,"LATTITUDE":41.979323503887386,"ADDRESS":"8604 W CATALPA AVE  ","YEAR":2003,"DOING_BUSINESS_AS_NAME":"AVAYA INC.","POP_AT_RISK":105845,"BUSINESS_TYPE":"Limited Business License","LEGAL_NAME":"AVAYA INC.","LONGITUDE":-87.84179864293878},
{"STATE":"IL","ZIP":60616,"LATTITUDE":41.83833220265858,"ADDRESS":"222 W 31ST ST  1","YEAR":2003,"DOING_BUSINESS_AS_NAME":"JEFF PRODUCTION CO","POP_AT_RISK":332055,"BUSINESS_TYPE":"Limited Business License","LEGAL_NAME":"JEFF JIANG","LONGITUDE":-87.63265912067585},
{"STATE":"IL","ZIP":60644,"LATTITUDE":41.8804123326233,"ADDRESS":"5408 W MADISON ST  ","YEAR":2003,"DOING_BUSINESS_AS_NAME":"WOMAN'S HAIR STUDIO","POP_AT_RISK":47312,"BUSINESS_TYPE":"Limited Business License","LEGAL_NAME":"EVAN LOFTON","LONGITUDE":-87.76053494237858},
{"STATE":"IL","ZIP":60626,"LATTITUDE":42.00794684594479,"ADDRESS":"1600 W MORSE AVE  ","YEAR":2003,"DOING_BUSINESS_AS_NAME":"KONEKSYON","POP_AT_RISK":148128,"BUSINESS_TYPE":"Limited Business License","LEGAL_NAME":"TASHA PRATT","LONGITUDE":-87.67014617460978},
{"STATE":"IL","ZIP":60647,"LATTITUDE":41.91761981058438,"ADDRESS":"1948 N LEAVITT ST 1ST ","YEAR":2003,"DOING_BUSINESS_AS_NAME":"ARMITAGE TIRE SERVICE","POP_AT_RISK":191805,"BUSINESS_TYPE":"Limited Business License","LEGAL_NAME":"BARTON JAMES","LONGITUDE":-87.68266507738457},
{"STATE":"IL","ZIP":60620,"LATTITUDE":41.72787706541583,"ADDRESS":"9111 S WESTERN AVE  ","YEAR":2003,"DOING_BUSINESS_AS_NAME":"OVER FORTY FITNESS STUDIO","POP_AT_RISK":86220,"BUSINESS_TYPE":"Limited Business License","LEGAL_NAME":"DORIS R KING","LONGITUDE":-87.68213103188249},
{"STATE":"IL","ZIP":60651,"LATTITUDE":41.90121389720315,"ADDRESS":"1111 N PULASKI RD 1ST ","YEAR":2003,"DOING_BUSINESS_AS_NAME":"ROYAL CLEANERS","POP_AT_RISK":256885,"BUSINESS_TYPE":"Limited Business License","LEGAL_NAME":"GWANG H KWON","LONGITUDE":-87.7261133044823},
{"STATE":"IL","ZIP":60621,"LATTITUDE":41.787908894942774,"ADDRESS":"5843 S STATE ST  ","YEAR":2003,"DOING_BUSINESS_AS_NAME":"KENNEDYS HAIR SALON","POP_AT_RISK":91156,"BUSINESS_TYPE":"Limited Business License","LEGAL_NAME":"DOUGLAS GREER","LONGITUDE":-87.62538141329063},
{"STATE":"IL","ZIP":60636,"LATTITUDE":41.760962787452,"ADDRESS":"7301  -07309 S WESTERN AVE # 1ST","YEAR":2003,"DOING_BUSINESS_AS_NAME":"TRUST AUTO SALES","POP_AT_RISK":91230,"BUSINESS_TYPE":"Limited Business License","LEGAL_NAME":"IBRAHIM SAYES","LONGITUDE":-87.68300147231376},
{"STATE":"IL","ZIP":60641,"LATTITUDE":41.933944015245004,"ADDRESS":"2920 1\/2 N CICERO AVE  ","YEAR":2003,"DOING_BUSINESS_AS_NAME":"SYNC","POP_AT_RISK":184290,"BUSINESS_TYPE":"Limited Business License","LEGAL_NAME":"TAI SUNG PARK","LONGITUDE":-87.74683565781527},
{"STATE":"IL","ZIP":60628,"LATTITUDE":41.7215181179691,"ADDRESS":"253 W 95TH ST  ","YEAR":2003,"DOING_BUSINESS_AS_NAME":"ADWOA CUSTOMIZED SERVICES","POP_AT_RISK":108400,"BUSINESS_TYPE":"Limited Business License","LEGAL_NAME":"BARBARA PILLOW","LONGITUDE":-87.63081306915846},
{"STATE":"IL","ZIP":60653,"LATTITUDE":41.80943497068632,"ADDRESS":"220 E 47TH ST  ","YEAR":2003,"DOING_BUSINESS_AS_NAME":"SPORTS MAXX","POP_AT_RISK":201816,"BUSINESS_TYPE":"Limited Business License","LEGAL_NAME":"BYUNG SOO KANG","LONGITUDE":-87.62022410900799},
{"STATE":"IL","ZIP":60639,"LATTITUDE":41.92424691253505,"ADDRESS":"4417 W FULLERTON AVE 1ST ","YEAR":2003,"DOING_BUSINESS_AS_NAME":"N D VIDEO INC","POP_AT_RISK":201342,"BUSINESS_TYPE":"Limited Business License","LEGAL_NAME":"DAHESH R PATEL","LONGITUDE":-87.7372534964716},
{"STATE":"IL","ZIP":60640,"LATTITUDE":41.98342009074442,"ADDRESS":"5555 N BROADWAY   ","YEAR":2003,"DOING_BUSINESS_AS_NAME":"DIANE FAMILY SHOPPER","POP_AT_RISK":309212,"BUSINESS_TYPE":"Limited Business License","LEGAL_NAME":"DIANE M. CHONG","LONGITUDE":-87.65991581678234},
{"STATE":"IL","ZIP":60707,"LATTITUDE":41.92375020104243,"ADDRESS":"6560 W FULLERTON AVE  A","YEAR":2003,"DOING_BUSINESS_AS_NAME":"FRANK'S NURSERY","POP_AT_RISK":196210,"BUSINESS_TYPE":"Limited Business License","LEGAL_NAME":"FRANKS NURSERY","LONGITUDE":-87.78988085962634},
{"STATE":"IL","ZIP":60617,"LATTITUDE":41.74269984844993,"ADDRESS":"8401 S MUSKEGON AVE  ","YEAR":2003,"DOING_BUSINESS_AS_NAME":"LA MODERNA","POP_AT_RISK":166235,"BUSINESS_TYPE":"Limited Business License","LEGAL_NAME":"HECTOR ZAMUDIO","LONGITUDE":-87.55501855817249},
{"STATE":"IL","ZIP":60614,"LATTITUDE":41.92390845485592,"ADDRESS":"2300 N LINCOLN PARK WEST   A-3","YEAR":2003,"DOING_BUSINESS_AS_NAME":"JAY & CO SALON","POP_AT_RISK":49985,"BUSINESS_TYPE":"Limited Business License","LEGAL_NAME":"JAY & CO SALON","LONGITUDE":-87.63666316560742},
{"STATE":"IL","ZIP":60608,"LATTITUDE":41.866696523611786,"ADDRESS":"2500 W ROOSEVELT RD  ","YEAR":2003,"DOING_BUSINESS_AS_NAME":"METRO PAVING","POP_AT_RISK":105954,"BUSINESS_TYPE":"Limited Business License","LEGAL_NAME":"SAMUEL STEWART","LONGITUDE":-87.6885118190167},
{"STATE":"IL","ZIP":60609,"LATTITUDE":41.802788992694836,"ADDRESS":"5030 S STATE ST  ","YEAR":2003,"DOING_BUSINESS_AS_NAME":"FRESH FUNKY II","POP_AT_RISK":24478,"BUSINESS_TYPE":"Limited Business License","LEGAL_NAME":"ALONZO ANDERSON","LONGITUDE":-87.62605758462624},
{"STATE":"IL","ZIP":60632,"LATTITUDE":41.81128664727795,"ADDRESS":"4503 S KILDARE BLVD  ","YEAR":2003,"DOING_BUSINESS_AS_NAME":"T.C. PRINTING","POP_AT_RISK":36206,"BUSINESS_TYPE":"Limited Business License","LEGAL_NAME":"JUAN M TRUJILLO","LONGITUDE":-87.73105647147105},
{"STATE":"IL","ZIP":60636,"LATTITUDE":41.78669130198213,"ADDRESS":"1423 W 59TH ST  ","YEAR":2003,"DOING_BUSINESS_AS_NAME":"SERRANO TRUCKING COMPANY","POP_AT_RISK":240674,"BUSINESS_TYPE":"Limited Business License","LEGAL_NAME":"LUCIANO SERRANO","LONGITUDE":-87.66060321735685},
{"STATE":"IL","ZIP":60649,"LATTITUDE":41.75163984161087,"ADDRESS":"2437 E 79TH ST 1ST ","YEAR":2003,"DOING_BUSINESS_AS_NAME":"J & A RECORDS","POP_AT_RISK":220458,"BUSINESS_TYPE":"Limited Business License","LEGAL_NAME":"SYLVESTER ADAMS","LONGITUDE":-87.56478750253484},
{"STATE":"IL","ZIP":60659,"LATTITUDE":41.98829003222841,"ADDRESS":"5875 N LINCOLN AVE  1FL 1","YEAR":2003,"DOING_BUSINESS_AS_NAME":"HENDERSON ENTERPRISE","POP_AT_RISK":119460,"BUSINESS_TYPE":"Limited Business License","LEGAL_NAME":"EDWARD HENDERSON","LONGITUDE":-87.70361949714464},
{"STATE":"IL","ZIP":60636,"LATTITUDE":41.786539473747425,"ADDRESS":"5901 S DAMEN AVE  ","YEAR":2003,"DOING_BUSINESS_AS_NAME":"Suitable","POP_AT_RISK":41389,"BUSINESS_TYPE":"Limited Business License","LEGAL_NAME":"FELICIA R. WILSON","LONGITUDE":-87.67394992922162},
{"STATE":"IL","ZIP":60628,"LATTITUDE":41.67515734025497,"ADDRESS":"12040 S DOTY AVE  1","YEAR":2003,"DOING_BUSINESS_AS_NAME":"HARRIS LUBRICANTS","POP_AT_RISK":41412,"BUSINESS_TYPE":"Limited Business License","LEGAL_NAME":"HARRIS LUBRICANTS","LONGITUDE":-87.60181508720906},
{"STATE":"IL","ZIP":60608,"LATTITUDE":41.84891743722091,"ADDRESS":"2350 S WOOD ST 2ND ","YEAR":2003,"DOING_BUSINESS_AS_NAME":"JEKA TRANSPORT INC","POP_AT_RISK":117084,"BUSINESS_TYPE":"Limited Business License","LEGAL_NAME":"JEKA TRANSPORT INC","LONGITUDE":-87.67098277169823},
{"STATE":"IL","ZIP":60659,"LATTITUDE":41.99775478924851,"ADDRESS":"2600 W DEVON AVE  ","YEAR":2003,"DOING_BUSINESS_AS_NAME":"SOUTH INDIA MUSIC","POP_AT_RISK":183903,"BUSINESS_TYPE":"Limited Business License","LEGAL_NAME":"SOUTH INDIAN VIDEO","LONGITUDE":-87.69482972221137},
{"STATE":"IL","ZIP":60644,"LATTITUDE":41.86882025807945,"ADDRESS":"4700 W FIFTH AVE  ","YEAR":2003,"DOING_BUSINESS_AS_NAME":"XL INDUSTRIAL SERVICE COMPANY","POP_AT_RISK":71036,"BUSINESS_TYPE":"Limited Business License","LEGAL_NAME":"CUAUHTEMOC CASTILLO","LONGITUDE":-87.74254190517817},
{"STATE":"IL","ZIP":60638,"LATTITUDE":41.79624915577635,"ADDRESS":"5333 S LARAMIE AVE 2 203","YEAR":2003,"DOING_BUSINESS_AS_NAME":"MARCA MED MGMT","POP_AT_RISK":10247,"BUSINESS_TYPE":"Limited Business License","LEGAL_NAME":"MARCA INDUSTRIES INC","LONGITUDE":-87.75245264211209},
{"STATE":"IL","ZIP":60623,"LATTITUDE":41.837039355647114,"ADDRESS":"3355 W 31ST ST  ","YEAR":2003,"DOING_BUSINESS_AS_NAME":"CROWN STEEL SALES INC","POP_AT_RISK":68003,"BUSINESS_TYPE":"Limited Business License","LEGAL_NAME":"CROWN STEEL SALES INC","LONGITUDE":-87.70947264318215},
{"STATE":"IL","ZIP":60621,"LATTITUDE":41.758198311248314,"ADDRESS":"344 W 75TH ST  ","YEAR":2003,"DOING_BUSINESS_AS_NAME":"JORDAN ENTERPRISE INC","POP_AT_RISK":56934,"BUSINESS_TYPE":"Limited Business License","LEGAL_NAME":"JORDAN ENTERPRISE INC","LONGITUDE":-87.63384092701949},
{"STATE":"IL","ZIP":60624,"LATTITUDE":41.8873728963437,"ADDRESS":"3311 W CARROLL AVE  ","YEAR":2003,"DOING_BUSINESS_AS_NAME":"COLOREASE","POP_AT_RISK":122080,"BUSINESS_TYPE":"Limited Business License","LEGAL_NAME":"ADVANTAGE PRODUCTS LTD","LONGITUDE":-87.70934278224733},
{"STATE":"IL","ZIP":60629,"LATTITUDE":41.786581268040905,"ADDRESS":"2620 W 59TH ST 1ST ","YEAR":2003,"DOING_BUSINESS_AS_NAME":"EIC AUTO ELECTRIC INC.","POP_AT_RISK":496881,"BUSINESS_TYPE":"Limited Business License","LEGAL_NAME":"EIC AUTO ELECTRIC INC.","LONGITUDE":-87.68969686925234},
{"STATE":"IL","ZIP":60609,"LATTITUDE":41.82776702806731,"ADDRESS":"3623 S LAFLIN PL 1ST ","YEAR":2003,"DOING_BUSINESS_AS_NAME":"SEE ALL INDUSTRIES INC","POP_AT_RISK":30445,"BUSINESS_TYPE":"Limited Business License","LEGAL_NAME":"SEE ALL INDUSTRIES INC","LONGITUDE":-87.66314641469017},
{"STATE":"IL","ZIP":60639,"LATTITUDE":41.91482042670598,"ADDRESS":"1900 N AUSTIN AVE 1ST ","YEAR":2003,"DOING_BUSINESS_AS_NAME":"TRANSO ENVELOPE CO LLC","POP_AT_RISK":100074,"BUSINESS_TYPE":"Limited Business License","LEGAL_NAME":"TRANSO ENVELOPE CO LLC","LONGITUDE":-87.77555966968384},
{"STATE":"IL","ZIP":60655,"LATTITUDE":41.69793767496546,"ADDRESS":"10727 S PULASKI RD 1ST ","YEAR":2003,"DOING_BUSINESS_AS_NAME":"D.F.CURLEY SONS INC","POP_AT_RISK":160506,"BUSINESS_TYPE":"Limited Business License","LEGAL_NAME":"D. F. CURLEY SONS, INC.","LONGITUDE":-87.7204632123981},
{"STATE":"IL","ZIP":60637,"LATTITUDE":41.769382292341554,"ADDRESS":"230 E 69TH ST  ","YEAR":2003,"DOING_BUSINESS_AS_NAME":"Tatum Funeral Services","POP_AT_RISK":31035,"BUSINESS_TYPE":"Limited Business License","LEGAL_NAME":"TATUM ENTERPRISES, INC.","LONGITUDE":-87.61890509372986},
{"STATE":"IL","ZIP":60629,"LATTITUDE":41.790374650603326,"ADDRESS":"5635 S PULASKI RD  1ST","YEAR":2003,"DOING_BUSINESS_AS_NAME":"MERCY MEDICAL ON PULASKI","POP_AT_RISK":99102,"BUSINESS_TYPE":"Limited Business License","LEGAL_NAME":"MERCY MEDICAL ON PULASKI","LONGITUDE":-87.7229362728239},
{"STATE":"IL","ZIP":60652,"LATTITUDE":41.74986700339312,"ADDRESS":"2545 W 79TH ST  ","YEAR":2003,"DOING_BUSINESS_AS_NAME":"TOTAL PLASTIC COVERS INC","POP_AT_RISK":58136,"BUSINESS_TYPE":"Limited Business License","LEGAL_NAME":"TOTAL PLASTIC COVERS INC","LONGITUDE":-87.68702529248056},
{"STATE":"IL","ZIP":60630,"LATTITUDE":41.96847741855787,"ADDRESS":"5867 W GUNNISON ST  ","YEAR":2003,"DOING_BUSINESS_AS_NAME":"AMERICAN NATIONAL BUILDERS","POP_AT_RISK":175696,"BUSINESS_TYPE":"Limited Business License","LEGAL_NAME":"AMERICAN NATIONAL BUILDERS","LONGITUDE":-87.77520528027266},
{"STATE":"IL","ZIP":60615,"LATTITUDE":41.79521863458298,"ADDRESS":"1340 E 55TH ST  1ST","YEAR":2003,"DOING_BUSINESS_AS_NAME":"EX LIBRIS THEOLOGICAL BOOKS","POP_AT_RISK":777798,"BUSINESS_TYPE":"Limited Business License","LEGAL_NAME":"EX LIBRIS THEOLOGICAL BOOKS","LONGITUDE":-87.59329840236423},
{"STATE":"IL","ZIP":60619,"LATTITUDE":41.754504307392594,"ADDRESS":"7701 S STATE ST  ","YEAR":2003,"DOING_BUSINESS_AS_NAME":"HALSTED ST SPARKLE CAR WAS","POP_AT_RISK":36516,"BUSINESS_TYPE":"Limited Business License","LEGAL_NAME":"HALSTED ST SPARKLE CAR WASH","LONGITUDE":-87.62449585083768},
{"STATE":"IL","ZIP":60634,"LATTITUDE":41.95302954251914,"ADDRESS":"5715 W IRVING PARK RD  ","YEAR":2003,"DOING_BUSINESS_AS_NAME":"MERCY'S DRESS SHOPPE","POP_AT_RISK":220500,"BUSINESS_TYPE":"Limited Business License","LEGAL_NAME":"MERCEDITA & EFREN TOMENBANG","LONGITUDE":-87.7700577885576},
{"STATE":"IL","ZIP":60618,"LATTITUDE":41.93357222502643,"ADDRESS":"2878 N MILWAUKEE AVE 1ST ","YEAR":2003,"DOING_BUSINESS_AS_NAME":"METRO CITY REAL ESTATE CORP","POP_AT_RISK":66806,"BUSINESS_TYPE":"Limited Business License","LEGAL_NAME":"METRO CITY REAL ESTATE CORP","LONGITUDE":-87.71501813057985},
{"STATE":"IL","ZIP":60619,"LATTITUDE":41.7511582150235,"ADDRESS":"741-743 E 79TH ST  ","YEAR":2003,"DOING_BUSINESS_AS_NAME":"TOP COLLECTION","POP_AT_RISK":193840,"BUSINESS_TYPE":"Limited Business License","LEGAL_NAME":"TOP COLLECTION CLOTHING INC.","LONGITUDE":-87.60603987502624},
{"STATE":"IL","ZIP":60651,"LATTITUDE":41.90190470552494,"ADDRESS":"5935 W DIVISION ST 1ST ","YEAR":2003,"DOING_BUSINESS_AS_NAME":"AFRICA TERANGA HAIR BRAIDING","POP_AT_RISK":81866,"BUSINESS_TYPE":"Limited Business License","LEGAL_NAME":"BADARA DIAKHATE\/MOHAMET NDIAYE","LONGITUDE":-87.77429154043571},
{"STATE":"IL","ZIP":60624,"LATTITUDE":41.866492427615654,"ADDRESS":"3252 W ROOSEVELT RD  SPACE","YEAR":2003,"DOING_BUSINESS_AS_NAME":"FOOTACTION U S A #688","POP_AT_RISK":40035,"BUSINESS_TYPE":"Limited Business License","LEGAL_NAME":"LAWNDALE PLAZA FOOTACTION, INC","LONGITUDE":-87.70780846163241},
{"STATE":"IL","ZIP":60628,"LATTITUDE":41.676420517299825,"ADDRESS":"11946 S HALSTED ST 1ST ","YEAR":2003,"DOING_BUSINESS_AS_NAME":"NICOLE'S HEATING A\/C & PLUMBIN","POP_AT_RISK":199640,"BUSINESS_TYPE":"Limited Business License","LEGAL_NAME":"NICOLE'S HEATING A\/C & PLUMBIN","LONGITUDE":-87.64200831937629},
{"STATE":"IL","ZIP":60638,"LATTITUDE":41.774369206688164,"ADDRESS":"5401 W 65TH ST  1","YEAR":2003,"DOING_BUSINESS_AS_NAME":"FALCON MIDWEST INC","POP_AT_RISK":15247,"BUSINESS_TYPE":"Limited Business License","LEGAL_NAME":"RASHID A CHAUDARY & ASSOCIATES","LONGITUDE":-87.75684989467581},
{"STATE":"IL","ZIP":60631,"LATTITUDE":41.994767139778375,"ADDRESS":"6219 N NORTHWEST HWY 1ST ","YEAR":2003,"DOING_BUSINESS_AS_NAME":"THE BLUE SPIDER ART STUDIO","POP_AT_RISK":95712,"BUSINESS_TYPE":"Limited Business License","LEGAL_NAME":"THE BLUE SPIDER ART STUDIO INC","LONGITUDE":-87.80285511337344},
{"STATE":"IL","ZIP":60628,"LATTITUDE":41.707127941735905,"ADDRESS":"135 E 103RD ST 1ST ","YEAR":2003,"DOING_BUSINESS_AS_NAME":"BARBEE'S FITNESS EMPORIUM","POP_AT_RISK":75360,"BUSINESS_TYPE":"Limited Business License","LEGAL_NAME":"BARBEE'S FITNESS EMPORIUM, INC.","LONGITUDE":-87.6187178637625},
{"STATE":"IL","ZIP":60638,"LATTITUDE":41.78058065043016,"ADDRESS":"6150 S LARAMIE AVE  ","YEAR":2003,"DOING_BUSINESS_AS_NAME":"JET AVIATION","POP_AT_RISK":12546,"BUSINESS_TYPE":"Limited Business License","LEGAL_NAME":"JET AVIATION FLIGHT SERVICES, INC.","LONGITUDE":-87.75268097816075},
{"STATE":"IL","ZIP":60628,"LATTITUDE":41.7218041410881,"ADDRESS":"9501 S DR MARTIN LUTHER KING JR DR  460","YEAR":2003,"DOING_BUSINESS_AS_NAME":"CHICAGO STATE UNIVERSITY BOOKSTORE","POP_AT_RISK":90280,"BUSINESS_TYPE":"Limited Business License","LEGAL_NAME":"FOLLETT HIGHER EDUCATION GROUP, INC","LONGITUDE":-87.61399411519453},
{"STATE":"IL","ZIP":60652,"LATTITUDE":41.75465491949761,"ADDRESS":"7600 S CICERO  1502 ","YEAR":2003,"DOING_BUSINESS_AS_NAME":"MEXICAN AMERCAN HISTORICAL MUSEUM","POP_AT_RISK":129110,"BUSINESS_TYPE":"Limited Business License","LEGAL_NAME":"CHICAGO CENTER FOR MEXICAN AMERICAN HISTORICAL AND CULTURAL STUDIES","LONGITUDE":-87.7416778641875},
{}]