[
  {
    "BUSINESS_TYPE": "Secondhand Dealer", 
    "LEGAL_NAME": "ROYAL BROTHERS INC", 
    "STATE": "IL", 
    "DOING_BUSINESS_AS_NAME": "GOLDEN DEAL", 
    "POP_AT_RISK": 41260, 
    "ZIP": 60619, 
    "ADDRESS": "607 E 79TH ST 1ST", 
    "YEAR": 2014, 
    "LONGITUDE": -87.609766856, 
    "LATTITUDE": 41.751095104
  }, 
  {
    "BUSINESS_TYPE": "Secondhand Dealer", 
    "LEGAL_NAME": "GAMESTOP, INC.", 
    "STATE": "IL", 
    "DOING_BUSINESS_AS_NAME": "Gamestop #5182", 
    "POP_AT_RISK": 14129, 
    "ZIP": 60643, 
    "ADDRESS": "2320 W 95TH ST", 
    "YEAR": 2014, 
    "LONGITUDE": -87.680595507, 
    "LATTITUDE": 41.721070914
  }, 
  {
    "BUSINESS_TYPE": "Secondhand Dealer", 
    "LEGAL_NAME": "OLYMPIC STORE FIXTURES INC", 
    "STATE": "IL", 
    "DOING_BUSINESS_AS_NAME": "OLYMPIC STORE FIXTURES INC", 
    "POP_AT_RISK": 23962, 
    "ZIP": 60638, 
    "ADDRESS": "4758 S CICERO AVE 1ST", 
    "YEAR": 2014, 
    "LONGITUDE": -87.743255101, 
    "LATTITUDE": 41.805889645
  }, 
  {
    "BUSINESS_TYPE": "Secondhand Dealer", 
    "LEGAL_NAME": "WILLIE M. MWACHANDE", 
    "STATE": "IL", 
    "DOING_BUSINESS_AS_NAME": "RITE DEALS", 
    "POP_AT_RISK": 69655, 
    "ZIP": 60659, 
    "ADDRESS": "2422 W DEVON AVE 1ST", 
    "YEAR": 2014, 
    "LONGITUDE": -87.690876344, 
    "LATTITUDE": 41.997822473
  }, 
  {
    "BUSINESS_TYPE": "Secondhand Dealer", 
    "LEGAL_NAME": "HELIX LIMITED", 
    "STATE": "IL", 
    "DOING_BUSINESS_AS_NAME": "HELIX LIMITED-COLOR SERVICE- SPEEDOTRON CORP", 
    "POP_AT_RISK": 39868, 
    "ZIP": 60607, 
    "ADDRESS": "310 S RACINE AVE 1-4", 
    "YEAR": 2014, 
    "LONGITUDE": -87.657157985, 
    "LATTITUDE": 41.877430702
  }, 
  {
    "BUSINESS_TYPE": "Secondhand Dealer", 
    "LEGAL_NAME": "GET CASH FOR GOLD INC.", 
    "STATE": "IL", 
    "DOING_BUSINESS_AS_NAME": "GET CASH FOR GOLD INC.,", 
    "POP_AT_RISK": 44258, 
    "ZIP": 60649, 
    "ADDRESS": "1957 E 79TH ST 1", 
    "YEAR": 2014, 
    "LONGITUDE": -87.576125402, 
    "LATTITUDE": 41.751494727
  }, 
  {
    "BUSINESS_TYPE": "Secondhand Dealer", 
    "LEGAL_NAME": "RACINE CELLULAR INC.", 
    "STATE": "IL", 
    "DOING_BUSINESS_AS_NAME": "MK WIRELESS", 
    "POP_AT_RISK": 32541, 
    "ZIP": 60636, 
    "ADDRESS": "5901 S RACINE AVE 1ST", 
    "YEAR": 2014, 
    "LONGITUDE": -87.654533771, 
    "LATTITUDE": 41.786796325
  }, 
  {
    "BUSINESS_TYPE": "Secondhand Dealer", 
    "LEGAL_NAME": "DMITRIY BOGOMAZ", 
    "STATE": "IL", 
    "DOING_BUSINESS_AS_NAME": "GET CASH", 
    "POP_AT_RISK": 33756, 
    "ZIP": 60630, 
    "ADDRESS": "5255 N CENTRAL AVE 1ST", 
    "YEAR": 2014, 
    "LONGITUDE": -87.768304271, 
    "LATTITUDE": 41.977073404
  }, 
  {
    "BUSINESS_TYPE": "Secondhand Dealer", 
    "LEGAL_NAME": "GAMESTOP, INC.", 
    "STATE": "IL", 
    "DOING_BUSINESS_AS_NAME": "GAMESTOP #1685", 
    "POP_AT_RISK": 38439, 
    "ZIP": 60619, 
    "ADDRESS": "8546 S COTTAGE GROVE AVE  G3B", 
    "YEAR": 2014, 
    "LONGITUDE": -87.605033266, 
    "LATTITUDE": 41.738930485
  }, 
  {
    "BUSINESS_TYPE": "Secondhand Dealer", 
    "LEGAL_NAME": "STEVE QUICK JEWELERS, INC.", 
    "STATE": "IL", 
    "DOING_BUSINESS_AS_NAME": "STEVE QUICK JEWELERS", 
    "POP_AT_RISK": 67032, 
    "ZIP": 60614, 
    "ADDRESS": "2471 N CLARK ST", 
    "YEAR": 2014, 
    "LONGITUDE": -87.641408199, 
    "LATTITUDE": 41.927406739
  }, 
  {
    "BUSINESS_TYPE": "Secondhand Dealer", 
    "LEGAL_NAME": "CAM GORDENSKI", 
    "STATE": "IL", 
    "DOING_BUSINESS_AS_NAME": "BRIDGEPORT ANTIQUES", 
    "POP_AT_RISK": 34104, 
    "ZIP": 60608, 
    "ADDRESS": "2963 S ARCHER AVE 1ST", 
    "YEAR": 2014, 
    "LONGITUDE": -87.659885874, 
    "LATTITUDE": 41.840584231
  }, 
  {
    "BUSINESS_TYPE": "Secondhand Dealer", 
    "LEGAL_NAME": "RMF, INC.", 
    "STATE": "IL", 
    "DOING_BUSINESS_AS_NAME": "SUPREME JEWELER", 
    "POP_AT_RISK": 38939, 
    "ZIP": 60615, 
    "ADDRESS": "1515 E 53RD ST", 
    "YEAR": 2014, 
    "LONGITUDE": -87.588496193, 
    "LATTITUDE": 41.799439083
  }, 
  {
    "BUSINESS_TYPE": "Secondhand Dealer", 
    "LEGAL_NAME": "E-Z COMPUTER INC.", 
    "STATE": "IL", 
    "DOING_BUSINESS_AS_NAME": "E-Z COMPUTER INC.", 
    "POP_AT_RISK": 21672, 
    "ZIP": 60643, 
    "ADDRESS": "2355 W 111TH ST 1 1", 
    "YEAR": 2014, 
    "LONGITUDE": -87.680904083, 
    "LATTITUDE": 41.691667231
  }, 
  {
    "BUSINESS_TYPE": "Secondhand Dealer", 
    "LEGAL_NAME": "GAMESTOP, INC.", 
    "STATE": "IL", 
    "DOING_BUSINESS_AS_NAME": "Gamestop #2617", 
    "POP_AT_RISK": 22526, 
    "ZIP": 60617, 
    "ADDRESS": "1725 E 95TH ST", 
    "YEAR": 2014, 
    "LONGITUDE": -87.581551438, 
    "LATTITUDE": 41.722279621
  }, 
  {
    "BUSINESS_TYPE": "Secondhand Dealer", 
    "LEGAL_NAME": "SAMER ASHKAR", 
    "STATE": "IL", 
    "DOING_BUSINESS_AS_NAME": "CASH FOR GOLD", 
    "POP_AT_RISK": 20967, 
    "ZIP": 60617, 
    "ADDRESS": "10554 S EWING AVE 1 1", 
    "YEAR": 2014, 
    "LONGITUDE": -87.535430564, 
    "LATTITUDE": 41.702938777
  }, 
  {
    "BUSINESS_TYPE": "Secondhand Dealer", 
    "LEGAL_NAME": "CHICAGO COIN CO INC", 
    "STATE": "IL", 
    "DOING_BUSINESS_AS_NAME": "CHICAGO COIN CO INC", 
    "POP_AT_RISK": 30725, 
    "ZIP": 60638, 
    "ADDRESS": "6455 W ARCHER AVE", 
    "YEAR": 2014, 
    "LONGITUDE": -87.784016967, 
    "LATTITUDE": 41.792189169
  }, 
  {
    "BUSINESS_TYPE": "Secondhand Dealer", 
    "LEGAL_NAME": "JINO PARK", 
    "STATE": "IL", 
    "DOING_BUSINESS_AS_NAME": "COSMO JEWELRY", 
    "POP_AT_RISK": 34359, 
    "ZIP": 60637, 
    "ADDRESS": "6250 S COTTAGE GROVE AVE 1ST", 
    "YEAR": 2014, 
    "LONGITUDE": -87.606083847, 
    "LATTITUDE": 41.780725545
  }, 
  {
    "BUSINESS_TYPE": "Secondhand Dealer", 
    "LEGAL_NAME": "GOLDEN ON 26TH ST, INC.", 
    "STATE": "IL", 
    "DOING_BUSINESS_AS_NAME": "GOLDEN LINEN", 
    "POP_AT_RISK": 43776, 
    "ZIP": 60632, 
    "ADDRESS": "5123 S KEDZIE AVE 1 1", 
    "YEAR": 2014, 
    "LONGITUDE": -87.703599758, 
    "LATTITUDE": 41.80010768
  }, 
  {
    "BUSINESS_TYPE": "Secondhand Dealer", 
    "LEGAL_NAME": "RAYMOND A RAMSEY", 
    "STATE": "IL", 
    "DOING_BUSINESS_AS_NAME": "CASH MONEY BUYERS", 
    "POP_AT_RISK": 37969, 
    "ZIP": 60624, 
    "ADDRESS": "3954 W MONROE ST 1", 
    "YEAR": 2014, 
    "LONGITUDE": -87.725365318, 
    "LATTITUDE": 41.879874062
  }, 
  {
    "BUSINESS_TYPE": "Secondhand Dealer", 
    "LEGAL_NAME": "CELLULAR ETC INC", 
    "STATE": "IL", 
    "DOING_BUSINESS_AS_NAME": "CELLULAR ZONE", 
    "POP_AT_RISK": 56522, 
    "ZIP": 60623, 
    "ADDRESS": "3206 W 16TH ST", 
    "YEAR": 2014, 
    "LONGITUDE": -87.70579397, 
    "LATTITUDE": 41.859189221
  }, 
  {
    "BUSINESS_TYPE": "Secondhand Dealer", 
    "LEGAL_NAME": "GAMESTOP, INC.", 
    "STATE": "IL", 
    "DOING_BUSINESS_AS_NAME": "GAMESTOP # 2674", 
    "POP_AT_RISK": 35303, 
    "ZIP": 60653, 
    "ADDRESS": "1400 E 47TH DR  B", 
    "YEAR": 2014, 
    "LONGITUDE": -87.592373867, 
    "LATTITUDE": 41.809795483
  }, 
  {
    "BUSINESS_TYPE": "Secondhand Dealer", 
    "LEGAL_NAME": "GAMESTOP, INC.", 
    "STATE": "IL", 
    "DOING_BUSINESS_AS_NAME": "GAMESTOP #6098", 
    "POP_AT_RISK": 41487, 
    "ZIP": 60636, 
    "ADDRESS": "6940 S ASHLAND AVE 1ST", 
    "YEAR": 2014, 
    "LONGITUDE": -87.664002427, 
    "LATTITUDE": 41.767328201
  }, 
  {
    "BUSINESS_TYPE": "Secondhand Dealer", 
    "LEGAL_NAME": "MADISON STREET GOLD EXCHANGE, INC.", 
    "STATE": "IL", 
    "DOING_BUSINESS_AS_NAME": "MADISON STREET GOLD EXCHANGE INC", 
    "POP_AT_RISK": 48029, 
    "ZIP": 60644, 
    "ADDRESS": "5134 W MADISON ST", 
    "YEAR": 2014, 
    "LONGITUDE": -87.754031383, 
    "LATTITUDE": 41.880495475
  }, 
  {
    "BUSINESS_TYPE": "Secondhand Dealer", 
    "LEGAL_NAME": "JINO PARK", 
    "STATE": "IL", 
    "DOING_BUSINESS_AS_NAME": "C K  JEWELRY", 
    "POP_AT_RISK": 29051, 
    "ZIP": 60628, 
    "ADDRESS": "100 W 95TH ST", 
    "YEAR": 2014, 
    "LONGITUDE": -87.626298672, 
    "LATTITUDE": 41.72179992
  }, 
  {
    "BUSINESS_TYPE": "Secondhand Dealer", 
    "LEGAL_NAME": "GET CASH FOR GOLD INC.", 
    "STATE": "IL", 
    "DOING_BUSINESS_AS_NAME": "GET CASH FOR GOLD INC.,", 
    "POP_AT_RISK": 15621, 
    "ZIP": 60628, 
    "ADDRESS": "150 W 127TH ST 1", 
    "YEAR": 2014, 
    "LONGITUDE": -87.626506112, 
    "LATTITUDE": 41.66350259
  }, 
  {
    "BUSINESS_TYPE": "Secondhand Dealer", 
    "LEGAL_NAME": "CASH 4 GOLD, INC.", 
    "STATE": "IL", 
    "DOING_BUSINESS_AS_NAME": "CASH 4 GOLD", 
    "POP_AT_RISK": 18922, 
    "ZIP": 60638, 
    "ADDRESS": "5721 S ARCHER AVE 1", 
    "YEAR": 2014, 
    "LONGITUDE": -87.755012242, 
    "LATTITUDE": 41.796740095
  }, 
  {
    "BUSINESS_TYPE": "Secondhand Dealer", 
    "LEGAL_NAME": "E Z CASH FOR GOLD INC.,", 
    "STATE": "IL", 
    "DOING_BUSINESS_AS_NAME": "E Z CASH FOR GOLD", 
    "POP_AT_RISK": 31579, 
    "ZIP": 60621, 
    "ADDRESS": "766 W 69TH ST 1ST", 
    "YEAR": 2014, 
    "LONGITUDE": -87.644368183, 
    "LATTITUDE": 41.768949204
  }, 
  {
    "BUSINESS_TYPE": "Secondhand Dealer", 
    "LEGAL_NAME": "AUSTIN CASH 4 GOLD, INC.", 
    "STATE": "IL", 
    "DOING_BUSINESS_AS_NAME": "AUSTIN CASH 4 GOLD", 
    "POP_AT_RISK": 47604, 
    "ZIP": 60608, 
    "ADDRESS": "1710 S ASHLAND AVE 1", 
    "YEAR": 2014, 
    "LONGITUDE": -87.666309589, 
    "LATTITUDE": 41.858337458
  }, 
  {
    "BUSINESS_TYPE": "Secondhand Dealer", 
    "LEGAL_NAME": "GAMESTOP, INC.", 
    "STATE": "IL", 
    "DOING_BUSINESS_AS_NAME": "GAMESTOP #476", 
    "POP_AT_RISK": 31157, 
    "ZIP": 60607, 
    "ADDRESS": "1252 S CANAL ST", 
    "YEAR": 2014, 
    "LONGITUDE": -87.639348601, 
    "LATTITUDE": 41.865808024
  }, 
  {
    "BUSINESS_TYPE": "Secondhand Dealer", 
    "LEGAL_NAME": "JOSEPH KENSKI", 
    "STATE": "IL", 
    "DOING_BUSINESS_AS_NAME": "JOSEPH'S JEWELERS", 
    "POP_AT_RISK": 38072, 
    "ZIP": 60634, 
    "ADDRESS": "6500 W IRVING PARK RD 1ST", 
    "YEAR": 2014, 
    "LONGITUDE": -87.789083831, 
    "LATTITUDE": 41.952984203
  }, 
  {
    "BUSINESS_TYPE": "Secondhand Dealer", 
    "LEGAL_NAME": "CONRAD CARRANO", 
    "STATE": "IL", 
    "DOING_BUSINESS_AS_NAME": "UNIQUE FURNITURE", 
    "POP_AT_RISK": 42373, 
    "ZIP": 60632, 
    "ADDRESS": "4155 S ARCHER AVE 1", 
    "YEAR": 2014, 
    "LONGITUDE": -87.697759713, 
    "LATTITUDE": 41.817920989
  }, 
  {
    "BUSINESS_TYPE": "Secondhand Dealer", 
    "LEGAL_NAME": "C F A O TECHNICAL SERVICES, INC.", 
    "STATE": "IL", 
    "DOING_BUSINESS_AS_NAME": "C F A O TECHNICAL SERVICES, INC.", 
    "POP_AT_RISK": 23286, 
    "ZIP": 60643, 
    "ADDRESS": "1824 W 95TH ST", 
    "YEAR": 2014, 
    "LONGITUDE": -87.668474259, 
    "LATTITUDE": 41.721240634
  }, 
  {
    "BUSINESS_TYPE": "Secondhand Dealer", 
    "LEGAL_NAME": "CASH 4 GOLD, INC.", 
    "STATE": "IL", 
    "DOING_BUSINESS_AS_NAME": "CASH 4 GOLD", 
    "POP_AT_RISK": 22463, 
    "ZIP": 60638, 
    "ADDRESS": "6223 W 63RD ST 1", 
    "YEAR": 2014, 
    "LONGITUDE": -87.777301232, 
    "LATTITUDE": 41.777641173
  }, 
  {
    "BUSINESS_TYPE": "Secondhand Dealer", 
    "LEGAL_NAME": "SUPER DOLLAR AND UP # 2 INC.", 
    "STATE": "IL", 
    "DOING_BUSINESS_AS_NAME": "SUPER CASH 4 GOLD", 
    "POP_AT_RISK": 41304, 
    "ZIP": 60609, 
    "ADDRESS": "5257 S ASHLAND AVE", 
    "YEAR": 2014, 
    "LONGITUDE": -87.664536878, 
    "LATTITUDE": 41.797822588
  }, 
  {
    "BUSINESS_TYPE": "Secondhand Dealer", 
    "LEGAL_NAME": "ROCHELLE ISRAEL", 
    "STATE": "IL", 
    "DOING_BUSINESS_AS_NAME": "B J FURNITURE & ANTIQUES", 
    "POP_AT_RISK": 60825, 
    "ZIP": 60645, 
    "ADDRESS": "6901 N WESTERN AVE  1ST", 
    "YEAR": 2014, 
    "LONGITUDE": -87.68995263, 
    "LATTITUDE": 42.006283814
  }, 
  {
    "BUSINESS_TYPE": "Secondhand Dealer", 
    "LEGAL_NAME": "GAMESTOP, INC.", 
    "STATE": "IL", 
    "DOING_BUSINESS_AS_NAME": "GAMESTOP #6437", 
    "POP_AT_RISK": 45315, 
    "ZIP": 60651, 
    "ADDRESS": "800 N KEDZIE AVE 1ST 112", 
    "YEAR": 2014, 
    "LONGITUDE": -87.706705325, 
    "LATTITUDE": 41.895615314
  }, 
  {
    "BUSINESS_TYPE": "Secondhand Dealer", 
    "LEGAL_NAME": "SUZANNE LAZER", 
    "STATE": "IL", 
    "DOING_BUSINESS_AS_NAME": "THE ANTIQUE & RESALE SHOPPE", 
    "POP_AT_RISK": 13900, 
    "ZIP": 60631, 
    "ADDRESS": "7214 N HARLEM AVE 1ST", 
    "YEAR": 2014, 
    "LONGITUDE": -87.806779876, 
    "LATTITUDE": 42.012198711
  }, 
  {
    "BUSINESS_TYPE": "Secondhand Dealer", 
    "LEGAL_NAME": "GET CASH FOR GOLD INC.", 
    "STATE": "IL", 
    "DOING_BUSINESS_AS_NAME": "GET CASH FOR GOLD", 
    "POP_AT_RISK": 33636, 
    "ZIP": 60653, 
    "ADDRESS": "220 E 47TH ST 1ST", 
    "YEAR": 2014, 
    "LONGITUDE": -87.620224109, 
    "LATTITUDE": 41.809434971
  }
]