[
{"STATE":"IL","ZIP":60632,"LATTITUDE":41.81515906522002,"ADDRESS":"4309 S ARCHER AVE 1 1","YEAR":2012,"DOING_BUSINESS_AS_NAME":"EASTSIDE CYCLE ELECTRONICS","POP_AT_RISK":136701,"BUSINESS_TYPE":"Secondhand Dealer (No Valuable Objects)","LEGAL_NAME":"RAFAEL PAUL","LONGITUDE":-87.70227317490556},
{"STATE":"IL","ZIP":60624,"LATTITUDE":41.86601846070388,"ADDRESS":"4113 W ROOSEVELT RD 1ST ","YEAR":2012,"DOING_BUSINESS_AS_NAME":"ABC CHOICE","POP_AT_RISK":42803,"BUSINESS_TYPE":"Secondhand Dealer (No Valuable Objects)","LEGAL_NAME":"M.J #2, INC.","LONGITUDE":-87.72822407891483},
{"STATE":"IL","ZIP":60623,"LATTITUDE":41.8519834015245,"ADDRESS":"2850 W CERMAK RD  B","YEAR":2012,"DOING_BUSINESS_AS_NAME":"ALEXIS USED FURNITURE","POP_AT_RISK":712217,"BUSINESS_TYPE":"Secondhand Dealer (No Valuable Objects)","LEGAL_NAME":"ALFONSO ORTIZ","LONGITUDE":-87.6976295091615},
{"STATE":"IL","ZIP":60640,"LATTITUDE":41.964267556822186,"ADDRESS":"4519 N SHERIDAN RD 1ST ","YEAR":2012,"DOING_BUSINESS_AS_NAME":"CYBER COMPUTERS","POP_AT_RISK":868777,"BUSINESS_TYPE":"Secondhand Dealer (No Valuable Objects)","LEGAL_NAME":"ANDREW ASUNMO","LONGITUDE":-87.65462654734267},
{"STATE":"IL","ZIP":60629,"LATTITUDE":41.78644334606665,"ADDRESS":"2413 W 59TH ST 1 1","YEAR":2012,"DOING_BUSINESS_AS_NAME":"USEDGENERALFURNITURE.COM","POP_AT_RISK":59160,"BUSINESS_TYPE":"Secondhand Dealer (No Valuable Objects)","LEGAL_NAME":"ARTURO ROMERO","LONGITUDE":-87.68443997353751},
{"STATE":"IL","ZIP":60616,"LATTITUDE":41.83118500986137,"ADDRESS":"244 E 35TH ST 1 ","YEAR":2012,"DOING_BUSINESS_AS_NAME":"123 WIRELESS","POP_AT_RISK":68708,"BUSINESS_TYPE":"Secondhand Dealer (No Valuable Objects)","LEGAL_NAME":"MARRYANN INC.","LONGITUDE":-87.62002241050031},
{"STATE":"IL","ZIP":60620,"LATTITUDE":41.743427333056644,"ADDRESS":"8300 S HOLLAND RD 1ST ","YEAR":2012,"DOING_BUSINESS_AS_NAME":"GAMESTOP #7557","POP_AT_RISK":102932,"BUSINESS_TYPE":"Secondhand Dealer (No Valuable Objects)","LEGAL_NAME":"GAMESTOP, INC.","LONGITUDE":-87.63218113202454},
{"STATE":"IL","ZIP":60651,"LATTITUDE":41.90245322059611,"ADDRESS":"4245 W DIVISION ST 1ST ","YEAR":2012,"DOING_BUSINESS_AS_NAME":"BUY IT FOR LESS","POP_AT_RISK":184808,"BUSINESS_TYPE":"Secondhand Dealer (No Valuable Objects)","LEGAL_NAME":"NICOLAS ROBLES","LONGITUDE":-87.73302349151056},
{"STATE":"IL","ZIP":60619,"LATTITUDE":41.75166143259727,"ADDRESS":"7849-7851 S COTTAGE GROVE AVE 1ST ","YEAR":2012,"DOING_BUSINESS_AS_NAME":"GROCERY AND MORE","POP_AT_RISK":116304,"BUSINESS_TYPE":"Secondhand Dealer (No Valuable Objects)","LEGAL_NAME":"CHARLES MC GARY","LONGITUDE":-87.60506887583621},
{"STATE":"IL","ZIP":60651,"LATTITUDE":41.89548373128249,"ADDRESS":"3942 W CHICAGO AVE 1ST ","YEAR":2012,"DOING_BUSINESS_AS_NAME":"CAGO WIRELESS","POP_AT_RISK":44203,"BUSINESS_TYPE":"Secondhand Dealer (No Valuable Objects)","LEGAL_NAME":"LUGANO ONE INC.","LONGITUDE":-87.72529073995163},
{"STATE":"IL","ZIP":60632,"LATTITUDE":41.807734521167596,"ADDRESS":"4713 S KEDZIE AVE 1ST ","YEAR":2012,"DOING_BUSINESS_AS_NAME":"PLAY N TRADE VIDEO GAMES","POP_AT_RISK":207988,"BUSINESS_TYPE":"Secondhand Dealer (No Valuable Objects)","LEGAL_NAME":"KEDZIE PNT, INC.","LONGITUDE":-87.70381686054981},
{"STATE":"IL","ZIP":60639,"LATTITUDE":41.91966520132767,"ADDRESS":"5750 W GRAND AVE 1 1","YEAR":2012,"DOING_BUSINESS_AS_NAME":"TREASURE BOX","POP_AT_RISK":436936,"BUSINESS_TYPE":"Secondhand Dealer (No Valuable Objects)","LEGAL_NAME":"RICHARD HARO JR.","LONGITUDE":-87.77013050178616},
{"STATE":"IL","ZIP":60659,"LATTITUDE":41.99757434394706,"ADDRESS":"3012 W DEVON AVE 1ST ","YEAR":2012,"DOING_BUSINESS_AS_NAME":"DEVON COMMUNICATION","POP_AT_RISK":246800,"BUSINESS_TYPE":"Secondhand Dealer (No Valuable Objects)","LEGAL_NAME":"U T GADGETS INC.","LONGITUDE":-87.70508424839316},
{"STATE":"IL","ZIP":60643,"LATTITUDE":41.72094595809509,"ADDRESS":"2039 W 95TH ST 1ST ","YEAR":2012,"DOING_BUSINESS_AS_NAME":"CHICAGO COMPUTER CLUB","POP_AT_RISK":118632,"BUSINESS_TYPE":"Secondhand Dealer (No Valuable Objects)","LEGAL_NAME":"JZ COMPUTER CORP.","LONGITUDE":-87.67394622318758},
{"STATE":"IL","ZIP":60615,"LATTITUDE":41.79940011116613,"ADDRESS":"1377 E 53RD ST 1 ","YEAR":2012,"DOING_BUSINESS_AS_NAME":"HYDEPARK RECORDS","POP_AT_RISK":71260,"BUSINESS_TYPE":"Secondhand Dealer (No Valuable Objects)","LEGAL_NAME":"GROOVEONLINE, INC.","LONGITUDE":-87.5919995506027},
{"STATE":"IL","ZIP":60629,"LATTITUDE":41.778566567291335,"ADDRESS":"4702 W 63RD ST 1ST ","YEAR":2012,"DOING_BUSINESS_AS_NAME":"XTREME MOBILE INC.","POP_AT_RISK":153078,"BUSINESS_TYPE":"Secondhand Dealer (No Valuable Objects)","LEGAL_NAME":"XTREME MOBILE INC.","LONGITUDE":-87.73998283949524},
{"STATE":"IL","ZIP":60608,"LATTITUDE":41.857851848259465,"ADDRESS":"1724 W 18TH ST 1ST ","YEAR":2012,"DOING_BUSINESS_AS_NAME":"PILSEN BIKE SHOP","POP_AT_RISK":482964,"BUSINESS_TYPE":"Secondhand Dealer (No Valuable Objects)","LEGAL_NAME":"ALEJANDRO IZQUIERDO","LONGITUDE":-87.66977968245806},
{"STATE":"IL","ZIP":60617,"LATTITUDE":41.73683392695592,"ADDRESS":"1641 E 87TH ST 1ST ","YEAR":2012,"DOING_BUSINESS_AS_NAME":"CHICAGO COMPUTER CLUB","POP_AT_RISK":228361,"BUSINESS_TYPE":"Secondhand Dealer (No Valuable Objects)","LEGAL_NAME":"APLUS COMPUTER INC.","LONGITUDE":-87.58355665959942},
{"STATE":"IL","ZIP":60634,"LATTITUDE":41.942862443127844,"ADDRESS":"3421 N CENTRAL AVE 1 ","YEAR":2012,"DOING_BUSINESS_AS_NAME":"Windy City Secondhand and Resale Shop","POP_AT_RISK":63098,"BUSINESS_TYPE":"Secondhand Dealer (No Valuable Objects)","LEGAL_NAME":"Bridget M. Campbell","LONGITUDE":-87.76650472322682},
{"STATE":"IL","ZIP":60626,"LATTITUDE":42.00798847064867,"ADDRESS":"1440 W MORSE AVE  ","YEAR":2012,"DOING_BUSINESS_AS_NAME":"1 TOUCH CELLULAR","POP_AT_RISK":77745,"BUSINESS_TYPE":"Secondhand Dealer (No Valuable Objects)","LEGAL_NAME":"ITOUCHCELLULAR INC.","LONGITUDE":-87.66755298627528},
{"STATE":"IL","ZIP":60636,"LATTITUDE":41.76795743887444,"ADDRESS":"6910 S WESTERN AVE 1ST ","YEAR":2012,"DOING_BUSINESS_AS_NAME":"THE CONNECTION INC","POP_AT_RISK":36218,"BUSINESS_TYPE":"Secondhand Dealer (No Valuable Objects)","LEGAL_NAME":"THE CONNECTION INC.","LONGITUDE":-87.68347766848447},
{"STATE":"IL","ZIP":60625,"LATTITUDE":41.96819485557927,"ADDRESS":"3737 W LAWRENCE AVE 1 C","YEAR":2012,"DOING_BUSINESS_AS_NAME":"AU ELECTRONICS","POP_AT_RISK":740630,"BUSINESS_TYPE":"Secondhand Dealer (No Valuable Objects)","LEGAL_NAME":"AU ELECTRONICS, INC.","LONGITUDE":-87.72227079661039},
{"STATE":"IL","ZIP":60641,"LATTITUDE":41.953404894341084,"ADDRESS":"4425 W IRVING PARK RD 1ST ","YEAR":2012,"DOING_BUSINESS_AS_NAME":"DVTV' S","POP_AT_RISK":455778,"BUSINESS_TYPE":"Secondhand Dealer (No Valuable Objects)","LEGAL_NAME":"DOWNLOAD VALET, INC.","LONGITUDE":-87.73922016374782},
{"STATE":"IL","ZIP":60626,"LATTITUDE":42.019479023693876,"ADDRESS":"7600 N PAULINA ST 1ST ","YEAR":2012,"DOING_BUSINESS_AS_NAME":"KKH COMMUNICATION & ELECTRONICS","POP_AT_RISK":250296,"BUSINESS_TYPE":"Secondhand Dealer (No Valuable Objects)","LEGAL_NAME":"MOHAMMED KHAN SHAMIM","LONGITUDE":-87.67325237181792},
{"STATE":"IL","ZIP":60612,"LATTITUDE":41.8863656527098,"ADDRESS":"266 N KEDZIE AVE  ","YEAR":2012,"DOING_BUSINESS_AS_NAME":"AMERTEL CELLULAR INC","POP_AT_RISK":198594,"BUSINESS_TYPE":"Secondhand Dealer (No Valuable Objects)","LEGAL_NAME":"AMERTEL CELLULAR, INC","LONGITUDE":-87.70642715108946},
{"STATE":"IL","ZIP":60646,"LATTITUDE":41.99823772130952,"ADDRESS":"6430 N CENTRAL AVE 1ST D","YEAR":2012,"DOING_BUSINESS_AS_NAME":"THE RETURN TRIP, INC.","POP_AT_RISK":53868,"BUSINESS_TYPE":"Secondhand Dealer (No Valuable Objects)","LEGAL_NAME":"THE RETURN TRIP, INC.","LONGITUDE":-87.7636179132246},
{"STATE":"IL","ZIP":60659,"LATTITUDE":41.9832556241999,"ADDRESS":"5600 N WESTERN AVE 1ST ","YEAR":2012,"DOING_BUSINESS_AS_NAME":"5600 BIKES & FRAMES","POP_AT_RISK":344550,"BUSINESS_TYPE":"Secondhand Dealer (No Valuable Objects)","LEGAL_NAME":"TARIK JOSHUA VAUGHTERS","LONGITUDE":-87.68959891449154},
{"STATE":"IL","ZIP":60636,"LATTITUDE":41.793229706112776,"ADDRESS":"5512 S ASHLAND AVE 1 ","YEAR":2012,"DOING_BUSINESS_AS_NAME":"ABC","POP_AT_RISK":167936,"BUSINESS_TYPE":"Secondhand Dealer (No Valuable Objects)","LEGAL_NAME":"GARFIELD CONNECTION INC","LONGITUDE":-87.66470926450066},
{"STATE":"IL","ZIP":60623,"LATTITUDE":41.853668535988774,"ADDRESS":"2020 S PULASKI RD 1ST ","YEAR":2012,"DOING_BUSINESS_AS_NAME":"THE CONNECTION","POP_AT_RISK":508832,"BUSINESS_TYPE":"Secondhand Dealer (No Valuable Objects)","LEGAL_NAME":"20TH ST CONNECTION, INC.","LONGITUDE":-87.72495769595666},
{"STATE":"IL","ZIP":60609,"LATTITUDE":41.80299024852183,"ADDRESS":"5002 S ASHLAND AVE  ","YEAR":2012,"DOING_BUSINESS_AS_NAME":"THE CONNECTION","POP_AT_RISK":115506,"BUSINESS_TYPE":"Secondhand Dealer (No Valuable Objects)","LEGAL_NAME":"ASHLAND CONNECTION, INC.","LONGITUDE":-87.66496693821772},
{"STATE":"IL","ZIP":60629,"LATTITUDE":41.77698208964289,"ADDRESS":"6405 S KEDZIE AVE 1ST ","YEAR":2012,"DOING_BUSINESS_AS_NAME":"J & C THRIFT STORE, INC.","POP_AT_RISK":250576,"BUSINESS_TYPE":"Secondhand Dealer (No Valuable Objects)","LEGAL_NAME":"J & C THRIFT STORE, INC.","LONGITUDE":-87.70294465001373},
{"STATE":"IL","ZIP":60655,"LATTITUDE":41.691457392874725,"ADDRESS":"3201 W 111TH ST 1ST ","YEAR":2012,"DOING_BUSINESS_AS_NAME":"NEW B 4 THRIFT SHOP INC.","POP_AT_RISK":104712,"BUSINESS_TYPE":"Secondhand Dealer (No Valuable Objects)","LEGAL_NAME":"NEW B 4 THRIFT SHOP INC.","LONGITUDE":-87.70088791157455},
{"STATE":"IL","ZIP":60622,"LATTITUDE":41.90115303048925,"ADDRESS":"1101 N CALIFORNIA AVE  ","YEAR":2012,"DOING_BUSINESS_AS_NAME":"PARK DOLLAR & FOOD","POP_AT_RISK":201788,"BUSINESS_TYPE":"Secondhand Dealer (No Valuable Objects)","LEGAL_NAME":"PARK DOLLAR & FOOD, INC.","LONGITUDE":-87.69668997374622},
{"STATE":"IL","ZIP":60630,"LATTITUDE":41.97670302410916,"ADDRESS":"5564 W FARRAGUT AVE 1ST ","YEAR":2012,"DOING_BUSINESS_AS_NAME":"NORTHWEST VIDEO GAMES","POP_AT_RISK":236292,"BUSINESS_TYPE":"Secondhand Dealer (No Valuable Objects)","LEGAL_NAME":"RAUL EDUARDO PALMA PEREZ","LONGITUDE":-87.76809464300325},
{"STATE":"IL","ZIP":60639,"LATTITUDE":41.91685113711557,"ADDRESS":"1951 N PULASKI RD 1ST ","YEAR":2012,"DOING_BUSINESS_AS_NAME":"PAGE TEL CELLULAR 2","POP_AT_RISK":905988,"BUSINESS_TYPE":"Secondhand Dealer (No Valuable Objects)","LEGAL_NAME":"PAGE TEL CELLULAR 2, INC.","LONGITUDE":-87.72639928061933},
{"STATE":"IL","ZIP":60652,"LATTITUDE":41.74988655467704,"ADDRESS":"2511 W 79TH ST 1ST ","YEAR":2012,"DOING_BUSINESS_AS_NAME":"KEITH THE COMPUTER GUY","POP_AT_RISK":145340,"BUSINESS_TYPE":"Secondhand Dealer (No Valuable Objects)","LEGAL_NAME":"KEITH THE COMPUTER GUY LLC","LONGITUDE":-87.6857695989238},
{"STATE":"IL","ZIP":60622,"LATTITUDE":41.9147426090437,"ADDRESS":"1765 N ELSTON AVE 1ST & 2ND ","YEAR":2012,"DOING_BUSINESS_AS_NAME":"RESOURCE POINT OF SALE LLC","POP_AT_RISK":150813,"BUSINESS_TYPE":"Secondhand Dealer (No Valuable Objects)","LEGAL_NAME":"RESOURCE POINT OF SALE LLC","LONGITUDE":-87.66497832743869},
{"STATE":"IL","ZIP":60612,"LATTITUDE":41.88687433960174,"ADDRESS":"2010 W FULTON ST 1ST DOCK 13","YEAR":2012,"DOING_BUSINESS_AS_NAME":"RESOURCE POINT OF SALE LLC","POP_AT_RISK":269388,"BUSINESS_TYPE":"Secondhand Dealer (No Valuable Objects)","LEGAL_NAME":"RESOURCE POINT OF SALE LLC","LONGITUDE":-87.67729605577165},
{"STATE":"IL","ZIP":60652,"LATTITUDE":41.75466012439374,"ADDRESS":"7601 S CICERO AVE 1 T10","YEAR":2012,"DOING_BUSINESS_AS_NAME":"UNLOCK CELLULAR","POP_AT_RISK":129110,"BUSINESS_TYPE":"Secondhand Dealer (No Valuable Objects)","LEGAL_NAME":"UNLOCK CELL PHONE IAR, INC.","LONGITUDE":-87.74138475860521},
{"STATE":"IL","ZIP":60660,"LATTITUDE":41.991711644447086,"ADDRESS":"6024-6026 N BROADWAY  1ST ","YEAR":2012,"DOING_BUSINESS_AS_NAME":"BROADWAY TREASURE HUNT, INC.","POP_AT_RISK":142406,"BUSINESS_TYPE":"Secondhand Dealer (No Valuable Objects)","LEGAL_NAME":"BROADWAY TREASURE HUNT, INC.","LONGITUDE":-87.66046661833741},
{"STATE":"IL","ZIP":60629,"LATTITUDE":41.77208484280731,"ADDRESS":"6653 S CALIFORNIA AVE  ","YEAR":2012,"DOING_BUSINESS_AS_NAME":"WIRELESS 1-2-3","POP_AT_RISK":51740,"BUSINESS_TYPE":"Secondhand Dealer (No Valuable Objects)","LEGAL_NAME":"CALIFORNIA FOOD MARKET, INC.","LONGITUDE":-87.69306514335412},
{"STATE":"IL","ZIP":60605,"LATTITUDE":41.876627148007636,"ADDRESS":"410 S CLARK ST 1ST ","YEAR":2012,"DOING_BUSINESS_AS_NAME":"AIR TEC WIRELESS, INCORPORATED","POP_AT_RISK":350912,"BUSINESS_TYPE":"Secondhand Dealer (No Valuable Objects)","LEGAL_NAME":"AIR TEC WIRELESS, INCORPORATED","LONGITUDE":-87.63088932881458},
{"STATE":"IL","ZIP":60620,"LATTITUDE":41.7562717189879,"ADDRESS":"7554 S HALSTED ST FIRST ","YEAR":2012,"DOING_BUSINESS_AS_NAME":"SIMPLY PREPAID T RETAILER","POP_AT_RISK":37988,"BUSINESS_TYPE":"Secondhand Dealer (No Valuable Objects)","LEGAL_NAME":"SPARK TECHNOLOGY SERVICES, INC","LONGITUDE":-87.64433439896648},
{"STATE":"IL","ZIP":60628,"LATTITUDE":41.713495573303135,"ADDRESS":"9923 S HALSTED ST 1ST ","YEAR":2012,"DOING_BUSINESS_AS_NAME":"THE SOURCE","POP_AT_RISK":256923,"BUSINESS_TYPE":"Secondhand Dealer (No Valuable Objects)","LEGAL_NAME":"A & A CLOTHING & CELLULAR, INC.","LONGITUDE":-87.64283393649},
{"STATE":"IL","ZIP":60655,"LATTITUDE":41.70606241569196,"ADDRESS":"3211 W 103RD ST  ","YEAR":2012,"DOING_BUSINESS_AS_NAME":"HOT SPOT CELLULAR & CLOTHING","POP_AT_RISK":115872,"BUSINESS_TYPE":"Secondhand Dealer (No Valuable Objects)","LEGAL_NAME":"HOT SPOT CELLULAR & CLOTHING, INC.","LONGITUDE":-87.7018072876029},
{"STATE":"IL","ZIP":60647,"LATTITUDE":41.92500732368619,"ADDRESS":"2408-2410 W FULLERTON AVE 1 ","YEAR":2012,"DOING_BUSINESS_AS_NAME":"CHICAGO INDEPENDENT DISTRIBUTION, LLC","POP_AT_RISK":786786,"BUSINESS_TYPE":"Secondhand Dealer (No Valuable Objects)","LEGAL_NAME":"CHICAGO INDEPENDENT DISTRIBUTION, LLC","LONGITUDE":-87.68801953359667},
{"STATE":"IL","ZIP":60615,"LATTITUDE":41.795082096806134,"ADDRESS":"1521 E 55TH ST 1 ","YEAR":2012,"DOING_BUSINESS_AS_NAME":"CHICAGO COMPUTER CLUB","POP_AT_RISK":161556,"BUSINESS_TYPE":"Secondhand Dealer (No Valuable Objects)","LEGAL_NAME":"GREAT LAKE COMPUTER TECHNOLOGY, INCORPORATED","LONGITUDE":-87.58826812316532},
{}]