[
{"STATE":"IL","ZIP":60626,"LATTITUDE":42.020112713624556,"ADDRESS":"7630  -7636 N ROGERS AVE  1","YEAR":1997,"DOING_BUSINESS_AS_NAME":"KIM'S CLEANERS","POP_AT_RISK":501880,"BUSINESS_TYPE":"Limited Business License","LEGAL_NAME":"BONG KIM","LONGITUDE":-87.66694560681174},
{"STATE":"IL","ZIP":60622,"LATTITUDE":41.905797036427586,"ADDRESS":"1328 N MILWAUKEE AVE 1ST ","YEAR":1997,"DOING_BUSINESS_AS_NAME":"SHIP & SHORE","POP_AT_RISK":740584,"BUSINESS_TYPE":"Limited Business License","LEGAL_NAME":"EMMA MEJIA","LONGITUDE":-87.67052962523235},
{"STATE":"IL","ZIP":60622,"LATTITUDE":41.90684767263139,"ADDRESS":"1415 N DAYTON ST 1ST ","YEAR":1997,"DOING_BUSINESS_AS_NAME":"H-GUN CORP","POP_AT_RISK":209124,"BUSINESS_TYPE":"Limited Business License","LEGAL_NAME":"H-GUN CORP","LONGITUDE":-87.64924997126413},
{"STATE":"IL","ZIP":60615,"LATTITUDE":41.79960462272531,"ADDRESS":"1350 E 53RD ST  1ST","YEAR":1997,"DOING_BUSINESS_AS_NAME":"HYDE PARK NAILS","POP_AT_RISK":724986,"BUSINESS_TYPE":"Limited Business License","LEGAL_NAME":"HOAI NGUYEN","LONGITUDE":-87.59299956167719},
{"STATE":"IL","ZIP":60618,"LATTITUDE":41.93431294288183,"ADDRESS":"2917 N CENTRAL PARK AVE 1ST ","YEAR":1997,"DOING_BUSINESS_AS_NAME":"POLONUS GIFT STORE","POP_AT_RISK":1070320,"BUSINESS_TYPE":"Limited Business License","LEGAL_NAME":"JOZEF JASIAK","LONGITUDE":-87.71710649403829},
{"STATE":"IL","ZIP":60649,"LATTITUDE":41.76396013394149,"ADDRESS":"7225 S EXCHANGE AVE 1ST ","YEAR":1997,"DOING_BUSINESS_AS_NAME":"P B CONSTRUCTION","POP_AT_RISK":364947,"BUSINESS_TYPE":"Limited Business License","LEGAL_NAME":"PETER BRYANT","LONGITUDE":-87.56425430930032},
{"STATE":"IL","ZIP":60652,"LATTITUDE":41.742136324128246,"ADDRESS":"8301 S PULASKI RD 1ST ","YEAR":1997,"DOING_BUSINESS_AS_NAME":"AL-BOSTAAN PUBLISHING & PRINT","POP_AT_RISK":191052,"BUSINESS_TYPE":"Limited Business License","LEGAL_NAME":"GHASSAN BARAKAT","LONGITUDE":-87.72153107117597},
{"STATE":"IL","ZIP":60628,"LATTITUDE":41.69181201898211,"ADDRESS":"11125 S MICHIGAN AVE  1","YEAR":1997,"DOING_BUSINESS_AS_NAME":"SPOON'S BLACK VARIETY SHOP","POP_AT_RISK":285066,"BUSINESS_TYPE":"Limited Business License","LEGAL_NAME":"ALLEN WITHERSPOON","LONGITUDE":-87.62089366253515},
{"STATE":"IL","ZIP":60607,"LATTITUDE":41.87677248678597,"ADDRESS":"812 W VAN BUREN ST 1ST ","YEAR":1997,"DOING_BUSINESS_AS_NAME":"SALON 812","POP_AT_RISK":242250,"BUSINESS_TYPE":"Limited Business License","LEGAL_NAME":"ALONZETTA JACKSON","LONGITUDE":-87.6477882888083},
{"STATE":"IL","ZIP":60661,"LATTITUDE":41.884302373659914,"ADDRESS":"725 W RANDOLPH ST  ","YEAR":1997,"DOING_BUSINESS_AS_NAME":"EXPRESS COLOR","POP_AT_RISK":42966,"BUSINESS_TYPE":"Limited Business License","LEGAL_NAME":"EXPRESS COLOR INC","LONGITUDE":-87.64669215383402},
{"STATE":"IL","ZIP":60618,"LATTITUDE":41.939379326857896,"ADDRESS":"2255 W BELMONT AVE  1","YEAR":1997,"DOING_BUSINESS_AS_NAME":"ROOM EXPRESS INC.","POP_AT_RISK":461673,"BUSINESS_TYPE":"Limited Business License","LEGAL_NAME":"ROOM EXPRESS INC.","LONGITUDE":-87.68534860031852},
{"STATE":"IL","ZIP":60625,"LATTITUDE":41.96844196269388,"ADDRESS":"3636  -3638 W LAWRENCE AVE 1ST ","YEAR":1997,"DOING_BUSINESS_AS_NAME":"K & L TRADING CORP","POP_AT_RISK":1010250,"BUSINESS_TYPE":"Limited Business License","LEGAL_NAME":"K & L TRADING CORP","LONGITUDE":-87.71977409251257},
{"STATE":"IL","ZIP":60614,"LATTITUDE":41.92149630201665,"ADDRESS":"1459 W WEBSTER AVE 1ST ","YEAR":1997,"DOING_BUSINESS_AS_NAME":"SILK FACTORY OUTLET","POP_AT_RISK":433791,"BUSINESS_TYPE":"Limited Business License","LEGAL_NAME":"SILK FACTORY OUTLET","LONGITUDE":-87.66552560185288},
{"STATE":"IL","ZIP":60613,"LATTITUDE":41.95157928855641,"ADDRESS":"3830 N ASHLAND AVE 1ST ","YEAR":1997,"DOING_BUSINESS_AS_NAME":"WRIGLEYVILLE REALTY","POP_AT_RISK":1235844,"BUSINESS_TYPE":"Limited Business License","LEGAL_NAME":"WRIGLEYVILLE REALTY","LONGITUDE":-87.66912877627041},
{"STATE":"IL","ZIP":60646,"LATTITUDE":41.998903295108256,"ADDRESS":"6454 N CENTRAL AVE 1ST ","YEAR":1997,"DOING_BUSINESS_AS_NAME":"COUNTER MAGIC COMPANY INC","POP_AT_RISK":71824,"BUSINESS_TYPE":"Limited Business License","LEGAL_NAME":"COUNTER MAGIC CO INC","LONGITUDE":-87.76339016811386},
{"STATE":"IL","ZIP":60608,"LATTITUDE":41.83417900133232,"ADDRESS":"1850 W 33RD ST 1ST ","YEAR":1997,"DOING_BUSINESS_AS_NAME":"RAY'S LAWN CARE","POP_AT_RISK":113100,"BUSINESS_TYPE":"Limited Business License","LEGAL_NAME":"M GUTIERREZ & C HELMS","LONGITUDE":-87.67256442338382},
{"STATE":"IL","ZIP":60632,"LATTITUDE":41.8217931404172,"ADDRESS":"3945 S ARCHER AVE 1ST ","YEAR":1997,"DOING_BUSINESS_AS_NAME":"TPM ENTERPRISES LTD","POP_AT_RISK":399195,"BUSINESS_TYPE":"Limited Business License","LEGAL_NAME":"TPM ENTERPRISES, LIMITED","LONGITUDE":-87.69145184072913},
{"STATE":"IL","ZIP":60610,"LATTITUDE":41.8946456460705,"ADDRESS":"325 W HURON ST  ","YEAR":1997,"DOING_BUSINESS_AS_NAME":"LAW CYPRESS DISTRIBUTING CO","POP_AT_RISK":72871,"BUSINESS_TYPE":"Limited Business License","LEGAL_NAME":"LAW CYPRESS DISTRIBUTING CO","LONGITUDE":-87.63678754035266},
{"STATE":"IL","ZIP":60660,"LATTITUDE":41.99364030233287,"ADDRESS":"6145  -6147 N SHERIDAN RD  1","YEAR":1997,"DOING_BUSINESS_AS_NAME":"TIARA HOMEOWNERS ASSOCIATION","POP_AT_RISK":965090,"BUSINESS_TYPE":"Limited Business License","LEGAL_NAME":"TIARA HOME OWNERS ASSOCIATION","LONGITUDE":-87.65535121744797},
{}]