[
  {
    "BUSINESS_TYPE": "Peddler, non-food", 
    "LEGAL_NAME": "ERIC P. NORTON", 
    "STATE": "IL", 
    "DOING_BUSINESS_AS_NAME": "ERIC P. NORTON", 
    "POP_AT_RISK": 9754, 
    "ZIP": 60634, 
    "ADDRESS": "4057 N PONTIAC AVE", 
    "YEAR": 2005, 
    "LONGITUDE": -87.835332418, 
    "LATTITUDE": 41.953747069
  }, 
  {
    "BUSINESS_TYPE": "Peddler, non-food", 
    "LEGAL_NAME": "MARTIN A BUCARO", 
    "STATE": "IL", 
    "DOING_BUSINESS_AS_NAME": "MARTIN A BUCARO", 
    "POP_AT_RISK": 36314, 
    "ZIP": 60646, 
    "ADDRESS": "5849 N NAGLE AVE 2ND", 
    "YEAR": 2005, 
    "LONGITUDE": -87.787502128, 
    "LATTITUDE": 41.987485121
  }, 
  {
    "BUSINESS_TYPE": "Peddler, non-food", 
    "LEGAL_NAME": "AMANDA MOTA", 
    "STATE": "IL", 
    "DOING_BUSINESS_AS_NAME": "AMANDA MOTA", 
    "POP_AT_RISK": 10918, 
    "ZIP": 60617, 
    "ADDRESS": "3700 E 97TH ST 1ST", 
    "YEAR": 2005, 
    "LONGITUDE": -87.534020252, 
    "LATTITUDE": 41.719680488
  }, 
  {
    "BUSINESS_TYPE": "Peddler, non-food", 
    "LEGAL_NAME": "MICHAEL MAGALLANEZ", 
    "STATE": "IL", 
    "DOING_BUSINESS_AS_NAME": "MICHAEL MAGALLANEZ", 
    "POP_AT_RISK": 18473, 
    "ZIP": 60655, 
    "ADDRESS": "11446 S ST LOUIS AVE", 
    "YEAR": 2005, 
    "LONGITUDE": -87.708061971, 
    "LATTITUDE": 41.685123529
  }, 
  {
    "BUSINESS_TYPE": "Peddler, non-food", 
    "LEGAL_NAME": "ZAHIRA  EZZANZOUNE", 
    "STATE": "IL", 
    "DOING_BUSINESS_AS_NAME": "ZAHIRA   EZZANZOUNE", 
    "POP_AT_RISK": 24933, 
    "ZIP": 60656, 
    "ADDRESS": "5306 N CUMBERLAND AVE 310", 
    "YEAR": 2005, 
    "LONGITUDE": -87.836769925, 
    "LATTITUDE": 41.975896418
  }, 
  {
    "BUSINESS_TYPE": "Peddler, non-food", 
    "LEGAL_NAME": "MILLIE MARTIN", 
    "STATE": "IL", 
    "DOING_BUSINESS_AS_NAME": "MILLIE MARTIN", 
    "POP_AT_RISK": 18918, 
    "ZIP": 60631, 
    "ADDRESS": "6640 N NORTHWEST HWY", 
    "YEAR": 2005, 
    "LONGITUDE": -87.814356238, 
    "LATTITUDE": 42.001496575
  }, 
  {
    "BUSINESS_TYPE": "Peddler, non-food", 
    "LEGAL_NAME": "DALE M. SALZMAN", 
    "STATE": "IL", 
    "DOING_BUSINESS_AS_NAME": "DALE M. SALZMAN", 
    "POP_AT_RISK": 8129, 
    "ZIP": 60646, 
    "ADDRESS": "6944 N WILDWOOD AVE", 
    "YEAR": 2005, 
    "LONGITUDE": -87.771762525, 
    "LATTITUDE": 42.007551892
  }, 
  {
    "BUSINESS_TYPE": "Peddler, non-food", 
    "LEGAL_NAME": "NANCY ALEJANDRO", 
    "STATE": "IL", 
    "DOING_BUSINESS_AS_NAME": "NANCY REYES", 
    "POP_AT_RISK": 18938, 
    "ZIP": 60638, 
    "ADDRESS": "6149 S MASON AVE", 
    "YEAR": 2005, 
    "LONGITUDE": -87.77021079, 
    "LATTITUDE": 41.780101824
  }, 
  {
    "BUSINESS_TYPE": "Peddler, non-food", 
    "LEGAL_NAME": "GHEORGHE NICOLAE", 
    "STATE": "IL", 
    "DOING_BUSINESS_AS_NAME": "GHEORGHE NICOLAE", 
    "POP_AT_RISK": 14956, 
    "ZIP": 60706, 
    "ADDRESS": "6920 W FOREST PRESERVE AVE 1ST", 
    "YEAR": 2005, 
    "LONGITUDE": -87.799893074, 
    "LATTITUDE": 41.957527585
  }, 
  {
    "BUSINESS_TYPE": "Peddler, non-food", 
    "LEGAL_NAME": "DANIEL GONZALEZ", 
    "STATE": "IL", 
    "DOING_BUSINESS_AS_NAME": "DANIEL GONZALEZ", 
    "POP_AT_RISK": 6845, 
    "ZIP": 60617, 
    "ADDRESS": "11500 S EWING AVE  `", 
    "YEAR": 2005, 
    "LONGITUDE": -87.535415074, 
    "LATTITUDE": 41.686307291
  }
]