[
  {
    "BUSINESS_TYPE": "Peddler, non-food", 
    "LEGAL_NAME": "HOWARD K. KADET", 
    "STATE": "IL", 
    "DOING_BUSINESS_AS_NAME": "HOWARD K. KADET", 
    "POP_AT_RISK": 14869, 
    "ZIP": 60646, 
    "ADDRESS": "6333 N LEONA AVE", 
    "YEAR": 2012, 
    "LONGITUDE": -87.753843753, 
    "LATTITUDE": 41.996910445
  }, 
  {
    "BUSINESS_TYPE": "Peddler, non-food", 
    "LEGAL_NAME": "IGNACIO GONZALEZ", 
    "STATE": "IL", 
    "DOING_BUSINESS_AS_NAME": "IGNACIO GONZALEZ", 
    "POP_AT_RISK": 13632, 
    "ZIP": 60617, 
    "ADDRESS": "9647 S AVENUE N  2", 
    "YEAR": 2012, 
    "LONGITUDE": -87.538765636, 
    "LATTITUDE": 41.71991682
  }, 
  {
    "BUSINESS_TYPE": "Peddler, non-food", 
    "LEGAL_NAME": "JOSHUA J. SOICH", 
    "STATE": "IL", 
    "DOING_BUSINESS_AS_NAME": "JOSHUA JAMES SOICH", 
    "POP_AT_RISK": 18473, 
    "ZIP": 60655, 
    "ADDRESS": "11431 S ST LOUIS AVE", 
    "YEAR": 2012, 
    "LONGITUDE": -87.707787923, 
    "LATTITUDE": 41.685561003
  }, 
  {
    "BUSINESS_TYPE": "Peddler, non-food", 
    "LEGAL_NAME": "DIANA URIBE", 
    "STATE": "IL", 
    "DOING_BUSINESS_AS_NAME": "DIANA URIBE", 
    "POP_AT_RISK": 33537, 
    "ZIP": 60634, 
    "ADDRESS": "4308 N MOODY AVE 1", 
    "YEAR": 2012, 
    "LONGITUDE": -87.780791778, 
    "LATTITUDE": 41.958857446
  }, 
  {
    "BUSINESS_TYPE": "Peddler, non-food", 
    "LEGAL_NAME": "BENJAMIN G GALLO", 
    "STATE": "IL", 
    "DOING_BUSINESS_AS_NAME": "BENJAMIN", 
    "POP_AT_RISK": 31019, 
    "ZIP": 60638, 
    "ADDRESS": "5548 S MCVICKER AVE", 
    "YEAR": 2012, 
    "LONGITUDE": -87.773375474, 
    "LATTITUDE": 41.791058024
  }, 
  {
    "BUSINESS_TYPE": "Peddler, non-food", 
    "LEGAL_NAME": "JENNIPHER V BUCKNER", 
    "STATE": "IL", 
    "DOING_BUSINESS_AS_NAME": "JENNIPHER V BUCKNER", 
    "POP_AT_RISK": 11475, 
    "ZIP": 60655, 
    "ADDRESS": "2439 W 116TH ST 1ST 1W", 
    "YEAR": 2012, 
    "LONGITUDE": -87.682472062, 
    "LATTITUDE": 41.682597141
  }, 
  {
    "BUSINESS_TYPE": "Peddler, non-food", 
    "LEGAL_NAME": "PETER C PROBST", 
    "STATE": "IL", 
    "DOING_BUSINESS_AS_NAME": "PETER C PROBST", 
    "POP_AT_RISK": 47021, 
    "ZIP": 60608, 
    "ADDRESS": "2016 W 21ST ST", 
    "YEAR": 2012, 
    "LONGITUDE": -87.676628238, 
    "LATTITUDE": 41.854111281
  }, 
  {
    "BUSINESS_TYPE": "Peddler, non-food", 
    "LEGAL_NAME": "ELISEO LEON", 
    "STATE": "IL", 
    "DOING_BUSINESS_AS_NAME": "ELISEO LEON", 
    "POP_AT_RISK": 20967, 
    "ZIP": 60617, 
    "ADDRESS": "10656 S AVENUE J", 
    "YEAR": 2012, 
    "LONGITUDE": -87.534224707, 
    "LATTITUDE": 41.701062729
  }
]