[
{"STATE":"IL","ZIP":60640,"LATTITUDE":41.964772454683136,"ADDRESS":"4537 N SHERIDAN RD 1 ","YEAR":2012,"DOING_BUSINESS_AS_NAME":"AMERICAN ELECTRONICS SALES & SERVICE 2","POP_AT_RISK":73315,"BUSINESS_TYPE":"Retail Computing Center","LEGAL_NAME":"MUNG V LAM","LONGITUDE":-87.65463402986724},
{"STATE":"IL","ZIP":60630,"LATTITUDE":41.9679471115295,"ADDRESS":"4751 N PULASKI RD  ","YEAR":2012,"DOING_BUSINESS_AS_NAME":"GENESISPCMAC","POP_AT_RISK":67391,"BUSINESS_TYPE":"Retail Computing Center","LEGAL_NAME":"GENESISPCMAC","LONGITUDE":-87.72787136455813},
{"STATE":"IL","ZIP":60632,"LATTITUDE":41.797991869962225,"ADDRESS":"5220 S PULASKI RD 1 W22","YEAR":2012,"DOING_BUSINESS_AS_NAME":"JXJ CYBER CAFE","POP_AT_RISK":122106,"BUSINESS_TYPE":"Retail Computing Center","LEGAL_NAME":"JOSUE JAIMES","LONGITUDE":-87.723443740796},
{"STATE":"IL","ZIP":60647,"LATTITUDE":41.91723148759262,"ADDRESS":"3401 W ARMITAGE AVE 1ST ","YEAR":2012,"DOING_BUSINESS_AS_NAME":"ECUANET","POP_AT_RISK":1214192,"BUSINESS_TYPE":"Retail Computing Center","LEGAL_NAME":"EDISON S. CUZCO","LONGITUDE":-87.71198338879492},
{"STATE":"IL","ZIP":60639,"LATTITUDE":41.93175933216356,"ADDRESS":"4420 W DIVERSEY AVE 1 ","YEAR":2012,"DOING_BUSINESS_AS_NAME":"WIRELESS FOR LESS","POP_AT_RISK":210279,"BUSINESS_TYPE":"Retail Computing Center","LEGAL_NAME":"EDITA GUTIERREZ","LONGITUDE":-87.73765489751824},
{"STATE":"IL","ZIP":60629,"LATTITUDE":41.7787725408632,"ADDRESS":"3950-3952 W 63RD ST 1 1","YEAR":2012,"DOING_BUSINESS_AS_NAME":"PASTELERIA EL NUEVO MUNDO","POP_AT_RISK":109904,"BUSINESS_TYPE":"Retail Computing Center","LEGAL_NAME":"J. PINEDA, INC.","LONGITUDE":-87.72233581164832},
{"STATE":"IL","ZIP":60608,"LATTITUDE":41.85222336618489,"ADDRESS":"2136 W CERMAK RD 1ST ","YEAR":2012,"DOING_BUSINESS_AS_NAME":"RV SERVICES","POP_AT_RISK":35493,"BUSINESS_TYPE":"Retail Computing Center","LEGAL_NAME":"ABIFF R. RAMIREZ","LONGITUDE":-87.67978756205784},
{"STATE":"IL","ZIP":60645,"LATTITUDE":42.01195388843777,"ADDRESS":"2801 W TOUHY AVE  ","YEAR":2012,"DOING_BUSINESS_AS_NAME":"OFFICE MART","POP_AT_RISK":116712,"BUSINESS_TYPE":"Retail Computing Center","LEGAL_NAME":"OFFICE MART INC.","LONGITUDE":-87.69983023199094},
{"STATE":"IL","ZIP":60608,"LATTITUDE":41.85800060289181,"ADDRESS":"1334 W 18TH ST 1ST ","YEAR":2012,"DOING_BUSINESS_AS_NAME":"KIME EXPRESS","POP_AT_RISK":77436,"BUSINESS_TYPE":"Retail Computing Center","LEGAL_NAME":"KIME EXPRESS, LLC","LONGITUDE":-87.66039676873345},
{"STATE":"IL","ZIP":60659,"LATTITUDE":41.99760194883742,"ADDRESS":"2425 W DEVON AVE 1 B","YEAR":2012,"DOING_BUSINESS_AS_NAME":"THE NEW STAR","POP_AT_RISK":220839,"BUSINESS_TYPE":"Retail Computing Center","LEGAL_NAME":"WORLD CONNECT, INC","LONGITUDE":-87.69095612130864},
{"STATE":"IL","ZIP":60634,"LATTITUDE":41.937404050825975,"ADDRESS":"3134 N HARLEM AVE 1ST ","YEAR":2012,"DOING_BUSINESS_AS_NAME":"ANGEL'S TECH","POP_AT_RISK":575124,"BUSINESS_TYPE":"Retail Computing Center","LEGAL_NAME":"DAVID A WEATHERSTON","LONGITUDE":-87.80687483093067},
{"STATE":"IL","ZIP":60623,"LATTITUDE":41.846291851080316,"ADDRESS":"2458 S MILLARD AVE 1ST 2A","YEAR":2012,"DOING_BUSINESS_AS_NAME":"MR. OWLS BOOTH","POP_AT_RISK":120916,"BUSINESS_TYPE":"Retail Computing Center","LEGAL_NAME":"CUAUHTEMOC R. ARROYO","LONGITUDE":-87.71620995071838},
{"STATE":"IL","ZIP":60632,"LATTITUDE":41.82134431810515,"ADDRESS":"3982 S ARCHER AVE 1 ","YEAR":2012,"DOING_BUSINESS_AS_NAME":"CYBERK COMPUTEK INC.","POP_AT_RISK":339888,"BUSINESS_TYPE":"Retail Computing Center","LEGAL_NAME":"CYBERK COMPUTEK INC.","LONGITUDE":-87.69264968521705},
{"STATE":"IL","ZIP":60626,"LATTITUDE":42.002473724305595,"ADDRESS":"6624 N CLARK ST  2","YEAR":2012,"DOING_BUSINESS_AS_NAME":"LA BELLA CAFE & INTERNET","POP_AT_RISK":151896,"BUSINESS_TYPE":"Retail Computing Center","LEGAL_NAME":"INTERNET WORLD, INC.","LONGITUDE":-87.67227603034296},
{"STATE":"IL","ZIP":60639,"LATTITUDE":41.924142306126896,"ADDRESS":"5418 W FULLERTON AVE 1ST FLOOR 1","YEAR":2012,"DOING_BUSINESS_AS_NAME":"EL CIBER TECHNOLOGY LEARNING CENTER","POP_AT_RISK":150626,"BUSINESS_TYPE":"Retail Computing Center","LEGAL_NAME":"IVAN E ROBLES CONTRERAS","LONGITUDE":-87.76184249875658},
{"STATE":"IL","ZIP":60640,"LATTITUDE":41.964857476364394,"ADDRESS":"4544 N MAGNOLIA AVE  ","YEAR":2012,"DOING_BUSINESS_AS_NAME":"TOP CHOICE GROCERY, INC.","POP_AT_RISK":68009,"BUSINESS_TYPE":"Retail Computing Center","LEGAL_NAME":"TOP CHOICE GROCERY, INC.","LONGITUDE":-87.6611566677325},
{"STATE":"IL","ZIP":60609,"LATTITUDE":41.81944142629576,"ADDRESS":"4100 S ASHLAND AVE INSIDE 333&334","YEAR":2012,"DOING_BUSINESS_AS_NAME":"DEKACHE BODY WORK'S","POP_AT_RISK":61020,"BUSINESS_TYPE":"Retail Computing Center","LEGAL_NAME":"DEKACHE BODY WORK'S CORP.","LONGITUDE":-87.6653755449091},
{"STATE":"IL","ZIP":60608,"LATTITUDE":41.85212641996553,"ADDRESS":"1819 W CERMAK RD 1 ","YEAR":2012,"DOING_BUSINESS_AS_NAME":"DEKACHE BODY WORK'S CORP.","POP_AT_RISK":36290,"BUSINESS_TYPE":"Retail Computing Center","LEGAL_NAME":"DEKACHE BODY WORK'S CORP.","LONGITUDE":-87.67174258992257},
{"STATE":"IL","ZIP":60625,"LATTITUDE":41.961346343975116,"ADDRESS":"4405 N KEDZIE AVE 1ST ","YEAR":2012,"DOING_BUSINESS_AS_NAME":"SUCRE EXPRESS CORPORATION","POP_AT_RISK":74341,"BUSINESS_TYPE":"Retail Computing Center","LEGAL_NAME":"SUCRE EXPRESS CORPORATION","LONGITUDE":-87.70810713882149},
{"STATE":"IL","ZIP":60616,"LATTITUDE":41.830986702567515,"ADDRESS":"329 E 35TH ST 1 1","YEAR":2012,"DOING_BUSINESS_AS_NAME":"CHICAGO COMPUTER CLUB","POP_AT_RISK":505903,"BUSINESS_TYPE":"Retail Computing Center","LEGAL_NAME":"ITECH COMPUTER INCORPORATED","LONGITUDE":-87.61807593164153},
{"STATE":"IL","ZIP":60625,"LATTITUDE":41.96835413138192,"ADDRESS":"3137 W LAWRENCE AVE 1 ","YEAR":2012,"DOING_BUSINESS_AS_NAME":"ECUAMEX TRAVEL AGENCY","POP_AT_RISK":76121,"BUSINESS_TYPE":"Retail Computing Center","LEGAL_NAME":"CARLOS ORTEGA & LUCIA MORATO","LONGITUDE":-87.70755150730784},
{"STATE":"IL","ZIP":60609,"LATTITUDE":41.80686270300873,"ADDRESS":"1710 W 48TH ST 1ST ","YEAR":2012,"DOING_BUSINESS_AS_NAME":"INTERNET CITY","POP_AT_RISK":36943,"BUSINESS_TYPE":"Retail Computing Center","LEGAL_NAME":"MARIA DE LA LUZ ANAYA-ZAMORA","LONGITUDE":-87.6678707816845},
{"STATE":"IL","ZIP":60641,"LATTITUDE":41.95979066935908,"ADDRESS":"4350 N ELSTON AVE 1ST ","YEAR":2012,"DOING_BUSINESS_AS_NAME":"OLYMPIC FINANCIAL GROUP, INC.","POP_AT_RISK":63215,"BUSINESS_TYPE":"Retail Computing Center","LEGAL_NAME":"OLYMPIC FINANCIAL GROUP, INC.","LONGITUDE":-87.72826314625367},
{"STATE":"IL","ZIP":60639,"LATTITUDE":41.9171431364255,"ADDRESS":"4420 W ARMITAGE AVE 1ST ","YEAR":2012,"DOING_BUSINESS_AS_NAME":"V & J AMERICA MULTISERVICES","POP_AT_RISK":57728,"BUSINESS_TYPE":"Retail Computing Center","LEGAL_NAME":"VICTOR VIDAL AND JUANA MORATO","LONGITUDE":-87.73731121989375},
{"STATE":"IL","ZIP":60640,"LATTITUDE":41.97738953666194,"ADDRESS":"5238-5252 N CLARK ST  ","YEAR":2012,"DOING_BUSINESS_AS_NAME":"CHEETAH GYM","POP_AT_RISK":138896,"BUSINESS_TYPE":"Retail Computing Center","LEGAL_NAME":"JUNGLE GYM FITNESS CORPORATION","LONGITUDE":-87.66852279752685},
{"STATE":"IL","ZIP":60622,"LATTITUDE":41.91061444059618,"ADDRESS":"1934 - 1942 W NORTH AVE  ","YEAR":2012,"DOING_BUSINESS_AS_NAME":"CHEETAH GYM","POP_AT_RISK":128598,"BUSINESS_TYPE":"Retail Computing Center","LEGAL_NAME":"JUNGLE GYM FITNESS CORPORATION","LONGITUDE":-87.67633917507685},
{"STATE":"IL","ZIP":60641,"LATTITUDE":41.95345484739207,"ADDRESS":"5024 W IRVING PARK RD 1ST ","YEAR":2012,"DOING_BUSINESS_AS_NAME":"ACADEMIA DCITELLY","POP_AT_RISK":55383,"BUSINESS_TYPE":"Retail Computing Center","LEGAL_NAME":"ACADEMIA DCITELLY NORTH CHICAGO","LONGITUDE":-87.75324859125674},
{"STATE":"IL","ZIP":60629,"LATTITUDE":41.78613781763369,"ADDRESS":"3201 W 59TH ST  ","YEAR":2012,"DOING_BUSINESS_AS_NAME":"ENVIOS XPRESS AND SERVICES","POP_AT_RISK":214122,"BUSINESS_TYPE":"Retail Computing Center","LEGAL_NAME":"INDIO IMPORT & EXPORT CORPORATION","LONGITUDE":-87.70340704141421},
{"STATE":"IL","ZIP":60614,"LATTITUDE":41.9255723272499,"ADDRESS":"744 W FULLERTON AVE 1ST 1C","YEAR":2012,"DOING_BUSINESS_AS_NAME":"FEDEX KINKO'S #1935","POP_AT_RISK":387565,"BUSINESS_TYPE":"Retail Computing Center","LEGAL_NAME":"FEDEX OFFICE AND PRINT SERVICES, INC.","LONGITUDE":-87.6481109289284},
{"STATE":"IL","ZIP":60661,"LATTITUDE":41.885814492017886,"ADDRESS":"608 W LAKE ST  ","YEAR":2012,"DOING_BUSINESS_AS_NAME":"FEDEX OFFICE AND PRINT SVCS, INC.","POP_AT_RISK":48612,"BUSINESS_TYPE":"Retail Computing Center","LEGAL_NAME":"FEDEX OFFICE AND PRINT SERVICES, INC.","LONGITUDE":-87.64319994224046},
{"STATE":"IL","ZIP":60637,"LATTITUDE":41.79135958090396,"ADDRESS":"1315 E 57TH ST  1","YEAR":2012,"DOING_BUSINESS_AS_NAME":"FEDEX OFFICE AND PRINT SVCS, INC.","POP_AT_RISK":663354,"BUSINESS_TYPE":"Retail Computing Center","LEGAL_NAME":"FEDEX OFFICE AND PRINT SERVICES, INC.","LONGITUDE":-87.59418728522255},
{"STATE":"IL","ZIP":60657,"LATTITUDE":41.93655352261296,"ADDRESS":"3001 N CLARK ST 1ST ","YEAR":2012,"DOING_BUSINESS_AS_NAME":"FEDEX OFFICE AND PRINT SVCS, INC.","POP_AT_RISK":235548,"BUSINESS_TYPE":"Retail Computing Center","LEGAL_NAME":"FEDEX OFFICE AND PRINT SERVICES, INC.","LONGITUDE":-87.64775429565945},
{"STATE":"IL","ZIP":60610,"LATTITUDE":41.90401954694065,"ADDRESS":"1201 N DEARBORN ST  1","YEAR":2012,"DOING_BUSINESS_AS_NAME":"FEDEX OFFICE AND PRINT SVCS, INC.","POP_AT_RISK":149658,"BUSINESS_TYPE":"Retail Computing Center","LEGAL_NAME":"FEDEX OFFICE AND PRINT SERVICES, INC.","LONGITUDE":-87.62984192085615},
{"STATE":"IL","ZIP":60618,"LATTITUDE":41.94415210833125,"ADDRESS":"3435 N WESTERN AVE  1","YEAR":2012,"DOING_BUSINESS_AS_NAME":"FEDEX OFFICE AND PRINT SVCS, INC.","POP_AT_RISK":457335,"BUSINESS_TYPE":"Retail Computing Center","LEGAL_NAME":"FEDEX OFFICE AND PRINT SERVICES, INC.","LONGITUDE":-87.68803617300235},
{"STATE":"IL","ZIP":60614,"LATTITUDE":41.923635405719445,"ADDRESS":"2300 N CLYBOURN AVE  1ST &","YEAR":2012,"DOING_BUSINESS_AS_NAME":"FEDEX OFFICE AND PRINT SVCS, INC.","POP_AT_RISK":118148,"BUSINESS_TYPE":"Retail Computing Center","LEGAL_NAME":"FEDEX OFFICE AND PRINT SERVICES, INC.","LONGITUDE":-87.66742820257483},
{"STATE":"IL","ZIP":60657,"LATTITUDE":41.94593374159817,"ADDRESS":"3524 N SOUTHPORT AVE  1ST F","YEAR":2012,"DOING_BUSINESS_AS_NAME":"FEDEX OFFICE AND PRINT SVCS, INC.","POP_AT_RISK":213705,"BUSINESS_TYPE":"Retail Computing Center","LEGAL_NAME":"FEDEX OFFICE AND PRINT SERVICES, INC.","LONGITUDE":-87.66413328399126},
{"STATE":"IL","ZIP":60619,"LATTITUDE":41.743567680303435,"ADDRESS":"33 E 83RD ST 1ST ","YEAR":2012,"DOING_BUSINESS_AS_NAME":"MATHER'S MORE THAN A CAFE","POP_AT_RISK":245142,"BUSINESS_TYPE":"Retail Computing Center","LEGAL_NAME":"MATHER LIFEWAYS COMMUNITY INITIATIVES","LONGITUDE":-87.6229553664139},
{"STATE":"IL","ZIP":60656,"LATTITUDE":41.98100034161097,"ADDRESS":"7134 W HIGGINS AVE 1ST ","YEAR":2012,"DOING_BUSINESS_AS_NAME":"MATHER'S MORE THAN A CAFE","POP_AT_RISK":177684,"BUSINESS_TYPE":"Retail Computing Center","LEGAL_NAME":"MATHER LIFEWAYS COMMUNITY INITIATIVES","LONGITUDE":-87.8059054660053},
{"STATE":"IL","ZIP":60634,"LATTITUDE":41.9396542640577,"ADDRESS":"3235 N CENTRAL AVE 1ST ","YEAR":2012,"DOING_BUSINESS_AS_NAME":"MATHER'S MORE THEN A CAFE","POP_AT_RISK":179232,"BUSINESS_TYPE":"Retail Computing Center","LEGAL_NAME":"MATHER LIFEWAYS COMMUNITY INITIATIVES","LONGITUDE":-87.76639051535662},
{}]