[
  {
    "BUSINESS_TYPE": "Auctioneer", 
    "LEGAL_NAME": "CHARLES MC GARY", 
    "STATE": "IL", 
    "DOING_BUSINESS_AS_NAME": "LANDMARK LIQUIDATION", 
    "POP_AT_RISK": 36439, 
    "ZIP": 60649, 
    "ADDRESS": "6826 S STONY ISLAND AVE", 
    "YEAR": 2006, 
    "LONGITUDE": -87.586409445, 
    "LATTITUDE": 41.770689577
  }, 
  {
    "BUSINESS_TYPE": "Auctioneer", 
    "LEGAL_NAME": "SEAN SUSANIN", 
    "STATE": "IL", 
    "DOING_BUSINESS_AS_NAME": "SUSANIN'S", 
    "POP_AT_RISK": 34142, 
    "ZIP": 60607, 
    "ADDRESS": "900 S CLINTON ST", 
    "YEAR": 2006, 
    "LONGITUDE": -87.640974125, 
    "LATTITUDE": 41.870487423
  }, 
  {
    "BUSINESS_TYPE": "Auctioneer", 
    "LEGAL_NAME": "JAMES McCULLOUGH", 
    "STATE": "IL", 
    "DOING_BUSINESS_AS_NAME": "NATIONWIDE AUCTION SYSTEM", 
    "POP_AT_RISK": 13725, 
    "ZIP": 60644, 
    "ADDRESS": "901 S CENTRAL AVE", 
    "YEAR": 2006, 
    "LONGITUDE": -87.764094101, 
    "LATTITUDE": 41.869151086
  }, 
  {
    "BUSINESS_TYPE": "Auctioneer", 
    "LEGAL_NAME": "JEFFREY BENDIX", 
    "STATE": "IL", 
    "DOING_BUSINESS_AS_NAME": "JEFFREY BENDIX", 
    "POP_AT_RISK": 64779, 
    "ZIP": 60640, 
    "ADDRESS": "5501 N CLARK ST  LOWER", 
    "YEAR": 2006, 
    "LONGITUDE": -87.668287655, 
    "LATTITUDE": 41.981723366
  }, 
  {
    "BUSINESS_TYPE": "Auctioneer", 
    "LEGAL_NAME": "MERLE KLEIN", 
    "STATE": "IL", 
    "DOING_BUSINESS_AS_NAME": "M KLEIN AUCTIONS", 
    "POP_AT_RISK": 39485, 
    "ZIP": 60642, 
    "ADDRESS": "1400 W HUBBARD ST", 
    "YEAR": 2006, 
    "LONGITUDE": -87.66228066, 
    "LATTITUDE": 41.890053822
  }, 
  {
    "BUSINESS_TYPE": "Auctioneer", 
    "LEGAL_NAME": "JOHN R. MODICA", 
    "STATE": "IL", 
    "DOING_BUSINESS_AS_NAME": "JOHN R. MODICA", 
    "POP_AT_RISK": 47384, 
    "ZIP": 60645, 
    "ADDRESS": "7232 N WESTERN AVE", 
    "YEAR": 2006, 
    "LONGITUDE": -87.690389587, 
    "LATTITUDE": 42.013193041
  }, 
  {
    "BUSINESS_TYPE": "Auctioneer", 
    "LEGAL_NAME": "CHARLES MC GARY", 
    "STATE": "IL", 
    "DOING_BUSINESS_AS_NAME": "LANDMARK LIQUIDATION", 
    "POP_AT_RISK": 17702, 
    "ZIP": 60617, 
    "ADDRESS": "8936 S COMMERCIAL AVE 1", 
    "YEAR": 2006, 
    "LONGITUDE": -87.551462432, 
    "LATTITUDE": 41.732615242
  }, 
  {
    "BUSINESS_TYPE": "Auctioneer", 
    "LEGAL_NAME": "TEIMOUR FAILY", 
    "STATE": "IL", 
    "DOING_BUSINESS_AS_NAME": "1ST FEDERAL AUTO AUCTION, INC", 
    "POP_AT_RISK": 34593, 
    "ZIP": 60637, 
    "ADDRESS": "35-75 E 63RD ST 1ST", 
    "YEAR": 2006, 
    "LONGITUDE": -87.624014875, 
    "LATTITUDE": 41.779904224
  }, 
  {
    "BUSINESS_TYPE": "Auctioneer", 
    "LEGAL_NAME": "JEFFREY P. BROWN", 
    "STATE": "IL", 
    "DOING_BUSINESS_AS_NAME": "ACE AUCTIONEERS INC", 
    "POP_AT_RISK": 25417, 
    "ZIP": 60659, 
    "ADDRESS": "3530 W PETERSON AVE  204", 
    "YEAR": 2006, 
    "LONGITUDE": -87.717705843, 
    "LATTITUDE": 41.990386896
  }, 
  {
    "BUSINESS_TYPE": "Auctioneer", 
    "LEGAL_NAME": "RICK LEVIN", 
    "STATE": "IL", 
    "DOING_BUSINESS_AS_NAME": "RICK LEVIN", 
    "POP_AT_RISK": 58720, 
    "ZIP": 60610, 
    "ADDRESS": "1347 N STATE PKWY 1", 
    "YEAR": 2006, 
    "LONGITUDE": -87.628632234, 
    "LATTITUDE": 41.907165907
  }, 
  {
    "BUSINESS_TYPE": "Auctioneer", 
    "LEGAL_NAME": "RICHARD M STONE", 
    "STATE": "IL", 
    "DOING_BUSINESS_AS_NAME": "NATIONAL AUCTIONEERS, INC.", 
    "POP_AT_RISK": 43864, 
    "ZIP": 60604, 
    "ADDRESS": "343 S DEARBORN ST # 101", 
    "YEAR": 2006, 
    "LONGITUDE": -87.629121233, 
    "LATTITUDE": 41.877146786
  }, 
  {
    "BUSINESS_TYPE": "Auctioneer", 
    "LEGAL_NAME": "CHERE WALSH", 
    "STATE": "IL", 
    "DOING_BUSINESS_AS_NAME": "CHERE WALSH", 
    "POP_AT_RISK": 79757, 
    "ZIP": 60640, 
    "ADDRESS": "4430 N CLARK ST 1ST", 
    "YEAR": 2006, 
    "LONGITUDE": -87.666302194, 
    "LATTITUDE": 41.96255273
  }
]