[
{"STATE":"IL","ZIP":60618,"LATTITUDE":41.95400765309425,"ADDRESS":"3250 W IRVING PARK RD  ","YEAR":2012,"DOING_BUSINESS_AS_NAME":"RAINBOW DAY CARE CENTER","POP_AT_RISK":136438,"BUSINESS_TYPE":"Day Care Center Under 2 and 2 - 6 Years","LEGAL_NAME":"N & K, CORP.","LONGITUDE":-87.7100919711299},
{"STATE":"IL","ZIP":60652,"LATTITUDE":41.74299303153854,"ADDRESS":"8233-8237 S PULASKI RD 1ST ","YEAR":2012,"DOING_BUSINESS_AS_NAME":"THE LEARNING TREE II","POP_AT_RISK":63684,"BUSINESS_TYPE":"Day Care Center Under 2 and 2 - 6 Years","LEGAL_NAME":"GIA GROUP INC.","LONGITUDE":-87.72155821260196},
{"STATE":"IL","ZIP":60642,"LATTITUDE":41.89606693774048,"ADDRESS":"1333 W CHICAGO AVE 1ST ","YEAR":2012,"DOING_BUSINESS_AS_NAME":"NOBLE DAY CARE","POP_AT_RISK":44126,"BUSINESS_TYPE":"Day Care Center Under 2 and 2 - 6 Years","LEGAL_NAME":"NOBLE DAY CARE","LONGITUDE":-87.66071012810819},
{"STATE":"IL","ZIP":60625,"LATTITUDE":41.97583445690982,"ADDRESS":"3250 W FOSTER AVE 1ST ","YEAR":2012,"DOING_BUSINESS_AS_NAME":"LUNA PARK INC","POP_AT_RISK":67898,"BUSINESS_TYPE":"Day Care Center Under 2 and 2 - 6 Years","LEGAL_NAME":"LUNA PARK, INC.","LONGITUDE":-87.7107455232781},
{"STATE":"IL","ZIP":60645,"LATTITUDE":42.017637330007524,"ADDRESS":"7463 N RIDGE BLVD 1 ","YEAR":2012,"DOING_BUSINESS_AS_NAME":"EL RUISENOR - DAYCARE CENTER","POP_AT_RISK":334810,"BUSINESS_TYPE":"Day Care Center Under 2 and 2 - 6 Years","LEGAL_NAME":"MARIA D. CALVILLO","LONGITUDE":-87.6842790144969},
{"STATE":"IL","ZIP":60641,"LATTITUDE":41.959526803588645,"ADDRESS":"4328-4332 N MILWAUKEE AVE  ","YEAR":2012,"DOING_BUSINESS_AS_NAME":"KIDS IN HARMONY DAYSCHOOL","POP_AT_RISK":158916,"BUSINESS_TYPE":"Day Care Center Under 2 and 2 - 6 Years","LEGAL_NAME":"KIDS IN HARMONY, INC.","LONGITUDE":-87.75369469746808},
{"STATE":"IL","ZIP":60637,"LATTITUDE":41.783980381245314,"ADDRESS":"362-364 E 61ST ST  ","YEAR":2012,"DOING_BUSINESS_AS_NAME":"KARE BEAR ACADEMY INC.","POP_AT_RISK":33228,"BUSINESS_TYPE":"Day Care Center Under 2 and 2 - 6 Years","LEGAL_NAME":"KARE BEAR ACADEMY INC.","LONGITUDE":-87.61646586717478},
{"STATE":"IL","ZIP":60620,"LATTITUDE":41.73596188169255,"ADDRESS":"1414 W 87TH ST 1ST ","YEAR":2012,"DOING_BUSINESS_AS_NAME":"SWEET PEA ACADEMY, INC.","POP_AT_RISK":80032,"BUSINESS_TYPE":"Day Care Center Under 2 and 2 - 6 Years","LEGAL_NAME":"SWEET PEA ACADEMY, INC.","LONGITUDE":-87.6589049465472},
{"STATE":"IL","ZIP":60608,"LATTITUDE":41.85632095198309,"ADDRESS":"1854 S RACINE AVE 1 ","YEAR":2012,"DOING_BUSINESS_AS_NAME":"LIL EINSTEIN'S INSTITUTE FOR SCHOLARS","POP_AT_RISK":124548,"BUSINESS_TYPE":"Day Care Center Under 2 and 2 - 6 Years","LEGAL_NAME":"Infantile 2 Juvenile Inc","LONGITUDE":-87.65652360934358},
{"STATE":"IL","ZIP":60629,"LATTITUDE":41.77643961364602,"ADDRESS":"6411 S PULASKI RD 1ST ","YEAR":2012,"DOING_BUSINESS_AS_NAME":"LITTLE BEAR DAY CARE","POP_AT_RISK":54952,"BUSINESS_TYPE":"Day Care Center Under 2 and 2 - 6 Years","LEGAL_NAME":"LITTLE BEAR DAY CARE LLC","LONGITUDE":-87.72255635327761},
{"STATE":"IL","ZIP":60707,"LATTITUDE":41.90909072583769,"ADDRESS":"6922-6924 W NORTH AVE  ","YEAR":2012,"DOING_BUSINESS_AS_NAME":"FRESH START DAYCARE, INC.","POP_AT_RISK":24218,"BUSINESS_TYPE":"Day Care Center Under 2 and 2 - 6 Years","LEGAL_NAME":"FRESH START DAYCARE, INC.","LONGITUDE":-87.79816372279038},
{"STATE":"IL","ZIP":60639,"LATTITUDE":41.92411853337897,"ADDRESS":"5504 W FULLERTON AVE 1ST ","YEAR":2012,"DOING_BUSINESS_AS_NAME":"AKARRASEL CHILD CARE CENTERS","POP_AT_RISK":221796,"BUSINESS_TYPE":"Day Care Center Under 2 and 2 - 6 Years","LEGAL_NAME":"GALEWOOD ENTERPRISES, LTD","LONGITUDE":-87.76375122297641},
{"STATE":"IL","ZIP":60621,"LATTITUDE":41.763068264471286,"ADDRESS":"7209-7211 S HALSTED ST 1 1","YEAR":2012,"DOING_BUSINESS_AS_NAME":"LEZ ENFANTS ACADEMY, INC.","POP_AT_RISK":39281,"BUSINESS_TYPE":"Day Care Center Under 2 and 2 - 6 Years","LEGAL_NAME":"LEZ ENFANTS ACADEMY, INC.","LONGITUDE":-87.64421210267354},
{"STATE":"IL","ZIP":60631,"LATTITUDE":41.98703322680841,"ADDRESS":"5801 N NORTHWEST HWY 1 1","YEAR":2012,"DOING_BUSINESS_AS_NAME":"HELEN LUCY CHILD CARE INC.","POP_AT_RISK":62120,"BUSINESS_TYPE":"Day Care Center Under 2 and 2 - 6 Years","LEGAL_NAME":"HELEN LUCY CHILD CARE INC.","LONGITUDE":-87.78938143174634},
{"STATE":"IL","ZIP":60632,"LATTITUDE":41.81349085436627,"ADDRESS":"4401 S KEDZIE AVE 1 1","YEAR":2012,"DOING_BUSINESS_AS_NAME":"KIDDY KARE PRE SCHOOL INC.","POP_AT_RISK":330274,"BUSINESS_TYPE":"Day Care Center Under 2 and 2 - 6 Years","LEGAL_NAME":"KIDDY KARE PRE SCHOOL INC.","LONGITUDE":-87.70403979329342},
{"STATE":"IL","ZIP":60609,"LATTITUDE":41.81511207847913,"ADDRESS":"4344 S WENTWORTH AVE  ","YEAR":2012,"DOING_BUSINESS_AS_NAME":"JONES ACADEMY, INCORPORATED","POP_AT_RISK":18427,"BUSINESS_TYPE":"Day Care Center Under 2 and 2 - 6 Years","LEGAL_NAME":"JONES ACADEMY, INCORPORATED","LONGITUDE":-87.63130757563485},
{"STATE":"IL","ZIP":60617,"LATTITUDE":41.7299824882975,"ADDRESS":"9100 S COMMERCIAL AVE 1ST 2 A","YEAR":2012,"DOING_BUSINESS_AS_NAME":"RAMONA'S LOVELY TOUCH ACADEMY","POP_AT_RISK":53106,"BUSINESS_TYPE":"Day Care Center Under 2 and 2 - 6 Years","LEGAL_NAME":"RAMONA LOVELY TOUCH ACADEMY","LONGITUDE":-87.55140126696199},
{"STATE":"IL","ZIP":60633,"LATTITUDE":41.652511409051534,"ADDRESS":"13338-40 S BRANDON AVE BASEMENT & 1ST FLOOR ","YEAR":2012,"DOING_BUSINESS_AS_NAME":"EAST SIDE CHILD DEVELOPMENT CENTER","POP_AT_RISK":27264,"BUSINESS_TYPE":"Day Care Center Under 2 and 2 - 6 Years","LEGAL_NAME":"THE MARTIN GROUP 13338, LLC","LONGITUDE":-87.54606578976836},
{"STATE":"IL","ZIP":60634,"LATTITUDE":41.94024127761025,"ADDRESS":"3255 N CENTRAL AVE 1 1","YEAR":2012,"DOING_BUSINESS_AS_NAME":"METROPOLITAN FAMILY SERVICES","POP_AT_RISK":320235,"BUSINESS_TYPE":"Day Care Center Under 2 and 2 - 6 Years","LEGAL_NAME":"METROPOLITAN FAMILY SERVICES","LONGITUDE":-87.76641116844013},
{"STATE":"IL","ZIP":60623,"LATTITUDE":41.846537489047876,"ADDRESS":"2446-2452 S PULASKI RD 1ST ","YEAR":2012,"DOING_BUSINESS_AS_NAME":"LITTLE VILLAGE KIDS TOWN, INC.","POP_AT_RISK":244884,"BUSINESS_TYPE":"Day Care Center Under 2 and 2 - 6 Years","LEGAL_NAME":"LITTLE VILLAGE KIDS TOWN, INC.","LONGITUDE":-87.72477243544083},
{"STATE":"IL","ZIP":60616,"LATTITUDE":41.835954885922824,"ADDRESS":"501 E 32ND ST  1ST","YEAR":2012,"DOING_BUSINESS_AS_NAME":"THE CHILDREN'S HOUSE-LK MEADOW","POP_AT_RISK":66078,"BUSINESS_TYPE":"Day Care Center Under 2 and 2 - 6 Years","LEGAL_NAME":"THE CHILDREN'S HOUSE LAKE MEAD","LONGITUDE":-87.61335015397036},
{"STATE":"IL","ZIP":60646,"LATTITUDE":41.98389736844486,"ADDRESS":"5636 N PULASKI RD 1ST ","YEAR":2012,"DOING_BUSINESS_AS_NAME":"WONDER MONTESSORI SCHOOL","POP_AT_RISK":57282,"BUSINESS_TYPE":"Day Care Center Under 2 and 2 - 6 Years","LEGAL_NAME":"WONDER MONTESSORI SCHOOL, INC.","LONGITUDE":-87.72860923179358},
{"STATE":"IL","ZIP":60637,"LATTITUDE":41.77726466431455,"ADDRESS":"6445 S COTTAGE GROVE AVE 1ST ","YEAR":2012,"DOING_BUSINESS_AS_NAME":"MILESTONES LEARNING ACADEMY INC.","POP_AT_RISK":38439,"BUSINESS_TYPE":"Day Care Center Under 2 and 2 - 6 Years","LEGAL_NAME":"MILESTONES LEARNING ACADEMY INC.","LONGITUDE":-87.60571373200004},
{"STATE":"IL","ZIP":60617,"LATTITUDE":41.71321088719611,"ADDRESS":"10009 S YATES AVE  ","YEAR":2012,"DOING_BUSINESS_AS_NAME":"A-ILLINOIS INSTITUTE FOR CHILDREN","POP_AT_RISK":23752,"BUSINESS_TYPE":"Day Care Center Under 2 and 2 - 6 Years","LEGAL_NAME":"A-ILLINOIS INSTITUTE FOR CHILDREN","LONGITUDE":-87.56443615534658},
{"STATE":"IL","ZIP":60656,"LATTITUDE":41.977374595498965,"ADDRESS":"6514-6516 W HIGGINS AVE  ","YEAR":2012,"DOING_BUSINESS_AS_NAME":"MT ARARAT DAYCARE CENTER","POP_AT_RISK":96087,"BUSINESS_TYPE":"Day Care Center Under 2 and 2 - 6 Years","LEGAL_NAME":"MT. ARARAT DAYCARE CENTER, L.L.C.","LONGITUDE":-87.79085428202548},
{"STATE":"IL","ZIP":60655,"LATTITUDE":41.69148728951806,"ADDRESS":"3656 W 111TH ST 1 ","YEAR":2012,"DOING_BUSINESS_AS_NAME":"MUSTARDSEED LEARNING CENTER, INC.","POP_AT_RISK":171816,"BUSINESS_TYPE":"Day Care Center Under 2 and 2 - 6 Years","LEGAL_NAME":"MUSTARDSEED LEARNING CENTER, INC.","LONGITUDE":-87.71287071367232},
{"STATE":"IL","ZIP":60644,"LATTITUDE":41.865605626722484,"ADDRESS":"5858 W ROOSEVELT RD 1 ","YEAR":2012,"DOING_BUSINESS_AS_NAME":"CHILDREN INTERNATIONAL ACADEMY","POP_AT_RISK":419344,"BUSINESS_TYPE":"Day Care Center Under 2 and 2 - 6 Years","LEGAL_NAME":"CHILDREN INTERNATIONAL ACADEMY,LLC","LONGITUDE":-87.77161387921645},
{"STATE":"IL","ZIP":60632,"LATTITUDE":41.80943923636859,"ADDRESS":"4606-4610 S PULASKI RD 1ST ","YEAR":2012,"DOING_BUSINESS_AS_NAME":"LIZ-NEY-LAND LEARNING CENTER, INC.","POP_AT_RISK":71979,"BUSINESS_TYPE":"Day Care Center Under 2 and 2 - 6 Years","LEGAL_NAME":"LIZ-NEY-LAND LEARNING CENTER, INC.","LONGITUDE":-87.723789019846},
{"STATE":"IL","ZIP":60640,"LATTITUDE":41.97337729801931,"ADDRESS":"1108 W ARGYLE ST 1ST ","YEAR":2012,"DOING_BUSINESS_AS_NAME":"TENDER DAY CARE CENTER INCORPORATED","POP_AT_RISK":61946,"BUSINESS_TYPE":"Day Care Center Under 2 and 2 - 6 Years","LEGAL_NAME":"TENDER DAY CARE CENTER INCORPORATED","LONGITUDE":-87.65815899052997},
{"STATE":"IL","ZIP":60623,"LATTITUDE":41.853475323255154,"ADDRESS":"3701 W OGDEN AVE  ","YEAR":2012,"DOING_BUSINESS_AS_NAME":"Carole Robertson Center for Learning","POP_AT_RISK":129942,"BUSINESS_TYPE":"Day Care Center Under 2 and 2 - 6 Years","LEGAL_NAME":"CAROLE ROBERTSON CENTER FOR LEARNING","LONGITUDE":-87.71749061210578},
{"STATE":"IL","ZIP":60707,"LATTITUDE":41.915192484218764,"ADDRESS":"1927-1929 N HARLEM AVE  ","YEAR":2012,"DOING_BUSINESS_AS_NAME":"LOVING TOUCH DAYCARE PROVIDERS INC","POP_AT_RISK":66786,"BUSINESS_TYPE":"Day Care Center Under 2 and 2 - 6 Years","LEGAL_NAME":"LOVING TOUCH DAYCARE PROVIDERS, INC.","LONGITUDE":-87.80582794273202},
{"STATE":"IL","ZIP":60623,"LATTITUDE":41.862305336370426,"ADDRESS":"1400 S KOLIN AVE 1ST ","YEAR":2012,"DOING_BUSINESS_AS_NAME":"VILLAGE OF HOPE LEARNING CENTER","POP_AT_RISK":68280,"BUSINESS_TYPE":"Day Care Center Under 2 and 2 - 6 Years","LEGAL_NAME":"VILLAGE OF HOPE LEARNING CENTER, INC.","LONGITUDE":-87.73376910044355},
{"STATE":"IL","ZIP":60637,"LATTITUDE":41.79378821758089,"ADDRESS":"5548 S HYDE PARK BLVD 1ST ","YEAR":2012,"DOING_BUSINESS_AS_NAME":"AMERICAN KIDZ ACADEMY, LLC - HYDE PARK","POP_AT_RISK":259664,"BUSINESS_TYPE":"Day Care Center Under 2 and 2 - 6 Years","LEGAL_NAME":"AMERICAN KIDZ ACADEMY, LLC - HYDE PARK","LONGITUDE":-87.58406146354389},
{"STATE":"IL","ZIP":60609,"LATTITUDE":41.82898408178605,"ADDRESS":"3575 S ARCHER AVE  ","YEAR":2012,"DOING_BUSINESS_AS_NAME":"ARCHER AVENUE LEARNING STATION, INC","POP_AT_RISK":60792,"BUSINESS_TYPE":"Day Care Center Under 2 and 2 - 6 Years","LEGAL_NAME":"MONTESSORI FOUNDATIONS OF CHICAGO, INC.","LONGITUDE":-87.67971508964543},
{"STATE":"IL","ZIP":60614,"LATTITUDE":41.92390630404291,"ADDRESS":"2301 N CLARK ST 1ST & 2ND 100&200","YEAR":2012,"DOING_BUSINESS_AS_NAME":"LITTLE GEMS INTERNATIONAL (BELDEN), INC.","POP_AT_RISK":244552,"BUSINESS_TYPE":"Day Care Center Under 2 and 2 - 6 Years","LEGAL_NAME":"LITTLE GEMS INTERNATIONAL (BELDEN), INC.","LONGITUDE":-87.63928669557026},
{"STATE":"IL","ZIP":60643,"LATTITUDE":41.69243648500873,"ADDRESS":"11053 S VINCENNES AVE 1ST & LOWER ","YEAR":2012,"DOING_BUSINESS_AS_NAME":"STAR KIDS MATH AND SCIENCE ACADEMY","POP_AT_RISK":26744,"BUSINESS_TYPE":"Day Care Center Under 2 and 2 - 6 Years","LEGAL_NAME":"STAR KIDS MATH AND SCIENCE ACADEMY, INC.","LONGITUDE":-87.66295087724362},
{"STATE":"IL","ZIP":60659,"LATTITUDE":41.997164131325896,"ADDRESS":"3613 W DEVON AVE  ","YEAR":2012,"DOING_BUSINESS_AS_NAME":"LITTLE ANGELS EARLY CHILDHOOD CENTER","POP_AT_RISK":66728,"BUSINESS_TYPE":"Day Care Center Under 2 and 2 - 6 Years","LEGAL_NAME":"LITTLE ANGELS EARLY CHILDHOOD CENTER, INC.","LONGITUDE":-87.71963744251987},
{"STATE":"IL","ZIP":60643,"LATTITUDE":41.70921709772374,"ADDRESS":"10126 S WESTERN AVE 1ST ","YEAR":2012,"DOING_BUSINESS_AS_NAME":"LITTLE HANDS LEARNING CENTER ACADEMY, INC.","POP_AT_RISK":97988,"BUSINESS_TYPE":"Day Care Center Under 2 and 2 - 6 Years","LEGAL_NAME":"LITTLE HANDS LEARNING CENTER ACADEMY, INC.","LONGITUDE":-87.68185356852545},
{"STATE":"IL","ZIP":60609,"LATTITUDE":41.80113414357615,"ADDRESS":"1935 W 51ST ST 1ST & LOWER LEVEL ","YEAR":2012,"DOING_BUSINESS_AS_NAME":"VIREVA NURSERY SCHOOL","POP_AT_RISK":123894,"BUSINESS_TYPE":"Day Care Center Under 2 and 2 - 6 Years","LEGAL_NAME":"VIREVA NURSERY SCHOOL & KINDERGARTEN, INC.","LONGITUDE":-87.6734440144631},
{"STATE":"IL","ZIP":60649,"LATTITUDE":41.76603412696048,"ADDRESS":"2253-2257 E 71ST ST 1 ","YEAR":2012,"DOING_BUSINESS_AS_NAME":"Colors For Tots Daycare Center","POP_AT_RISK":110130,"BUSINESS_TYPE":"Day Care Center Under 2 and 2 - 6 Years","LEGAL_NAME":"COLORS FOR TOTS DAYCARE CENTER INCORPORATED","LONGITUDE":-87.56927085397123},
{"STATE":"IL","ZIP":60653,"LATTITUDE":41.809588233119534,"ADDRESS":"624-626 E 47TH ST 1ST ","YEAR":2012,"DOING_BUSINESS_AS_NAME":"PRECIOUS LITTLE ONE'S LEARNING CENTER, INC.","POP_AT_RISK":83068,"BUSINESS_TYPE":"Day Care Center Under 2 and 2 - 6 Years","LEGAL_NAME":"PRECIOUS LITTLE ONE'S LEARNING CENTER, INC.","LONGITUDE":-87.61036179915281},
{"STATE":"IL","ZIP":60619,"LATTITUDE":41.73185210877984,"ADDRESS":"8938-8948 S COTTAGE GROVE AVE 1 ","YEAR":2012,"DOING_BUSINESS_AS_NAME":"NEW AGE CHILDREN'S PREPARATORY ACADEMY, INC.","POP_AT_RISK":45732,"BUSINESS_TYPE":"Day Care Center Under 2 and 2 - 6 Years","LEGAL_NAME":"NEW AGE CHILDREN'S PREPARATORY ACADEMY, INC.","LONGITUDE":-87.60485274319225},
{"STATE":"IL","ZIP":60628,"LATTITUDE":41.70556659418179,"ADDRESS":"901 E 104TH ST 1 1","YEAR":2012,"DOING_BUSINESS_AS_NAME":"TEENCHY WEENCHY DAYCARE & LEARNING CENTER INC.,","POP_AT_RISK":14752,"BUSINESS_TYPE":"Day Care Center Under 2 and 2 - 6 Years","LEGAL_NAME":"TEENCHY WEENCHY DAYCARE & LEARNING CENTER INC.","LONGITUDE":-87.60107403032647},
{"STATE":"IL","ZIP":60657,"LATTITUDE":41.938253305553516,"ADDRESS":"3111 N ASHLAND AVE 1ST ","YEAR":2012,"DOING_BUSINESS_AS_NAME":"LITTLE GREEN TREE HOUSE","POP_AT_RISK":409968,"BUSINESS_TYPE":"Day Care Center Under 2 and 2 - 6 Years","LEGAL_NAME":"CHILDREN'S ACADEMIES OF AMERICA ASHLAND II, LLC","LONGITUDE":-87.66846320182256},
{"STATE":"IL","ZIP":60649,"LATTITUDE":41.75957929907675,"ADDRESS":"2671-73 E 75TH ST 1ST ","YEAR":2012,"DOING_BUSINESS_AS_NAME":"LITTLE APPLE SEEDS LEARNING ACADEMY","POP_AT_RISK":29611,"BUSINESS_TYPE":"Day Care Center Under 2 and 2 - 6 Years","LEGAL_NAME":"LITTLE APPLE SEEDS LEARNING ACADEMY CORPORATION","LONGITUDE":-87.55891723791517},
{"STATE":"IL","ZIP":60612,"LATTITUDE":41.866894192891046,"ADDRESS":"1146-1148 S CALIFORNIA AVE 1ST ","YEAR":2012,"DOING_BUSINESS_AS_NAME":"GREAT EXPECTATIONS LEARNING ACADEMY INCORPORATED","POP_AT_RISK":33556,"BUSINESS_TYPE":"Day Care Center Under 2 and 2 - 6 Years","LEGAL_NAME":"GREAT EXPECTATIONS LEARNING ACADEMY INCORPORATED","LONGITUDE":-87.69605988203479},
{"STATE":"IL","ZIP":60641,"LATTITUDE":41.95004851376016,"ADDRESS":"3809 N CICERO AVE 1ST ","YEAR":2012,"DOING_BUSINESS_AS_NAME":"KIDDIELAND EDUCATIONAL CENTER OF EXCELLENCE, INC.","POP_AT_RISK":250950,"BUSINESS_TYPE":"Day Care Center Under 2 and 2 - 6 Years","LEGAL_NAME":"KIDDIELAND EDUCATIONAL CENTER OF EXCELLENCE, INC.","LONGITUDE":-87.74707559226898},
{"STATE":"IL","ZIP":60617,"LATTITUDE":41.703336347386745,"ADDRESS":"10540 - 44 S EWING AVE 1 ","YEAR":2012,"DOING_BUSINESS_AS_NAME":"SHINING STAR CHILD DEVELOPMENT","POP_AT_RISK":122485,"BUSINESS_TYPE":"Day Care Center Under 2 and 2 - 6 Years","LEGAL_NAME":"SHINING STAR CHILD DEVELOPMENT INSTITUTE OF THE ARTS INC.","LONGITUDE":-87.5354317383637},
{}]