[
{"STATE":"IL","ZIP":60644,"LATTITUDE":41.87927365972268,"ADDRESS":"29 S WALLER AVE 1ST ","YEAR":2013,"DOING_BUSINESS_AS_NAME":"YTB Consulting","POP_AT_RISK":46059,"BUSINESS_TYPE":"Home Occupation","LEGAL_NAME":"Yancey Bady","LONGITUDE":-87.76794232825475},
{"STATE":"IL","ZIP":60652,"LATTITUDE":41.744384847894224,"ADDRESS":"4168 W CREST LINE ST  ","YEAR":2013,"DOING_BUSINESS_AS_NAME":"H & M GARDENING","POP_AT_RISK":31842,"BUSINESS_TYPE":"Home Occupation","LEGAL_NAME":"HORACIO DIAZ","LONGITUDE":-87.72597610024354},
{"STATE":"IL","ZIP":60643,"LATTITUDE":41.679634778159766,"ADDRESS":"11755 S LOOMIS ST LOWER LEVEL ","YEAR":2013,"DOING_BUSINESS_AS_NAME":"Ms Monique's Travel","POP_AT_RISK":19451,"BUSINESS_TYPE":"Home Occupation","LEGAL_NAME":"Monique Long","LONGITUDE":-87.65643552732249},
{"STATE":"IL","ZIP":60628,"LATTITUDE":41.68804513642569,"ADDRESS":"11338 S ST LAWRENCE AVE 1ST ","YEAR":2013,"DOING_BUSINESS_AS_NAME":"Ellen C Garza","POP_AT_RISK":15760,"BUSINESS_TYPE":"Home Occupation","LEGAL_NAME":"Ellen C Garza","LONGITUDE":-87.60846398024424},
{"STATE":"IL","ZIP":60633,"LATTITUDE":41.65249724287331,"ADDRESS":"13339 S AVENUE M  1ST ","YEAR":2013,"DOING_BUSINESS_AS_NAME":"JV LANDSCAPING","POP_AT_RISK":10834,"BUSINESS_TYPE":"Home Occupation","LEGAL_NAME":"LORENA VITELA","LONGITUDE":-87.53730970739998},
{"STATE":"IL","ZIP":60656,"LATTITUDE":41.964506049697114,"ADDRESS":"4624 N COMMONS DR 3RD 312","YEAR":2013,"DOING_BUSINESS_AS_NAME":"MIKES HOME\/GARDEN","POP_AT_RISK":34164,"BUSINESS_TYPE":"Home Occupation","LEGAL_NAME":"MICHAEL CANTU","LONGITUDE":-87.83799651246161},
{"STATE":"IL","ZIP":60638,"LATTITUDE":41.77603825973843,"ADDRESS":"6232 W 64TH ST  ","YEAR":2013,"DOING_BUSINESS_AS_NAME":"R C CARPET CLEANING","POP_AT_RISK":28149,"BUSINESS_TYPE":"Home Occupation","LEGAL_NAME":"RUBEN CUELLAR","LONGITUDE":-87.77764608913346},
{"STATE":"IL","ZIP":60634,"LATTITUDE":41.94513075481333,"ADDRESS":"7615 W ADDISON ST 1ST FLOOR ","YEAR":2013,"DOING_BUSINESS_AS_NAME":"World Star LLC","POP_AT_RISK":50172,"BUSINESS_TYPE":"Home Occupation","LEGAL_NAME":"World Star LLC","LONGITUDE":-87.81744915831314},
{"STATE":"IL","ZIP":60644,"LATTITUDE":41.8737645569712,"ADDRESS":"5427 W CONGRESS PKWY  ","YEAR":2013,"DOING_BUSINESS_AS_NAME":"DERRON STRICKLAND\/FOUNDATIONS","POP_AT_RISK":45949,"BUSINESS_TYPE":"Home Occupation","LEGAL_NAME":"DERRON STRICKLAND","LONGITUDE":-87.76063590196374},
{"STATE":"IL","ZIP":60617,"LATTITUDE":41.750918821215784,"ADDRESS":"3017 E 79TH PL  ","YEAR":2013,"DOING_BUSINESS_AS_NAME":"E&V BLAYLOCK INC.","POP_AT_RISK":30831,"BUSINESS_TYPE":"Home Occupation","LEGAL_NAME":"E&V BLAYLOCK INC.","LONGITUDE":-87.55095253182714},
{"STATE":"IL","ZIP":60645,"LATTITUDE":42.011276767884134,"ADDRESS":"7141 N KEDZIE AVE 10TH 1016","YEAR":2013,"DOING_BUSINESS_AS_NAME":"ARBEN IMPORTS, LLC","POP_AT_RISK":33839,"BUSINESS_TYPE":"Home Occupation","LEGAL_NAME":"ARBEN IMPORTS, LLC","LONGITUDE":-87.70895667677226},
{"STATE":"IL","ZIP":60707,"LATTITUDE":41.9153476267584,"ADDRESS":"1931 N NORDICA AVE 1ST ","YEAR":2013,"DOING_BUSINESS_AS_NAME":"JUAQUIN HERNANDEZ TAX & NOTARY SERVICE","POP_AT_RISK":33393,"BUSINESS_TYPE":"Home Occupation","LEGAL_NAME":"JUANQUIN A HERNANDEZ","LONGITUDE":-87.80216586922583},
{"STATE":"IL","ZIP":60652,"LATTITUDE":41.74567208356257,"ADDRESS":"8059 S KILBOURN AVE 2 ","YEAR":2013,"DOING_BUSINESS_AS_NAME":"Sweet Devine Design ","POP_AT_RISK":21703,"BUSINESS_TYPE":"Home Occupation","LEGAL_NAME":"Sweet Devine Design ","LONGITUDE":-87.73382465377546},
{"STATE":"IL","ZIP":60623,"LATTITUDE":41.85326579846807,"ADDRESS":"4335 W 21ST ST 1ST ","YEAR":2013,"DOING_BUSINESS_AS_NAME":"Morris&Wade","POP_AT_RISK":51832,"BUSINESS_TYPE":"Home Occupation","LEGAL_NAME":"Larry D Morris Junior","LONGITUDE":-87.73352912104114},
{"STATE":"IL","ZIP":60628,"LATTITUDE":41.66926435475092,"ADDRESS":"12345 S WALLACE ST 1ST ","YEAR":2013,"DOING_BUSINESS_AS_NAME":"MAKEEBA' S REALTY LLC","POP_AT_RISK":26583,"BUSINESS_TYPE":"Home Occupation","LEGAL_NAME":"MAKEEBA' S REALTY LLC","LONGITUDE":-87.63666836157171},
{"STATE":"IL","ZIP":60643,"LATTITUDE":41.71662019771442,"ADDRESS":"9723 S OAKLEY AVE  ","YEAR":2013,"DOING_BUSINESS_AS_NAME":"NADINE GARDEN COACH","POP_AT_RISK":19952,"BUSINESS_TYPE":"Home Occupation","LEGAL_NAME":"NADINE D. HARRIS-CLARK","LONGITUDE":-87.67936487660334},
{"STATE":"IL","ZIP":60655,"LATTITUDE":41.70516305705138,"ADDRESS":"10326 S AVERS AVE 1 ","YEAR":2013,"DOING_BUSINESS_AS_NAME":"Mickey's Dream Vacations","POP_AT_RISK":22802,"BUSINESS_TYPE":"Home Occupation","LEGAL_NAME":"Mickey's Dream Vacations","LONGITUDE":-87.71740945228213},
{"STATE":"IL","ZIP":60634,"LATTITUDE":41.94573798890539,"ADDRESS":"3617 N OCTAVIA AVE 1ST ","YEAR":2013,"DOING_BUSINESS_AS_NAME":"FIRE SAFETY TESTING, INC.","POP_AT_RISK":36020,"BUSINESS_TYPE":"Home Occupation","LEGAL_NAME":"FIRE SAFETY TESTING, INC.","LONGITUDE":-87.80929368622003},
{"STATE":"IL","ZIP":60644,"LATTITUDE":41.88201959469414,"ADDRESS":"5927 W WASHINGTON BLVD 3 ","YEAR":2013,"DOING_BUSINESS_AS_NAME":"RM REID & ASSOCIATES INC.","POP_AT_RISK":42195,"BUSINESS_TYPE":"Home Occupation","LEGAL_NAME":"RM REID & ASSOCIATES, INC.","LONGITUDE":-87.7730418905378},
{"STATE":"IL","ZIP":60638,"LATTITUDE":41.775709631013335,"ADDRESS":"7052 W 64TH ST 1ST ","YEAR":2013,"DOING_BUSINESS_AS_NAME":"D. C. A. TOWING INCORPORATED","POP_AT_RISK":17543,"BUSINESS_TYPE":"Home Occupation","LEGAL_NAME":"D. C. A. TOWING INCORPORATED","LONGITUDE":-87.79800922659652},
{"STATE":"IL","ZIP":60628,"LATTITUDE":41.702512632653395,"ADDRESS":"10525 S WALLACE ST 1ST ","YEAR":2013,"DOING_BUSINESS_AS_NAME":"V.A. BROWN TAX AND ACCOUNTING, P.C.","POP_AT_RISK":59540,"BUSINESS_TYPE":"Home Occupation","LEGAL_NAME":"V.A. BROWN TAX AND ACCOUNTING, P.C.","LONGITUDE":-87.63769715826018},
{"STATE":"IL","ZIP":60628,"LATTITUDE":41.66379424159858,"ADDRESS":"12636 S STATE ST N\/A ","YEAR":2013,"DOING_BUSINESS_AS_NAME":"INTEGRITY 1ST ACCOUNTING & TAX SERVICES COMPANY","POP_AT_RISK":18730,"BUSINESS_TYPE":"Home Occupation","LEGAL_NAME":"INTEGRITY 1ST ACCOUNTING & TAX SERVICES COMPANY","LONGITUDE":-87.62225154990958},
{}]