[
  {
    "BUSINESS_TYPE": "Pawnbroker", 
    "LEGAL_NAME": "A-AARON JEWELRY & PAWNSHOP", 
    "STATE": "IL", 
    "DOING_BUSINESS_AS_NAME": "A-AARON JEWELRY & PAWNSHOP", 
    "POP_AT_RISK": 58865, 
    "ZIP": 60647, 
    "ADDRESS": "3413 W NORTH AVE  1ST", 
    "YEAR": 2019, 
    "LONGITUDE": -87.712429971, 
    "LATTITUDE": 41.909937164
  }, 
  {
    "BUSINESS_TYPE": "Pawnbroker", 
    "LEGAL_NAME": "SHELLY'S LOAN & JEWELRY CO", 
    "STATE": "IL", 
    "DOING_BUSINESS_AS_NAME": "SHELLY'S LOAN & JEWELRY CO", 
    "POP_AT_RISK": 33636, 
    "ZIP": 60653, 
    "ADDRESS": "300 E 47TH ST 1ST", 
    "YEAR": 2019, 
    "LONGITUDE": -87.619524087, 
    "LATTITUDE": 41.809446854
  }, 
  {
    "BUSINESS_TYPE": "Pawnbroker", 
    "LEGAL_NAME": "CH-L-C, LLC", 
    "STATE": "IL", 
    "DOING_BUSINESS_AS_NAME": "T. N. DONNELLY AND COMPANY / CHICAGO LOAN COMPANY", 
    "POP_AT_RISK": 69642, 
    "ZIP": 60602, 
    "ADDRESS": "29 E MADISON ST 12TH 1215", 
    "YEAR": 2019, 
    "LONGITUDE": -87.626793222, 
    "LATTITUDE": 41.88196533
  }, 
  {
    "BUSINESS_TYPE": "Pawnbroker", 
    "LEGAL_NAME": "CLARK PAWNERS & JEWELERS INC", 
    "STATE": "IL", 
    "DOING_BUSINESS_AS_NAME": "CLARK PAWNERS & JEWELERS INC", 
    "POP_AT_RISK": 85620, 
    "ZIP": 60614, 
    "ADDRESS": "2626 N CLARK ST", 
    "YEAR": 2019, 
    "LONGITUDE": -87.643823769, 
    "LATTITUDE": 41.930306002
  }, 
  {
    "BUSINESS_TYPE": "Pawnbroker", 
    "LEGAL_NAME": "DEVON PAWN SHOP, INC.", 
    "STATE": "IL", 
    "DOING_BUSINESS_AS_NAME": "DEVON PAWN SHOP, INC.", 
    "POP_AT_RISK": 76770, 
    "ZIP": 60659, 
    "ADDRESS": "2106 W DEVON AVE  1ST", 
    "YEAR": 2019, 
    "LONGITUDE": -87.682891506, 
    "LATTITUDE": 41.997958349
  }, 
  {
    "BUSINESS_TYPE": "Pawnbroker", 
    "LEGAL_NAME": "BIG PAWN, INC.", 
    "STATE": "IL", 
    "DOING_BUSINESS_AS_NAME": "BIG PAWN, INC.", 
    "POP_AT_RISK": 19727, 
    "ZIP": 60617, 
    "ADDRESS": "10226 S INDIANAPOLIS AVE", 
    "YEAR": 2019, 
    "LONGITUDE": -87.531965134, 
    "LATTITUDE": 41.709569035
  }, 
  {
    "BUSINESS_TYPE": "Pawnbroker", 
    "LEGAL_NAME": "MKAWBP, LLC.", 
    "STATE": "IL", 
    "DOING_BUSINESS_AS_NAME": "CHICAGO SUPERPAWN", 
    "POP_AT_RISK": 78611, 
    "ZIP": 60647, 
    "ADDRESS": "3401 W FULLERTON AVE", 
    "YEAR": 2019, 
    "LONGITUDE": -87.712162758, 
    "LATTITUDE": 41.924550137
  }, 
  {
    "BUSINESS_TYPE": "Pawnbroker", 
    "LEGAL_NAME": "CROWN ROYAL, INC.", 
    "STATE": "IL", 
    "DOING_BUSINESS_AS_NAME": "CROWN ROYAL INC", 
    "POP_AT_RISK": 33199, 
    "ZIP": 60639, 
    "ADDRESS": "6208  -06210 W NORTH AVE 1ST", 
    "YEAR": 2019, 
    "LONGITUDE": -87.7805731, 
    "LATTITUDE": 41.909300257
  }, 
  {
    "BUSINESS_TYPE": "Pawnbroker", 
    "LEGAL_NAME": "AMERICAN JEWELRY & PAWN, LLC", 
    "STATE": "IL", 
    "DOING_BUSINESS_AS_NAME": "AMERICAN JEWELRY & PAWN, LLC", 
    "POP_AT_RISK": 67273, 
    "ZIP": 60618, 
    "ADDRESS": "3212-3224 N KIMBALL AVE 1ST", 
    "YEAR": 2019, 
    "LONGITUDE": -87.71266361, 
    "LATTITUDE": 41.939669912
  }, 
  {
    "BUSINESS_TYPE": "Pawnbroker", 
    "LEGAL_NAME": "CASA DE EMPENO, INC.", 
    "STATE": "IL", 
    "DOING_BUSINESS_AS_NAME": "CASA DE EMPENO", 
    "POP_AT_RISK": 40702, 
    "ZIP": 60632, 
    "ADDRESS": "5160 S PULASKI RD", 
    "YEAR": 2019, 
    "LONGITUDE": -87.72346641, 
    "LATTITUDE": 41.798750257
  }, 
  {
    "BUSINESS_TYPE": "Pawnbroker", 
    "LEGAL_NAME": "BIG PAWN, INC.", 
    "STATE": "IL", 
    "DOING_BUSINESS_AS_NAME": "BIG PAWN, INC.", 
    "POP_AT_RISK": 45453, 
    "ZIP": 60636, 
    "ADDRESS": "6233-6235 S WESTERN AVE", 
    "YEAR": 2019, 
    "LONGITUDE": -87.683515866, 
    "LATTITUDE": 41.780052309
  }, 
  {
    "BUSINESS_TYPE": "Pawnbroker", 
    "LEGAL_NAME": "BIG PAWN, INC.", 
    "STATE": "IL", 
    "DOING_BUSINESS_AS_NAME": "BIG PAWN, INC.", 
    "POP_AT_RISK": 31674, 
    "ZIP": 60628, 
    "ADDRESS": "120 E 111TH ST", 
    "YEAR": 2019, 
    "LONGITUDE": -87.620279583, 
    "LATTITUDE": 41.692725524
  }, 
  {
    "BUSINESS_TYPE": "Pawnbroker", 
    "LEGAL_NAME": "RELIABLE JEWELRY & LOAN, INC.", 
    "STATE": "IL", 
    "DOING_BUSINESS_AS_NAME": "RELIABLE JEWELRY & LOAN, INC.", 
    "POP_AT_RISK": 84955, 
    "ZIP": 60625, 
    "ADDRESS": "4625 N KEDZIE AVE", 
    "YEAR": 2019, 
    "LONGITUDE": -87.7082353, 
    "LATTITUDE": 41.965481169
  }, 
  {
    "BUSINESS_TYPE": "Pawnbroker", 
    "LEGAL_NAME": "EXCHANGE INC", 
    "STATE": "IL", 
    "DOING_BUSINESS_AS_NAME": "CASH EXCHANGE", 
    "POP_AT_RISK": 66544, 
    "ZIP": 60660, 
    "ADDRESS": "1236 W DEVON AVE  1", 
    "YEAR": 2019, 
    "LONGITUDE": -87.662131833, 
    "LATTITUDE": 41.998281562
  }, 
  {
    "BUSINESS_TYPE": "Pawnbroker", 
    "LEGAL_NAME": "AMIGO LOAN CO., INC.", 
    "STATE": "IL", 
    "DOING_BUSINESS_AS_NAME": "AMIGO LOAN COMPANY", 
    "POP_AT_RISK": 42100, 
    "ZIP": 60608, 
    "ADDRESS": "1720 S LOOMIS ST", 
    "YEAR": 2019, 
    "LONGITUDE": -87.661473505, 
    "LATTITUDE": 41.858107323
  }, 
  {
    "BUSINESS_TYPE": "Pawnbroker", 
    "LEGAL_NAME": "JUST PAWN INC.", 
    "STATE": "IL", 
    "DOING_BUSINESS_AS_NAME": "JUST PAWN INC.", 
    "POP_AT_RISK": 62520, 
    "ZIP": 60640, 
    "ADDRESS": "4509 N SHERIDAN RD 1ST", 
    "YEAR": 2019, 
    "LONGITUDE": -87.654624284, 
    "LATTITUDE": 41.963923942
  }
]