[
  {
    "BUSINESS_TYPE": "Music and Dance", 
    "LEGAL_NAME": "SOUTH LOOP CLUB INC", 
    "STATE": "IL", 
    "DOING_BUSINESS_AS_NAME": "SOUTH LOOP CLUB INC", 
    "POP_AT_RISK": 42798, 
    "ZIP": 60605, 
    "ADDRESS": "701 S STATE ST", 
    "YEAR": 2013, 
    "LONGITUDE": -87.627417813, 
    "LATTITUDE": 41.873055576
  }, 
  {
    "BUSINESS_TYPE": "Music and Dance", 
    "LEGAL_NAME": "SUNNYDAY TAP, INC.", 
    "STATE": "IL", 
    "DOING_BUSINESS_AS_NAME": "SUNNYDAY TAP", 
    "POP_AT_RISK": 32093, 
    "ZIP": 60630, 
    "ADDRESS": "4953 N ELSTON AVE 1ST #", 
    "YEAR": 2013, 
    "LONGITUDE": -87.744192066, 
    "LATTITUDE": 41.970731871
  }, 
  {
    "BUSINESS_TYPE": "Music and Dance", 
    "LEGAL_NAME": "WILLA JOHNSON", 
    "STATE": "IL", 
    "DOING_BUSINESS_AS_NAME": "WILLA'S FIFTY YARD LINE", 
    "POP_AT_RISK": 33712, 
    "ZIP": 60619, 
    "ADDRESS": "69 E 75TH ST  2", 
    "YEAR": 2013, 
    "LONGITUDE": -87.621994448, 
    "LATTITUDE": 41.758174093
  }, 
  {
    "BUSINESS_TYPE": "Music and Dance", 
    "LEGAL_NAME": "AS TIME GOES BY II LIMITED", 
    "STATE": "IL", 
    "DOING_BUSINESS_AS_NAME": "AS TIME GOES BY II LTD.", 
    "POP_AT_RISK": 19762, 
    "ZIP": 60634, 
    "ADDRESS": "7706 W BELMONT AVE", 
    "YEAR": 2013, 
    "LONGITUDE": -87.819283117, 
    "LATTITUDE": 41.937994149
  }, 
  {
    "BUSINESS_TYPE": "Music and Dance", 
    "LEGAL_NAME": "THE UNIVERSITY OF CHICAGO CLOISTERS CLUB", 
    "STATE": "IL", 
    "DOING_BUSINESS_AS_NAME": "UNIVERSITY OF CHICAGO CLOISTERS CLUB", 
    "POP_AT_RISK": 40417, 
    "ZIP": 60637, 
    "ADDRESS": "1212 E 59TH ST  1", 
    "YEAR": 2013, 
    "LONGITUDE": -87.595806262, 
    "LATTITUDE": 41.787921484
  }, 
  {
    "BUSINESS_TYPE": "Music and Dance", 
    "LEGAL_NAME": "BRUDDER'S BAR & GRILL LLC", 
    "STATE": "IL", 
    "DOING_BUSINESS_AS_NAME": "BRUDDER'S", 
    "POP_AT_RISK": 56603, 
    "ZIP": 60641, 
    "ADDRESS": "3600 N PULASKI RD 1ST", 
    "YEAR": 2013, 
    "LONGITUDE": -87.727549491, 
    "LATTITUDE": 41.946415942
  }, 
  {
    "BUSINESS_TYPE": "Music and Dance", 
    "LEGAL_NAME": "THE NEW SOME PLACE ELSE, INC.", 
    "STATE": "IL", 
    "DOING_BUSINESS_AS_NAME": "THE NEW SOME PLACE ELSE LOUNGE", 
    "POP_AT_RISK": 26744, 
    "ZIP": 60643, 
    "ADDRESS": "11043 S ASHLAND AVE 1ST", 
    "YEAR": 2013, 
    "LONGITUDE": -87.661711113, 
    "LATTITUDE": 41.692637091
  }, 
  {
    "BUSINESS_TYPE": "Music and Dance", 
    "LEGAL_NAME": "NITE CAP, INC.", 
    "STATE": "IL", 
    "DOING_BUSINESS_AS_NAME": "NITE CAP", 
    "POP_AT_RISK": 47334, 
    "ZIP": 60641, 
    "ADDRESS": "5007-5009 W IRVING PARK RD", 
    "YEAR": 2013, 
    "LONGITUDE": -87.752531985, 
    "LATTITUDE": 41.9532425
  }, 
  {
    "BUSINESS_TYPE": "Music and Dance", 
    "LEGAL_NAME": "CORNELIUS ALEXANDER", 
    "STATE": "IL", 
    "DOING_BUSINESS_AS_NAME": "007 LOUNGE", 
    "POP_AT_RISK": 33982, 
    "ZIP": 60612, 
    "ADDRESS": "600 N KEDZIE AVE 1ST", 
    "YEAR": 2013, 
    "LONGITUDE": -87.706595489, 
    "LATTITUDE": 41.891985011
  }, 
  {
    "BUSINESS_TYPE": "Music and Dance", 
    "LEGAL_NAME": "SHEBA MIDDLE EAST RESTAURANT", 
    "STATE": "IL", 
    "DOING_BUSINESS_AS_NAME": "Governor's", 
    "POP_AT_RISK": 78633, 
    "ZIP": 60625, 
    "ADDRESS": "4613 N KEDZIE AVE 1ST", 
    "YEAR": 2013, 
    "LONGITUDE": -87.708221964, 
    "LATTITUDE": 41.965113976
  }, 
  {
    "BUSINESS_TYPE": "Music and Dance", 
    "LEGAL_NAME": "RAMINOV SHOW INC", 
    "STATE": "IL", 
    "DOING_BUSINESS_AS_NAME": "DI DI RAMINOV SHOW INC", 
    "POP_AT_RISK": 53347, 
    "ZIP": 60634, 
    "ADDRESS": "6218 W BELMONT AVE", 
    "YEAR": 2013, 
    "LONGITUDE": -87.781876314, 
    "LATTITUDE": 41.938485483
  }, 
  {
    "BUSINESS_TYPE": "Music and Dance", 
    "LEGAL_NAME": "JAF, LTD.", 
    "STATE": "IL", 
    "DOING_BUSINESS_AS_NAME": "JEFFERY PUB", 
    "POP_AT_RISK": 43909, 
    "ZIP": 60649, 
    "ADDRESS": "7041 S JEFFERY BLVD", 
    "YEAR": 2013, 
    "LONGITUDE": -87.576170828, 
    "LATTITUDE": 41.766818068
  }, 
  {
    "BUSINESS_TYPE": "Music and Dance", 
    "LEGAL_NAME": "NEW CELEBRITY LOUNGE INC", 
    "STATE": "IL", 
    "DOING_BUSINESS_AS_NAME": "NEW CELEBRITY LOUNGE INC", 
    "POP_AT_RISK": 37082, 
    "ZIP": 60617, 
    "ADDRESS": "2020-2022 E 83RD ST 1ST", 
    "YEAR": 2013, 
    "LONGITUDE": -87.574910022, 
    "LATTITUDE": 41.744456862
  }, 
  {
    "BUSINESS_TYPE": "Music and Dance", 
    "LEGAL_NAME": "CATS & JAMMERS, INC.", 
    "STATE": "IL", 
    "DOING_BUSINESS_AS_NAME": "LA COSTA", 
    "POP_AT_RISK": 59744, 
    "ZIP": 60634, 
    "ADDRESS": "3119 N CENTRAL AVE", 
    "YEAR": 2013, 
    "LONGITUDE": -87.766307445, 
    "LATTITUDE": 41.93735507
  }, 
  {
    "BUSINESS_TYPE": "Music and Dance", 
    "LEGAL_NAME": "HENRY L HOSKIN", 
    "STATE": "IL", 
    "DOING_BUSINESS_AS_NAME": "HOT CITY LOUNGE", 
    "POP_AT_RISK": 45150, 
    "ZIP": 60636, 
    "ADDRESS": "7432 S RACINE AVE 1ST", 
    "YEAR": 2013, 
    "LONGITUDE": -87.654093887, 
    "LATTITUDE": 41.758643529
  }, 
  {
    "BUSINESS_TYPE": "Music and Dance", 
    "LEGAL_NAME": "RAINBO CLUB INC", 
    "STATE": "IL", 
    "DOING_BUSINESS_AS_NAME": "RAINBO CLUB INC", 
    "POP_AT_RISK": 73424, 
    "ZIP": 60622, 
    "ADDRESS": "1150 N DAMEN AVE", 
    "YEAR": 2013, 
    "LONGITUDE": -87.677395215, 
    "LATTITUDE": 41.902868984
  }, 
  {
    "BUSINESS_TYPE": "Music and Dance", 
    "LEGAL_NAME": "TROY LOGIC, INC", 
    "STATE": "IL", 
    "DOING_BUSINESS_AS_NAME": "MARIANNA'S PLACE", 
    "POP_AT_RISK": 22202, 
    "ZIP": 60638, 
    "ADDRESS": "5625 W 63RD ST 1ST", 
    "YEAR": 2013, 
    "LONGITUDE": -87.762659385, 
    "LATTITUDE": 41.777923814
  }, 
  {
    "BUSINESS_TYPE": "Music and Dance", 
    "LEGAL_NAME": "THE FAMILY DEN, INC.", 
    "STATE": "IL", 
    "DOING_BUSINESS_AS_NAME": "FAMILY DEN", 
    "POP_AT_RISK": 18937, 
    "ZIP": 60617, 
    "ADDRESS": "8940-8942 S STONY ISLAND AVE  1", 
    "YEAR": 2013, 
    "LONGITUDE": -87.585689499, 
    "LATTITUDE": 41.732049135
  }, 
  {
    "BUSINESS_TYPE": "Music and Dance", 
    "LEGAL_NAME": "CLK, INC.", 
    "STATE": "IL", 
    "DOING_BUSINESS_AS_NAME": "JULIANA", 
    "POP_AT_RISK": 58597, 
    "ZIP": 60659, 
    "ADDRESS": "3001 W PETERSON AVE  1ST", 
    "YEAR": 2013, 
    "LONGITUDE": -87.704312836, 
    "LATTITUDE": 41.990304614
  }, 
  {
    "BUSINESS_TYPE": "Music and Dance", 
    "LEGAL_NAME": "439 NIGHT CLUB INC", 
    "STATE": "IL", 
    "DOING_BUSINESS_AS_NAME": "439 NIGHT CLUB INC", 
    "POP_AT_RISK": 38563, 
    "ZIP": 60642, 
    "ADDRESS": "439 N OGDEN AVE 1ST #", 
    "YEAR": 2013, 
    "LONGITUDE": -87.659762866, 
    "LATTITUDE": 41.889975288
  }, 
  {
    "BUSINESS_TYPE": "Music and Dance", 
    "LEGAL_NAME": "BURTONS TAP & GRILL INC", 
    "STATE": "IL", 
    "DOING_BUSINESS_AS_NAME": "OLLIES", 
    "POP_AT_RISK": 67483, 
    "ZIP": 60640, 
    "ADDRESS": "1064 W BERWYN AVE", 
    "YEAR": 2013, 
    "LONGITUDE": -87.657641276, 
    "LATTITUDE": 41.978291592
  }, 
  {
    "BUSINESS_TYPE": "Music and Dance", 
    "LEGAL_NAME": "GORALKA,INC.", 
    "STATE": "IL", 
    "DOING_BUSINESS_AS_NAME": "STUDIO 51", 
    "POP_AT_RISK": 46845, 
    "ZIP": 60632, 
    "ADDRESS": "2522-2524 W 51ST ST  1", 
    "YEAR": 2013, 
    "LONGITUDE": -87.687752191, 
    "LATTITUDE": 41.801205449
  }, 
  {
    "BUSINESS_TYPE": "Music and Dance", 
    "LEGAL_NAME": "PAUL AND MARC'S ENTERPRISES, LTD.", 
    "STATE": "IL", 
    "DOING_BUSINESS_AS_NAME": "GROUCHO'S BAR & GRILL", 
    "POP_AT_RISK": 27493, 
    "ZIP": 60652, 
    "ADDRESS": "8355 S PULASKI RD", 
    "YEAR": 2013, 
    "LONGITUDE": -87.721478363, 
    "LATTITUDE": 41.740515143
  }, 
  {
    "BUSINESS_TYPE": "Music and Dance", 
    "LEGAL_NAME": "NIGHT BEFORE INC.", 
    "STATE": "IL", 
    "DOING_BUSINESS_AS_NAME": "TOUCHE'", 
    "POP_AT_RISK": 67015, 
    "ZIP": 60626, 
    "ADDRESS": "6412 N CLARK ST", 
    "YEAR": 2013, 
    "LONGITUDE": -87.67087163, 
    "LATTITUDE": 41.998426386
  }, 
  {
    "BUSINESS_TYPE": "Music and Dance", 
    "LEGAL_NAME": "LAPARA NIGHT CLUB, INC.", 
    "STATE": "IL", 
    "DOING_BUSINESS_AS_NAME": "CLUB ESKANDALO", 
    "POP_AT_RISK": 38400, 
    "ZIP": 60608, 
    "ADDRESS": "2435 S LEAVITT ST 1ST", 
    "YEAR": 2013, 
    "LONGITUDE": -87.68046885, 
    "LATTITUDE": 41.847413239
  }, 
  {
    "BUSINESS_TYPE": "Music and Dance", 
    "LEGAL_NAME": "J & J LOUNGE BANQUET HALL INC", 
    "STATE": "IL", 
    "DOING_BUSINESS_AS_NAME": "J & J LOUNG & BANQUET HALL INC", 
    "POP_AT_RISK": 22217, 
    "ZIP": 60638, 
    "ADDRESS": "6539-6541 W 63RD ST", 
    "YEAR": 2013, 
    "LONGITUDE": -87.785302854, 
    "LATTITUDE": 41.777507581
  }, 
  {
    "BUSINESS_TYPE": "Music and Dance", 
    "LEGAL_NAME": "ARTIS KING LUDD", 
    "STATE": "IL", 
    "DOING_BUSINESS_AS_NAME": "ARTIS KING LUDD", 
    "POP_AT_RISK": 33658, 
    "ZIP": 60619, 
    "ADDRESS": "1249 E 87TH ST 1ST", 
    "YEAR": 2013, 
    "LONGITUDE": -87.5930218, 
    "LATTITUDE": 41.736705257
  }, 
  {
    "BUSINESS_TYPE": "Music and Dance", 
    "LEGAL_NAME": "RESTAURANTE ALANIS LTD.", 
    "STATE": "IL", 
    "DOING_BUSINESS_AS_NAME": "RESTAURANTE ALANIS LTD", 
    "POP_AT_RISK": 49064, 
    "ZIP": 60623, 
    "ADDRESS": "4153 W 26TH ST 1ST #", 
    "YEAR": 2013, 
    "LONGITUDE": -87.729074693, 
    "LATTITUDE": 41.84408107
  }, 
  {
    "BUSINESS_TYPE": "Music and Dance", 
    "LEGAL_NAME": "MENARD LIQUORS INC", 
    "STATE": "IL", 
    "DOING_BUSINESS_AS_NAME": "SIX PENNY B P", 
    "POP_AT_RISK": 43959, 
    "ZIP": 60634, 
    "ADDRESS": "5800 W MONTROSE AVE  1", 
    "YEAR": 2013, 
    "LONGITUDE": -87.772194431, 
    "LATTITUDE": 41.960527204
  }, 
  {
    "BUSINESS_TYPE": "Music and Dance", 
    "LEGAL_NAME": "KEFALOS, INC.", 
    "STATE": "IL", 
    "DOING_BUSINESS_AS_NAME": "HARD WATER BAR & GRILL", 
    "POP_AT_RISK": 42149, 
    "ZIP": 60626, 
    "ADDRESS": "7541-7545 N CLARK ST 1ST", 
    "YEAR": 2013, 
    "LONGITUDE": -87.675958148, 
    "LATTITUDE": 42.018903507
  }, 
  {
    "BUSINESS_TYPE": "Music and Dance", 
    "LEGAL_NAME": "STEVE SPORTS BAR LOUNGE INC", 
    "STATE": "IL", 
    "DOING_BUSINESS_AS_NAME": "STEVE'S SPORTS BAR & LOUNGE IN", 
    "POP_AT_RISK": 71641, 
    "ZIP": 60647, 
    "ADDRESS": "3524 W NORTH AVE GROUND", 
    "YEAR": 2013, 
    "LONGITUDE": -87.715106816, 
    "LATTITUDE": 41.91012144
  }, 
  {
    "BUSINESS_TYPE": "Music and Dance", 
    "LEGAL_NAME": "ADAME & RUIZ INC", 
    "STATE": "IL", 
    "DOING_BUSINESS_AS_NAME": "CONFESSION", 
    "POP_AT_RISK": 45493, 
    "ZIP": 60609, 
    "ADDRESS": "4046 S WESTERN AVE", 
    "YEAR": 2013, 
    "LONGITUDE": -87.684881121, 
    "LATTITUDE": 41.819796798
  }, 
  {
    "BUSINESS_TYPE": "Music and Dance", 
    "LEGAL_NAME": "HAWKEYE'S BAR & GRILL INC", 
    "STATE": "IL", 
    "DOING_BUSINESS_AS_NAME": "HAWKEYE'S BAR & GRILL INC", 
    "POP_AT_RISK": 40177, 
    "ZIP": 60607, 
    "ADDRESS": "1458 W TAYLOR ST", 
    "YEAR": 2013, 
    "LONGITUDE": -87.664017834, 
    "LATTITUDE": 41.869411103
  }, 
  {
    "BUSINESS_TYPE": "Music and Dance", 
    "LEGAL_NAME": "1040 CLUB", 
    "STATE": "IL", 
    "DOING_BUSINESS_AS_NAME": "1040 CLUB INC", 
    "POP_AT_RISK": 41088, 
    "ZIP": 60608, 
    "ADDRESS": "1040 W 18TH ST", 
    "YEAR": 2013, 
    "LONGITUDE": -87.653086458, 
    "LATTITUDE": 41.858110638
  }, 
  {
    "BUSINESS_TYPE": "Music and Dance", 
    "LEGAL_NAME": "ODESSA DICKERSON", 
    "STATE": "IL", 
    "DOING_BUSINESS_AS_NAME": "BERNARD & VANESSA'S LOUNGE", 
    "POP_AT_RISK": 46210, 
    "ZIP": 60651, 
    "ADDRESS": "5206-5208 W DIVISION ST 1ST", 
    "YEAR": 2013, 
    "LONGITUDE": -87.756117964, 
    "LATTITUDE": 41.902353479
  }, 
  {
    "BUSINESS_TYPE": "Music and Dance", 
    "LEGAL_NAME": "O C SANDERS", 
    "STATE": "IL", 
    "DOING_BUSINESS_AS_NAME": "SANDERS LOUNGE", 
    "POP_AT_RISK": 25595, 
    "ZIP": 60621, 
    "ADDRESS": "700 W 59TH ST 1ST", 
    "YEAR": 2013, 
    "LONGITUDE": -87.642599018, 
    "LATTITUDE": 41.787176102
  }, 
  {
    "BUSINESS_TYPE": "Music and Dance", 
    "LEGAL_NAME": "GORDON LOUNGE, INC", 
    "STATE": "IL", 
    "DOING_BUSINESS_AS_NAME": "BREWBAKERS", 
    "POP_AT_RISK": 22491, 
    "ZIP": 60643, 
    "ADDRESS": "10350 S WESTERN AVE", 
    "YEAR": 2013, 
    "LONGITUDE": -87.681719587, 
    "LATTITUDE": 41.704868712
  }
]