[
{"STATE":"IL","ZIP":60655,"LATTITUDE":41.6914834134577,"ADDRESS":"3700-3740 W 111TH ST 1 ST FLOOR ","YEAR":2013,"DOING_BUSINESS_AS_NAME":"CITGO GAS & FOOD","POP_AT_RISK":85908,"BUSINESS_TYPE":"Filling Station","LEGAL_NAME":"O G D C INC","LONGITUDE":-87.71321050333633},
{"STATE":"IL","ZIP":60623,"LATTITUDE":41.84405049020356,"ADDRESS":"4247-4257 W 26TH ST 1 1","YEAR":2013,"DOING_BUSINESS_AS_NAME":"BP","POP_AT_RISK":45902,"BUSINESS_TYPE":"Filling Station","LEGAL_NAME":"VALLOOR, INC.","LONGITUDE":-87.73132251707675},
{"STATE":"IL","ZIP":60653,"LATTITUDE":41.8097503335653,"ADDRESS":"1158 E 47TH ST 1ST ","YEAR":2013,"DOING_BUSINESS_AS_NAME":"WOOD LAWN AMOCO","POP_AT_RISK":45423,"BUSINESS_TYPE":"Filling Station","LEGAL_NAME":"MOHAMMAD ZAHIR","LONGITUDE":-87.59695555343261},
{"STATE":"IL","ZIP":60646,"LATTITUDE":41.99024418564742,"ADDRESS":"4000 W PETERSON AVE  ","YEAR":2013,"DOING_BUSINESS_AS_NAME":"P & P AMOCO INC","POP_AT_RISK":17974,"BUSINESS_TYPE":"Filling Station","LEGAL_NAME":"P & P AMOCO INC","LONGITUDE":-87.7287143910091},
{"STATE":"IL","ZIP":60631,"LATTITUDE":41.99718204105818,"ADDRESS":"6405 N NORTHWEST HWY  ","YEAR":2013,"DOING_BUSINESS_AS_NAME":"NORTHWEST BP GAS","POP_AT_RISK":47856,"BUSINESS_TYPE":"Filling Station","LEGAL_NAME":"CKNP CORPORATION","LONGITUDE":-87.8069080343869},
{"STATE":"IL","ZIP":60616,"LATTITUDE":41.8382513911452,"ADDRESS":"3101 S MICHIGAN AVE 1ST ","YEAR":2013,"DOING_BUSINESS_AS_NAME":"BP AMOCO","POP_AT_RISK":30854,"BUSINESS_TYPE":"Filling Station","LEGAL_NAME":"FIFY CORPORATION","LONGITUDE":-87.62329481051012},
{"STATE":"IL","ZIP":60655,"LATTITUDE":41.69183628557645,"ADDRESS":"2632 W 111TH ST  ","YEAR":2013,"DOING_BUSINESS_AS_NAME":"KEAN BROS INC","POP_AT_RISK":21672,"BUSINESS_TYPE":"Filling Station","LEGAL_NAME":"KEAN BROTHERS INC","LONGITUDE":-87.68736448197355},
{"STATE":"IL","ZIP":60652,"LATTITUDE":41.74423097335717,"ADDRESS":"8200-8208 S KEDZIE AVE 1ST ","YEAR":2013,"DOING_BUSINESS_AS_NAME":"CITGO FUEL & MINI MART","POP_AT_RISK":27818,"BUSINESS_TYPE":"Filling Station","LEGAL_NAME":"FRIENDS FUEL, INC.","LONGITUDE":-87.70238568511645},
{"STATE":"IL","ZIP":60628,"LATTITUDE":41.66350259001352,"ADDRESS":"150 W 127TH ST  ","YEAR":2013,"DOING_BUSINESS_AS_NAME":"COMMUNITY GAS AND BP","POP_AT_RISK":31242,"BUSINESS_TYPE":"Filling Station","LEGAL_NAME":"M & R SAHLOUL, INC.","LONGITUDE":-87.62650611188982},
{"STATE":"IL","ZIP":60629,"LATTITUDE":41.77856324355609,"ADDRESS":"4710 W 63RD ST  ","YEAR":2013,"DOING_BUSINESS_AS_NAME":"MIDWAY GASMART \/ BP TOGO","POP_AT_RISK":25513,"BUSINESS_TYPE":"Filling Station","LEGAL_NAME":"MAL-NAJ CORPORATION","LONGITUDE":-87.74027721366735},
{"STATE":"IL","ZIP":60638,"LATTITUDE":41.79242577857389,"ADDRESS":"6434 W ARCHER AVE 1ST ","YEAR":2013,"DOING_BUSINESS_AS_NAME":"ARCHER SHELL","POP_AT_RISK":30725,"BUSINESS_TYPE":"Filling Station","LEGAL_NAME":"MBS PETROLEUM, INC.","LONGITUDE":-87.78317609026391},
{"STATE":"IL","ZIP":60652,"LATTITUDE":41.74228582966385,"ADDRESS":"8256 S PULASKI RD  ","YEAR":2013,"DOING_BUSINESS_AS_NAME":"CITGO FUEL & MINI-MART","POP_AT_RISK":31842,"BUSINESS_TYPE":"Filling Station","LEGAL_NAME":"HALEEM BROTHERS, INC","LONGITUDE":-87.72182952334869},
{"STATE":"IL","ZIP":60634,"LATTITUDE":41.93808446822169,"ADDRESS":"3200 N HARLEM AVE  ","YEAR":2013,"DOING_BUSINESS_AS_NAME":"OMEGA AUTOTECH, INC.","POP_AT_RISK":241830,"BUSINESS_TYPE":"Filling Station","LEGAL_NAME":"OMEGA AUTOTECH, INC.","LONGITUDE":-87.80689674887883},
{"STATE":"IL","ZIP":60653,"LATTITUDE":41.82374783303715,"ADDRESS":"437 E PERSHING RD 1 ","YEAR":2013,"DOING_BUSINESS_AS_NAME":"LAKE FRONT CITGO","POP_AT_RISK":32372,"BUSINESS_TYPE":"Filling Station","LEGAL_NAME":"LAKE FRONT CITGO INC.","LONGITUDE":-87.61529192049633},
{"STATE":"IL","ZIP":60617,"LATTITUDE":41.74453593701442,"ADDRESS":"2941 E 83RD ST TH ","YEAR":2013,"DOING_BUSINESS_AS_NAME":"CITGO","POP_AT_RISK":33876,"BUSINESS_TYPE":"Filling Station","LEGAL_NAME":"TUMARA FOOD MART INC.","LONGITUDE":-87.55235844692069},
{"STATE":"IL","ZIP":60655,"LATTITUDE":41.706091126209756,"ADDRESS":"10301 S KEDZIE AVE  ","YEAR":2013,"DOING_BUSINESS_AS_NAME":"MARATHON","POP_AT_RISK":28968,"BUSINESS_TYPE":"Filling Station","LEGAL_NAME":"MT GREENWOOD GAS, INC.","LONGITUDE":-87.70117395522207},
{"STATE":"IL","ZIP":60633,"LATTITUDE":41.64990486377627,"ADDRESS":"13501 S BENSLEY AVE  ","YEAR":2013,"DOING_BUSINESS_AS_NAME":"SUNSET BAY MARINA, LLC","POP_AT_RISK":2798,"BUSINESS_TYPE":"Filling Station","LEGAL_NAME":"SUNSET BAY MARINA, LLC","LONGITUDE":-87.56277590592688},
{"STATE":"IL","ZIP":60605,"LATTITUDE":41.86683145443883,"ADDRESS":"1221 - 1223 S WABASH AVE 1ST ","YEAR":2013,"DOING_BUSINESS_AS_NAME":"PRIDE OF CHICAGO\/ BP \/AM PM","POP_AT_RISK":39491,"BUSINESS_TYPE":"Filling Station","LEGAL_NAME":"THE PRIDE STORES, INC.","LONGITUDE":-87.62566960895664},
{"STATE":"IL","ZIP":60614,"LATTITUDE":41.929782309176865,"ADDRESS":"2601 N CANNON DR  DIVER","YEAR":2013,"DOING_BUSINESS_AS_NAME":"DIVERSEY YACHT CLUB","POP_AT_RISK":111300,"BUSINESS_TYPE":"Filling Station","LEGAL_NAME":"DIVERSEY YACHT CLUB INC.","LONGITUDE":-87.63598071569099},
{"STATE":"IL","ZIP":60638,"LATTITUDE":41.79205441797499,"ADDRESS":"6751 W ARCHER AVE GROUND ","YEAR":2013,"DOING_BUSINESS_AS_NAME":"ARCHER BP","POP_AT_RISK":18797,"BUSINESS_TYPE":"Filling Station","LEGAL_NAME":"ARCHER BP PETROLEUM, INC.","LONGITUDE":-87.79117217776604},
{"STATE":"IL","ZIP":60651,"LATTITUDE":41.9021910503325,"ADDRESS":"1201 N CENTRAL AVE 1 ","YEAR":2013,"DOING_BUSINESS_AS_NAME":"CENT & DIV PETROLEUM, INC.","POP_AT_RISK":50366,"BUSINESS_TYPE":"Filling Station","LEGAL_NAME":"CENT & DIV PETROLEUM, INC.","LONGITUDE":-87.76550765713982},
{"STATE":"IL","ZIP":60601,"LATTITUDE":41.88615077117576,"ADDRESS":"214 N CLARK ST  ","YEAR":2013,"DOING_BUSINESS_AS_NAME":"AVIS RENT A CAR SYSTEMS INC","POP_AT_RISK":153478,"BUSINESS_TYPE":"Filling Station","LEGAL_NAME":"AVIS RENT A CAR SYSTEM, LLC","LONGITUDE":-87.6311338716166},
{"STATE":"IL","ZIP":60827,"LATTITUDE":41.6486883798811,"ADDRESS":"13547 S INDIANA AVE  ","YEAR":2013,"DOING_BUSINESS_AS_NAME":"GAS SHOP AND MINI MART","POP_AT_RISK":33762,"BUSINESS_TYPE":"Filling Station","LEGAL_NAME":"GAS SHOP AND MINI MART, INC.","LONGITUDE":-87.61707897789567},
{"STATE":"IL","ZIP":60646,"LATTITUDE":41.99637159702214,"ADDRESS":"6308 N CENTRAL AVE  ","YEAR":2013,"DOING_BUSINESS_AS_NAME":"2001 GAS CENTRAL","POP_AT_RISK":35912,"BUSINESS_TYPE":"Filling Station","LEGAL_NAME":"THOMAS'S MINIMART & GAS INC.","LONGITUDE":-87.76427703822098},
{"STATE":"IL","ZIP":60634,"LATTITUDE":41.952643709843294,"ADDRESS":"6747 W IRVING PARK RD 1ST ","YEAR":2013,"DOING_BUSINESS_AS_NAME":"IRVING SHELL GAS AND FOOD, INC.","POP_AT_RISK":36016,"BUSINESS_TYPE":"Filling Station","LEGAL_NAME":"IRVING SHELL GAS AND FOOD, INC.","LONGITUDE":-87.79569322493121},
{}]