[
  {
    "BUSINESS_TYPE": "Peddler, non-food", 
    "LEGAL_NAME": "SADAT A. AFFANEH", 
    "STATE": "IL", 
    "DOING_BUSINESS_AS_NAME": "SADAT A. AFFANEH", 
    "POP_AT_RISK": 29424, 
    "ZIP": 60652, 
    "ADDRESS": "3920 W 76TH ST", 
    "YEAR": 2013, 
    "LONGITUDE": -87.721332885, 
    "LATTITUDE": 41.755067534
  }, 
  {
    "BUSINESS_TYPE": "Peddler, non-food", 
    "LEGAL_NAME": "JOSHUA J. SOICH", 
    "STATE": "IL", 
    "DOING_BUSINESS_AS_NAME": "JOSHUA JAMES SOICH", 
    "POP_AT_RISK": 18473, 
    "ZIP": 60655, 
    "ADDRESS": "11431 S ST LOUIS AVE", 
    "YEAR": 2013, 
    "LONGITUDE": -87.707787923, 
    "LATTITUDE": 41.685561003
  }, 
  {
    "BUSINESS_TYPE": "Peddler, non-food", 
    "LEGAL_NAME": "RAYDELL F LACEY", 
    "STATE": "IL", 
    "DOING_BUSINESS_AS_NAME": "RAYDELL F LACEY", 
    "POP_AT_RISK": 31538, 
    "ZIP": 60643, 
    "ADDRESS": "9751 S CHARLES ST  1C", 
    "YEAR": 2013, 
    "LONGITUDE": -87.662522846, 
    "LATTITUDE": 41.716967643
  }, 
  {
    "BUSINESS_TYPE": "Peddler, non-food", 
    "LEGAL_NAME": "BENJAMIN G GALLO", 
    "STATE": "IL", 
    "DOING_BUSINESS_AS_NAME": "BENJAMIN", 
    "POP_AT_RISK": 31019, 
    "ZIP": 60638, 
    "ADDRESS": "5548 S MCVICKER AVE", 
    "YEAR": 2013, 
    "LONGITUDE": -87.773375474, 
    "LATTITUDE": 41.791058024
  }, 
  {
    "BUSINESS_TYPE": "Peddler, non-food", 
    "LEGAL_NAME": "DONYEL YOUNG", 
    "STATE": "IL", 
    "DOING_BUSINESS_AS_NAME": "DONYEL YOUNG", 
    "POP_AT_RISK": 33095, 
    "ZIP": 60612, 
    "ADDRESS": "2947 W ADAMS ST  1", 
    "YEAR": 2013, 
    "LONGITUDE": -87.700546731, 
    "LATTITUDE": 41.87818796
  }, 
  {
    "BUSINESS_TYPE": "Peddler, non-food", 
    "LEGAL_NAME": "HOWARD K. KADET", 
    "STATE": "IL", 
    "DOING_BUSINESS_AS_NAME": "HOWARD K. KADET", 
    "POP_AT_RISK": 14869, 
    "ZIP": 60646, 
    "ADDRESS": "6333 N LEONA AVE", 
    "YEAR": 2013, 
    "LONGITUDE": -87.753843753, 
    "LATTITUDE": 41.996910445
  }, 
  {
    "BUSINESS_TYPE": "Peddler, non-food", 
    "LEGAL_NAME": "IGNACIO GONZALEZ", 
    "STATE": "IL", 
    "DOING_BUSINESS_AS_NAME": "IGNACIO GONZALEZ", 
    "POP_AT_RISK": 13632, 
    "ZIP": 60617, 
    "ADDRESS": "9647 S AVENUE N  2", 
    "YEAR": 2013, 
    "LONGITUDE": -87.538765636, 
    "LATTITUDE": 41.71991682
  }, 
  {
    "BUSINESS_TYPE": "Peddler, non-food", 
    "LEGAL_NAME": "JONATHAN  SMITH", 
    "STATE": "IL", 
    "DOING_BUSINESS_AS_NAME": "JONATHAN  SMITH", 
    "POP_AT_RISK": 22240, 
    "ZIP": 60643, 
    "ADDRESS": "10414 S PROSPECT AVE", 
    "YEAR": 2013, 
    "LONGITUDE": -87.662222816, 
    "LATTITUDE": 41.70427546
  }, 
  {
    "BUSINESS_TYPE": "Peddler, non-food", 
    "LEGAL_NAME": "CHARLES V. UTSLER JR.", 
    "STATE": "IL", 
    "DOING_BUSINESS_AS_NAME": "CHARLES V. UTSLER, JR.", 
    "POP_AT_RISK": 28641, 
    "ZIP": 60646, 
    "ADDRESS": "5801 N PULASKI RD", 
    "YEAR": 2013, 
    "LONGITUDE": -87.72836921, 
    "LATTITUDE": 41.985931514
  }, 
  {
    "BUSINESS_TYPE": "Peddler, non-food", 
    "LEGAL_NAME": "EDGAR  M  RUFFIN", 
    "STATE": "IL", 
    "DOING_BUSINESS_AS_NAME": "EDGAR M RUFFIN", 
    "POP_AT_RISK": 39106, 
    "ZIP": 60302, 
    "ADDRESS": "1116  WASHINGTON BLVD", 
    "YEAR": 2013, 
    "LONGITUDE": -87.655161464, 
    "LATTITUDE": 41.883118636
  }, 
  {
    "BUSINESS_TYPE": "Peddler, non-food", 
    "LEGAL_NAME": "WALEED ALGHIZI", 
    "STATE": "IL", 
    "DOING_BUSINESS_AS_NAME": "WALEED ALGHHIZI", 
    "POP_AT_RISK": 74764, 
    "ZIP": 60626, 
    "ADDRESS": "1951 W FARWELL AVE APT G", 
    "YEAR": 2013, 
    "LONGITUDE": -87.679993631, 
    "LATTITUDE": 42.006339921
  }, 
  {
    "BUSINESS_TYPE": "Peddler, non-food", 
    "LEGAL_NAME": "ROBERT BECKER", 
    "STATE": "IL", 
    "DOING_BUSINESS_AS_NAME": "ROBERT BECKER", 
    "POP_AT_RISK": 47147, 
    "ZIP": 60634, 
    "ADDRESS": "5630 W CULLOM AVE", 
    "YEAR": 2013, 
    "LONGITUDE": -87.768470412, 
    "LATTITUDE": 41.958750363
  }, 
  {
    "BUSINESS_TYPE": "Peddler, non-food", 
    "LEGAL_NAME": "ROBERT R EVANS", 
    "STATE": "IL", 
    "DOING_BUSINESS_AS_NAME": "ROBERT R EVANS", 
    "POP_AT_RISK": 39362, 
    "ZIP": 60616, 
    "ADDRESS": "1600 S PRAIRIE AVE", 
    "YEAR": 2013, 
    "LONGITUDE": -87.620971592, 
    "LATTITUDE": 41.860170405
  }, 
  {
    "BUSINESS_TYPE": "Peddler, non-food", 
    "LEGAL_NAME": "JOHN BYRNE", 
    "STATE": "IL", 
    "DOING_BUSINESS_AS_NAME": "JOHN BYRNE", 
    "POP_AT_RISK": 19762, 
    "ZIP": 60634, 
    "ADDRESS": "3527 N OZARK AVE 1 1", 
    "YEAR": 2013, 
    "LONGITUDE": -87.82027579, 
    "LATTITUDE": 41.944022478
  }, 
  {
    "BUSINESS_TYPE": "Peddler, non-food", 
    "LEGAL_NAME": "HAROLD P CIANI", 
    "STATE": "IL", 
    "DOING_BUSINESS_AS_NAME": "HAROLD P CIANI", 
    "POP_AT_RISK": 47191, 
    "ZIP": 60622, 
    "ADDRESS": "1606 W GRAND AVE", 
    "YEAR": 2013, 
    "LONGITUDE": -87.66745852, 
    "LATTITUDE": 41.891086901
  }, 
  {
    "BUSINESS_TYPE": "Peddler, non-food", 
    "LEGAL_NAME": "CLARISSA S MILES", 
    "STATE": "IL", 
    "DOING_BUSINESS_AS_NAME": "CLARISSA MILES", 
    "POP_AT_RISK": 23839, 
    "ZIP": 60628, 
    "ADDRESS": "118 E 120TH PL", 
    "YEAR": 2013, 
    "LONGITUDE": -87.619689705, 
    "LATTITUDE": 41.675441895
  }, 
  {
    "BUSINESS_TYPE": "Peddler, non-food", 
    "LEGAL_NAME": "LARENZO ADAMS", 
    "STATE": "IL", 
    "DOING_BUSINESS_AS_NAME": "LARENZO", 
    "POP_AT_RISK": 40825, 
    "ZIP": 60304, 
    "ADDRESS": "926 S TAYLOR", 
    "YEAR": 2013, 
    "LONGITUDE": -87.650252404, 
    "LATTITUDE": 41.869656538
  }, 
  {
    "BUSINESS_TYPE": "Peddler, non-food", 
    "LEGAL_NAME": "SHEIKH TAHA  WASEEM", 
    "STATE": "IL", 
    "DOING_BUSINESS_AS_NAME": "SHEIKH TAHA  WASEEM", 
    "POP_AT_RISK": 54076, 
    "ZIP": 60611, 
    "ADDRESS": "400 N MCCLURG CT 24TH 2416", 
    "YEAR": 2013, 
    "LONGITUDE": -87.617754877, 
    "LATTITUDE": 41.889118473
  }, 
  {
    "BUSINESS_TYPE": "Peddler, non-food", 
    "LEGAL_NAME": "ELISEO LEON", 
    "STATE": "IL", 
    "DOING_BUSINESS_AS_NAME": "ELISEO LEON", 
    "POP_AT_RISK": 20967, 
    "ZIP": 60617, 
    "ADDRESS": "10656 S AVENUE J", 
    "YEAR": 2013, 
    "LONGITUDE": -87.534224707, 
    "LATTITUDE": 41.701062729
  }, 
  {
    "BUSINESS_TYPE": "Peddler, non-food", 
    "LEGAL_NAME": "SCOTT A. MARVEL", 
    "STATE": "IL", 
    "DOING_BUSINESS_AS_NAME": "SCOTT A. MARVEL", 
    "POP_AT_RISK": 36314, 
    "ZIP": 60646, 
    "ADDRESS": "5823 N MULLIGAN AVE", 
    "YEAR": 2013, 
    "LONGITUDE": -87.786294456, 
    "LATTITUDE": 41.987234553
  }, 
  {
    "BUSINESS_TYPE": "Peddler, non-food", 
    "LEGAL_NAME": "MARCO ANTONIO SANDOVAL", 
    "STATE": "IL", 
    "DOING_BUSINESS_AS_NAME": "MARCO ANTONIO SANDOVAL", 
    "POP_AT_RISK": 41400, 
    "ZIP": 60629, 
    "ADDRESS": "5945 S TRIPP AVE", 
    "YEAR": 2013, 
    "LONGITUDE": -87.728888548, 
    "LATTITUDE": 41.784543803
  }, 
  {
    "BUSINESS_TYPE": "Peddler, non-food", 
    "LEGAL_NAME": "JENNIPHER V BUCKNER", 
    "STATE": "IL", 
    "DOING_BUSINESS_AS_NAME": "JENNIPHER V BUCKNER", 
    "POP_AT_RISK": 11475, 
    "ZIP": 60655, 
    "ADDRESS": "2439 W 116TH ST 1ST 1W", 
    "YEAR": 2013, 
    "LONGITUDE": -87.682472062, 
    "LATTITUDE": 41.682597141
  }
]