[
  {
    "BUSINESS_TYPE": "Peddler, non-food", 
    "LEGAL_NAME": "HOWARD K. KADET", 
    "STATE": "IL", 
    "DOING_BUSINESS_AS_NAME": "HOWARD K. KADET", 
    "POP_AT_RISK": 14869, 
    "ZIP": 60646, 
    "ADDRESS": "6333 N LEONA AVE", 
    "YEAR": 2011, 
    "LONGITUDE": -87.753843753, 
    "LATTITUDE": 41.996910445
  }, 
  {
    "BUSINESS_TYPE": "Peddler, non-food", 
    "LEGAL_NAME": "MIKOS ANTONIO DANIELS", 
    "STATE": "IL", 
    "DOING_BUSINESS_AS_NAME": "MIKOS ANTONIO DANIELS", 
    "POP_AT_RISK": 23839, 
    "ZIP": 60628, 
    "ADDRESS": "12036 S INDIANA AVE", 
    "YEAR": 2011, 
    "LONGITUDE": -87.617883847, 
    "LATTITUDE": 41.675257063
  }, 
  {
    "BUSINESS_TYPE": "Peddler, non-food", 
    "LEGAL_NAME": "JOSHUA J. SOICH", 
    "STATE": "IL", 
    "DOING_BUSINESS_AS_NAME": "JOSHUA JAMES SOICH", 
    "POP_AT_RISK": 18473, 
    "ZIP": 60655, 
    "ADDRESS": "11431 S ST LOUIS AVE", 
    "YEAR": 2011, 
    "LONGITUDE": -87.707787923, 
    "LATTITUDE": 41.685561003
  }, 
  {
    "BUSINESS_TYPE": "Peddler, non-food", 
    "LEGAL_NAME": "NICHOLAS JAMES FINNEGAN", 
    "STATE": "IL", 
    "DOING_BUSINESS_AS_NAME": "NICHOLAS JAMES FINNEGAN", 
    "POP_AT_RISK": 30137, 
    "ZIP": 60646, 
    "ADDRESS": "5848 N MERRIMAC AVE 1", 
    "YEAR": 2011, 
    "LONGITUDE": -87.784148404, 
    "LATTITUDE": 41.987990222
  }, 
  {
    "BUSINESS_TYPE": "Peddler, non-food", 
    "LEGAL_NAME": "DIANA URIBE", 
    "STATE": "IL", 
    "DOING_BUSINESS_AS_NAME": "DIANA URIBE", 
    "POP_AT_RISK": 33537, 
    "ZIP": 60634, 
    "ADDRESS": "4308 N MOODY AVE 1", 
    "YEAR": 2011, 
    "LONGITUDE": -87.780791778, 
    "LATTITUDE": 41.958857446
  }, 
  {
    "BUSINESS_TYPE": "Peddler, non-food", 
    "LEGAL_NAME": "BENJAMIN G GALLO", 
    "STATE": "IL", 
    "DOING_BUSINESS_AS_NAME": "BENJAMIN", 
    "POP_AT_RISK": 31019, 
    "ZIP": 60638, 
    "ADDRESS": "5548 S MCVICKER AVE", 
    "YEAR": 2011, 
    "LONGITUDE": -87.773375474, 
    "LATTITUDE": 41.791058024
  }, 
  {
    "BUSINESS_TYPE": "Peddler, non-food", 
    "LEGAL_NAME": "TIFFANY BELL", 
    "STATE": "IL", 
    "DOING_BUSINESS_AS_NAME": "TIFFANY BELL", 
    "POP_AT_RISK": 18918, 
    "ZIP": 60631, 
    "ADDRESS": "6640 N NORTHWEST HWY", 
    "YEAR": 2011, 
    "LONGITUDE": -87.814356238, 
    "LATTITUDE": 42.001496575
  }, 
  {
    "BUSINESS_TYPE": "Peddler, non-food", 
    "LEGAL_NAME": "JOHN BYRNE", 
    "STATE": "IL", 
    "DOING_BUSINESS_AS_NAME": "JOHN BYRNE", 
    "POP_AT_RISK": 19762, 
    "ZIP": 60634, 
    "ADDRESS": "3527 N OZARK AVE 1 1", 
    "YEAR": 2011, 
    "LONGITUDE": -87.82027579, 
    "LATTITUDE": 41.944022478
  }, 
  {
    "BUSINESS_TYPE": "Peddler, non-food", 
    "LEGAL_NAME": "CATHY H. BELLINI", 
    "STATE": "IL", 
    "DOING_BUSINESS_AS_NAME": "CATHY H. BELLINI", 
    "POP_AT_RISK": 32566, 
    "ZIP": 60630, 
    "ADDRESS": "5411 N MELVINA AVE", 
    "YEAR": 2011, 
    "LONGITUDE": -87.783411047, 
    "LATTITUDE": 41.979620642
  }, 
  {
    "BUSINESS_TYPE": "Peddler, non-food", 
    "LEGAL_NAME": "JAMES P. MISUP", 
    "STATE": "IL", 
    "DOING_BUSINESS_AS_NAME": "JAMES P. MISUP", 
    "POP_AT_RISK": 22202, 
    "ZIP": 60638, 
    "ADDRESS": "6050 S CENTRAL AVE", 
    "YEAR": 2011, 
    "LONGITUDE": -87.762032469, 
    "LATTITUDE": 41.782038088
  }, 
  {
    "BUSINESS_TYPE": "Peddler, non-food", 
    "LEGAL_NAME": "JAMES M. MITCHELL", 
    "STATE": "IL", 
    "DOING_BUSINESS_AS_NAME": "JAMES M. MITCHELL", 
    "POP_AT_RISK": 18764, 
    "ZIP": 60643, 
    "ADDRESS": "10715 S LONGWOOD DR", 
    "YEAR": 2011, 
    "LONGITUDE": -87.671184383, 
    "LATTITUDE": 41.698732995
  }, 
  {
    "BUSINESS_TYPE": "Peddler, non-food", 
    "LEGAL_NAME": "ELISEO LEON", 
    "STATE": "IL", 
    "DOING_BUSINESS_AS_NAME": "ELISEO LEON", 
    "POP_AT_RISK": 20967, 
    "ZIP": 60617, 
    "ADDRESS": "10656 S AVENUE J", 
    "YEAR": 2011, 
    "LONGITUDE": -87.534224707, 
    "LATTITUDE": 41.701062729
  }
]