[
  {
    "BUSINESS_TYPE": "Music and Dance", 
    "LEGAL_NAME": "CHARLIE'S I LIMITED", 
    "STATE": "IL", 
    "DOING_BUSINESS_AS_NAME": "CHARLIE'S I LTD", 
    "POP_AT_RISK": 55423, 
    "ZIP": 60644, 
    "ADDRESS": "417 N LARAMIE AVE 1ST", 
    "YEAR": 2004, 
    "LONGITUDE": -87.75520983, 
    "LATTITUDE": 41.888322843
  }, 
  {
    "BUSINESS_TYPE": "Music and Dance", 
    "LEGAL_NAME": "T K O'S SPORTS LOUNGE INC", 
    "STATE": "IL", 
    "DOING_BUSINESS_AS_NAME": "T K O'S SPORTS LOUNGE", 
    "POP_AT_RISK": 39442, 
    "ZIP": 60609, 
    "ADDRESS": "3661-3663 S ARCHER AVE  1", 
    "YEAR": 2004, 
    "LONGITUDE": -87.682517149, 
    "LATTITUDE": 41.827261701
  }, 
  {
    "BUSINESS_TYPE": "Music and Dance", 
    "LEGAL_NAME": "SOUTH LOOP CLUB INC", 
    "STATE": "IL", 
    "DOING_BUSINESS_AS_NAME": "SOUTH LOOP CLUB INC", 
    "POP_AT_RISK": 42798, 
    "ZIP": 60605, 
    "ADDRESS": "701 S STATE ST", 
    "YEAR": 2004, 
    "LONGITUDE": -87.627417813, 
    "LATTITUDE": 41.873055576
  }, 
  {
    "BUSINESS_TYPE": "Music and Dance", 
    "LEGAL_NAME": "SUNNYDAY TAP, INC.", 
    "STATE": "IL", 
    "DOING_BUSINESS_AS_NAME": "SUNNYDAY TAP", 
    "POP_AT_RISK": 32093, 
    "ZIP": 60630, 
    "ADDRESS": "4953 N ELSTON AVE 1ST #", 
    "YEAR": 2004, 
    "LONGITUDE": -87.744192066, 
    "LATTITUDE": 41.970731871
  }, 
  {
    "BUSINESS_TYPE": "Music and Dance", 
    "LEGAL_NAME": "MARQUETTE ATHLETIC CLUB, INC.", 
    "STATE": "IL", 
    "DOING_BUSINESS_AS_NAME": "MARQUETTE ATHLETIC CLUB, INC", 
    "POP_AT_RISK": 57681, 
    "ZIP": 60629, 
    "ADDRESS": "6553 S KEDZIE AVE 1ST", 
    "YEAR": 2004, 
    "LONGITUDE": -87.70287002, 
    "LATTITUDE": 41.773738532
  }, 
  {
    "BUSINESS_TYPE": "Music and Dance", 
    "LEGAL_NAME": "WILLA JOHNSON", 
    "STATE": "IL", 
    "DOING_BUSINESS_AS_NAME": "WILLA'S FIFTY YARD LINE", 
    "POP_AT_RISK": 33712, 
    "ZIP": 60619, 
    "ADDRESS": "69 E 75TH ST  2", 
    "YEAR": 2004, 
    "LONGITUDE": -87.621994448, 
    "LATTITUDE": 41.758174093
  }, 
  {
    "BUSINESS_TYPE": "Music and Dance", 
    "LEGAL_NAME": "RAINBO CLUB INC", 
    "STATE": "IL", 
    "DOING_BUSINESS_AS_NAME": "RAINBO CLUB INC", 
    "POP_AT_RISK": 73424, 
    "ZIP": 60622, 
    "ADDRESS": "1150 N DAMEN AVE", 
    "YEAR": 2004, 
    "LONGITUDE": -87.677395215, 
    "LATTITUDE": 41.902868984
  }, 
  {
    "BUSINESS_TYPE": "Music and Dance", 
    "LEGAL_NAME": "LULA'S INC.", 
    "STATE": "IL", 
    "DOING_BUSINESS_AS_NAME": "WILLIAMS INN", 
    "POP_AT_RISK": 30540, 
    "ZIP": 60636, 
    "ADDRESS": "5701 S ASHLAND AVE", 
    "YEAR": 2004, 
    "LONGITUDE": -87.664341682, 
    "LATTITUDE": 41.790298025
  }, 
  {
    "BUSINESS_TYPE": "Music and Dance", 
    "LEGAL_NAME": "RUBY M. & RODOLTHAS BASKIN", 
    "STATE": "IL", 
    "DOING_BUSINESS_AS_NAME": "NEW BABY'O", 
    "POP_AT_RISK": 37781, 
    "ZIP": 60619, 
    "ADDRESS": "1530 E 75TH ST 1ST", 
    "YEAR": 2004, 
    "LONGITUDE": -87.587219247, 
    "LATTITUDE": 41.758864314
  }, 
  {
    "BUSINESS_TYPE": "Music and Dance", 
    "LEGAL_NAME": "R & G MILLER INC.", 
    "STATE": "IL", 
    "DOING_BUSINESS_AS_NAME": "BROTHER'S PALACE -939", 
    "POP_AT_RISK": 48358, 
    "ZIP": 60651, 
    "ADDRESS": "939-941 N PULASKI RD", 
    "YEAR": 2004, 
    "LONGITUDE": -87.726027844, 
    "LATTITUDE": 41.898367071
  }, 
  {
    "BUSINESS_TYPE": "Music and Dance", 
    "LEGAL_NAME": "THE UNIVERSITY OF CHICAGO CLOISTERS CLUB", 
    "STATE": "IL", 
    "DOING_BUSINESS_AS_NAME": "UNIVERSITY OF CHICAGO CLOISTERS CLUB", 
    "POP_AT_RISK": 40417, 
    "ZIP": 60637, 
    "ADDRESS": "1212 E 59TH ST  1", 
    "YEAR": 2004, 
    "LONGITUDE": -87.595806262, 
    "LATTITUDE": 41.787921484
  }, 
  {
    "BUSINESS_TYPE": "Music and Dance", 
    "LEGAL_NAME": "X-66 NIGHT CLUB INC", 
    "STATE": "IL", 
    "DOING_BUSINESS_AS_NAME": "X-66 NIGHT CLUB", 
    "POP_AT_RISK": 57928, 
    "ZIP": 60629, 
    "ADDRESS": "2811 W 63RD ST 1ST", 
    "YEAR": 2004, 
    "LONGITUDE": -87.693872716, 
    "LATTITUDE": 41.778998649
  }, 
  {
    "BUSINESS_TYPE": "Music and Dance", 
    "LEGAL_NAME": "ROBERT & ALLEN'S REGENCY INN,  INC.", 
    "STATE": "IL", 
    "DOING_BUSINESS_AS_NAME": "REGENCY INN", 
    "POP_AT_RISK": 70067, 
    "ZIP": 60639, 
    "ADDRESS": "5319 W DIVERSEY AVE", 
    "YEAR": 2004, 
    "LONGITUDE": -87.759680662, 
    "LATTITUDE": 41.931248725
  }, 
  {
    "BUSINESS_TYPE": "Music and Dance", 
    "LEGAL_NAME": "THE NEW SOME PLACE ELSE, INC.", 
    "STATE": "IL", 
    "DOING_BUSINESS_AS_NAME": "THE NEW SOME PLACE ELSE LOUNGE", 
    "POP_AT_RISK": 26744, 
    "ZIP": 60643, 
    "ADDRESS": "11043 S ASHLAND AVE 1ST", 
    "YEAR": 2004, 
    "LONGITUDE": -87.661711113, 
    "LATTITUDE": 41.692637091
  }, 
  {
    "BUSINESS_TYPE": "Music and Dance", 
    "LEGAL_NAME": "DU SHONG RESTAURANT INC", 
    "STATE": "IL", 
    "DOING_BUSINESS_AS_NAME": "DU SHONG RESTAURANT INC", 
    "POP_AT_RISK": 52156, 
    "ZIP": 60659, 
    "ADDRESS": "3106 W DEVON AVE", 
    "YEAR": 2004, 
    "LONGITUDE": -87.707260136, 
    "LATTITUDE": 41.997535204
  }, 
  {
    "BUSINESS_TYPE": "Music and Dance", 
    "LEGAL_NAME": "CORNELIUS ALEXANDER", 
    "STATE": "IL", 
    "DOING_BUSINESS_AS_NAME": "007 LOUNGE", 
    "POP_AT_RISK": 33982, 
    "ZIP": 60612, 
    "ADDRESS": "600 N KEDZIE AVE 1ST", 
    "YEAR": 2004, 
    "LONGITUDE": -87.706595489, 
    "LATTITUDE": 41.891985011
  }, 
  {
    "BUSINESS_TYPE": "Music and Dance", 
    "LEGAL_NAME": "SHEBA MIDDLE EAST RESTAURANT", 
    "STATE": "IL", 
    "DOING_BUSINESS_AS_NAME": "Governor's", 
    "POP_AT_RISK": 78633, 
    "ZIP": 60625, 
    "ADDRESS": "4613 N KEDZIE AVE 1ST", 
    "YEAR": 2004, 
    "LONGITUDE": -87.708221964, 
    "LATTITUDE": 41.965113976
  }, 
  {
    "BUSINESS_TYPE": "Music and Dance", 
    "LEGAL_NAME": "JAF, LTD.", 
    "STATE": "IL", 
    "DOING_BUSINESS_AS_NAME": "JEFFERY PUB", 
    "POP_AT_RISK": 43909, 
    "ZIP": 60649, 
    "ADDRESS": "7041 S JEFFERY BLVD", 
    "YEAR": 2004, 
    "LONGITUDE": -87.576170828, 
    "LATTITUDE": 41.766818068
  }, 
  {
    "BUSINESS_TYPE": "Music and Dance", 
    "LEGAL_NAME": "HENRY L HOSKIN", 
    "STATE": "IL", 
    "DOING_BUSINESS_AS_NAME": "HOT CITY LOUNGE", 
    "POP_AT_RISK": 45150, 
    "ZIP": 60636, 
    "ADDRESS": "7432 S RACINE AVE 1ST", 
    "YEAR": 2004, 
    "LONGITUDE": -87.654093887, 
    "LATTITUDE": 41.758643529
  }, 
  {
    "BUSINESS_TYPE": "Music and Dance", 
    "LEGAL_NAME": "ALBERT DURHAM", 
    "STATE": "IL", 
    "DOING_BUSINESS_AS_NAME": "ALBERT DURHAM", 
    "POP_AT_RISK": 35168, 
    "ZIP": 60620, 
    "ADDRESS": "404 W 79TH ST 1ST", 
    "YEAR": 2004, 
    "LONGITUDE": -87.634460315, 
    "LATTITUDE": 41.750885726
  }, 
  {
    "BUSINESS_TYPE": "Music and Dance", 
    "LEGAL_NAME": "3702 N. HALSTED CORP.", 
    "STATE": "IL", 
    "DOING_BUSINESS_AS_NAME": "THE CELL BLOCK", 
    "POP_AT_RISK": 72844, 
    "ZIP": 60613, 
    "ADDRESS": "3702-3708 N HALSTED ST 1ST", 
    "YEAR": 2004, 
    "LONGITUDE": -87.64969212, 
    "LATTITUDE": 41.949210837
  }, 
  {
    "BUSINESS_TYPE": "Music and Dance", 
    "LEGAL_NAME": "BERNICE M. BLAKELY", 
    "STATE": "IL", 
    "DOING_BUSINESS_AS_NAME": "BERNICE'S TWILIGHT ZONE", 
    "POP_AT_RISK": 36119, 
    "ZIP": 60649, 
    "ADDRESS": "2914-2916 E 79TH ST 1", 
    "YEAR": 2004, 
    "LONGITUDE": -87.553447616, 
    "LATTITUDE": 41.752012386
  }, 
  {
    "BUSINESS_TYPE": "Music and Dance", 
    "LEGAL_NAME": "FAUSTO ENTERPRISES INC.", 
    "STATE": "IL", 
    "DOING_BUSINESS_AS_NAME": "El Sinaloense", 
    "POP_AT_RISK": 49473, 
    "ZIP": 60623, 
    "ADDRESS": "2759 S PULASKI RD 1ST", 
    "YEAR": 2004, 
    "LONGITUDE": -87.724305978, 
    "LATTITUDE": 41.840660595
  }, 
  {
    "BUSINESS_TYPE": "Music and Dance", 
    "LEGAL_NAME": "TROY LOGIC, INC", 
    "STATE": "IL", 
    "DOING_BUSINESS_AS_NAME": "MARIANNA'S PLACE", 
    "POP_AT_RISK": 22202, 
    "ZIP": 60638, 
    "ADDRESS": "5625 W 63RD ST 1ST", 
    "YEAR": 2004, 
    "LONGITUDE": -87.762659385, 
    "LATTITUDE": 41.777923814
  }, 
  {
    "BUSINESS_TYPE": "Music and Dance", 
    "LEGAL_NAME": "ANTONIO VILLAGRAN", 
    "STATE": "IL", 
    "DOING_BUSINESS_AS_NAME": "LA TERRAZA RESTAURANT & LOUNGE", 
    "POP_AT_RISK": 63905, 
    "ZIP": 60623, 
    "ADDRESS": "2881 W CERMAK RD", 
    "YEAR": 2004, 
    "LONGITUDE": -87.698823221, 
    "LATTITUDE": 41.851744547
  }, 
  {
    "BUSINESS_TYPE": "Music and Dance", 
    "LEGAL_NAME": "THE FAMILY DEN, INC.", 
    "STATE": "IL", 
    "DOING_BUSINESS_AS_NAME": "FAMILY DEN", 
    "POP_AT_RISK": 18937, 
    "ZIP": 60617, 
    "ADDRESS": "8940-8942 S STONY ISLAND AVE  1", 
    "YEAR": 2004, 
    "LONGITUDE": -87.585689499, 
    "LATTITUDE": 41.732049135
  }, 
  {
    "BUSINESS_TYPE": "Music and Dance", 
    "LEGAL_NAME": "439 NIGHT CLUB INC", 
    "STATE": "IL", 
    "DOING_BUSINESS_AS_NAME": "439 NIGHT CLUB INC", 
    "POP_AT_RISK": 38563, 
    "ZIP": 60642, 
    "ADDRESS": "439 N OGDEN AVE 1ST #", 
    "YEAR": 2004, 
    "LONGITUDE": -87.659762866, 
    "LATTITUDE": 41.889975288
  }, 
  {
    "BUSINESS_TYPE": "Music and Dance", 
    "LEGAL_NAME": "GORDON LOUNGE, INC", 
    "STATE": "IL", 
    "DOING_BUSINESS_AS_NAME": "BREWBAKERS", 
    "POP_AT_RISK": 22491, 
    "ZIP": 60643, 
    "ADDRESS": "10350 S WESTERN AVE", 
    "YEAR": 2004, 
    "LONGITUDE": -87.681719587, 
    "LATTITUDE": 41.704868712
  }, 
  {
    "BUSINESS_TYPE": "Music and Dance", 
    "LEGAL_NAME": "PAUL AND MARC'S ENTERPRISES, LTD.", 
    "STATE": "IL", 
    "DOING_BUSINESS_AS_NAME": "GROUCHO'S BAR & GRILL", 
    "POP_AT_RISK": 27493, 
    "ZIP": 60652, 
    "ADDRESS": "8355 S PULASKI RD", 
    "YEAR": 2004, 
    "LONGITUDE": -87.721478363, 
    "LATTITUDE": 41.740515143
  }, 
  {
    "BUSINESS_TYPE": "Music and Dance", 
    "LEGAL_NAME": "NIGHT BEFORE INC.", 
    "STATE": "IL", 
    "DOING_BUSINESS_AS_NAME": "TOUCHE'", 
    "POP_AT_RISK": 67015, 
    "ZIP": 60626, 
    "ADDRESS": "6412 N CLARK ST", 
    "YEAR": 2004, 
    "LONGITUDE": -87.67087163, 
    "LATTITUDE": 41.998426386
  }, 
  {
    "BUSINESS_TYPE": "Music and Dance", 
    "LEGAL_NAME": "PAULA A CORP", 
    "STATE": "IL", 
    "DOING_BUSINESS_AS_NAME": "123 STOP", 
    "POP_AT_RISK": 38580, 
    "ZIP": 60632, 
    "ADDRESS": "4157 S KEDZIE AVE 1ST", 
    "YEAR": 2004, 
    "LONGITUDE": -87.704189652, 
    "LATTITUDE": 41.817310074
  }, 
  {
    "BUSINESS_TYPE": "Music and Dance", 
    "LEGAL_NAME": "J & J LOUNGE BANQUET HALL INC", 
    "STATE": "IL", 
    "DOING_BUSINESS_AS_NAME": "J & J LOUNG & BANQUET HALL INC", 
    "POP_AT_RISK": 22217, 
    "ZIP": 60638, 
    "ADDRESS": "6539-6541 W 63RD ST", 
    "YEAR": 2004, 
    "LONGITUDE": -87.785302854, 
    "LATTITUDE": 41.777507581
  }, 
  {
    "BUSINESS_TYPE": "Music and Dance", 
    "LEGAL_NAME": "CHARLES DAVID GORDON", 
    "STATE": "IL", 
    "DOING_BUSINESS_AS_NAME": "CHARLES DAVID GORDON", 
    "POP_AT_RISK": 41669, 
    "ZIP": 60617, 
    "ADDRESS": "2101 E 83RD ST", 
    "YEAR": 2004, 
    "LONGITUDE": -87.573358745, 
    "LATTITUDE": 41.744256653
  }, 
  {
    "BUSINESS_TYPE": "Music and Dance", 
    "LEGAL_NAME": "ARTIS KING LUDD", 
    "STATE": "IL", 
    "DOING_BUSINESS_AS_NAME": "ARTIS KING LUDD", 
    "POP_AT_RISK": 33658, 
    "ZIP": 60619, 
    "ADDRESS": "1249 E 87TH ST 1ST", 
    "YEAR": 2004, 
    "LONGITUDE": -87.5930218, 
    "LATTITUDE": 41.736705257
  }, 
  {
    "BUSINESS_TYPE": "Music and Dance", 
    "LEGAL_NAME": "GORALKA,INC.", 
    "STATE": "IL", 
    "DOING_BUSINESS_AS_NAME": "STUDIO 51", 
    "POP_AT_RISK": 46845, 
    "ZIP": 60632, 
    "ADDRESS": "2522-2524 W 51ST ST  1", 
    "YEAR": 2004, 
    "LONGITUDE": -87.687752191, 
    "LATTITUDE": 41.801205449
  }, 
  {
    "BUSINESS_TYPE": "Music and Dance", 
    "LEGAL_NAME": "HAWKEYE'S BAR & GRILL INC", 
    "STATE": "IL", 
    "DOING_BUSINESS_AS_NAME": "HAWKEYE'S BAR & GRILL INC", 
    "POP_AT_RISK": 40177, 
    "ZIP": 60607, 
    "ADDRESS": "1458 W TAYLOR ST", 
    "YEAR": 2004, 
    "LONGITUDE": -87.664017834, 
    "LATTITUDE": 41.869411103
  }, 
  {
    "BUSINESS_TYPE": "Music and Dance", 
    "LEGAL_NAME": "DONALD ROTTO", 
    "STATE": "IL", 
    "DOING_BUSINESS_AS_NAME": "QUINN II", 
    "POP_AT_RISK": 51586, 
    "ZIP": 60608, 
    "ADDRESS": "2701 S ARCHER AVE", 
    "YEAR": 2004, 
    "LONGITUDE": -87.651847063, 
    "LATTITUDE": 41.844485944
  }, 
  {
    "BUSINESS_TYPE": "Music and Dance", 
    "LEGAL_NAME": "LEGAL PAD, INC.", 
    "STATE": "IL", 
    "DOING_BUSINESS_AS_NAME": "EMERALD ISLE", 
    "POP_AT_RISK": 18918, 
    "ZIP": 60631, 
    "ADDRESS": "6686 N NORTHWEST HWY 1ST F", 
    "YEAR": 2004, 
    "LONGITUDE": -87.815812804, 
    "LATTITUDE": 42.00241817
  }, 
  {
    "BUSINESS_TYPE": "Music and Dance", 
    "LEGAL_NAME": "O C SANDERS", 
    "STATE": "IL", 
    "DOING_BUSINESS_AS_NAME": "SANDERS LOUNGE", 
    "POP_AT_RISK": 25595, 
    "ZIP": 60621, 
    "ADDRESS": "700 W 59TH ST 1ST", 
    "YEAR": 2004, 
    "LONGITUDE": -87.642599018, 
    "LATTITUDE": 41.787176102
  }, 
  {
    "BUSINESS_TYPE": "Music and Dance", 
    "LEGAL_NAME": "VORSE BURNSIDE MAURICE,MELVIN,MARLON BURNSIDE", 
    "STATE": "IL", 
    "DOING_BUSINESS_AS_NAME": "REESE'S LOUNGE", 
    "POP_AT_RISK": 28628, 
    "ZIP": 60620, 
    "ADDRESS": "1827 W 87TH ST 1ST", 
    "YEAR": 2004, 
    "LONGITUDE": -87.66907678, 
    "LATTITUDE": 41.735600359
  }
]