[
{"STATE":"IL","ZIP":60608,"LATTITUDE":41.83811710808821,"ADDRESS":"908 W 31ST ST 1ST ","YEAR":2014,"DOING_BUSINESS_AS_NAME":"VITE MART","POP_AT_RISK":243198,"BUSINESS_TYPE":"Secondhand Dealer (No Valuable Objects)","LEGAL_NAME":"ALEIN CORP.","LONGITUDE":-87.6492477697445},
{"STATE":"IL","ZIP":60644,"LATTITUDE":41.880615068075336,"ADDRESS":"4744 W MADISON ST 1ST ","YEAR":2014,"DOING_BUSINESS_AS_NAME":"BEST PRICES ELECTRONICS","POP_AT_RISK":502535,"BUSINESS_TYPE":"Secondhand Dealer (No Valuable Objects)","LEGAL_NAME":"CLELA GOOCH","LONGITUDE":-87.74462552083253},
{"STATE":"IL","ZIP":60625,"LATTITUDE":41.96835281106011,"ADDRESS":"3960 W LAWRENCE AVE 1ST ","YEAR":2014,"DOING_BUSINESS_AS_NAME":"I FEX, INC.","POP_AT_RISK":67391,"BUSINESS_TYPE":"Secondhand Dealer (No Valuable Objects)","LEGAL_NAME":"I FEX, INC.","LONGITUDE":-87.72796934398126},
{"STATE":"IL","ZIP":60633,"LATTITUDE":41.65228371217927,"ADDRESS":"13347 S BRANDON AVE 1ST FL ","YEAR":2014,"DOING_BUSINESS_AS_NAME":"CRAZY STORE","POP_AT_RISK":21668,"BUSINESS_TYPE":"Secondhand Dealer (No Valuable Objects)","LEGAL_NAME":"RAFAELA LEON","LONGITUDE":-87.54577467351069},
{"STATE":"IL","ZIP":60638,"LATTITUDE":41.79218689434603,"ADDRESS":"6459 W ARCHER AVE 1ST ","YEAR":2014,"DOING_BUSINESS_AS_NAME":"IGADGETZ","POP_AT_RISK":61450,"BUSINESS_TYPE":"Secondhand Dealer (No Valuable Objects)","LEGAL_NAME":"IGADGETZ INC.","LONGITUDE":-87.78418654919427},
{"STATE":"IL","ZIP":60641,"LATTITUDE":41.943831137552905,"ADDRESS":"3437 N MILWAUKEE AVE 1ST ","YEAR":2014,"DOING_BUSINESS_AS_NAME":"BACARDI BIKES","POP_AT_RISK":98326,"BUSINESS_TYPE":"Secondhand Dealer (No Valuable Objects)","LEGAL_NAME":"FIDEL TALAVERA","LONGITUDE":-87.7313846139903},
{"STATE":"IL","ZIP":60620,"LATTITUDE":41.743427333056644,"ADDRESS":"8300 S HOLLAND RD 1ST ","YEAR":2014,"DOING_BUSINESS_AS_NAME":"GAMESTOP #7557","POP_AT_RISK":51466,"BUSINESS_TYPE":"Secondhand Dealer (No Valuable Objects)","LEGAL_NAME":"GAMESTOP, INC.","LONGITUDE":-87.63218113202454},
{"STATE":"IL","ZIP":60620,"LATTITUDE":41.735581717675636,"ADDRESS":"1903 W 87TH ST 1ST ","YEAR":2014,"DOING_BUSINESS_AS_NAME":"7 WIRELESS","POP_AT_RISK":63328,"BUSINESS_TYPE":"Secondhand Dealer (No Valuable Objects)","LEGAL_NAME":"7 WIRELESS INC.","LONGITUDE":-87.67051650669127},
{"STATE":"IL","ZIP":60651,"LATTITUDE":41.902219350908794,"ADDRESS":"5656 W DIVISION ST 1ST ","YEAR":2014,"DOING_BUSINESS_AS_NAME":"GADGETS REPAIR","POP_AT_RISK":376187,"BUSINESS_TYPE":"Secondhand Dealer (No Valuable Objects)","LEGAL_NAME":"FREE PLUS, INC.","LONGITUDE":-87.76793941689144},
{"STATE":"IL","ZIP":60632,"LATTITUDE":41.80024559493103,"ADDRESS":"5101 S CICERO AVE 1 103","YEAR":2014,"DOING_BUSINESS_AS_NAME":"Boost Mobile","POP_AT_RISK":29168,"BUSINESS_TYPE":"Secondhand Dealer (No Valuable Objects)","LEGAL_NAME":"NoContract Corp","LONGITUDE":-87.74281052198738},
{"STATE":"IL","ZIP":60632,"LATTITUDE":41.807734521167596,"ADDRESS":"4713 S KEDZIE AVE 1ST ","YEAR":2014,"DOING_BUSINESS_AS_NAME":"PLAY N TRADE VIDEO GAMES","POP_AT_RISK":51997,"BUSINESS_TYPE":"Secondhand Dealer (No Valuable Objects)","LEGAL_NAME":"KEDZIE PNT, INC.","LONGITUDE":-87.70381686054981},
{"STATE":"IL","ZIP":60659,"LATTITUDE":41.99757434394706,"ADDRESS":"3012 W DEVON AVE 1ST ","YEAR":2014,"DOING_BUSINESS_AS_NAME":"DEVON COMMUNICATION","POP_AT_RISK":123400,"BUSINESS_TYPE":"Secondhand Dealer (No Valuable Objects)","LEGAL_NAME":"U T GADGETS INC.","LONGITUDE":-87.70508424839316},
{"STATE":"IL","ZIP":60617,"LATTITUDE":41.75147982228569,"ADDRESS":"7912 S EXCHANGE AVE 1ST ","YEAR":2014,"DOING_BUSINESS_AS_NAME":"THE CONNECTION - CRICKET","POP_AT_RISK":237363,"BUSINESS_TYPE":"Secondhand Dealer (No Valuable Objects)","LEGAL_NAME":"7912 EXCHANGE INC.","LONGITUDE":-87.5530380460778},
{"STATE":"IL","ZIP":60608,"LATTITUDE":41.865188763426644,"ADDRESS":"1600 W 13TH ST 1 ","YEAR":2014,"DOING_BUSINESS_AS_NAME":"T-Mobile","POP_AT_RISK":76816,"BUSINESS_TYPE":"Secondhand Dealer (No Valuable Objects)","LEGAL_NAME":"TCC WIRELESS, INC.","LONGITUDE":-87.66646924032864},
{"STATE":"IL","ZIP":60646,"LATTITUDE":41.996914777223296,"ADDRESS":"6342 N CICERO AVE 1 ","YEAR":2014,"DOING_BUSINESS_AS_NAME":"T-Mobile","POP_AT_RISK":74060,"BUSINESS_TYPE":"Secondhand Dealer (No Valuable Objects)","LEGAL_NAME":"TCC WIRELESS, INC.","LONGITUDE":-87.748490224715},
{"STATE":"IL","ZIP":60634,"LATTITUDE":41.938402884323274,"ADDRESS":"5757 W BELMONT AVE 1 ","YEAR":2014,"DOING_BUSINESS_AS_NAME":"T-Mobile","POP_AT_RISK":62328,"BUSINESS_TYPE":"Secondhand Dealer (No Valuable Objects)","LEGAL_NAME":"TCC WIRELESS, INC.","LONGITUDE":-87.77121584278903},
{"STATE":"IL","ZIP":60644,"LATTITUDE":41.86567770231861,"ADDRESS":"5650 W ROOSEVELT RD 1 ","YEAR":2014,"DOING_BUSINESS_AS_NAME":"T-Mobile","POP_AT_RISK":385552,"BUSINESS_TYPE":"Secondhand Dealer (No Valuable Objects)","LEGAL_NAME":"TCC WIRELESS, INC.","LONGITUDE":-87.76640466830571},
{"STATE":"IL","ZIP":60630,"LATTITUDE":41.97693688769671,"ADDRESS":"5316 N MILWAUKEE AVE 1ST 8","YEAR":2014,"DOING_BUSINESS_AS_NAME":"TRADE AND SAVE LLC","POP_AT_RISK":67512,"BUSINESS_TYPE":"Secondhand Dealer (No Valuable Objects)","LEGAL_NAME":"TRADE AND SAVE LLC","LONGITUDE":-87.76907431197014},
{"STATE":"IL","ZIP":60661,"LATTITUDE":41.88771166545231,"ADDRESS":"328 N DESPLAINES ST 1ST ","YEAR":2014,"DOING_BUSINESS_AS_NAME":"TRADE AND SAVE LLC (01-6203)","POP_AT_RISK":48612,"BUSINESS_TYPE":"Secondhand Dealer (No Valuable Objects)","LEGAL_NAME":"TRADE AND SAVE LLC","LONGITUDE":-87.64444851599042},
{"STATE":"IL","ZIP":60629,"LATTITUDE":41.771921799145254,"ADDRESS":"6643 S PULASKI RD 1ST ","YEAR":2014,"DOING_BUSINESS_AS_NAME":"TRADE AND SAVE LLC (01-6296)","POP_AT_RISK":121815,"BUSINESS_TYPE":"Secondhand Dealer (No Valuable Objects)","LEGAL_NAME":"TRADE AND SAVE LLC","LONGITUDE":-87.72244155850937},
{"STATE":"IL","ZIP":60639,"LATTITUDE":41.928847223323764,"ADDRESS":"2650 N NARRAGANSETT AVE 1ST ","YEAR":2014,"DOING_BUSINESS_AS_NAME":"TRADE AND SAVE LLC (01-6319)","POP_AT_RISK":259110,"BUSINESS_TYPE":"Secondhand Dealer (No Valuable Objects)","LEGAL_NAME":"TRADE AND SAVE LLC","LONGITUDE":-87.78578101920121},
{"STATE":"IL","ZIP":60607,"LATTITUDE":41.865965068521284,"ADDRESS":"1246 S CANAL ST 1ST ","YEAR":2014,"DOING_BUSINESS_AS_NAME":"TRADE AND SAVE LLC (01-6407)","POP_AT_RISK":62314,"BUSINESS_TYPE":"Secondhand Dealer (No Valuable Objects)","LEGAL_NAME":"TRADE AND SAVE LLC","LONGITUDE":-87.63935236932583},
{"STATE":"IL","ZIP":60657,"LATTITUDE":41.934968034545285,"ADDRESS":"2923 N ASHLAND AVE  1ST","YEAR":2014,"DOING_BUSINESS_AS_NAME":"TRADE AND SAVE LLC (01-6440)","POP_AT_RISK":184188,"BUSINESS_TYPE":"Secondhand Dealer (No Valuable Objects)","LEGAL_NAME":"TRADE AND SAVE LLC","LONGITUDE":-87.668341293784},
{"STATE":"IL","ZIP":60608,"LATTITUDE":41.851898382755145,"ADDRESS":"2509 W CERMAK RD 1ST ","YEAR":2014,"DOING_BUSINESS_AS_NAME":"TRADE AND SAVE LLC (01-6475)","POP_AT_RISK":327537,"BUSINESS_TYPE":"Secondhand Dealer (No Valuable Objects)","LEGAL_NAME":"TRADE AND SAVE LLC","LONGITUDE":-87.6883391138756},
{"STATE":"IL","ZIP":60639,"LATTITUDE":41.909490620704396,"ADDRESS":"4851 W NORTH AVE 1ST ","YEAR":2014,"DOING_BUSINESS_AS_NAME":"TRADE AND SAVE LLC (01-6491)","POP_AT_RISK":298885,"BUSINESS_TYPE":"Secondhand Dealer (No Valuable Objects)","LEGAL_NAME":"TRADE AND SAVE LLC","LONGITUDE":-87.74803979557645},
{"STATE":"IL","ZIP":60619,"LATTITUDE":41.7387135956648,"ADDRESS":"8554 S COTTAGE GROVE AVE 1ST ","YEAR":2014,"DOING_BUSINESS_AS_NAME":"TRADE AND SAVE LLC (01-6515)","POP_AT_RISK":76878,"BUSINESS_TYPE":"Secondhand Dealer (No Valuable Objects)","LEGAL_NAME":"TRADE AND SAVE LLC","LONGITUDE":-87.60502774566517},
{"STATE":"IL","ZIP":60643,"LATTITUDE":41.72085706729152,"ADDRESS":"2313 W 95TH ST 1ST B","YEAR":2014,"DOING_BUSINESS_AS_NAME":"TRADE AND SAVE LLC (01-6551)","POP_AT_RISK":14129,"BUSINESS_TYPE":"Secondhand Dealer (No Valuable Objects)","LEGAL_NAME":"TRADE AND SAVE LLC","LONGITUDE":-87.6802274901522},
{"STATE":"IL","ZIP":60640,"LATTITUDE":41.980291372417895,"ADDRESS":"5409 N BROADWAY  1ST ","YEAR":2014,"DOING_BUSINESS_AS_NAME":"TRADE AND SAVE LLC (01-6576)","POP_AT_RISK":268344,"BUSINESS_TYPE":"Secondhand Dealer (No Valuable Objects)","LEGAL_NAME":"TRADE AND SAVE LLC","LONGITUDE":-87.6598304250428},
{"STATE":"IL","ZIP":60657,"LATTITUDE":41.93968627529373,"ADDRESS":"3168 N BROADWAY  1ST ","YEAR":2014,"DOING_BUSINESS_AS_NAME":"TRADE AND SAVE LLC (01-6594)","POP_AT_RISK":169136,"BUSINESS_TYPE":"Secondhand Dealer (No Valuable Objects)","LEGAL_NAME":"TRADE AND SAVE LLC","LONGITUDE":-87.64453553974661},
{"STATE":"IL","ZIP":60649,"LATTITUDE":41.765189524327816,"ADDRESS":"7131 S JEFFERY BLVD 1ST H","YEAR":2014,"DOING_BUSINESS_AS_NAME":"TRADE AND SAVE LLC (01-6597)","POP_AT_RISK":130011,"BUSINESS_TYPE":"Secondhand Dealer (No Valuable Objects)","LEGAL_NAME":"TRADE AND SAVE LLC","LONGITUDE":-87.57613310396634},
{"STATE":"IL","ZIP":60629,"LATTITUDE":41.778566567291335,"ADDRESS":"4702 W 63RD ST 1ST ","YEAR":2014,"DOING_BUSINESS_AS_NAME":"XTREME MOBILE INC.","POP_AT_RISK":51026,"BUSINESS_TYPE":"Secondhand Dealer (No Valuable Objects)","LEGAL_NAME":"XTREME MOBILE INC.","LONGITUDE":-87.73998283949524},
{"STATE":"IL","ZIP":60609,"LATTITUDE":41.82956110961632,"ADDRESS":"3541 S ARCHER AVE  ","YEAR":2014,"DOING_BUSINESS_AS_NAME":"PILSEN BIKE SHOP","POP_AT_RISK":30396,"BUSINESS_TYPE":"Secondhand Dealer (No Valuable Objects)","LEGAL_NAME":"ALEJANDRO IZQUIERDO","LONGITUDE":-87.67876881207133},
{"STATE":"IL","ZIP":60634,"LATTITUDE":41.942862443127844,"ADDRESS":"3421 N CENTRAL AVE 1 ","YEAR":2014,"DOING_BUSINESS_AS_NAME":"Windy City Secondhand and Resale Shop","POP_AT_RISK":63098,"BUSINESS_TYPE":"Secondhand Dealer (No Valuable Objects)","LEGAL_NAME":"Bridget M. Campbell","LONGITUDE":-87.76650472322682},
{"STATE":"IL","ZIP":60634,"LATTITUDE":41.95279612959814,"ADDRESS":"6419 W IRVING PARK RD 1 ","YEAR":2014,"DOING_BUSINESS_AS_NAME":"G7 ELECTRONICS INC.","POP_AT_RISK":42789,"BUSINESS_TYPE":"Secondhand Dealer (No Valuable Objects)","LEGAL_NAME":"G7 ELECTRONICS INC.","LONGITUDE":-87.78735523774208},
{"STATE":"IL","ZIP":60614,"LATTITUDE":41.918172959074255,"ADDRESS":"1122 W ARMITAGE AVE 1 1","YEAR":2014,"DOING_BUSINESS_AS_NAME":"CASH U PHONE","POP_AT_RISK":340404,"BUSINESS_TYPE":"Secondhand Dealer (No Valuable Objects)","LEGAL_NAME":"PENG'S TRADING INC.","LONGITUDE":-87.65631519109232},
{"STATE":"IL","ZIP":60626,"LATTITUDE":42.019479023693876,"ADDRESS":"7600 N PAULINA ST 1ST ","YEAR":2014,"DOING_BUSINESS_AS_NAME":"KKH COMMUNICATION & ELECTRONICS","POP_AT_RISK":250296,"BUSINESS_TYPE":"Secondhand Dealer (No Valuable Objects)","LEGAL_NAME":"MOHAMMED KHAN SHAMIM","LONGITUDE":-87.67325237181792},
{"STATE":"IL","ZIP":60638,"LATTITUDE":41.77764117266972,"ADDRESS":"6223 W 63RD ST 1ST ","YEAR":2014,"DOING_BUSINESS_AS_NAME":"1INFOTECH CORPORATION","POP_AT_RISK":44926,"BUSINESS_TYPE":"Secondhand Dealer (No Valuable Objects)","LEGAL_NAME":"1INFOTECH CORPORATION","LONGITUDE":-87.7773012320788},
{"STATE":"IL","ZIP":60612,"LATTITUDE":41.8863656527098,"ADDRESS":"266 N KEDZIE AVE  ","YEAR":2014,"DOING_BUSINESS_AS_NAME":"AMERTEL CELLULAR INC","POP_AT_RISK":198594,"BUSINESS_TYPE":"Secondhand Dealer (No Valuable Objects)","LEGAL_NAME":"AMERTEL CELLULAR, INC","LONGITUDE":-87.70642715108946},
{"STATE":"IL","ZIP":60628,"LATTITUDE":41.70725447515082,"ADDRESS":"519 E 103RD ST  ","YEAR":2014,"DOING_BUSINESS_AS_NAME":"COMPUTER WORLD AND MORE","POP_AT_RISK":143820,"BUSINESS_TYPE":"Secondhand Dealer (No Valuable Objects)","LEGAL_NAME":"H & R FURNITURE, INC.","LONGITUDE":-87.61050743731957},
{"STATE":"IL","ZIP":60649,"LATTITUDE":41.76132792132938,"ADDRESS":"7336 S STONY ISLAND AVE 1ST ","YEAR":2014,"DOING_BUSINESS_AS_NAME":"ZEE'S SUPERMARKET PLUS","POP_AT_RISK":34900,"BUSINESS_TYPE":"Secondhand Dealer (No Valuable Objects)","LEGAL_NAME":"7336 STONY ISLAND, INC.","LONGITUDE":-87.58635037600584},
{"STATE":"IL","ZIP":60632,"LATTITUDE":41.801841832480115,"ADDRESS":"5014 S PULASKI RD GROUND ","YEAR":2014,"DOING_BUSINESS_AS_NAME":"ACCESSOREZ DISTRIBUTION","POP_AT_RISK":74564,"BUSINESS_TYPE":"Secondhand Dealer (No Valuable Objects)","LEGAL_NAME":"ACCESSOREZ DISTRIBUTION","LONGITUDE":-87.72355598046047},
{"STATE":"IL","ZIP":60615,"LATTITUDE":41.80186863276546,"ADDRESS":"51 E 51ST ST 1 1","YEAR":2014,"DOING_BUSINESS_AS_NAME":"FIVE ONE FOOD MART INC.","POP_AT_RISK":235488,"BUSINESS_TYPE":"Secondhand Dealer (No Valuable Objects)","LEGAL_NAME":"FIVE ONE FOOD MART INC.","LONGITUDE":-87.62391427138503},
{"STATE":"IL","ZIP":60651,"LATTITUDE":41.90613285807193,"ADDRESS":"3960 W GRAND AVE  ","YEAR":2014,"DOING_BUSINESS_AS_NAME":"PAGE TEL CELLULAR, INC.","POP_AT_RISK":59780,"BUSINESS_TYPE":"Secondhand Dealer (No Valuable Objects)","LEGAL_NAME":"PAGE TEL CELLULAR, INC.","LONGITUDE":-87.72603944686409},
{"STATE":"IL","ZIP":60623,"LATTITUDE":41.83712401382991,"ADDRESS":"3056 S MILLARD AVE 1ST ","YEAR":2014,"DOING_BUSINESS_AS_NAME":"SANCHEZ BIKE SHOP, INC.","POP_AT_RISK":724068,"BUSINESS_TYPE":"Secondhand Dealer (No Valuable Objects)","LEGAL_NAME":"SANCHEZ BIKE SHOP, INC.","LONGITUDE":-87.71595985486654},
{"STATE":"IL","ZIP":60620,"LATTITUDE":41.75021221701967,"ADDRESS":"7903 S ASHLAND AVE 1ST ","YEAR":2014,"DOING_BUSINESS_AS_NAME":"ABC CHOICE","POP_AT_RISK":41511,"BUSINESS_TYPE":"Secondhand Dealer (No Valuable Objects)","LEGAL_NAME":"ASHLAND ABC CHOICE, INC.","LONGITUDE":-87.6632847593253},
{"STATE":"IL","ZIP":60622,"LATTITUDE":41.90115303048925,"ADDRESS":"1101 N CALIFORNIA AVE  ","YEAR":2014,"DOING_BUSINESS_AS_NAME":"PARK DOLLAR & FOOD","POP_AT_RISK":50447,"BUSINESS_TYPE":"Secondhand Dealer (No Valuable Objects)","LEGAL_NAME":"PARK DOLLAR & FOOD, INC.","LONGITUDE":-87.69668997374622},
{"STATE":"IL","ZIP":60653,"LATTITUDE":41.80979548271692,"ADDRESS":"1400 E 47TH DR 1ST ","YEAR":2014,"DOING_BUSINESS_AS_NAME":"WE FIX IT WIRELESS, INC.","POP_AT_RISK":105909,"BUSINESS_TYPE":"Secondhand Dealer (No Valuable Objects)","LEGAL_NAME":"WE FIX IT WIRELESS, INC.","LONGITUDE":-87.59237386663331},
{"STATE":"IL","ZIP":60637,"LATTITUDE":41.78030643012805,"ADDRESS":"807 E 63RD ST  ","YEAR":2014,"DOING_BUSINESS_AS_NAME":"QUICK FIX","POP_AT_RISK":269832,"BUSINESS_TYPE":"Secondhand Dealer (No Valuable Objects)","LEGAL_NAME":"JARADAT COMMUNICATION INC.","LONGITUDE":-87.60559709943512},
{"STATE":"IL","ZIP":60629,"LATTITUDE":41.77208484280731,"ADDRESS":"6653 S CALIFORNIA AVE  ","YEAR":2014,"DOING_BUSINESS_AS_NAME":"WIRELESS 1-2-3","POP_AT_RISK":206960,"BUSINESS_TYPE":"Secondhand Dealer (No Valuable Objects)","LEGAL_NAME":"CALIFORNIA FOOD MARKET, INC.","LONGITUDE":-87.69306514335412},
{"STATE":"IL","ZIP":60628,"LATTITUDE":41.713495573303135,"ADDRESS":"9923 S HALSTED ST 1ST ","YEAR":2014,"DOING_BUSINESS_AS_NAME":"THE SOURCE","POP_AT_RISK":228376,"BUSINESS_TYPE":"Secondhand Dealer (No Valuable Objects)","LEGAL_NAME":"A & A CLOTHING & CELLULAR, INC.","LONGITUDE":-87.64283393649},
{"STATE":"IL","ZIP":60619,"LATTITUDE":41.7650677789878,"ADDRESS":"7113 S STATE ST  ","YEAR":2014,"DOING_BUSINESS_AS_NAME":"WIRELESS PLUS & ACCESSORIES, INC.","POP_AT_RISK":63176,"BUSINESS_TYPE":"Secondhand Dealer (No Valuable Objects)","LEGAL_NAME":"WIRELESS PLUS & ACCESSORIES, INC.","LONGITUDE":-87.62475001172707},
{"STATE":"IL","ZIP":60621,"LATTITUDE":41.77951054606415,"ADDRESS":"1141 W 63RD ST  ","YEAR":2014,"DOING_BUSINESS_AS_NAME":"THE CONNECTION CLOTHING & CELLULAR, INC.","POP_AT_RISK":110898,"BUSINESS_TYPE":"Secondhand Dealer (No Valuable Objects)","LEGAL_NAME":"THE CONNECTION CLOTHING & CELLULAR, INC.","LONGITUDE":-87.65368143541859},
{"STATE":"IL","ZIP":60615,"LATTITUDE":41.795082096806134,"ADDRESS":"1521 E 55TH ST 1 ","YEAR":2014,"DOING_BUSINESS_AS_NAME":"CHICAGO COMPUTER CLUB","POP_AT_RISK":40389,"BUSINESS_TYPE":"Secondhand Dealer (No Valuable Objects)","LEGAL_NAME":"GREAT LAKE COMPUTER TECHNOLOGY, INCORPORATED","LONGITUDE":-87.58826812316532},
{}]