[
  {
    "BUSINESS_TYPE": "Street Performer", 
    "LEGAL_NAME": "BERNARDO GABRIEL RIVERA LOPEZ", 
    "STATE": "IL", 
    "DOING_BUSINESS_AS_NAME": "BERNARDO GABRIEL RIVERA LOPEZ", 
    "POP_AT_RISK": 66957, 
    "ZIP": 60639, 
    "ADDRESS": "2327 N KILPATRICK AVE", 
    "YEAR": 2010, 
    "LONGITUDE": -87.743693204, 
    "LATTITUDE": 41.923273967
  }, 
  {
    "BUSINESS_TYPE": "Street Performer", 
    "LEGAL_NAME": "ELIZABETH REYES", 
    "STATE": "IL", 
    "DOING_BUSINESS_AS_NAME": "ELIZABETH REYES", 
    "POP_AT_RISK": 37282, 
    "ZIP": 60632, 
    "ADDRESS": "5019 S KEDVALE AVE 1", 
    "YEAR": 2010, 
    "LONGITUDE": -87.726932432, 
    "LATTITUDE": 41.801705834
  }, 
  {
    "BUSINESS_TYPE": "Street Performer", 
    "LEGAL_NAME": "MICHAEL KERRELL SANDERS", 
    "STATE": "IL", 
    "DOING_BUSINESS_AS_NAME": "MICHAEL KERRELL SANDERS", 
    "POP_AT_RISK": 6482, 
    "ZIP": 60827, 
    "ADDRESS": "1124 E 132ND ST", 
    "YEAR": 2010, 
    "LONGITUDE": -87.594392225, 
    "LATTITUDE": 41.655935656
  }, 
  {
    "BUSINESS_TYPE": "Street Performer", 
    "LEGAL_NAME": "VLADIMIR STEVE ZUTEREK", 
    "STATE": "IL", 
    "DOING_BUSINESS_AS_NAME": "VLADIMIR STEVE ZUTEREK", 
    "POP_AT_RISK": 26135, 
    "ZIP": 60634, 
    "ADDRESS": "3857 N NEWCASTLE AVE  1", 
    "YEAR": 2010, 
    "LONGITUDE": -87.797261269, 
    "LATTITUDE": 41.950758613
  }, 
  {
    "BUSINESS_TYPE": "Street Performer", 
    "LEGAL_NAME": "LORRAINE RUNGE", 
    "STATE": "IL", 
    "DOING_BUSINESS_AS_NAME": "LORRAINE RUNGE", 
    "POP_AT_RISK": 24680, 
    "ZIP": 60656, 
    "ADDRESS": "7135 W SUMMERDALE AVE", 
    "YEAR": 2010, 
    "LONGITUDE": -87.806146942, 
    "LATTITUDE": 41.977764885
  }, 
  {
    "BUSINESS_TYPE": "Street Performer", 
    "LEGAL_NAME": "MATSON D. ADAMS, JR", 
    "STATE": "IL", 
    "DOING_BUSINESS_AS_NAME": "MATSON DARIUS ADAMS JR.", 
    "POP_AT_RISK": 26756, 
    "ZIP": 60707, 
    "ADDRESS": "2431 N NEVA AVE", 
    "YEAR": 2010, 
    "LONGITUDE": -87.804266325, 
    "LATTITUDE": 41.924712573
  }, 
  {
    "BUSINESS_TYPE": "Street Performer", 
    "LEGAL_NAME": "JAMES PATRICK SHINE", 
    "STATE": "IL", 
    "DOING_BUSINESS_AS_NAME": "JAMES PATRICK SHINE", 
    "POP_AT_RISK": 22077, 
    "ZIP": 60652, 
    "ADDRESS": "7827 S KENNETH AVE 1", 
    "YEAR": 2010, 
    "LONGITUDE": -87.732752359, 
    "LATTITUDE": 41.750305703
  }, 
  {
    "BUSINESS_TYPE": "Street Performer", 
    "LEGAL_NAME": "VALDEMAR AMBRIZ", 
    "STATE": "IL", 
    "DOING_BUSINESS_AS_NAME": "VALDEMAR AMBRIZ", 
    "POP_AT_RISK": 62386, 
    "ZIP": 60623, 
    "ADDRESS": "2855 W 23RD ST", 
    "YEAR": 2010, 
    "LONGITUDE": -87.69773502, 
    "LATTITUDE": 41.849939787
  }, 
  {
    "BUSINESS_TYPE": "Street Performer", 
    "LEGAL_NAME": "KEVIN CALDWELL", 
    "STATE": "IL", 
    "DOING_BUSINESS_AS_NAME": "KEVIN CALDWELL", 
    "POP_AT_RISK": 33316, 
    "ZIP": 60649, 
    "ADDRESS": "7621 S EXCHANGE AVE", 
    "YEAR": 2010, 
    "LONGITUDE": -87.55752139, 
    "LATTITUDE": 41.756955023
  }, 
  {
    "BUSINESS_TYPE": "Street Performer", 
    "LEGAL_NAME": "JOEL ALLYN SKODA", 
    "STATE": "IL", 
    "DOING_BUSINESS_AS_NAME": "JOEL ALLYN SKODA", 
    "POP_AT_RISK": 41748, 
    "ZIP": 60608, 
    "ADDRESS": "3205 S THROOP ST", 
    "YEAR": 2010, 
    "LONGITUDE": -87.658236254, 
    "LATTITUDE": 41.835897312
  }, 
  {
    "BUSINESS_TYPE": "Street Performer", 
    "LEGAL_NAME": "JOHN JOSEPH TAUS", 
    "STATE": "IL", 
    "DOING_BUSINESS_AS_NAME": "JOHN JOSEPH TAUS", 
    "POP_AT_RISK": 19727, 
    "ZIP": 60617, 
    "ADDRESS": "10132 S EWING AVE", 
    "YEAR": 2010, 
    "LONGITUDE": -87.535427955, 
    "LATTITUDE": 41.711009451
  }, 
  {
    "BUSINESS_TYPE": "Street Performer", 
    "LEGAL_NAME": "ROBERT DU MOND MINNERLY", 
    "STATE": "IL", 
    "DOING_BUSINESS_AS_NAME": "ROBERT DU MOND MINNERLY", 
    "POP_AT_RISK": 27340, 
    "ZIP": 60637, 
    "ADDRESS": "5530 S SHORE DR 2 2A", 
    "YEAR": 2010, 
    "LONGITUDE": -87.580578378, 
    "LATTITUDE": 41.794351298
  }, 
  {
    "BUSINESS_TYPE": "Street Performer", 
    "LEGAL_NAME": "BOBBY L. DAVIS III", 
    "STATE": "IL", 
    "DOING_BUSINESS_AS_NAME": "BOBBY L. DAVIS III", 
    "POP_AT_RISK": 33345, 
    "ZIP": 60619, 
    "ADDRESS": "8141 S DREXEL AVE", 
    "YEAR": 2010, 
    "LONGITUDE": -87.602469867, 
    "LATTITUDE": 41.746428471
  }, 
  {
    "BUSINESS_TYPE": "Street Performer", 
    "LEGAL_NAME": "LARRY LEE STEWART", 
    "STATE": "IL", 
    "DOING_BUSINESS_AS_NAME": "LARRY LEE STEWART", 
    "POP_AT_RISK": 20309, 
    "ZIP": 60628, 
    "ADDRESS": "739 E 105TH ST", 
    "YEAR": 2010, 
    "LONGITUDE": -87.604741925, 
    "LATTITUDE": 41.703684474
  }, 
  {
    "BUSINESS_TYPE": "Street Performer", 
    "LEGAL_NAME": "MARCUS MORENO", 
    "STATE": "IL", 
    "DOING_BUSINESS_AS_NAME": "MARCUS MORENO", 
    "POP_AT_RISK": 41151, 
    "ZIP": 60608, 
    "ADDRESS": "2515 S CLAREMONT AVE 1ST", 
    "YEAR": 2010, 
    "LONGITUDE": -87.684340431, 
    "LATTITUDE": 41.84610923
  }, 
  {
    "BUSINESS_TYPE": "Street Performer", 
    "LEGAL_NAME": "CAROL EPHRAIM", 
    "STATE": "IL", 
    "DOING_BUSINESS_AS_NAME": "CAROL EPHRAIM", 
    "POP_AT_RISK": 32143, 
    "ZIP": 60652, 
    "ADDRESS": "3643 W 79TH ST", 
    "YEAR": 2010, 
    "LONGITUDE": -87.713778115, 
    "LATTITUDE": 41.749455613
  }, 
  {
    "BUSINESS_TYPE": "Street Performer", 
    "LEGAL_NAME": "DONNETTA L JACKSON", 
    "STATE": "IL", 
    "DOING_BUSINESS_AS_NAME": "DONETTA L JACKSON", 
    "POP_AT_RISK": 31508, 
    "ZIP": 60617, 
    "ADDRESS": "8916 S MERRILL AVE", 
    "YEAR": 2010, 
    "LONGITUDE": -87.57211901, 
    "LATTITUDE": 41.732912693
  }, 
  {
    "BUSINESS_TYPE": "Street Performer", 
    "LEGAL_NAME": "JANE MARIE WRIGHT", 
    "STATE": "IL", 
    "DOING_BUSINESS_AS_NAME": "JANE WRIGHT", 
    "POP_AT_RISK": 20929, 
    "ZIP": 60617, 
    "ADDRESS": "9525 S CLYDE AVE 1", 
    "YEAR": 2010, 
    "LONGITUDE": -87.571553103, 
    "LATTITUDE": 41.721739712
  }, 
  {
    "BUSINESS_TYPE": "Street Performer", 
    "LEGAL_NAME": "CECIL D LOCKE", 
    "STATE": "IL", 
    "DOING_BUSINESS_AS_NAME": "CECIL D LOCKE", 
    "POP_AT_RISK": 48881, 
    "ZIP": 60609, 
    "ADDRESS": "5347 S WOOD ST 1ST", 
    "YEAR": 2010, 
    "LONGITUDE": -87.669360606, 
    "LATTITUDE": 41.796248088
  }, 
  {
    "BUSINESS_TYPE": "Street Performer", 
    "LEGAL_NAME": "JAMES H WATSON", 
    "STATE": "IL", 
    "DOING_BUSINESS_AS_NAME": "JAMES H  WATSON", 
    "POP_AT_RISK": 34249, 
    "ZIP": 60653, 
    "ADDRESS": "401 E BOWEN AVE  2001", 
    "YEAR": 2010, 
    "LONGITUDE": -87.616451775, 
    "LATTITUDE": 41.819228513
  }, 
  {
    "BUSINESS_TYPE": "Street Performer", 
    "LEGAL_NAME": "RUTH UNDERWOOD", 
    "STATE": "IL", 
    "DOING_BUSINESS_AS_NAME": "RUTH UNDERWOOD", 
    "POP_AT_RISK": 51139, 
    "ZIP": 60629, 
    "ADDRESS": "3255 W 65TH ST", 
    "YEAR": 2010, 
    "LONGITUDE": -87.705192453, 
    "LATTITUDE": 41.775179873
  }, 
  {
    "BUSINESS_TYPE": "Street Performer", 
    "LEGAL_NAME": "BENJAMIN SANDERS", 
    "STATE": "IL", 
    "DOING_BUSINESS_AS_NAME": "BENJAMIN SANDERS", 
    "POP_AT_RISK": 37373, 
    "ZIP": 60644, 
    "ADDRESS": "4908 W JACKSON BLVD 2ND", 
    "YEAR": 2010, 
    "LONGITUDE": -87.747747227, 
    "LATTITUDE": 41.876861247
  }, 
  {
    "BUSINESS_TYPE": "Street Performer", 
    "LEGAL_NAME": "MARK R. NAMBO", 
    "STATE": "IL", 
    "DOING_BUSINESS_AS_NAME": "MARK R. NAMBO", 
    "POP_AT_RISK": 32897, 
    "ZIP": 60629, 
    "ADDRESS": "7310 S CALIFORNIA AVE", 
    "YEAR": 2010, 
    "LONGITUDE": -87.693062607, 
    "LATTITUDE": 41.760519317
  }, 
  {
    "BUSINESS_TYPE": "Street Performer", 
    "LEGAL_NAME": "EUGENE S. LOGAN III", 
    "STATE": "IL", 
    "DOING_BUSINESS_AS_NAME": "EUGENE S. LOGAN III", 
    "POP_AT_RISK": 34293, 
    "ZIP": 60628, 
    "ADDRESS": "11008 S NORMAL AVE", 
    "YEAR": 2010, 
    "LONGITUDE": -87.635333296, 
    "LATTITUDE": 41.693982122
  }, 
  {
    "BUSINESS_TYPE": "Street Performer", 
    "LEGAL_NAME": "CYNTHIA STANLEY", 
    "STATE": "IL", 
    "DOING_BUSINESS_AS_NAME": "CYNTHIA STANLEY", 
    "POP_AT_RISK": 20643, 
    "ZIP": 60638, 
    "ADDRESS": "5218 S LATROBE AVE", 
    "YEAR": 2010, 
    "LONGITUDE": -87.75403482, 
    "LATTITUDE": 41.79774203
  }, 
  {
    "BUSINESS_TYPE": "Street Performer", 
    "LEGAL_NAME": "LEONEL LOEZA JR.", 
    "STATE": "IL", 
    "DOING_BUSINESS_AS_NAME": "LEONEL LOEZA JR.", 
    "POP_AT_RISK": 26799, 
    "ZIP": 60629, 
    "ADDRESS": "6437 S KILPATRICK AVE", 
    "YEAR": 2010, 
    "LONGITUDE": -87.739611156, 
    "LATTITUDE": 41.775533098
  }, 
  {
    "BUSINESS_TYPE": "Street Performer", 
    "LEGAL_NAME": "ABRAHAM GLADNEY JR.", 
    "STATE": "IL", 
    "DOING_BUSINESS_AS_NAME": "ABRAHAM GLADNEY JR.", 
    "POP_AT_RISK": 40680, 
    "ZIP": 60651, 
    "ADDRESS": "1505 N MONITOR AVE", 
    "YEAR": 2010, 
    "LONGITUDE": -87.771765819, 
    "LATTITUDE": 41.907690839
  }, 
  {
    "BUSINESS_TYPE": "Street Performer", 
    "LEGAL_NAME": "XAVIER ALEJANDRO CHAVEZ", 
    "STATE": "IL", 
    "DOING_BUSINESS_AS_NAME": "XAVIER ALEJANDRO CHAVEZ", 
    "POP_AT_RISK": 44304, 
    "ZIP": 60632, 
    "ADDRESS": "4312 S MOZART ST", 
    "YEAR": 2010, 
    "LONGITUDE": -87.695788023, 
    "LATTITUDE": 41.815093748
  }, 
  {
    "BUSINESS_TYPE": "Street Performer", 
    "LEGAL_NAME": "JONATHAN K. ST. CLAIR", 
    "STATE": "IL", 
    "DOING_BUSINESS_AS_NAME": "JONATHAN K. ST. CLAIR", 
    "POP_AT_RISK": 33732, 
    "ZIP": 60619, 
    "ADDRESS": "541 E 87TH ST", 
    "YEAR": 2010, 
    "LONGITUDE": -87.610436507, 
    "LATTITUDE": 41.736455474
  }, 
  {
    "BUSINESS_TYPE": "Street Performer", 
    "LEGAL_NAME": "MARISA T. BUCHHEIT", 
    "STATE": "IL", 
    "DOING_BUSINESS_AS_NAME": "MARISA T. BUCHHEIT", 
    "POP_AT_RISK": 11341, 
    "ZIP": 60631, 
    "ADDRESS": "7355 W IBSEN ST", 
    "YEAR": 2010, 
    "LONGITUDE": -87.811248819, 
    "LATTITUDE": 42.006058677
  }, 
  {
    "BUSINESS_TYPE": "Street Performer", 
    "LEGAL_NAME": "DANIEL A. GOODE", 
    "STATE": "IL", 
    "DOING_BUSINESS_AS_NAME": "DANIEL A. GOODE", 
    "POP_AT_RISK": 16562, 
    "ZIP": 60659, 
    "ADDRESS": "6243 N SPRINGFIELD AVE HSE", 
    "YEAR": 2010, 
    "LONGITUDE": -87.726274871, 
    "LATTITUDE": 41.994949016
  }
]