[
  {
    "BUSINESS_TYPE": "Late Hour", 
    "LEGAL_NAME": "SAAR INC", 
    "STATE": "IL", 
    "DOING_BUSINESS_AS_NAME": "ST. PAULI'S BAR", 
    "POP_AT_RISK": 58801, 
    "ZIP": 60625, 
    "ADDRESS": "5109 N LINCOLN AVE  1", 
    "YEAR": 2017, 
    "LONGITUDE": -87.691998213, 
    "LATTITUDE": 41.974369465
  }, 
  {
    "BUSINESS_TYPE": "Late Hour", 
    "LEGAL_NAME": "MARK II, LTD.", 
    "STATE": "IL", 
    "DOING_BUSINESS_AS_NAME": "MARK II, LTD", 
    "POP_AT_RISK": 31637, 
    "ZIP": 60645, 
    "ADDRESS": "7436-7442 N WESTERN AVE 1ST", 
    "YEAR": 2017, 
    "LONGITUDE": -87.690347254, 
    "LATTITUDE": 42.016961013
  }, 
  {
    "BUSINESS_TYPE": "Late Hour", 
    "LEGAL_NAME": "LITTLE VILLAGE CONCESSIONS, LLC", 
    "STATE": "IL", 
    "DOING_BUSINESS_AS_NAME": "CLUB VOLKAN", 
    "POP_AT_RISK": 65272, 
    "ZIP": 60623, 
    "ADDRESS": "2501-2513 S KEDZIE AVE", 
    "YEAR": 2017, 
    "LONGITUDE": -87.704945372, 
    "LATTITUDE": 41.846245644
  }, 
  {
    "BUSINESS_TYPE": "Late Hour", 
    "LEGAL_NAME": "AS TIME GOES BY II LIMITED", 
    "STATE": "IL", 
    "DOING_BUSINESS_AS_NAME": "AS TIME GOES BY II LTD.", 
    "POP_AT_RISK": 19762, 
    "ZIP": 60634, 
    "ADDRESS": "7706 W BELMONT AVE", 
    "YEAR": 2017, 
    "LONGITUDE": -87.819283117, 
    "LATTITUDE": 41.937994149
  }, 
  {
    "BUSINESS_TYPE": "Late Hour", 
    "LEGAL_NAME": "ZIEMEK CORPORATION, INC.", 
    "STATE": "IL", 
    "DOING_BUSINESS_AS_NAME": "ZIEMEK CORP.", 
    "POP_AT_RISK": 33756, 
    "ZIP": 60630, 
    "ADDRESS": "5368 N MILWAUKEE AVE", 
    "YEAR": 2017, 
    "LONGITUDE": -87.770377202, 
    "LATTITUDE": 41.978363925
  }, 
  {
    "BUSINESS_TYPE": "Late Hour", 
    "LEGAL_NAME": "7123 W. HIGGINS RD. CORP.", 
    "STATE": "IL", 
    "DOING_BUSINESS_AS_NAME": "TEASER'S PUB", 
    "POP_AT_RISK": 24680, 
    "ZIP": 60656, 
    "ADDRESS": "7123 W HIGGINS AVE 1ST", 
    "YEAR": 2017, 
    "LONGITUDE": -87.80571278, 
    "LATTITUDE": 41.980726198
  }, 
  {
    "BUSINESS_TYPE": "Late Hour", 
    "LEGAL_NAME": "LAS VEGAS NITE CLUB, INC.", 
    "STATE": "IL", 
    "DOING_BUSINESS_AS_NAME": "LAS VEGAS NITE CLUB INC", 
    "POP_AT_RISK": 77243, 
    "ZIP": 60647, 
    "ADDRESS": "3702 W ARMITAGE AVE", 
    "YEAR": 2017, 
    "LONGITUDE": -87.719361145, 
    "LATTITUDE": 41.917360988
  }, 
  {
    "BUSINESS_TYPE": "Late Hour", 
    "LEGAL_NAME": "MET PARTNERS, INC.", 
    "STATE": "IL", 
    "DOING_BUSINESS_AS_NAME": "THE MINE MUSIC HALL", 
    "POP_AT_RISK": 29894, 
    "ZIP": 60607, 
    "ADDRESS": "1431 W LAKE ST  MAIN", 
    "YEAR": 2017, 
    "LONGITUDE": -87.663431379, 
    "LATTITUDE": 41.885286658
  }, 
  {
    "BUSINESS_TYPE": "Late Hour", 
    "LEGAL_NAME": "THE CONCORD RESTAURANT INC", 
    "STATE": "IL", 
    "DOING_BUSINESS_AS_NAME": "SIDEKICKS", 
    "POP_AT_RISK": 46331, 
    "ZIP": 60641, 
    "ADDRESS": "4420  -04430 W MONTROSE AVE 1ST", 
    "YEAR": 2017, 
    "LONGITUDE": -87.739335861, 
    "LATTITUDE": 41.960927728
  }, 
  {
    "BUSINESS_TYPE": "Late Hour", 
    "LEGAL_NAME": "NITE CAP, INC.", 
    "STATE": "IL", 
    "DOING_BUSINESS_AS_NAME": "NITE CAP", 
    "POP_AT_RISK": 47334, 
    "ZIP": 60641, 
    "ADDRESS": "5007-5009 W IRVING PARK RD", 
    "YEAR": 2017, 
    "LONGITUDE": -87.752531985, 
    "LATTITUDE": 41.9532425
  }, 
  {
    "BUSINESS_TYPE": "Late Hour", 
    "LEGAL_NAME": "MR. B'S STUFFED PIZZA, INC.", 
    "STATE": "IL", 
    "DOING_BUSINESS_AS_NAME": "SUPAROSSA", 
    "POP_AT_RISK": 52427, 
    "ZIP": 60634, 
    "ADDRESS": "4250 N CENTRAL AVE", 
    "YEAR": 2017, 
    "LONGITUDE": -87.767320762, 
    "LATTITUDE": 41.958373846
  }, 
  {
    "BUSINESS_TYPE": "Late Hour", 
    "LEGAL_NAME": "JAF, LTD.", 
    "STATE": "IL", 
    "DOING_BUSINESS_AS_NAME": "JEFFERY PUB", 
    "POP_AT_RISK": 43909, 
    "ZIP": 60649, 
    "ADDRESS": "7041 S JEFFERY BLVD", 
    "YEAR": 2017, 
    "LONGITUDE": -87.576170828, 
    "LATTITUDE": 41.766818068
  }, 
  {
    "BUSINESS_TYPE": "Late Hour", 
    "LEGAL_NAME": "EL MEXICO MODERNO BALLROOM, INC.", 
    "STATE": "IL", 
    "DOING_BUSINESS_AS_NAME": "EL MEXICO MODERN BALLROOM INC", 
    "POP_AT_RISK": 51728, 
    "ZIP": 60639, 
    "ADDRESS": "1643-1647 N CICERO AVE 1 & 2 BANQU", 
    "YEAR": 2017, 
    "LONGITUDE": -87.74575021, 
    "LATTITUDE": 41.910931169
  }, 
  {
    "BUSINESS_TYPE": "Late Hour", 
    "LEGAL_NAME": "WHERE'S PAPPA, INC", 
    "STATE": "IL", 
    "DOING_BUSINESS_AS_NAME": "CHRISTINA'S PLACE", 
    "POP_AT_RISK": 62602, 
    "ZIP": 60618, 
    "ADDRESS": "3759 N KEDZIE AVE  1", 
    "YEAR": 2017, 
    "LONGITUDE": -87.707768271, 
    "LATTITUDE": 41.950191673
  }, 
  {
    "BUSINESS_TYPE": "Late Hour", 
    "LEGAL_NAME": "GRAND CENTRAL CORPORATION", 
    "STATE": "IL", 
    "DOING_BUSINESS_AS_NAME": "JEREZ SPORT BAR AND GRILL", 
    "POP_AT_RISK": 54617, 
    "ZIP": 60639, 
    "ADDRESS": "5726 W GRAND AVE", 
    "YEAR": 2017, 
    "LONGITUDE": -87.769375827, 
    "LATTITUDE": 41.919526594
  }, 
  {
    "BUSINESS_TYPE": "Late Hour", 
    "LEGAL_NAME": "FENIX LOUNGE, LTD.", 
    "STATE": "IL", 
    "DOING_BUSINESS_AS_NAME": "FENIX LOUNGE LTD", 
    "POP_AT_RISK": 72320, 
    "ZIP": 60641, 
    "ADDRESS": "2906 N PULASKI RD 1ST", 
    "YEAR": 2017, 
    "LONGITUDE": -87.727183179, 
    "LATTITUDE": 41.933845776
  }, 
  {
    "BUSINESS_TYPE": "Late Hour", 
    "LEGAL_NAME": "TROY LOGIC, INC", 
    "STATE": "IL", 
    "DOING_BUSINESS_AS_NAME": "MARIANNA'S PLACE", 
    "POP_AT_RISK": 22202, 
    "ZIP": 60638, 
    "ADDRESS": "5625 W 63RD ST 1ST", 
    "YEAR": 2017, 
    "LONGITUDE": -87.762659385, 
    "LATTITUDE": 41.777923814
  }, 
  {
    "BUSINESS_TYPE": "Late Hour", 
    "LEGAL_NAME": "1770 WEST GREENLEAF CORPORATION", 
    "STATE": "IL", 
    "DOING_BUSINESS_AS_NAME": "GALLAGHERS", 
    "POP_AT_RISK": 58366, 
    "ZIP": 60626, 
    "ADDRESS": "1770 W GREENLEAF AVE 1ST", 
    "YEAR": 2017, 
    "LONGITUDE": -87.675049303, 
    "LATTITUDE": 42.010301416
  }, 
  {
    "BUSINESS_TYPE": "Late Hour", 
    "LEGAL_NAME": "WESTSIDE RAIL, INC.", 
    "STATE": "IL", 
    "DOING_BUSINESS_AS_NAME": "THE CONTINENTAL LOUNGE", 
    "POP_AT_RISK": 42464, 
    "ZIP": 60622, 
    "ADDRESS": "2801 W CHICAGO AVE 1&2", 
    "YEAR": 2017, 
    "LONGITUDE": -87.69676464, 
    "LATTITUDE": 41.895543708
  }, 
  {
    "BUSINESS_TYPE": "Late Hour", 
    "LEGAL_NAME": "GORDON LOUNGE, INC", 
    "STATE": "IL", 
    "DOING_BUSINESS_AS_NAME": "BREWBAKERS", 
    "POP_AT_RISK": 22491, 
    "ZIP": 60643, 
    "ADDRESS": "10350 S WESTERN AVE", 
    "YEAR": 2017, 
    "LONGITUDE": -87.681719587, 
    "LATTITUDE": 41.704868712
  }, 
  {
    "BUSINESS_TYPE": "Late Hour", 
    "LEGAL_NAME": "PAUL AND MARC'S ENTERPRISES, LTD.", 
    "STATE": "IL", 
    "DOING_BUSINESS_AS_NAME": "GROUCHO'S BAR & GRILL", 
    "POP_AT_RISK": 27493, 
    "ZIP": 60652, 
    "ADDRESS": "8355 S PULASKI RD", 
    "YEAR": 2017, 
    "LONGITUDE": -87.721478363, 
    "LATTITUDE": 41.740515143
  }, 
  {
    "BUSINESS_TYPE": "Late Hour", 
    "LEGAL_NAME": "EAST OF THE RYAN INC", 
    "STATE": "IL", 
    "DOING_BUSINESS_AS_NAME": "EAST OF THE RYAN,INC", 
    "POP_AT_RISK": 41847, 
    "ZIP": 60619, 
    "ADDRESS": "914 E 79TH ST 1ST", 
    "YEAR": 2017, 
    "LONGITUDE": -87.602112125, 
    "LATTITUDE": 41.751431303
  }, 
  {
    "BUSINESS_TYPE": "Late Hour", 
    "LEGAL_NAME": "6251 N. MCCORMICK, LLC", 
    "STATE": "IL", 
    "DOING_BUSINESS_AS_NAME": "PURE CAFE", 
    "POP_AT_RISK": 37209, 
    "ZIP": 60659, 
    "ADDRESS": "6251 N MCCORMICK RD", 
    "YEAR": 2017, 
    "LONGITUDE": -87.712875265, 
    "LATTITUDE": 41.995478879
  }, 
  {
    "BUSINESS_TYPE": "Late Hour", 
    "LEGAL_NAME": "LAKE AND CICERO , INC.", 
    "STATE": "IL", 
    "DOING_BUSINESS_AS_NAME": "ICE HOUSE LIQUORS", 
    "POP_AT_RISK": 48121, 
    "ZIP": 60644, 
    "ADDRESS": "356 N CICERO AVE 1", 
    "YEAR": 2017, 
    "LONGITUDE": -87.74565352, 
    "LATTITUDE": 41.886851263
  }, 
  {
    "BUSINESS_TYPE": "Late Hour", 
    "LEGAL_NAME": "LACOCO PIZZA AND PASTA, INC.", 
    "STATE": "IL", 
    "DOING_BUSINESS_AS_NAME": "Maddanthony's Bar & Grill /Lacoco's Pizza & Pasta", 
    "POP_AT_RISK": 41410, 
    "ZIP": 60632, 
    "ADDRESS": "3344-3352 W 47TH ST", 
    "YEAR": 2017, 
    "LONGITUDE": -87.708251604, 
    "LATTITUDE": 41.80817609
  }, 
  {
    "BUSINESS_TYPE": "Late Hour", 
    "LEGAL_NAME": "RESTAURANTE ALANIS LTD.", 
    "STATE": "IL", 
    "DOING_BUSINESS_AS_NAME": "RESTAURANTE ALANIS LTD", 
    "POP_AT_RISK": 49064, 
    "ZIP": 60623, 
    "ADDRESS": "4153 W 26TH ST 1ST #", 
    "YEAR": 2017, 
    "LONGITUDE": -87.729074693, 
    "LATTITUDE": 41.84408107
  }, 
  {
    "BUSINESS_TYPE": "Late Hour", 
    "LEGAL_NAME": "LILLIAN PROCHASKA INC", 
    "STATE": "IL", 
    "DOING_BUSINESS_AS_NAME": "OAKWOOD '83", 
    "POP_AT_RISK": 71070, 
    "ZIP": 60613, 
    "ADDRESS": "1959 W MONTROSE AVE 1ST #", 
    "YEAR": 2017, 
    "LONGITUDE": -87.678305159, 
    "LATTITUDE": 41.961355321
  }, 
  {
    "BUSINESS_TYPE": "Late Hour", 
    "LEGAL_NAME": "KYMO INC", 
    "STATE": "IL", 
    "DOING_BUSINESS_AS_NAME": "ALIBIS", 
    "POP_AT_RISK": 72841, 
    "ZIP": 60645, 
    "ADDRESS": "6420 N WESTERN AVE", 
    "YEAR": 2017, 
    "LONGITUDE": -87.690051282, 
    "LATTITUDE": 41.998382026
  }, 
  {
    "BUSINESS_TYPE": "Late Hour", 
    "LEGAL_NAME": "FAUSTO ENTERPRISES INC.", 
    "STATE": "IL", 
    "DOING_BUSINESS_AS_NAME": "El Sinaloense", 
    "POP_AT_RISK": 49473, 
    "ZIP": 60623, 
    "ADDRESS": "2759 S PULASKI RD 1ST", 
    "YEAR": 2017, 
    "LONGITUDE": -87.724305978, 
    "LATTITUDE": 41.840660595
  }, 
  {
    "BUSINESS_TYPE": "Late Hour", 
    "LEGAL_NAME": "GENE & SOPHIE'S LOUNGE, INC.", 
    "STATE": "IL", 
    "DOING_BUSINESS_AS_NAME": "BLUE SKY RESTAURANT", 
    "POP_AT_RISK": 31737, 
    "ZIP": 60632, 
    "ADDRESS": "4807-4809 S PULASKI RD 1ST", 
    "YEAR": 2017, 
    "LONGITUDE": -87.723374962, 
    "LATTITUDE": 41.805779774
  }
]