[
  {
    "BUSINESS_TYPE": "Filling Station", 
    "LEGAL_NAME": "M & R SAHLOUL, INC.", 
    "STATE": "IL", 
    "DOING_BUSINESS_AS_NAME": "COMMUNITY GAS AND BP", 
    "POP_AT_RISK": 15621, 
    "ZIP": 60628, 
    "ADDRESS": "150 W 127TH ST", 
    "YEAR": 2005, 
    "LONGITUDE": -87.626506112, 
    "LATTITUDE": 41.66350259
  }, 
  {
    "BUSINESS_TYPE": "Filling Station", 
    "LEGAL_NAME": "FIFY CORPORATION", 
    "STATE": "IL", 
    "DOING_BUSINESS_AS_NAME": "BP AMOCO", 
    "POP_AT_RISK": 32725, 
    "ZIP": 60616, 
    "ADDRESS": "3101 S MICHIGAN AVE 1ST", 
    "YEAR": 2005, 
    "LONGITUDE": -87.623294811, 
    "LATTITUDE": 41.838251391
  }, 
  {
    "BUSINESS_TYPE": "Filling Station", 
    "LEGAL_NAME": "KEAN BROTHERS INC", 
    "STATE": "IL", 
    "DOING_BUSINESS_AS_NAME": "KEAN BROS INC", 
    "POP_AT_RISK": 21672, 
    "ZIP": 60655, 
    "ADDRESS": "2632 W 111TH ST", 
    "YEAR": 2005, 
    "LONGITUDE": -87.687364482, 
    "LATTITUDE": 41.691836286
  }, 
  {
    "BUSINESS_TYPE": "Filling Station", 
    "LEGAL_NAME": "KEAN BROTHERS INC", 
    "STATE": "IL", 
    "DOING_BUSINESS_AS_NAME": "KEAN BROS INC", 
    "POP_AT_RISK": 22813, 
    "ZIP": 60638, 
    "ADDRESS": "5448 W 55TH ST", 
    "YEAR": 2005, 
    "LONGITUDE": -87.759383701, 
    "LATTITUDE": 41.792890809
  }, 
  {
    "BUSINESS_TYPE": "Filling Station", 
    "LEGAL_NAME": "MOHAMMAD ZAHIR", 
    "STATE": "IL", 
    "DOING_BUSINESS_AS_NAME": "WOOD LAWN AMOCO", 
    "POP_AT_RISK": 45423, 
    "ZIP": 60653, 
    "ADDRESS": "1158 E 47TH ST 1ST", 
    "YEAR": 2005, 
    "LONGITUDE": -87.596955553, 
    "LATTITUDE": 41.809750334
  }, 
  {
    "BUSINESS_TYPE": "Filling Station", 
    "LEGAL_NAME": "HAROLD KRUG", 
    "STATE": "IL", 
    "DOING_BUSINESS_AS_NAME": "HAROLD'S SERVICE STATION", 
    "POP_AT_RISK": 15782, 
    "ZIP": 60638, 
    "ADDRESS": "5958 W 63RD ST 1ST", 
    "YEAR": 2005, 
    "LONGITUDE": -87.771437584, 
    "LATTITUDE": 41.777972987
  }, 
  {
    "BUSINESS_TYPE": "Filling Station", 
    "LEGAL_NAME": "NSRJH INC", 
    "STATE": "IL", 
    "DOING_BUSINESS_AS_NAME": "CITGO FOOD MART & GAS STATION", 
    "POP_AT_RISK": 9754, 
    "ZIP": 60634, 
    "ADDRESS": "8353 W IRVING PARK RD", 
    "YEAR": 2005, 
    "LONGITUDE": -87.836359197, 
    "LATTITUDE": 41.951939466
  }, 
  {
    "BUSINESS_TYPE": "Filling Station", 
    "LEGAL_NAME": "AMINA TRADING, INC.", 
    "STATE": "IL", 
    "DOING_BUSINESS_AS_NAME": "GREEN PANTRY", 
    "POP_AT_RISK": 25020, 
    "ZIP": 60655, 
    "ADDRESS": "3700 W 111TH ST", 
    "YEAR": 2005, 
    "LONGITUDE": -87.713210503, 
    "LATTITUDE": 41.691483413
  }, 
  {
    "BUSINESS_TYPE": "Filling Station", 
    "LEGAL_NAME": "BP PRODUCTS NORTH AMERICA INC.", 
    "STATE": "IL", 
    "DOING_BUSINESS_AS_NAME": "AM/PM", 
    "POP_AT_RISK": 39491, 
    "ZIP": 60605, 
    "ADDRESS": "1221-1223 S WABASH AVE", 
    "YEAR": 2005, 
    "LONGITUDE": -87.625669609, 
    "LATTITUDE": 41.866831454
  }, 
  {
    "BUSINESS_TYPE": "Filling Station", 
    "LEGAL_NAME": "EARL STROMBECK", 
    "STATE": "IL", 
    "DOING_BUSINESS_AS_NAME": "SKIPPERS MARINA", 
    "POP_AT_RISK": 3373, 
    "ZIP": 60827, 
    "ADDRESS": "13421 S VERNON AVE  UNDER", 
    "YEAR": 2005, 
    "LONGITUDE": -87.610453477, 
    "LATTITUDE": 41.651314225
  }, 
  {
    "BUSINESS_TYPE": "Filling Station", 
    "LEGAL_NAME": "MAL-NAJ CORPORATION", 
    "STATE": "IL", 
    "DOING_BUSINESS_AS_NAME": "MIDWAY GASMART / BP TOGO", 
    "POP_AT_RISK": 28777, 
    "ZIP": 60629, 
    "ADDRESS": "4710 W 63RD ST", 
    "YEAR": 2005, 
    "LONGITUDE": -87.740277214, 
    "LATTITUDE": 41.778563244
  }, 
  {
    "BUSINESS_TYPE": "Filling Station", 
    "LEGAL_NAME": "PERSHING GAS INC.", 
    "STATE": "IL", 
    "DOING_BUSINESS_AS_NAME": "PERSHING GAS CITGO", 
    "POP_AT_RISK": 33939, 
    "ZIP": 60653, 
    "ADDRESS": "437 E PERSHING RD", 
    "YEAR": 2005, 
    "LONGITUDE": -87.61529192, 
    "LATTITUDE": 41.823747833
  }, 
  {
    "BUSINESS_TYPE": "Filling Station", 
    "LEGAL_NAME": "TUMARA FOOD MART INC.", 
    "STATE": "IL", 
    "DOING_BUSINESS_AS_NAME": "CITGO", 
    "POP_AT_RISK": 33876, 
    "ZIP": 60617, 
    "ADDRESS": "2941 E 83RD ST TH", 
    "YEAR": 2005, 
    "LONGITUDE": -87.552358447, 
    "LATTITUDE": 41.744535937
  }, 
  {
    "BUSINESS_TYPE": "Filling Station", 
    "LEGAL_NAME": "JAIME J HERRERA", 
    "STATE": "IL", 
    "DOING_BUSINESS_AS_NAME": "JAIME'S AMOCO", 
    "POP_AT_RISK": 11876, 
    "ZIP": 60617, 
    "ADDRESS": "10300 S TORRENCE AVE  1ST", 
    "YEAR": 2005, 
    "LONGITUDE": -87.559806871, 
    "LATTITUDE": 41.708077429
  }, 
  {
    "BUSINESS_TYPE": "Filling Station", 
    "LEGAL_NAME": "THOMAS'S MINIMART & GAS INC.", 
    "STATE": "IL", 
    "DOING_BUSINESS_AS_NAME": "2001 GAS CENTRAL", 
    "POP_AT_RISK": 17956, 
    "ZIP": 60646, 
    "ADDRESS": "6308 N CENTRAL AVE", 
    "YEAR": 2005, 
    "LONGITUDE": -87.764277038, 
    "LATTITUDE": 41.996371597
  }, 
  {
    "BUSINESS_TYPE": "Filling Station", 
    "LEGAL_NAME": "AVIS RENT A CAR SYSTEM, LLC", 
    "STATE": "IL", 
    "DOING_BUSINESS_AS_NAME": "AVIS RENT A CAR SYSTEMS INC", 
    "POP_AT_RISK": 76739, 
    "ZIP": 60601, 
    "ADDRESS": "214 N CLARK ST", 
    "YEAR": 2005, 
    "LONGITUDE": -87.631133872, 
    "LATTITUDE": 41.886150771
  }, 
  {
    "BUSINESS_TYPE": "Filling Station", 
    "LEGAL_NAME": "J CHANDY/M PUTHUSSEQIL", 
    "STATE": "IL", 
    "DOING_BUSINESS_AS_NAME": "ARCHER AMOCO", 
    "POP_AT_RISK": 13444, 
    "ZIP": 60638, 
    "ADDRESS": "6751 W ARCHER AVE", 
    "YEAR": 2005, 
    "LONGITUDE": -87.791172178, 
    "LATTITUDE": 41.792054418
  }
]