[
  {
    "BUSINESS_TYPE": "Auctioneer", 
    "LEGAL_NAME": "JEFFREY BENDIX", 
    "STATE": "IL", 
    "DOING_BUSINESS_AS_NAME": "JEFFREY BENDIX", 
    "POP_AT_RISK": 64779, 
    "ZIP": 60640, 
    "ADDRESS": "5501 N CLARK ST  LOWER", 
    "YEAR": 2002, 
    "LONGITUDE": -87.668287655, 
    "LATTITUDE": 41.981723366
  }, 
  {
    "BUSINESS_TYPE": "Auctioneer", 
    "LEGAL_NAME": "KOSTER INDUSTRIES INC", 
    "STATE": "IL", 
    "DOING_BUSINESS_AS_NAME": "KOSTER INDUSTRIES INC", 
    "POP_AT_RISK": 58786, 
    "ZIP": 60018, 
    "ADDRESS": "2590 E DEVON AVE  115", 
    "YEAR": 2002, 
    "LONGITUDE": -87.694707565, 
    "LATTITUDE": 41.997757252
  }, 
  {
    "BUSINESS_TYPE": "Auctioneer", 
    "LEGAL_NAME": "MICHAEL RED CLOUD", 
    "STATE": "IL", 
    "DOING_BUSINESS_AS_NAME": "MICHAEL RED CLOUD", 
    "POP_AT_RISK": 68430, 
    "ZIP": 60618, 
    "ADDRESS": "2940 N WOODARD ST", 
    "YEAR": 2002, 
    "LONGITUDE": -87.710191776, 
    "LATTITUDE": 41.934890402
  }, 
  {
    "BUSINESS_TYPE": "Auctioneer", 
    "LEGAL_NAME": "JEFFREY P. BROWN", 
    "STATE": "IL", 
    "DOING_BUSINESS_AS_NAME": "ACE AUCTIONEERS INC", 
    "POP_AT_RISK": 25417, 
    "ZIP": 60659, 
    "ADDRESS": "3530 W PETERSON AVE  204", 
    "YEAR": 2002, 
    "LONGITUDE": -87.717705843, 
    "LATTITUDE": 41.990386896
  }, 
  {
    "BUSINESS_TYPE": "Auctioneer", 
    "LEGAL_NAME": "TEIMOUR FAILY", 
    "STATE": "IL", 
    "DOING_BUSINESS_AS_NAME": "1ST FEDERAL AUTO AUCTION, INC", 
    "POP_AT_RISK": 34593, 
    "ZIP": 60637, 
    "ADDRESS": "35-75 E 63RD ST 1ST", 
    "YEAR": 2002, 
    "LONGITUDE": -87.624014875, 
    "LATTITUDE": 41.779904224
  }, 
  {
    "BUSINESS_TYPE": "Auctioneer", 
    "LEGAL_NAME": "WILLIAM R. MILNE", 
    "STATE": "IL", 
    "DOING_BUSINESS_AS_NAME": "Milne & Klein Auctions LLC", 
    "POP_AT_RISK": 43987, 
    "ZIP": 60614, 
    "ADDRESS": "1809 W WEBSTER AVE", 
    "YEAR": 2002, 
    "LONGITUDE": -87.673070054, 
    "LATTITUDE": 41.921363203
  }, 
  {
    "BUSINESS_TYPE": "Auctioneer", 
    "LEGAL_NAME": "MICHAEL MODICA", 
    "STATE": "IL", 
    "DOING_BUSINESS_AS_NAME": "DIRECT AUCTIONEERS", 
    "POP_AT_RISK": 47384, 
    "ZIP": 60645, 
    "ADDRESS": "7232 N WESTERN AVE", 
    "YEAR": 2002, 
    "LONGITUDE": -87.690389587, 
    "LATTITUDE": 42.013193041
  }, 
  {
    "BUSINESS_TYPE": "Auctioneer", 
    "LEGAL_NAME": "WILLIAM R GUNDERSON", 
    "STATE": "IL", 
    "DOING_BUSINESS_AS_NAME": "R.PN SALES", 
    "POP_AT_RISK": 44522, 
    "ZIP": 60630, 
    "ADDRESS": "4415 N MILWAUKEE AVE  1ST", 
    "YEAR": 2002, 
    "LONGITUDE": -87.754721312, 
    "LATTITUDE": 41.961117627
  }, 
  {
    "BUSINESS_TYPE": "Auctioneer", 
    "LEGAL_NAME": "CHARLES B TAYLOR", 
    "STATE": "IL", 
    "DOING_BUSINESS_AS_NAME": "ATLAS ACTIONEERS & LIQUIDATORS", 
    "POP_AT_RISK": 32611, 
    "ZIP": 60620, 
    "ADDRESS": "255 W 79TH ST  1ST", 
    "YEAR": 2002, 
    "LONGITUDE": -87.631645211, 
    "LATTITUDE": 41.750717454
  }, 
  {
    "BUSINESS_TYPE": "Auctioneer", 
    "LEGAL_NAME": "CHERE WALSH", 
    "STATE": "IL", 
    "DOING_BUSINESS_AS_NAME": "CHERE WALSH", 
    "POP_AT_RISK": 79757, 
    "ZIP": 60640, 
    "ADDRESS": "4430 N CLARK ST 1ST", 
    "YEAR": 2002, 
    "LONGITUDE": -87.666302194, 
    "LATTITUDE": 41.96255273
  }, 
  {
    "BUSINESS_TYPE": "Auctioneer", 
    "LEGAL_NAME": "RICHARD M STONE", 
    "STATE": "IL", 
    "DOING_BUSINESS_AS_NAME": "NATIONAL AUCTIONEERS, INC.", 
    "POP_AT_RISK": 43864, 
    "ZIP": 60604, 
    "ADDRESS": "343 S DEARBORN ST # 101", 
    "YEAR": 2002, 
    "LONGITUDE": -87.629121233, 
    "LATTITUDE": 41.877146786
  }, 
  {
    "BUSINESS_TYPE": "Auctioneer", 
    "LEGAL_NAME": "CHARLES MC GARY", 
    "STATE": "IL", 
    "DOING_BUSINESS_AS_NAME": "LANDMARK LIQUIDATION & AUCT CO", 
    "POP_AT_RISK": 36439, 
    "ZIP": 60649, 
    "ADDRESS": "6830  -6840 S STONY ISLAND AVE  STREE", 
    "YEAR": 2002, 
    "LONGITUDE": -87.586406986, 
    "LATTITUDE": 41.770576735
  }
]