[
  {
    "BUSINESS_TYPE": "Peddler, non-food", 
    "LEGAL_NAME": "TRACY A MONTGOMERY", 
    "STATE": "IL", 
    "DOING_BUSINESS_AS_NAME": "TRACY A MONTGOMERY", 
    "POP_AT_RISK": 66957, 
    "ZIP": 60639, 
    "ADDRESS": "4642 W BELDEN AVE 2", 
    "YEAR": 1999, 
    "LONGITUDE": -87.743370526, 
    "LATTITUDE": 41.922559522
  }, 
  {
    "BUSINESS_TYPE": "Peddler, non-food", 
    "LEGAL_NAME": "WESLEY WILEY", 
    "STATE": "IL", 
    "DOING_BUSINESS_AS_NAME": "WESLEY WILEY", 
    "POP_AT_RISK": 37860, 
    "ZIP": 60615, 
    "ADDRESS": "4800 S LAKE PARK AVE 1ST", 
    "YEAR": 1999, 
    "LONGITUDE": -87.590693109, 
    "LATTITUDE": 41.807921792
  }, 
  {
    "BUSINESS_TYPE": "Peddler, non-food", 
    "LEGAL_NAME": "WANDA POLSAKIEWICZ", 
    "STATE": "IL", 
    "DOING_BUSINESS_AS_NAME": "WANDA POLSAKIEWICZ", 
    "POP_AT_RISK": 21514, 
    "ZIP": 60646, 
    "ADDRESS": "6307 N MELVINA AVE", 
    "YEAR": 1999, 
    "LONGITUDE": -87.782722159, 
    "LATTITUDE": 41.995306274
  }, 
  {
    "BUSINESS_TYPE": "Peddler, non-food", 
    "LEGAL_NAME": "JUAN CARRASCO", 
    "STATE": "IL", 
    "DOING_BUSINESS_AS_NAME": "JUAN CARRASCO", 
    "POP_AT_RISK": 70104, 
    "ZIP": 60618, 
    "ADDRESS": "4021 N DRAKE AVE 1ST", 
    "YEAR": 1999, 
    "LONGITUDE": -87.716460439, 
    "LATTITUDE": 41.954462243
  }, 
  {
    "BUSINESS_TYPE": "Peddler, non-food", 
    "LEGAL_NAME": "ARTHUR DELEON", 
    "STATE": "IL", 
    "DOING_BUSINESS_AS_NAME": "ARTHUR DELEON", 
    "POP_AT_RISK": 34985, 
    "ZIP": 60707, 
    "ADDRESS": "2452 N NEWCASTLE AVE 1ST", 
    "YEAR": 1999, 
    "LONGITUDE": -87.796659023, 
    "LATTITUDE": 41.925144172
  }, 
  {
    "BUSINESS_TYPE": "Peddler, non-food", 
    "LEGAL_NAME": "DEBRA FLOWERS", 
    "STATE": "IL", 
    "DOING_BUSINESS_AS_NAME": "DEBRA FLOWERS", 
    "POP_AT_RISK": 39205, 
    "ZIP": 60620, 
    "ADDRESS": "756 W 87TH ST # 1ST", 
    "YEAR": 1999, 
    "LONGITUDE": -87.643456121, 
    "LATTITUDE": 41.736224637
  }, 
  {
    "BUSINESS_TYPE": "Peddler, non-food", 
    "LEGAL_NAME": "JOHN ALI", 
    "STATE": "IL", 
    "DOING_BUSINESS_AS_NAME": "JOHN ALI", 
    "POP_AT_RISK": 74155, 
    "ZIP": 60625, 
    "ADDRESS": "4721 N LAWNDALE AVE 1ST", 
    "YEAR": 1999, 
    "LONGITUDE": -87.72051424, 
    "LATTITUDE": 41.967159089
  }, 
  {
    "BUSINESS_TYPE": "Peddler, non-food", 
    "LEGAL_NAME": "MICHAEL F HARTFIELD", 
    "STATE": "IL", 
    "DOING_BUSINESS_AS_NAME": "MICHAEL F HARTFIELD", 
    "POP_AT_RISK": 20929, 
    "ZIP": 60617, 
    "ADDRESS": "9555 S CHAPPEL AVE 1ST", 
    "YEAR": 1999, 
    "LONGITUDE": -87.573942338, 
    "LATTITUDE": 41.720829442
  }, 
  {
    "BUSINESS_TYPE": "Peddler, non-food", 
    "LEGAL_NAME": "LESTER ROPER", 
    "STATE": "IL", 
    "DOING_BUSINESS_AS_NAME": "LESTER ROPER", 
    "POP_AT_RISK": 45010, 
    "ZIP": 60607, 
    "ADDRESS": "908 S RACINE AVE 1ST", 
    "YEAR": 1999, 
    "LONGITUDE": -87.656920332, 
    "LATTITUDE": 41.8700072
  }
]