[
{"STATE":"IL","ZIP":60641,"LATTITUDE":41.960704654894684,"ADDRESS":"4425 W MONTROSE AVE 1 8","YEAR":2009,"DOING_BUSINESS_AS_NAME":"PRIMO PROS INC.","POP_AT_RISK":103222,"BUSINESS_TYPE":"Expediter - Class A","LEGAL_NAME":"PRIMO PROS INC.","LONGITUDE":-87.73956935358164},
{"STATE":"IL","ZIP":60611,"LATTITUDE":41.889465328771564,"ADDRESS":"405 N WABASH AVE  707","YEAR":2009,"DOING_BUSINESS_AS_NAME":"CYNTHIA INCH INC.","POP_AT_RISK":71895,"BUSINESS_TYPE":"Expediter - Class A","LEGAL_NAME":"CYNTHIA INCH INC.","LONGITUDE":-87.62650927363448},
{"STATE":"IL","ZIP":60647,"LATTITUDE":41.925352875586746,"ADDRESS":"2417 N CALIFORNIA AVE 1ST ","YEAR":2009,"DOING_BUSINESS_AS_NAME":"CHICAGO DESIGN LLC","POP_AT_RISK":289564,"BUSINESS_TYPE":"Expediter - Class A","LEGAL_NAME":"CHICAGO DESIGN LLC","LONGITUDE":-87.69728095191716},
{"STATE":"IL","ZIP":60647,"LATTITUDE":41.921093039214725,"ADDRESS":"2138 N CAMPBELL AVE 1 1","YEAR":2009,"DOING_BUSINESS_AS_NAME":"N&V DESIGNER, INC.","POP_AT_RISK":354378,"BUSINESS_TYPE":"Expediter - Class A","LEGAL_NAME":"N&V DESIGNER, INC.","LONGITUDE":-87.68942425477896},
{"STATE":"IL","ZIP":60641,"LATTITUDE":41.938791922580435,"ADDRESS":"4549 W BELMONT AVE 1 ","YEAR":2009,"DOING_BUSINESS_AS_NAME":"OMEGA PERMIT, LTD.","POP_AT_RISK":295425,"BUSINESS_TYPE":"Expediter - Class A","LEGAL_NAME":"OMEGA PERMIT, LTD.","LONGITUDE":-87.74139052208486},
{"STATE":"IL","ZIP":60641,"LATTITUDE":41.93851879009743,"ADDRESS":"5421 W BELMONT AVE 1 ","YEAR":2009,"DOING_BUSINESS_AS_NAME":"TAXPOL BELMONT CORP.","POP_AT_RISK":472266,"BUSINESS_TYPE":"Expediter - Class A","LEGAL_NAME":"TAXPOL BELMONT CORP.","LONGITUDE":-87.7624429424092},
{"STATE":"IL","ZIP":60610,"LATTITUDE":41.91093885000977,"ADDRESS":"1550 N CLARK ST 2ND ","YEAR":2009,"DOING_BUSINESS_AS_NAME":"BRW CONTRACTORS, LLC.","POP_AT_RISK":122466,"BUSINESS_TYPE":"Expediter - Class A","LEGAL_NAME":"BRW CONTRACTORS, LLC.","LONGITUDE":-87.63181201260736},
{"STATE":"IL","ZIP":60707,"LATTITUDE":41.91513575400795,"ADDRESS":"1925 N HARLEM AVE  104","YEAR":2009,"DOING_BUSINESS_AS_NAME":"KING DAVID CONSULTING","POP_AT_RISK":200358,"BUSINESS_TYPE":"Expediter - Class A","LEGAL_NAME":"KING DAVID MINES INC.","LONGITUDE":-87.80582621181154},
{"STATE":"IL","ZIP":60634,"LATTITUDE":41.956196542203,"ADDRESS":"6441 W WARNER AVE  211","YEAR":2009,"DOING_BUSINESS_AS_NAME":"CITY CONSULTANTS","POP_AT_RISK":219744,"BUSINESS_TYPE":"Expediter - Class A","LEGAL_NAME":"CITY CONSULTANTS, INC.","LONGITUDE":-87.78816980939716},
{"STATE":"IL","ZIP":60608,"LATTITUDE":41.85220645118742,"ADDRESS":"2202 W CERMAK RD 1 ","YEAR":2009,"DOING_BUSINESS_AS_NAME":"ESCRITORIO PUBLICO INC","POP_AT_RISK":275366,"BUSINESS_TYPE":"Expediter - Class A","LEGAL_NAME":"ESCRITORIO PUBLICO INC","LONGITUDE":-87.6808862580539},
{"STATE":"IL","ZIP":60630,"LATTITUDE":41.96798330540541,"ADDRESS":"4507 W LAWRENCE AVE 1ST 107","YEAR":2009,"DOING_BUSINESS_AS_NAME":"J & K CONSULTANTS INC.","POP_AT_RISK":133464,"BUSINESS_TYPE":"Expediter - Class A","LEGAL_NAME":"J & K CONSULTANTS, INC","LONGITUDE":-87.74177611404262},
{"STATE":"IL","ZIP":60623,"LATTITUDE":41.84168682283825,"ADDRESS":"2727 S LAWNDALE AVE  ","YEAR":2009,"DOING_BUSINESS_AS_NAME":"PERMEX REMODELING INC.","POP_AT_RISK":548433,"BUSINESS_TYPE":"Expediter - Class A","LEGAL_NAME":"PERMEX REMODELING INC.","LONGITUDE":-87.71701278015497},
{"STATE":"IL","ZIP":60646,"LATTITUDE":41.98881553278768,"ADDRESS":"5901 N CICERO AVE  404","YEAR":2009,"DOING_BUSINESS_AS_NAME":"Permit Expediters, Inc.","POP_AT_RISK":47166,"BUSINESS_TYPE":"Expediter - Class A","LEGAL_NAME":"PERMIT EXPEDITERS, INC.","LONGITUDE":-87.74817539211976},
{"STATE":"IL","ZIP":60631,"LATTITUDE":41.99099978364831,"ADDRESS":"6041 N NAVARRE AVE 3 ","YEAR":2009,"DOING_BUSINESS_AS_NAME":"STERN GROUP CORPORATION","POP_AT_RISK":92284,"BUSINESS_TYPE":"Expediter - Class A","LEGAL_NAME":"STERN GROUP CORPORATION","LONGITUDE":-87.79392170400344},
{"STATE":"IL","ZIP":60612,"LATTITUDE":41.8737523219182,"ADDRESS":"2507 W HARRISON ST 1 1","YEAR":2009,"DOING_BUSINESS_AS_NAME":"IPERMIT CONSULTING, INC.","POP_AT_RISK":392238,"BUSINESS_TYPE":"Expediter - Class A","LEGAL_NAME":"IPERMIT CONSULTING, INC.","LONGITUDE":-87.68895175956841},
{"STATE":"IL","ZIP":60659,"LATTITUDE":41.997439624849804,"ADDRESS":"6357 N FAIRFIELD AVE 1ST ","YEAR":2009,"DOING_BUSINESS_AS_NAME":"MODERN ACCOUNTING & INS INC.","POP_AT_RISK":627165,"BUSINESS_TYPE":"Expediter - Class A","LEGAL_NAME":"MODERN ACCOUNTING & INS INC.","LONGITUDE":-87.6982688207981},
{"STATE":"IL","ZIP":60618,"LATTITUDE":41.93925639035301,"ADDRESS":"2947 W BELMONT AVE 1ST ","YEAR":2009,"DOING_BUSINESS_AS_NAME":"VMR FINANCIAL STRATEGIES, INC.","POP_AT_RISK":449440,"BUSINESS_TYPE":"Expediter - Class A","LEGAL_NAME":"VMR FINANCIAL STRATEGIES INC.","LONGITUDE":-87.70219108855581},
{"STATE":"IL","ZIP":60622,"LATTITUDE":41.901086184786806,"ADDRESS":"1049 N MARSHFIELD AVE 2ND 2 R","YEAR":2009,"DOING_BUSINESS_AS_NAME":"4 STAR COURIER COLLECTIVE, LLC","POP_AT_RISK":553520,"BUSINESS_TYPE":"Expediter - Class A","LEGAL_NAME":"4 STAR COURIER COLLECTIVE, LLC","LONGITUDE":-87.66850691827923},
{"STATE":"IL","ZIP":60652,"LATTITUDE":41.74908882943119,"ADDRESS":"4651 W 79TH ST  105","YEAR":2009,"DOING_BUSINESS_AS_NAME":"LIBERTY TAX SERVICE","POP_AT_RISK":186846,"BUSINESS_TYPE":"Expediter - Class A","LEGAL_NAME":"BASTE FINANCIAL SERVICES, INC.","LONGITUDE":-87.73842284749492},
{"STATE":"IL","ZIP":60523,"LATTITUDE":41.85298609598674,"ADDRESS":"120 W 22ND ST  300","YEAR":2009,"DOING_BUSINESS_AS_NAME":"CALLAHAN COMMUNICATION SERVICE, INC.","POP_AT_RISK":403830,"BUSINESS_TYPE":"Expediter - Class A","LEGAL_NAME":"CALLAHAN COMMUNICATION SERVICE, INC.","LONGITUDE":-87.6301812675452},
{"STATE":"IL","ZIP":60636,"LATTITUDE":41.791553560818635,"ADDRESS":"5621 S ASHLAND AVE 1ST ","YEAR":2009,"DOING_BUSINESS_AS_NAME":"INDELIBLE IMPRESSIONS CONSTRUCTION, INC.","POP_AT_RISK":814821,"BUSINESS_TYPE":"Expediter - Class A","LEGAL_NAME":"INDELIBLE IMPRESSIONS CONSTRUCTION, INC.","LONGITUDE":-87.66437441757314},
{"STATE":"IL","ZIP":60623,"LATTITUDE":41.85191341020999,"ADDRESS":"3052 W CERMAK RD 1ST ","YEAR":2009,"DOING_BUSINESS_AS_NAME":"VIOLETAS PERMIT & BUSINESS LICENSE L.L.C.","POP_AT_RISK":455896,"BUSINESS_TYPE":"Expediter - Class A","LEGAL_NAME":"VIOLETAS PERMIT & BUSINESS LICENSE L.L.C.","LONGITUDE":-87.70245782917193},
{"STATE":"IL","ZIP":60621,"LATTITUDE":41.76417483284637,"ADDRESS":"7141 S PRINCETON AVE 2ND ","YEAR":2009,"DOING_BUSINESS_AS_NAME":"CONTRACTOR' S FINANCE CENTRAL MGMT EXPEDITING","POP_AT_RISK":479297,"BUSINESS_TYPE":"Expediter - Class A","LEGAL_NAME":"CONTRACTOR'S FINANCE CENTRAL MANAGEMENT, INC.","LONGITUDE":-87.63203529594023},
{}]