[
  {
    "BUSINESS_TYPE": "Outdoor Patio", 
    "LEGAL_NAME": "IVAN'S LOUNGE, INC.", 
    "STATE": "IL", 
    "DOING_BUSINESS_AS_NAME": "POUR DRINKS & EATS", 
    "POP_AT_RISK": 72297, 
    "ZIP": 60657, 
    "ADDRESS": "3358 N ASHLAND AVE 1ST", 
    "YEAR": 2001, 
    "LONGITUDE": -87.668909049, 
    "LATTITUDE": 41.943295102
  }, 
  {
    "BUSINESS_TYPE": "Outdoor Patio", 
    "LEGAL_NAME": "MOODY'S RESTAURANT, INC.", 
    "STATE": "IL", 
    "DOING_BUSINESS_AS_NAME": "MOODY'S RESTAURANT INC", 
    "POP_AT_RISK": 61771, 
    "ZIP": 60660, 
    "ADDRESS": "5908 N BROADWAY  1ST", 
    "YEAR": 2001, 
    "LONGITUDE": -87.660394613, 
    "LATTITUDE": 41.989333596
  }, 
  {
    "BUSINESS_TYPE": "Outdoor Patio", 
    "LEGAL_NAME": "GIORDANOS ENTERPRISES INC", 
    "STATE": "IL", 
    "DOING_BUSINESS_AS_NAME": "GIORDANO'S RESTAURANT & PIZZER", 
    "POP_AT_RISK": 40702, 
    "ZIP": 60632, 
    "ADDRESS": "5159 S PULASKI RD", 
    "YEAR": 2001, 
    "LONGITUDE": -87.723174753, 
    "LATTITUDE": 41.798806895
  }, 
  {
    "BUSINESS_TYPE": "Outdoor Patio", 
    "LEGAL_NAME": "TOTONY'S INC", 
    "STATE": "IL", 
    "DOING_BUSINESS_AS_NAME": "GLASS DOME HICKORY PIT", 
    "POP_AT_RISK": 52550, 
    "ZIP": 60608, 
    "ADDRESS": "2801 S HALSTED ST", 
    "YEAR": 2001, 
    "LONGITUDE": -87.64626311, 
    "LATTITUDE": 41.843418079
  }, 
  {
    "BUSINESS_TYPE": "Outdoor Patio", 
    "LEGAL_NAME": "H.T.A. INC.", 
    "STATE": "IL", 
    "DOING_BUSINESS_AS_NAME": "HAM TREE INN", 
    "POP_AT_RISK": 33756, 
    "ZIP": 60630, 
    "ADDRESS": "5333 N MILWAUKEE AVE 1ST", 
    "YEAR": 2001, 
    "LONGITUDE": -87.769236631, 
    "LATTITUDE": 41.977503479
  }, 
  {
    "BUSINESS_TYPE": "Outdoor Patio", 
    "LEGAL_NAME": "4911 DIVERSEY CORP", 
    "STATE": "IL", 
    "DOING_BUSINESS_AS_NAME": "4911 DIVERSEY CORP", 
    "POP_AT_RISK": 72221, 
    "ZIP": 60639, 
    "ADDRESS": "4911 W DIVERSEY AVE 1ST", 
    "YEAR": 2001, 
    "LONGITUDE": -87.749555903, 
    "LATTITUDE": 41.931383489
  }, 
  {
    "BUSINESS_TYPE": "Outdoor Patio", 
    "LEGAL_NAME": "HECTOR RODRIGUEZ", 
    "STATE": "IL", 
    "DOING_BUSINESS_AS_NAME": "EL TIPICO", 
    "POP_AT_RISK": 62125, 
    "ZIP": 60640, 
    "ADDRESS": "1834 W FOSTER AVE 1ST", 
    "YEAR": 2001, 
    "LONGITUDE": -87.676264907, 
    "LATTITUDE": 41.976187241
  }, 
  {
    "BUSINESS_TYPE": "Outdoor Patio", 
    "LEGAL_NAME": "CITY REFLECTIONS INC", 
    "STATE": "IL", 
    "DOING_BUSINESS_AS_NAME": "CITY REFLECTIONS INC", 
    "POP_AT_RISK": 46193, 
    "ZIP": 60632, 
    "ADDRESS": "4459 S KEDZIE AVE", 
    "YEAR": 2001, 
    "LONGITUDE": -87.703975055, 
    "LATTITUDE": 41.811853275
  }, 
  {
    "BUSINESS_TYPE": "Outdoor Patio", 
    "LEGAL_NAME": "PHYLLIS HOLME", 
    "STATE": "IL", 
    "DOING_BUSINESS_AS_NAME": "PHYLLIS MUSICAL INN", 
    "POP_AT_RISK": 63742, 
    "ZIP": 60622, 
    "ADDRESS": "1800 W DIVISION ST 1ST", 
    "YEAR": 2001, 
    "LONGITUDE": -87.672429583, 
    "LATTITUDE": 41.903375619
  }, 
  {
    "BUSINESS_TYPE": "Outdoor Patio", 
    "LEGAL_NAME": "WONDERBURGER, INC.", 
    "STATE": "IL", 
    "DOING_BUSINESS_AS_NAME": "WONDERBURGER INC", 
    "POP_AT_RISK": 21393, 
    "ZIP": 60655, 
    "ADDRESS": "11045 S KEDZIE AVE", 
    "YEAR": 2001, 
    "LONGITUDE": -87.700697013, 
    "LATTITUDE": 41.692057489
  }, 
  {
    "BUSINESS_TYPE": "Outdoor Patio", 
    "LEGAL_NAME": "JJ'S BAR , INC.", 
    "STATE": "IL", 
    "DOING_BUSINESS_AS_NAME": "JACKHAMMER", 
    "POP_AT_RISK": 67015, 
    "ZIP": 60626, 
    "ADDRESS": "6406 N CLARK ST 1ST", 
    "YEAR": 2001, 
    "LONGITUDE": -87.670809306, 
    "LATTITUDE": 41.998257404
  }, 
  {
    "BUSINESS_TYPE": "Outdoor Patio", 
    "LEGAL_NAME": "DINING & NUTRITION SPECIALISTS", 
    "STATE": "IL", 
    "DOING_BUSINESS_AS_NAME": "DESERT CAFE", 
    "POP_AT_RISK": 7538, 
    "ZIP": 60707, 
    "ADDRESS": "6818 W NORTH AVE", 
    "YEAR": 2001, 
    "LONGITUDE": -87.795620293, 
    "LATTITUDE": 41.90912536
  }, 
  {
    "BUSINESS_TYPE": "Outdoor Patio", 
    "LEGAL_NAME": "P J'S BREWERY INC", 
    "STATE": "IL", 
    "DOING_BUSINESS_AS_NAME": "P J'S BREWERY", 
    "POP_AT_RISK": 24739, 
    "ZIP": 60634, 
    "ADDRESS": "3848 N HARLEM AVE", 
    "YEAR": 2001, 
    "LONGITUDE": -87.807329446, 
    "LATTITUDE": 41.950347693
  }, 
  {
    "BUSINESS_TYPE": "Outdoor Patio", 
    "LEGAL_NAME": "BILL BABS, INC.", 
    "STATE": "IL", 
    "DOING_BUSINESS_AS_NAME": "KELLY'S TAVERN", 
    "POP_AT_RISK": 20203, 
    "ZIP": 60609, 
    "ADDRESS": "4403 S WALLACE ST 1ST", 
    "YEAR": 2001, 
    "LONGITUDE": -87.640668438, 
    "LATTITUDE": 41.814326117
  }, 
  {
    "BUSINESS_TYPE": "Outdoor Patio", 
    "LEGAL_NAME": "WORKINGMAN'S INC", 
    "STATE": "IL", 
    "DOING_BUSINESS_AS_NAME": "WORKINGMAN'S PALACE", 
    "POP_AT_RISK": 73464, 
    "ZIP": 60639, 
    "ADDRESS": "4400 W DIVERSEY AVE 1ST", 
    "YEAR": 2001, 
    "LONGITUDE": -87.736878103, 
    "LATTITUDE": 41.931770048
  }, 
  {
    "BUSINESS_TYPE": "Outdoor Patio", 
    "LEGAL_NAME": "TENCAT INC", 
    "STATE": "IL", 
    "DOING_BUSINESS_AS_NAME": "TENCAT INC", 
    "POP_AT_RISK": 81988, 
    "ZIP": 60613, 
    "ADDRESS": "3931 N ASHLAND AVE  1", 
    "YEAR": 2001, 
    "LONGITUDE": -87.668875838, 
    "LATTITUDE": 41.953380368
  }, 
  {
    "BUSINESS_TYPE": "Outdoor Patio", 
    "LEGAL_NAME": "TALLY NORTH INC", 
    "STATE": "IL", 
    "DOING_BUSINESS_AS_NAME": "PIANO MAN", 
    "POP_AT_RISK": 82941, 
    "ZIP": 60613, 
    "ADDRESS": "3801 N CLARK ST 1ST", 
    "YEAR": 2001, 
    "LONGITUDE": -87.659541802, 
    "LATTITUDE": 41.951175556
  }, 
  {
    "BUSINESS_TYPE": "Outdoor Patio", 
    "LEGAL_NAME": "LEONA'S PIZZERIA, INC.", 
    "STATE": "IL", 
    "DOING_BUSINESS_AS_NAME": "LEONA'S PIZZERIA", 
    "POP_AT_RISK": 40177, 
    "ZIP": 60607, 
    "ADDRESS": "1419 W TAYLOR ST", 
    "YEAR": 2001, 
    "LONGITUDE": -87.662414815, 
    "LATTITUDE": 41.869218054
  }, 
  {
    "BUSINESS_TYPE": "Outdoor Patio", 
    "LEGAL_NAME": "GULLIVERS, INC.", 
    "STATE": "IL", 
    "DOING_BUSINESS_AS_NAME": "GULLIVER'S INC", 
    "POP_AT_RISK": 23148, 
    "ZIP": 60645, 
    "ADDRESS": "2727 W HOWARD ST 1ST", 
    "YEAR": 2001, 
    "LONGITUDE": -87.698331709, 
    "LATTITUDE": 42.019245841
  }, 
  {
    "BUSINESS_TYPE": "Outdoor Patio", 
    "LEGAL_NAME": "W.N.R.W.ENTERPRISES,INC", 
    "STATE": "IL", 
    "DOING_BUSINESS_AS_NAME": "BOHICA BAR & GRILL", 
    "POP_AT_RISK": 26033, 
    "ZIP": 60638, 
    "ADDRESS": "5518 S ARCHER AVE", 
    "YEAR": 2001, 
    "LONGITUDE": -87.747416514, 
    "LATTITUDE": 41.798126625
  }, 
  {
    "BUSINESS_TYPE": "Outdoor Patio", 
    "LEGAL_NAME": "ROQUETA INC", 
    "STATE": "IL", 
    "DOING_BUSINESS_AS_NAME": "LA CONDESA", 
    "POP_AT_RISK": 68068, 
    "ZIP": 60629, 
    "ADDRESS": "2908 W 59TH ST", 
    "YEAR": 2001, 
    "LONGITUDE": -87.696463426, 
    "LATTITUDE": 41.786468511
  }, 
  {
    "BUSINESS_TYPE": "Outdoor Patio", 
    "LEGAL_NAME": "SCHUBERT INN, INC.", 
    "STATE": "IL", 
    "DOING_BUSINESS_AS_NAME": "ROCKS LINCOLN PARK", 
    "POP_AT_RISK": 77046, 
    "ZIP": 60614, 
    "ADDRESS": "1301 W SCHUBERT AVE  1ST F", 
    "YEAR": 2001, 
    "LONGITUDE": -87.66114561, 
    "LATTITUDE": 41.93059073
  }, 
  {
    "BUSINESS_TYPE": "Outdoor Patio", 
    "LEGAL_NAME": "RESI'S BIERSTUBE, INC.", 
    "STATE": "IL", 
    "DOING_BUSINESS_AS_NAME": "RESI'S BIERSTUBE INC", 
    "POP_AT_RISK": 66384, 
    "ZIP": 60618, 
    "ADDRESS": "2034 W IRVING PARK RD 1ST", 
    "YEAR": 2001, 
    "LONGITUDE": -87.680304246, 
    "LATTITUDE": 41.954243671
  }, 
  {
    "BUSINESS_TYPE": "Outdoor Patio", 
    "LEGAL_NAME": "CADEN'S IRISH HOUSE, INC.", 
    "STATE": "IL", 
    "DOING_BUSINESS_AS_NAME": "CADEN'S IRISH HOUSE, INC.", 
    "POP_AT_RISK": 81553, 
    "ZIP": 60618, 
    "ADDRESS": "3423 W MONTROSE AVE 1ST", 
    "YEAR": 2001, 
    "LONGITUDE": -87.714130215, 
    "LATTITUDE": 41.961006439
  }
]