[
{"STATE":"IL","ZIP":60655,"LATTITUDE":41.68217268377317,"ADDRESS":"3609 W 116TH ST  ","YEAR":2010,"DOING_BUSINESS_AS_NAME":"CRUISEONE","POP_AT_RISK":19944,"BUSINESS_TYPE":"Home Occupation","LEGAL_NAME":"JOHN R. ROSE","LONGITUDE":-87.7105802296456},
{"STATE":"IL","ZIP":60638,"LATTITUDE":41.77603825973843,"ADDRESS":"6232 W 64TH ST  ","YEAR":2010,"DOING_BUSINESS_AS_NAME":"R C CARPET CLEANING","POP_AT_RISK":28149,"BUSINESS_TYPE":"Home Occupation","LEGAL_NAME":"RUBEN CUELLAR","LONGITUDE":-87.77764608913346},
{"STATE":"IL","ZIP":60617,"LATTITUDE":41.750918821215784,"ADDRESS":"3017 E 79TH PL  ","YEAR":2010,"DOING_BUSINESS_AS_NAME":"E&V BLAYLOCK INC.","POP_AT_RISK":30831,"BUSINESS_TYPE":"Home Occupation","LEGAL_NAME":"E&V BLAYLOCK INC.","LONGITUDE":-87.55095253182714},
{"STATE":"IL","ZIP":60634,"LATTITUDE":41.939743109382285,"ADDRESS":"3312 N PITTSBURGH AVE 1ST ","YEAR":2010,"DOING_BUSINESS_AS_NAME":"KD FINANCIAL, LTD","POP_AT_RISK":22302,"BUSINESS_TYPE":"Home Occupation","LEGAL_NAME":"KD FINANCIAL, LTD","LONGITUDE":-87.83266783487983},
{"STATE":"IL","ZIP":60645,"LATTITUDE":42.014539127066755,"ADDRESS":"3047 W SHERWIN AVE 1 1","YEAR":2010,"DOING_BUSINESS_AS_NAME":"THE LEARNING CONNECTION","POP_AT_RISK":41806,"BUSINESS_TYPE":"Home Occupation","LEGAL_NAME":"NECHAMA DENA COHEN","LONGITUDE":-87.70619581022483},
{"STATE":"IL","ZIP":60631,"LATTITUDE":42.01874409987907,"ADDRESS":"7401 W HOWARD ST 1ST FLOOR ","YEAR":2010,"DOING_BUSINESS_AS_NAME":"Amber's Organizing, LLC","POP_AT_RISK":24148,"BUSINESS_TYPE":"Home Occupation","LEGAL_NAME":"Amber's Organizing, LLC","LONGITUDE":-87.81149241714449},
{"STATE":"IL","ZIP":60655,"LATTITUDE":41.709579673350305,"ADDRESS":"3940 W 101ST ST 1 1","YEAR":2010,"DOING_BUSINESS_AS_NAME":"LYLE APPRAISALS","POP_AT_RISK":22978,"BUSINESS_TYPE":"Home Occupation","LEGAL_NAME":"JEFFREY A. LYLE AND ALISON A. LYLE","LONGITUDE":-87.72006864362096},
{"STATE":"IL","ZIP":60652,"LATTITUDE":41.7350433632109,"ADDRESS":"8649 S KILDARE AVE 2ND ","YEAR":2010,"DOING_BUSINESS_AS_NAME":"I L M","POP_AT_RISK":23724,"BUSINESS_TYPE":"Home Occupation","LEGAL_NAME":"INFRASTRUCTURE AND LOGISTICS MANAGEMENT, LLC","LONGITUDE":-87.72857633648098},
{}]