[
{"STATE":"IL","ZIP":60651,"LATTITUDE":41.902434921792604,"ADDRESS":"4900 W DIVISION ST  ","YEAR":2006,"DOING_BUSINESS_AS_NAME":"BIONDILLO","POP_AT_RISK":53986,"BUSINESS_TYPE":"Wholesale Food Establishment","LEGAL_NAME":"BIONDILLO","LONGITUDE":-87.74854487187145},
{"STATE":"IL","ZIP":60619,"LATTITUDE":41.76412916937317,"ADDRESS":"7200 S KIMBARK AVE  1ST","YEAR":2006,"DOING_BUSINESS_AS_NAME":"NAT'S GARDEN & TATER-MAN","POP_AT_RISK":141016,"BUSINESS_TYPE":"Wholesale Food Establishment","LEGAL_NAME":"SFIROS INC","LONGITUDE":-87.59351898025135},
{"STATE":"IL","ZIP":60646,"LATTITUDE":41.99093763109051,"ADDRESS":"6024 N KEYSTONE AVE 1ST ","YEAR":2006,"DOING_BUSINESS_AS_NAME":"EL GREG","POP_AT_RISK":53922,"BUSINESS_TYPE":"Wholesale Food Establishment","LEGAL_NAME":"EL GREG INC","LONGITUDE":-87.73022073672183},
{"STATE":"IL","ZIP":60621,"LATTITUDE":41.78873025430791,"ADDRESS":"809 W 58TH ST  ","YEAR":2006,"DOING_BUSINESS_AS_NAME":"VITAMINS INC","POP_AT_RISK":62580,"BUSINESS_TYPE":"Wholesale Food Establishment","LEGAL_NAME":"VITAMINS INC","LONGITUDE":-87.64543855633937},
{"STATE":"IL","ZIP":60609,"LATTITUDE":41.81064440590946,"ADDRESS":"125 W 46TH PL  ","YEAR":2006,"DOING_BUSINESS_AS_NAME":"ARTOPOLIS BAKERY, CAFE & A GORA","POP_AT_RISK":47316,"BUSINESS_TYPE":"Wholesale Food Establishment","LEGAL_NAME":"ARTOS LIMITED","LONGITUDE":-87.62945032101811},
{"STATE":"IL","ZIP":60636,"LATTITUDE":41.78746930336788,"ADDRESS":"5828 S WESTERN AVE  ","YEAR":2006,"DOING_BUSINESS_AS_NAME":"PRODUCTOS EL PAJARITO","POP_AT_RISK":478917,"BUSINESS_TYPE":"Wholesale Food Establishment","LEGAL_NAME":"ELVIA GODINEZ","LONGITUDE":-87.68400478419849},
{"STATE":"IL","ZIP":60827,"LATTITUDE":41.64471651864612,"ADDRESS":"612 E 138TH ST  ","YEAR":2006,"DOING_BUSINESS_AS_NAME":"INNOPHOS INC.","POP_AT_RISK":26762,"BUSINESS_TYPE":"Wholesale Food Establishment","LEGAL_NAME":"INNOPHOS INC.","LONGITUDE":-87.60679330792205},
{"STATE":"IL","ZIP":60619,"LATTITUDE":41.73441096044655,"ADDRESS":"8815 S DOBSON AVE  ","YEAR":2006,"DOING_BUSINESS_AS_NAME":"MARIGOLD, INC.","POP_AT_RISK":87207,"BUSINESS_TYPE":"Wholesale Food Establishment","LEGAL_NAME":"MARIGOLD, INC.","LONGITUDE":-87.59893837985673},
{"STATE":"IL","ZIP":60644,"LATTITUDE":41.86562236587824,"ADDRESS":"5824 W ROOSEVELT RD 1ST ","YEAR":2006,"DOING_BUSINESS_AS_NAME":"FIRST CHICAGO WHOLESALE","POP_AT_RISK":104836,"BUSINESS_TYPE":"Wholesale Food Establishment","LEGAL_NAME":"WALID M GRAHAM","LONGITUDE":-87.77038408516734},
{"STATE":"IL","ZIP":60707,"LATTITUDE":41.90922989499976,"ADDRESS":"6454 W NORTH AVE 1ST ","YEAR":2006,"DOING_BUSINESS_AS_NAME":"SERRELLI'S FOODS","POP_AT_RISK":35237,"BUSINESS_TYPE":"Wholesale Food Establishment","LEGAL_NAME":"DANIEL SERRELLI","LONGITUDE":-87.78712882071771},
{"STATE":"IL","ZIP":60629,"LATTITUDE":41.786196544925204,"ADDRESS":"3600 W 59TH ST  1","YEAR":2006,"DOING_BUSINESS_AS_NAME":"LANG ICE COMPANY","POP_AT_RISK":345815,"BUSINESS_TYPE":"Wholesale Food Establishment","LEGAL_NAME":"LANG ICE COMPANY","LONGITUDE":-87.71348942184615},
{"STATE":"IL","ZIP":60604,"LATTITUDE":41.878025655260835,"ADDRESS":"141 W JACKSON BLVD  LOBBY","YEAR":2006,"DOING_BUSINESS_AS_NAME":"LA SALLE NEWS INC","POP_AT_RISK":101022,"BUSINESS_TYPE":"Wholesale Food Establishment","LEGAL_NAME":"LASALLE NEWS INC","LONGITUDE":-87.63206228626693},
{"STATE":"IL","ZIP":60628,"LATTITUDE":41.65902472179736,"ADDRESS":"525 E 130TH ST  ","YEAR":2006,"DOING_BUSINESS_AS_NAME":"ROSEBUD FARM INC","POP_AT_RISK":11356,"BUSINESS_TYPE":"Wholesale Food Establishment","LEGAL_NAME":"ROSEBUD FARM INC","LONGITUDE":-87.60909139773335},
{"STATE":"IL","ZIP":60613,"LATTITUDE":41.95180634357866,"ADDRESS":"3830 N CLARK ST  ","YEAR":2006,"DOING_BUSINESS_AS_NAME":"NUTS ON CLARK INC","POP_AT_RISK":83060,"BUSINESS_TYPE":"Wholesale Food Establishment","LEGAL_NAME":"NUTS ON CLARK INC","LONGITUDE":-87.66038145990446},
{"STATE":"IL","ZIP":60643,"LATTITUDE":41.692202746834944,"ADDRESS":"933 W 111TH ST 1ST ","YEAR":2006,"DOING_BUSINESS_AS_NAME":"MAJOR PRODUCTS DIST","POP_AT_RISK":48552,"BUSINESS_TYPE":"Wholesale Food Establishment","LEGAL_NAME":"CHARLES E CHANDLER","LONGITUDE":-87.64608342121002},
{"STATE":"IL","ZIP":60628,"LATTITUDE":41.684079079941675,"ADDRESS":"304 -328 E KENSINGTON AVE 1ST ","YEAR":2006,"DOING_BUSINESS_AS_NAME":"GONNELLA BAKING","POP_AT_RISK":22104,"BUSINESS_TYPE":"Wholesale Food Establishment","LEGAL_NAME":"GONNELLA BAKING CO.","LONGITUDE":-87.61644380536383},
{"STATE":"IL","ZIP":60707,"LATTITUDE":41.9289626042484,"ADDRESS":"2701 N HARLEM AVE 1ST ","YEAR":2006,"DOING_BUSINESS_AS_NAME":"MICHAELANGELO'S FOODS","POP_AT_RISK":87052,"BUSINESS_TYPE":"Wholesale Food Establishment","LEGAL_NAME":"MICHAEL CIAMPANELLI","LONGITUDE":-87.80628280360719},
{"STATE":"IL","ZIP":60628,"LATTITUDE":41.66008633887119,"ADDRESS":"12847 S HALSTED ST  1ST","YEAR":2006,"DOING_BUSINESS_AS_NAME":"THE MEAT FACTORY INC","POP_AT_RISK":65112,"BUSINESS_TYPE":"Wholesale Food Establishment","LEGAL_NAME":"THE MEAT FACTORY INC","LONGITUDE":-87.64116883216026},
{"STATE":"IL","ZIP":60631,"LATTITUDE":41.99412935894236,"ADDRESS":"6186 N NORTHWEST HWY 1ST ","YEAR":2006,"DOING_BUSINESS_AS_NAME":"UNION FISHERIES CORP","POP_AT_RISK":95712,"BUSINESS_TYPE":"Wholesale Food Establishment","LEGAL_NAME":"UNION FISHERIES CORP","LONGITUDE":-87.80226201134202},
{"STATE":"IL","ZIP":60637,"LATTITUDE":41.78337414774551,"ADDRESS":"6115 S PRAIRIE AVE  ","YEAR":2006,"DOING_BUSINESS_AS_NAME":"JOHN'S DAIRY PRODUCTS","POP_AT_RISK":62590,"BUSINESS_TYPE":"Wholesale Food Establishment","LEGAL_NAME":"JOHN'S DAIRY PRODUCTS","LONGITUDE":-87.61878655253824},
{"STATE":"IL","ZIP":60610,"LATTITUDE":41.90508513218503,"ADDRESS":"1240 N SEDGWICK ST  1","YEAR":2006,"DOING_BUSINESS_AS_NAME":"IDEAL PROVISION CO INC.","POP_AT_RISK":66774,"BUSINESS_TYPE":"Wholesale Food Establishment","LEGAL_NAME":"IDEAL PROVISION CO INC","LONGITUDE":-87.63854897436143},
{"STATE":"IL","ZIP":60620,"LATTITUDE":41.754837071331025,"ADDRESS":"7651 S VINCENNES AVE  ","YEAR":2006,"DOING_BUSINESS_AS_NAME":"R & MMM BURRITOS, INC","POP_AT_RISK":73182,"BUSINESS_TYPE":"Wholesale Food Establishment","LEGAL_NAME":"R & MMM BURRITOS, INC.","LONGITUDE":-87.63278741562769},
{"STATE":"IL","ZIP":60609,"LATTITUDE":41.81901264253939,"ADDRESS":"215 W ROOT ST  ","YEAR":2006,"DOING_BUSINESS_AS_NAME":"DANIELSON FOOD PROD INC","POP_AT_RISK":41374,"BUSINESS_TYPE":"Wholesale Food Establishment","LEGAL_NAME":"DANIELSON FOOD PROD INC","LONGITUDE":-87.63184863563215},
{"STATE":"IL","ZIP":60619,"LATTITUDE":41.72565184476607,"ADDRESS":"945 E 93RD ST  ","YEAR":2006,"DOING_BUSINESS_AS_NAME":"FOOD & PAPER SUPPLY CO.","POP_AT_RISK":41092,"BUSINESS_TYPE":"Wholesale Food Establishment","LEGAL_NAME":"FOOD & PAPER SUPPLY CO.","LONGITUDE":-87.60079152053679},
{"STATE":"IL","ZIP":60617,"LATTITUDE":41.72552276451634,"ADDRESS":"9332 S ANTHONY AVE  ","YEAR":2006,"DOING_BUSINESS_AS_NAME":"ALL UNITED IMPORTS","POP_AT_RISK":36858,"BUSINESS_TYPE":"Wholesale Food Establishment","LEGAL_NAME":"ALL UNITED IMPORTS, INC.","LONGITUDE":-87.55287606866008},
{"STATE":"IL","ZIP":60629,"LATTITUDE":41.76066858314362,"ADDRESS":"7300 S KEDZIE AVE  ","YEAR":2006,"DOING_BUSINESS_AS_NAME":"KRAFT FOODS","POP_AT_RISK":26650,"BUSINESS_TYPE":"Wholesale Food Establishment","LEGAL_NAME":"KRAFT FOODS GLOBAL, INC.","LONGITUDE":-87.7028547971541},
{"STATE":"IL","ZIP":60620,"LATTITUDE":41.7417050755653,"ADDRESS":"41 W 84TH ST  1ST","YEAR":2006,"DOING_BUSINESS_AS_NAME":"MIDWAY WHOLESALERS","POP_AT_RISK":66818,"BUSINESS_TYPE":"Wholesale Food Establishment","LEGAL_NAME":"MIDWAY WHOLESALERS, INC.","LONGITUDE":-87.62597631099247},
{"STATE":"IL","ZIP":60614,"LATTITUDE":41.924966179088,"ADDRESS":"2345 N CLARK ST  ","YEAR":2006,"DOING_BUSINESS_AS_NAME":"BIG APPLE FINER FOODS INC","POP_AT_RISK":283945,"BUSINESS_TYPE":"Wholesale Food Establishment","LEGAL_NAME":"BIG APPLE FINER FOODS INC","LONGITUDE":-87.63992601896568},
{"STATE":"IL","ZIP":60630,"LATTITUDE":41.98202313117654,"ADDRESS":"5526 N MULLIGAN AVE  1","YEAR":2006,"DOING_BUSINESS_AS_NAME":"FARMERS GLORY CORP","POP_AT_RISK":32566,"BUSINESS_TYPE":"Wholesale Food Establishment","LEGAL_NAME":"FARMERS GLORY CORPORATION","LONGITUDE":-87.78668290939609},
{"STATE":"IL","ZIP":60634,"LATTITUDE":41.952632794111594,"ADDRESS":"6851 W IRVING PARK RD 1ST ","YEAR":2006,"DOING_BUSINESS_AS_NAME":"PENN VALLEY FARMS LTD.","POP_AT_RISK":216096,"BUSINESS_TYPE":"Wholesale Food Establishment","LEGAL_NAME":"PENN VALLEY FARMS LIMITED.","LONGITUDE":-87.79830631114467},
{"STATE":"IL","ZIP":60652,"LATTITUDE":41.74150692710327,"ADDRESS":"3636 W 83RD PL  ","YEAR":2006,"DOING_BUSINESS_AS_NAME":"NADER WHOLESALE GROCERS INC","POP_AT_RISK":82479,"BUSINESS_TYPE":"Wholesale Food Establishment","LEGAL_NAME":"NADER WHOLESALE GROCERS INC","LONGITUDE":-87.7135424197768},
{"STATE":"IL","ZIP":60638,"LATTITUDE":41.78519267395424,"ADDRESS":"5757 W 59TH ST 1ST ","YEAR":2006,"DOING_BUSINESS_AS_NAME":"OLYMPIA FOOD INDUSTRIES INC","POP_AT_RISK":139165,"BUSINESS_TYPE":"Wholesale Food Establishment","LEGAL_NAME":"OLYMPIA FOOD INDUSTRIES INC","LONGITUDE":-87.7667534323291},
{"STATE":"IL","ZIP":60629,"LATTITUDE":41.75872799769038,"ADDRESS":"7401 S CICERO AVE  ","YEAR":2006,"DOING_BUSINESS_AS_NAME":"TOOTSIE ROLL INDUSTRIES, LLC","POP_AT_RISK":32094,"BUSINESS_TYPE":"Wholesale Food Establishment","LEGAL_NAME":"TOOTSIE ROLL INDUSTRIES, LLC","LONGITUDE":-87.74153566231715},
{"STATE":"IL","ZIP":60620,"LATTITUDE":41.75016167702497,"ADDRESS":"1841 W 79TH ST 1 #","YEAR":2006,"DOING_BUSINESS_AS_NAME":"DEARBORN WHOLESALE GROCER LP","POP_AT_RISK":178212,"BUSINESS_TYPE":"Wholesale Food Establishment","LEGAL_NAME":"DEARBORN WHOLESALE GROCERS LP","LONGITUDE":-87.66988951666725},
{"STATE":"IL","ZIP":60645,"LATTITUDE":42.01934395073065,"ADDRESS":"2017 W HOWARD ST 1 #","YEAR":2006,"DOING_BUSINESS_AS_NAME":"DEARBORN WHOLESALE GROCERY LP","POP_AT_RISK":124624,"BUSINESS_TYPE":"Wholesale Food Establishment","LEGAL_NAME":"DEARBORN WHOLESALE GROCERS LP","LONGITUDE":-87.68121783958063},
{"STATE":"IL","ZIP":60613,"LATTITUDE":41.96190984490327,"ADDRESS":"918 W MONTROSE AVE 1ST #","YEAR":2006,"DOING_BUSINESS_AS_NAME":"DEARBORN WHOLESALE GROCERS INC","POP_AT_RISK":78611,"BUSINESS_TYPE":"Wholesale Food Establishment","LEGAL_NAME":"DEARBORN WHOLESALE GROCERS LP","LONGITUDE":-87.65312737854316},
{"STATE":"IL","ZIP":60633,"LATTITUDE":41.65928603914349,"ADDRESS":"2400 E 130TH ST  ","YEAR":2006,"DOING_BUSINESS_AS_NAME":"AMERICAN SWEETENER CORPORATION","POP_AT_RISK":2798,"BUSINESS_TYPE":"Wholesale Food Establishment","LEGAL_NAME":"AMERICAN SWEETENER CORPORATION","LONGITUDE":-87.565517863218},
{"STATE":"IL","ZIP":60638,"LATTITUDE":41.79468154402482,"ADDRESS":"5370 S CICERO AVE 1ST ","YEAR":2006,"DOING_BUSINESS_AS_NAME":"FLYING FOOD FARE MIDWAY L.L.C.","POP_AT_RISK":28658,"BUSINESS_TYPE":"Wholesale Food Establishment","LEGAL_NAME":"FLYING FOOD FARE MIDWAY, L.L.C.","LONGITUDE":-87.74292108541009},
{"STATE":"IL","ZIP":60628,"LATTITUDE":41.68556562015518,"ADDRESS":"11444 S HALSTED ST 1 ","YEAR":2006,"DOING_BUSINESS_AS_NAME":"ARAMARK CORRECTIONAL SERVICES INC.","POP_AT_RISK":60416,"BUSINESS_TYPE":"Wholesale Food Establishment","LEGAL_NAME":"ARAMARK CORRECTIONAL SERVICES, LLC","LONGITUDE":-87.64231378630687},
{"STATE":"IL","ZIP":60617,"LATTITUDE":41.682696264898055,"ADDRESS":"11700 S TORRENCE AVE  ","YEAR":2006,"DOING_BUSINESS_AS_NAME":"CHICAGO & ILLINOIS RIVER MARKETING,  LLC","POP_AT_RISK":3233,"BUSINESS_TYPE":"Wholesale Food Establishment","LEGAL_NAME":"CHICAGO & ILLINOIS  RIVER MARKETING,  LLC","LONGITUDE":-87.55950138523278},
{}]