[
{"STATE":"IL","ZIP":60618,"LATTITUDE":41.95402628541323,"ADDRESS":"3210 W IRVING PARK RD  ","YEAR":2010,"DOING_BUSINESS_AS_NAME":"MANZO'S RISTORANTE","POP_AT_RISK":682190,"BUSINESS_TYPE":"Caterer's Liquor License","LEGAL_NAME":"GAETANO'S, INC.","LONGITUDE":-87.70847117629155},
{"STATE":"IL","ZIP":60615,"LATTITUDE":41.79530818499822,"ADDRESS":"1504 E 55TH ST 1ST #","YEAR":2010,"DOING_BUSINESS_AS_NAME":"LA PETITE FOLIE","POP_AT_RISK":77896,"BUSINESS_TYPE":"Caterer's Liquor License","LEGAL_NAME":"MANGEZ MOI, INC.","LONGITUDE":-87.58894079318983},
{"STATE":"IL","ZIP":60619,"LATTITUDE":41.751340677691935,"ADDRESS":"1433 E 79TH ST 1ST ","YEAR":2010,"DOING_BUSINESS_AS_NAME":"PIERRES CATERING","POP_AT_RISK":41109,"BUSINESS_TYPE":"Caterer's Liquor License","LEGAL_NAME":"PIERRE MONTGOMERY","LONGITUDE":-87.58933891066079},
{"STATE":"IL","ZIP":60637,"LATTITUDE":41.79351407619528,"ADDRESS":"1642 E 56TH ST 1 ","YEAR":2010,"DOING_BUSINESS_AS_NAME":"PICCOLO MONDO CAFE","POP_AT_RISK":32458,"BUSINESS_TYPE":"Caterer's Liquor License","LEGAL_NAME":"MONDO PICCOLO, LLC","LONGITUDE":-87.58494662001773},
{"STATE":"IL","ZIP":60614,"LATTITUDE":41.93300409973139,"ADDRESS":"420 1\/2 W DIVERSEY PKWY  ","YEAR":2010,"DOING_BUSINESS_AS_NAME":"DUFFY'S TAVERN & GRILLE","POP_AT_RISK":71377,"BUSINESS_TYPE":"Caterer's Liquor License","LEGAL_NAME":"420 1\/2 CORPORATION","LONGITUDE":-87.64018629087145},
{"STATE":"IL","ZIP":60651,"LATTITUDE":41.90156596775891,"ADDRESS":"1116 N KEDZIE AVE 1ST ","YEAR":2010,"DOING_BUSINESS_AS_NAME":"FINESSE CUISINE","POP_AT_RISK":617930,"BUSINESS_TYPE":"Caterer's Liquor License","LEGAL_NAME":"JHW Enterprises LLC","LONGITUDE":-87.70689641339472},
{"STATE":"IL","ZIP":60638,"LATTITUDE":41.79601962445319,"ADDRESS":"5829 S ARCHER AVE 1ST ","YEAR":2010,"DOING_BUSINESS_AS_NAME":"SHOP & SAVE MARKET","POP_AT_RISK":97745,"BUSINESS_TYPE":"Caterer's Liquor License","LEGAL_NAME":"ARCHER ADVISORS, LLC","LONGITUDE":-87.7596833671853},
{"STATE":"IL","ZIP":60640,"LATTITUDE":41.96525859487773,"ADDRESS":"1816-1820 W WILSON AVE  ","YEAR":2010,"DOING_BUSINESS_AS_NAME":"CITY PROVISIONS CATERING AND EVENTS","POP_AT_RISK":617573,"BUSINESS_TYPE":"Caterer's Liquor License","LEGAL_NAME":"CITY PROVISIONS, LLC","LONGITUDE":-87.67537270043624},
{"STATE":"IL","ZIP":60616,"LATTITUDE":41.849379215218015,"ADDRESS":"2373 S ARCHER AVE 1ST ","YEAR":2010,"DOING_BUSINESS_AS_NAME":"CONNIE'S PIZZA","POP_AT_RISK":107496,"BUSINESS_TYPE":"Caterer's Liquor License","LEGAL_NAME":"CONNIE'S PIZZA, INC.","LONGITUDE":-87.64105840223819},
{"STATE":"IL","ZIP":60608,"LATTITUDE":41.85262494622832,"ADDRESS":"1146 W CERMAK RD 1ST ","YEAR":2010,"DOING_BUSINESS_AS_NAME":"MAY STREET CAFE","POP_AT_RISK":108363,"BUSINESS_TYPE":"Caterer's Liquor License","LEGAL_NAME":"MAY ST. CAFE 1, INC.","LONGITUDE":-87.65491858465299},
{"STATE":"IL","ZIP":60647,"LATTITUDE":41.930454015237366,"ADDRESS":"2416-2422 W SCHUBERT AVE  ","YEAR":2010,"DOING_BUSINESS_AS_NAME":"FAT WILLY'S RIB SHACK","POP_AT_RISK":152436,"BUSINESS_TYPE":"Caterer's Liquor License","LEGAL_NAME":"2416 W SCHUBERT, INC.","LONGITUDE":-87.68858025477232},
{"STATE":"IL","ZIP":60617,"LATTITUDE":41.72795237840198,"ADDRESS":"9156 S STONY ISLAND AVE  ","YEAR":2010,"DOING_BUSINESS_AS_NAME":"LEONAS","POP_AT_RISK":30644,"BUSINESS_TYPE":"Caterer's Liquor License","LEGAL_NAME":"LEONA'S PIZZERIA, INC.","LONGITUDE":-87.58558036137349},
{"STATE":"IL","ZIP":60632,"LATTITUDE":41.80934190042302,"ADDRESS":"4619 S KEDZIE AVE 1ST ","YEAR":2010,"DOING_BUSINESS_AS_NAME":"CARNITAS DON RAFA INC","POP_AT_RISK":524788,"BUSINESS_TYPE":"Caterer's Liquor License","LEGAL_NAME":"CARNITAS DON RAFA, INC.","LONGITUDE":-87.70387671887354},
{"STATE":"IL","ZIP":60641,"LATTITUDE":41.95343525460883,"ADDRESS":"5106 W IRVING PARK RD  ","YEAR":2010,"DOING_BUSINESS_AS_NAME":"D'ABSOLUTE RESTAURANT & CATERING","POP_AT_RISK":387681,"BUSINESS_TYPE":"Caterer's Liquor License","LEGAL_NAME":"CATERING CREATIONS INC.","LONGITUDE":-87.75499043272667},
{"STATE":"IL","ZIP":60655,"LATTITUDE":41.70582355306317,"ADDRESS":"3901 W 103RD ST  ","YEAR":2010,"DOING_BUSINESS_AS_NAME":"GILHOOLEY'S GRANDE SALOON","POP_AT_RISK":114010,"BUSINESS_TYPE":"Caterer's Liquor License","LEGAL_NAME":"COMPASS GROUP USA, INC.","LONGITUDE":-87.71853994620498},
{"STATE":"IL","ZIP":60647,"LATTITUDE":41.91761294464501,"ADDRESS":"2728 W ARMITAGE AVE 1 ","YEAR":2010,"DOING_BUSINESS_AS_NAME":"TABLE, DONKEY & STICK","POP_AT_RISK":262236,"BUSINESS_TYPE":"Caterer's Liquor License","LEGAL_NAME":"CHENIER & THOMPSON, INC.","LONGITUDE":-87.69591486630621},
{"STATE":"IL","ZIP":60634,"LATTITUDE":41.958699198573456,"ADDRESS":"4300-4304 N CENTRAL AVE  ","YEAR":2010,"DOING_BUSINESS_AS_NAME":" C   A CATERING AND EVENT COMPANY","POP_AT_RISK":104854,"BUSINESS_TYPE":"Caterer's Liquor License","LEGAL_NAME":"BELLA DONNA CATERING, LLC","LONGITUDE":-87.76733239271287},
{"STATE":"IL","ZIP":60653,"LATTITUDE":41.8132153177004,"ADDRESS":"4455 S DR MARTIN LUTHER KING JR DR  ","YEAR":2010,"DOING_BUSINESS_AS_NAME":"ROME'S JOY CATERING INC.","POP_AT_RISK":34836,"BUSINESS_TYPE":"Caterer's Liquor License","LEGAL_NAME":"ROME'S JOY CATERING, INC.","LONGITUDE":-87.61654920744799},
{"STATE":"IL","ZIP":60618,"LATTITUDE":41.94966455107424,"ADDRESS":"3737 N WESTERN AVE  ","YEAR":2010,"DOING_BUSINESS_AS_NAME":"PETE'S PIZZA","POP_AT_RISK":100820,"BUSINESS_TYPE":"Caterer's Liquor License","LEGAL_NAME":"SUPAROSSA ON WESTERN INC.","LONGITUDE":-87.68819214082336},
{"STATE":"IL","ZIP":60639,"LATTITUDE":41.93098195995931,"ADDRESS":"6121 W DIVERSEY AVE # 1ST","YEAR":2010,"DOING_BUSINESS_AS_NAME":"LAGO BANQUETS","POP_AT_RISK":503082,"BUSINESS_TYPE":"Caterer's Liquor License","LEGAL_NAME":"LAGO VENTURES INCORPORATED","LONGITUDE":-87.77923471427376},
{"STATE":"IL","ZIP":60653,"LATTITUDE":41.81676172087383,"ADDRESS":"1001-1003 E 43RD ST 1ST ","YEAR":2010,"DOING_BUSINESS_AS_NAME":"NORMAN'S","POP_AT_RISK":162290,"BUSINESS_TYPE":"Caterer's Liquor License","LEGAL_NAME":"NORFLO HOLDING CORPORATION","LONGITUDE":-87.60178731861693},
{"STATE":"IL","ZIP":60608,"LATTITUDE":41.83361886880686,"ADDRESS":"3322 S MORGAN ST  ","YEAR":2010,"DOING_BUSINESS_AS_NAME":"POLO CAFE AND CATERING BRIDGEPORT U.S.A.","POP_AT_RISK":279629,"BUSINESS_TYPE":"Caterer's Liquor License","LEGAL_NAME":"BRIDGEPORT U.S.A. CORPORATION","LONGITUDE":-87.65118268844637},
{"STATE":"IL","ZIP":60660,"LATTITUDE":41.997985218648225,"ADDRESS":"1535 W DEVON AVE 1ST ","YEAR":2010,"DOING_BUSINESS_AS_NAME":"CONN'S CAFE & CATERING INC","POP_AT_RISK":509052,"BUSINESS_TYPE":"Caterer's Liquor License","LEGAL_NAME":"CONN'S CAFE AND CATERING INC.","LONGITUDE":-87.66910712039837},
{"STATE":"IL","ZIP":60609,"LATTITUDE":41.80273484640242,"ADDRESS":"5032 S STATE ST  ","YEAR":2010,"DOING_BUSINESS_AS_NAME":"UNIVERSITY FOOD SYSTEMS, INC.","POP_AT_RISK":97912,"BUSINESS_TYPE":"Caterer's Liquor License","LEGAL_NAME":"UNIVERSITY FOOD SYSTEMS, INC.","LONGITUDE":-87.6260562037592},
{"STATE":"IL","ZIP":60639,"LATTITUDE":41.91706036515776,"ADDRESS":"4720 - 4726 W ARMITAGE AVE 1 ","YEAR":2010,"DOING_BUSINESS_AS_NAME":"GARDEN MANOR","POP_AT_RISK":776448,"BUSINESS_TYPE":"Caterer's Liquor License","LEGAL_NAME":"SARANECKI BROS. CATERING, INC.","LONGITUDE":-87.74456825581792},
{"STATE":"IL","ZIP":60634,"LATTITUDE":41.95304195595626,"ADDRESS":"6328-30 W IRVING PARK RD 1 ","YEAR":2010,"DOING_BUSINESS_AS_NAME":"GARDEN TERRACE","POP_AT_RISK":171156,"BUSINESS_TYPE":"Caterer's Liquor License","LEGAL_NAME":"SARANECKI BROS. CATERING, INC.","LONGITUDE":-87.7853004907991},
{"STATE":"IL","ZIP":60613,"LATTITUDE":41.951800759558395,"ADDRESS":"3819 N BROADWAY  1 ","YEAR":2010,"DOING_BUSINESS_AS_NAME":"THE HEARTY BOYS CATERERS","POP_AT_RISK":72818,"BUSINESS_TYPE":"Caterer's Liquor License","LEGAL_NAME":"THE HEARTY BOYS CATERERS, INC.","LONGITUDE":-87.64947747658742},
{"STATE":"IL","ZIP":60619,"LATTITUDE":41.72215178539514,"ADDRESS":"742 E 95TH ST  ","YEAR":2010,"DOING_BUSINESS_AS_NAME":"FANFARES CATERING","POP_AT_RISK":152992,"BUSINESS_TYPE":"Caterer's Liquor License","LEGAL_NAME":"FANFARES CATERING SERVICES, INC.","LONGITUDE":-87.60520403707496},
{"STATE":"IL","ZIP":60639,"LATTITUDE":41.909241879021444,"ADDRESS":"5643 W NORTH AVE 1 ","YEAR":2010,"DOING_BUSINESS_AS_NAME":"PRIME FOOD CATERERS, INCORPORATED","POP_AT_RISK":325500,"BUSINESS_TYPE":"Caterer's Liquor License","LEGAL_NAME":"PRIME FOOD CATERERS, INCORPORATED","LONGITUDE":-87.76751656543202},
{"STATE":"IL","ZIP":60631,"LATTITUDE":42.00327063383184,"ADDRESS":"6726 N NORTHWEST HWY  ","YEAR":2010,"DOING_BUSINESS_AS_NAME":"TAILGATORS","POP_AT_RISK":94590,"BUSINESS_TYPE":"Caterer's Liquor License","LEGAL_NAME":"TAILGATORS ON NORTHWEST HIGHWAY, INC.","LONGITUDE":-87.81715839653707},
{"STATE":"IL","ZIP":60649,"LATTITUDE":41.76660302216941,"ADDRESS":"7059 S SOUTH SHORE DR  ","YEAR":2010,"DOING_BUSINESS_AS_NAME":"THE PARROT CAGE","POP_AT_RISK":265416,"BUSINESS_TYPE":"Caterer's Liquor License","LEGAL_NAME":"FRIENDS OF WASHBURNE CULINARY INSTITUTE","LONGITUDE":-87.56632372273566},
{"STATE":"IL","ZIP":60612,"LATTITUDE":41.885269376078824,"ADDRESS":"1756 W LAKE ST  ","YEAR":2010,"DOING_BUSINESS_AS_NAME":"CARLYN BERGHOFF CATERING, INC","POP_AT_RISK":39329,"BUSINESS_TYPE":"Caterer's Liquor License","LEGAL_NAME":"BERGHOFF CATERING AND RESTAURANT GROUP, INC.","LONGITUDE":-87.6717191523204},
{}]