[
  {
    "BUSINESS_TYPE": "Tavern", 
    "LEGAL_NAME": "GRAND + ASHLAND TAP, INC.", 
    "STATE": "IL", 
    "DOING_BUSINESS_AS_NAME": "GRANDBAR", 
    "POP_AT_RISK": 47191, 
    "ZIP": 60622, 
    "ADDRESS": "1600 W GRAND AVE 1ST", 
    "YEAR": 2000, 
    "LONGITUDE": -87.667204058, 
    "LATTITUDE": 41.891087112
  }, 
  {
    "BUSINESS_TYPE": "Tavern", 
    "LEGAL_NAME": "GUADIANA, INC.", 
    "STATE": "IL", 
    "DOING_BUSINESS_AS_NAME": "DURANGO INC", 
    "POP_AT_RISK": 35389, 
    "ZIP": 60623, 
    "ADDRESS": "2702 S KILDARE AVE 1ST", 
    "YEAR": 2000, 
    "LONGITUDE": -87.731936217, 
    "LATTITUDE": 41.842161183
  }, 
  {
    "BUSINESS_TYPE": "Tavern", 
    "LEGAL_NAME": "BELMONT'S HAPPY DAYS, INC.", 
    "STATE": "IL", 
    "DOING_BUSINESS_AS_NAME": "HAPPY DAYS", 
    "POP_AT_RISK": 64192, 
    "ZIP": 60618, 
    "ADDRESS": "3808 W BELMONT AVE 1ST", 
    "YEAR": 2000, 
    "LONGITUDE": -87.722696516, 
    "LATTITUDE": 41.939259217
  }, 
  {
    "BUSINESS_TYPE": "Tavern", 
    "LEGAL_NAME": "MY OFFICE, INC.", 
    "STATE": "IL", 
    "DOING_BUSINESS_AS_NAME": "MY OFFICE, INC", 
    "POP_AT_RISK": 50255, 
    "ZIP": 60626, 
    "ADDRESS": "7356  -07358 N CLARK ST 1ST", 
    "YEAR": 2000, 
    "LONGITUDE": -87.67524427, 
    "LATTITUDE": 42.015380019
  }, 
  {
    "BUSINESS_TYPE": "Tavern", 
    "LEGAL_NAME": "GASPAR ARIAS, INC.", 
    "STATE": "IL", 
    "DOING_BUSINESS_AS_NAME": "THE BARREL", 
    "POP_AT_RISK": 47021, 
    "ZIP": 60608, 
    "ADDRESS": "2015 S DAMEN AVE", 
    "YEAR": 2000, 
    "LONGITUDE": -87.675759762, 
    "LATTITUDE": 41.854439155
  }, 
  {
    "BUSINESS_TYPE": "Tavern", 
    "LEGAL_NAME": "2356 CLUB INC", 
    "STATE": "IL", 
    "DOING_BUSINESS_AS_NAME": "SABRINA'S CLUB", 
    "POP_AT_RISK": 43141, 
    "ZIP": 60608, 
    "ADDRESS": "2356 S DAMEN AVE", 
    "YEAR": 2000, 
    "LONGITUDE": -87.675897599, 
    "LATTITUDE": 41.848647892
  }, 
  {
    "BUSINESS_TYPE": "Tavern", 
    "LEGAL_NAME": "EL FLANBOYAN CORP", 
    "STATE": "IL", 
    "DOING_BUSINESS_AS_NAME": "EL RIO PLATENSE LOUNGE", 
    "POP_AT_RISK": 60150, 
    "ZIP": 60651, 
    "ADDRESS": "1400  -01402 N HAMLIN AVE  NORTH", 
    "YEAR": 2000, 
    "LONGITUDE": -87.721697583, 
    "LATTITUDE": 41.906410759
  }, 
  {
    "BUSINESS_TYPE": "Tavern", 
    "LEGAL_NAME": "LELAND INN, INC.", 
    "STATE": "IL", 
    "DOING_BUSINESS_AS_NAME": "LELAND INN INC", 
    "POP_AT_RISK": 68676, 
    "ZIP": 60625, 
    "ADDRESS": "4663 N ROCKWELL ST 1ST", 
    "YEAR": 2000, 
    "LONGITUDE": -87.69359985, 
    "LATTITUDE": 41.96669264
  }, 
  {
    "BUSINESS_TYPE": "Tavern", 
    "LEGAL_NAME": "WHITESTOCK, INC.", 
    "STATE": "IL", 
    "DOING_BUSINESS_AS_NAME": "TWILIGHT LOUNGE", 
    "POP_AT_RISK": 43475, 
    "ZIP": 60630, 
    "ADDRESS": "4644 N CENTRAL AVE 1ST", 
    "YEAR": 2000, 
    "LONGITUDE": -87.767548994, 
    "LATTITUDE": 41.965416818
  }, 
  {
    "BUSINESS_TYPE": "Tavern", 
    "LEGAL_NAME": "LORRAINE STEPIEN", 
    "STATE": "IL", 
    "DOING_BUSINESS_AS_NAME": "LORRAINE STEPIEN", 
    "POP_AT_RISK": 54810, 
    "ZIP": 60622, 
    "ADDRESS": "1415 N WOOD ST 1ST", 
    "YEAR": 2000, 
    "LONGITUDE": -87.672348411, 
    "LATTITUDE": 41.907583209
  }, 
  {
    "BUSINESS_TYPE": "Tavern", 
    "LEGAL_NAME": "WORKINGMAN'S INC", 
    "STATE": "IL", 
    "DOING_BUSINESS_AS_NAME": "WORKINGMAN'S PALACE", 
    "POP_AT_RISK": 73464, 
    "ZIP": 60639, 
    "ADDRESS": "4400 W DIVERSEY AVE 1ST", 
    "YEAR": 2000, 
    "LONGITUDE": -87.736878103, 
    "LATTITUDE": 41.931770048
  }
]