[
{"STATE":"IL","ZIP":60643,"LATTITUDE":41.69326599525094,"ADDRESS":"11015 S ESMOND ST  ","YEAR":2010,"DOING_BUSINESS_AS_NAME":"NED JAMES III","POP_AT_RISK":24426,"BUSINESS_TYPE":"Peddler, non-food, special","LEGAL_NAME":"NED JAMES","LONGITUDE":-87.66711129116568},
{"STATE":"IL","ZIP":60643,"LATTITUDE":41.692446016824746,"ADDRESS":"842 W 111TH ST  ","YEAR":2010,"DOING_BUSINESS_AS_NAME":"MERCY HALL","POP_AT_RISK":34675,"BUSINESS_TYPE":"Peddler, non-food, special","LEGAL_NAME":"MERCY HALL","LONGITUDE":-87.64408133336032},
{"STATE":"IL","ZIP":60629,"LATTITUDE":41.78577186492004,"ADDRESS":"5914 S KEDZIE AVE  ","YEAR":2010,"DOING_BUSINESS_AS_NAME":"MODA URBANA","POP_AT_RISK":463434,"BUSINESS_TYPE":"Peddler, non-food, special","LEGAL_NAME":"RAMON MORA","LONGITUDE":-87.70348304106838},
{"STATE":"IL","ZIP":60613,"LATTITUDE":41.955406767031675,"ADDRESS":"4036 1\/2 N ASHLAND AVE BSMT B. N.","YEAR":2010,"DOING_BUSINESS_AS_NAME":"RATKO IKIC","POP_AT_RISK":943059,"BUSINESS_TYPE":"Peddler, non-food, special","LEGAL_NAME":"RATKO IKIC","LONGITUDE":-87.6692268091664},
{"STATE":"IL","ZIP":60612,"LATTITUDE":41.8663088793163,"ADDRESS":"3141 W ROOSEVELT RD 1ST ","YEAR":2010,"DOING_BUSINESS_AS_NAME":"RONALD DYE","POP_AT_RISK":167520,"BUSINESS_TYPE":"Peddler, non-food, special","LEGAL_NAME":"RONALD DYE","LONGITUDE":-87.70475896974072},
{"STATE":"IL","ZIP":60618,"LATTITUDE":41.933433854254275,"ADDRESS":"2853 N RIDGEWAY AVE  ","YEAR":2010,"DOING_BUSINESS_AS_NAME":"ROSA MALES","POP_AT_RISK":73822,"BUSINESS_TYPE":"Peddler, non-food, special","LEGAL_NAME":"ROSA MALES","LONGITUDE":-87.72075094028705},
{"STATE":"IL","ZIP":60609,"LATTITUDE":41.80622333464468,"ADDRESS":"4825 S UNION AVE 1ST ","YEAR":2010,"DOING_BUSINESS_AS_NAME":"JAMES PAYNE","POP_AT_RISK":35094,"BUSINESS_TYPE":"Peddler, non-food, special","LEGAL_NAME":"JAMES PAYNE","LONGITUDE":-87.64289387141828},
{"STATE":"IL","ZIP":60632,"LATTITUDE":41.82827406533502,"ADDRESS":"2535 W 36TH ST  ","YEAR":2010,"DOING_BUSINESS_AS_NAME":"RICHARD YAU","POP_AT_RISK":131202,"BUSINESS_TYPE":"Peddler, non-food, special","LEGAL_NAME":"RICHARD YAU","LONGITUDE":-87.68872540872758},
{"STATE":"IL","ZIP":60609,"LATTITUDE":41.794436604968084,"ADDRESS":"5448 S LAFLIN ST 2ND 2","YEAR":2010,"DOING_BUSINESS_AS_NAME":"ANDRE COOPER","POP_AT_RISK":264024,"BUSINESS_TYPE":"Peddler, non-food, special","LEGAL_NAME":"ANDRE COOPER","LONGITUDE":-87.6623137282483},
{"STATE":"IL","ZIP":60630,"LATTITUDE":41.963183921265326,"ADDRESS":"4536 N ELSTON AVE  ","YEAR":2010,"DOING_BUSINESS_AS_NAME":"BYRON YABLON","POP_AT_RISK":506297,"BUSINESS_TYPE":"Peddler, non-food, special","LEGAL_NAME":"BYRON YABLON","LONGITUDE":-87.73318715325468},
{"STATE":"IL","ZIP":60623,"LATTITUDE":41.85002136922524,"ADDRESS":"3258 W 23RD ST  ","YEAR":2010,"DOING_BUSINESS_AS_NAME":"ESTHER LOPEZ","POP_AT_RISK":155702,"BUSINESS_TYPE":"Peddler, non-food, special","LEGAL_NAME":"ESTHER LOPEZ","LONGITUDE":-87.70749265164322},
{"STATE":"IL","ZIP":60619,"LATTITUDE":41.75619457777317,"ADDRESS":"7612 S EBERHART AVE  ","YEAR":2010,"DOING_BUSINESS_AS_NAME":"HOGAN","POP_AT_RISK":83046,"BUSINESS_TYPE":"Peddler, non-food, special","LEGAL_NAME":"EARNEST HOGAN","LONGITUDE":-87.61276996803532},
{"STATE":"IL","ZIP":60622,"LATTITUDE":41.90922982418396,"ADDRESS":"2043 W PIERCE AVE 1ST ","YEAR":2010,"DOING_BUSINESS_AS_NAME":"HERMAN MILTON","POP_AT_RISK":367840,"BUSINESS_TYPE":"Peddler, non-food, special","LEGAL_NAME":"HERMAN MILTON","LONGITUDE":-87.67914391414072},
{"STATE":"IL","ZIP":60628,"LATTITUDE":41.667145379963394,"ADDRESS":"12456 S EGGLESTON AVE 1 ","YEAR":2010,"DOING_BUSINESS_AS_NAME":"LOUISE THOMAS","POP_AT_RISK":83092,"BUSINESS_TYPE":"Peddler, non-food, special","LEGAL_NAME":"LOUISE THOMAS","LONGITUDE":-87.63326830376171},
{"STATE":"IL","ZIP":60647,"LATTITUDE":41.914872525125695,"ADDRESS":"1842 N SPRINGFIELD AVE  1","YEAR":2010,"DOING_BUSINESS_AS_NAME":"RAMON  CORONEL","POP_AT_RISK":275408,"BUSINESS_TYPE":"Peddler, non-food, special","LEGAL_NAME":"RAMON CORONEL","LONGITUDE":-87.72419022922423},
{"STATE":"IL","ZIP":60617,"LATTITUDE":41.724956050405204,"ADDRESS":"9347 S MARQUETTE AVE 1ST ","YEAR":2010,"DOING_BUSINESS_AS_NAME":"ROBERT N. LEA","POP_AT_RISK":72915,"BUSINESS_TYPE":"Peddler, non-food, special","LEGAL_NAME":"ROBERT N. LEA","LONGITUDE":-87.55789208514238},
{"STATE":"IL","ZIP":60657,"LATTITUDE":41.935863313428065,"ADDRESS":"1823 W WELLINGTON AVE  ","YEAR":2010,"DOING_BUSINESS_AS_NAME":"RUBEN ALLEMAN","POP_AT_RISK":750825,"BUSINESS_TYPE":"Peddler, non-food, special","LEGAL_NAME":"RUBEN ALLEMAN","LONGITUDE":-87.67455775266669},
{"STATE":"IL","ZIP":60647,"LATTITUDE":41.91306997935742,"ADDRESS":"1725 N FRANCISCO AVE 1ST ","YEAR":2010,"DOING_BUSINESS_AS_NAME":"ANA MARIA CRUZ","POP_AT_RISK":267488,"BUSINESS_TYPE":"Peddler, non-food, special","LEGAL_NAME":"ANA MARIA CRUZ","LONGITUDE":-87.69902210467707},
{"STATE":"IL","ZIP":60620,"LATTITUDE":41.727384321321075,"ADDRESS":"9149 S WALLACE ST  ","YEAR":2010,"DOING_BUSINESS_AS_NAME":"GENEVA GLASPER","POP_AT_RISK":54606,"BUSINESS_TYPE":"Peddler, non-food, special","LEGAL_NAME":"GENEVA GLASPER","LONGITUDE":-87.63837083768685},
{"STATE":"IL","ZIP":60649,"LATTITUDE":41.7563710290834,"ADDRESS":"7733 S SOUTH SHORE DR  ","YEAR":2010,"DOING_BUSINESS_AS_NAME":"GEORGE GRIGSBY","POP_AT_RISK":53250,"BUSINESS_TYPE":"Peddler, non-food, special","LEGAL_NAME":"GEORGE GRIGSBY","LONGITUDE":-87.5525707335152},
{"STATE":"IL","ZIP":60617,"LATTITUDE":41.730660725451614,"ADDRESS":"9029 S CHAPPEL AVE  ","YEAR":2010,"DOING_BUSINESS_AS_NAME":"JALAINE A. MAY","POP_AT_RISK":37220,"BUSINESS_TYPE":"Peddler, non-food, special","LEGAL_NAME":"JALAINE A. MAY","LONGITUDE":-87.57419748759814},
{"STATE":"IL","ZIP":60626,"LATTITUDE":42.01607306391424,"ADDRESS":"1640 W JARVIS AVE  ","YEAR":2010,"DOING_BUSINESS_AS_NAME":"LORENZO JUAREZ","POP_AT_RISK":66427,"BUSINESS_TYPE":"Peddler, non-food, special","LEGAL_NAME":"LORENZO JUAREZ","LONGITUDE":-87.6718696026318},
{"STATE":"IL","ZIP":60608,"LATTITUDE":41.84074813969724,"ADDRESS":"2953 S ARCHER AVE  ","YEAR":2010,"DOING_BUSINESS_AS_NAME":"RONALD SPOSATO","POP_AT_RISK":314730,"BUSINESS_TYPE":"Peddler, non-food, special","LEGAL_NAME":"RONALD SPOSATO","LONGITUDE":-87.65954690780782},
{"STATE":"IL","ZIP":60827,"LATTITUDE":41.65576175146191,"ADDRESS":"13156 S FORRESTVILLE AVE  ","YEAR":2010,"DOING_BUSINESS_AS_NAME":"ANNA F. JAMISON","POP_AT_RISK":12964,"BUSINESS_TYPE":"Peddler, non-food, special","LEGAL_NAME":"ANNA F. JAMISON","LONGITUDE":-87.60868577123667},
{"STATE":"IL","ZIP":60617,"LATTITUDE":41.73930836331373,"ADDRESS":"8554 S MARQUETTE AVE  ","YEAR":2010,"DOING_BUSINESS_AS_NAME":"BERTHA FIELDS","POP_AT_RISK":35081,"BUSINESS_TYPE":"Peddler, non-food, special","LEGAL_NAME":"BERTHA L FIELDS","LONGITUDE":-87.55889906395021},
{"STATE":"IL","ZIP":60651,"LATTITUDE":41.906574497484414,"ADDRESS":"1430 N MASON AVE  ","YEAR":2010,"DOING_BUSINESS_AS_NAME":"CLARITA T. COOK","POP_AT_RISK":90480,"BUSINESS_TYPE":"Peddler, non-food, special","LEGAL_NAME":"CLARITA T. COOK","LONGITUDE":-87.7744464031899},
{"STATE":"IL","ZIP":60608,"LATTITUDE":41.85771947145135,"ADDRESS":"2152 W 18TH ST  ","YEAR":2010,"DOING_BUSINESS_AS_NAME":"FRANCISCA VIVAR","POP_AT_RISK":223260,"BUSINESS_TYPE":"Peddler, non-food, special","LEGAL_NAME":"FRANCISCA VIVAR","LONGITUDE":-87.6805862525463},
{"STATE":"IL","ZIP":60607,"LATTITUDE":41.88008566659281,"ADDRESS":"1515 W MONROE ST 2 215","YEAR":2010,"DOING_BUSINESS_AS_NAME":"GREGORY G. HUNT","POP_AT_RISK":35537,"BUSINESS_TYPE":"Peddler, non-food, special","LEGAL_NAME":"GREGORY G. HUNT","LONGITUDE":-87.66505441566734},
{"STATE":"IL","ZIP":60643,"LATTITUDE":41.70014225660636,"ADDRESS":"10636 S VINCENNES AVE  ","YEAR":2010,"DOING_BUSINESS_AS_NAME":"LELA B ANDERSON","POP_AT_RISK":25921,"BUSINESS_TYPE":"Peddler, non-food, special","LEGAL_NAME":"LELA B ANDERSON","LONGITUDE":-87.65863650170006},
{"STATE":"IL","ZIP":60628,"LATTITUDE":41.70501718972912,"ADDRESS":"10418 S CORLISS AVE 1 ","YEAR":2010,"DOING_BUSINESS_AS_NAME":"MARGARET HOWARD","POP_AT_RISK":18643,"BUSINESS_TYPE":"Peddler, non-food, special","LEGAL_NAME":"MARGARET HOWARD","LONGITUDE":-87.60408780862248},
{"STATE":"IL","ZIP":60639,"LATTITUDE":41.923172564205224,"ADDRESS":"4959 W MEDILL AVE 1 ","YEAR":2010,"DOING_BUSINESS_AS_NAME":"MICHAEL HOPKINS","POP_AT_RISK":126180,"BUSINESS_TYPE":"Peddler, non-food, special","LEGAL_NAME":"MICHAEL HOPKINS","LONGITUDE":-87.7510766527435},
{"STATE":"IL","ZIP":60628,"LATTITUDE":41.68996649839582,"ADDRESS":"26 W 112TH PL  ","YEAR":2010,"DOING_BUSINESS_AS_NAME":"NADINE A DENNIS","POP_AT_RISK":31102,"BUSINESS_TYPE":"Peddler, non-food, special","LEGAL_NAME":"NADINE A DENNIS","LONGITUDE":-87.62405233181015},
{"STATE":"IL","ZIP":60619,"LATTITUDE":41.75220194424993,"ADDRESS":"7821 S INDIANA AVE  ","YEAR":2010,"DOING_BUSINESS_AS_NAME":"SAMUEL BLISSIT","POP_AT_RISK":39050,"BUSINESS_TYPE":"Peddler, non-food, special","LEGAL_NAME":"SAMUEL BLISSITT","LONGITUDE":-87.619650095462},
{"STATE":"IL","ZIP":60652,"LATTITUDE":41.748213691450154,"ADDRESS":"7954 S RICHMOND ST 1ST ","YEAR":2010,"DOING_BUSINESS_AS_NAME":"KEELA M STUCKEY","POP_AT_RISK":52106,"BUSINESS_TYPE":"Peddler, non-food, special","LEGAL_NAME":"KEELA M. STUCKEY","LONGITUDE":-87.69639048309101},
{"STATE":"IL","ZIP":60625,"LATTITUDE":41.98121175480613,"ADDRESS":"2555 W CATALPA AVE  ","YEAR":2010,"DOING_BUSINESS_AS_NAME":"MEHMET AYDINOGLU","POP_AT_RISK":490580,"BUSINESS_TYPE":"Peddler, non-food, special","LEGAL_NAME":"MEHMET AYDINOGLU","LONGITUDE":-87.69400586807798},
{"STATE":"IL","ZIP":60641,"LATTITUDE":41.935335737548286,"ADDRESS":"3001 N KNOX AVE  ","YEAR":2010,"DOING_BUSINESS_AS_NAME":"MICHAEL SPAGNOLA","POP_AT_RISK":104530,"BUSINESS_TYPE":"Peddler, non-food, special","LEGAL_NAME":"MICHAEL SPAGNOLA","LONGITUDE":-87.74296362743519},
{"STATE":"IL","ZIP":60620,"LATTITUDE":41.73403894416261,"ADDRESS":"8803 S MORGAN ST  ","YEAR":2010,"DOING_BUSINESS_AS_NAME":"BARBARA A. WRIGHT","POP_AT_RISK":66622,"BUSINESS_TYPE":"Peddler, non-food, special","LEGAL_NAME":"BARBARA A. WRIGHT","LONGITUDE":-87.64829508959815},
{"STATE":"IL","ZIP":60637,"LATTITUDE":41.78198276638777,"ADDRESS":"6210 S KIMBARK AVE  ","YEAR":2010,"DOING_BUSINESS_AS_NAME":"BEULAH M. OKONKWO","POP_AT_RISK":35549,"BUSINESS_TYPE":"Peddler, non-food, special","LEGAL_NAME":"BEULAH M. OKONKWO","LONGITUDE":-87.59482421326233},
{"STATE":"IL","ZIP":60630,"LATTITUDE":41.96221794371823,"ADDRESS":"4455 N LINDER AVE 2ND ","YEAR":2010,"DOING_BUSINESS_AS_NAME":"LORETTA M MATHEIS","POP_AT_RISK":476070,"BUSINESS_TYPE":"Peddler, non-food, special","LEGAL_NAME":"LORETTA M MATHEIS","LONGITUDE":-87.76469069317187},
{"STATE":"IL","ZIP":60646,"LATTITUDE":41.98395788346647,"ADDRESS":"5643 N KENNETH AVE  ","YEAR":2010,"DOING_BUSINESS_AS_NAME":"RICHARD W. GORNEY","POP_AT_RISK":18097,"BUSINESS_TYPE":"Peddler, non-food, special","LEGAL_NAME":"RICHARD W. GORNEY","LONGITUDE":-87.73950643230681},
{"STATE":"IL","ZIP":60616,"LATTITUDE":41.857792921043036,"ADDRESS":"1801 S WABASH AVE 6TH 628","YEAR":2010,"DOING_BUSINESS_AS_NAME":"SAMANICO A STARKS","POP_AT_RISK":122094,"BUSINESS_TYPE":"Peddler, non-food, special","LEGAL_NAME":"SAMANICO A STARKS","LONGITUDE":-87.62546236883539},
{"STATE":"IL","ZIP":60649,"LATTITUDE":41.773277177020596,"ADDRESS":"1753 E 67TH ST 3RD ","YEAR":2010,"DOING_BUSINESS_AS_NAME":"JAMES R. CHILDRESS","POP_AT_RISK":34112,"BUSINESS_TYPE":"Peddler, non-food, special","LEGAL_NAME":"JAMES R. CHILDRESS","LONGITUDE":-87.58173030021901},
{"STATE":"IL","ZIP":60617,"LATTITUDE":41.70262075649605,"ADDRESS":"3649 E 106TH ST  ","YEAR":2010,"DOING_BUSINESS_AS_NAME":"BOBBY LOUIS HOLIDAY","POP_AT_RISK":104835,"BUSINESS_TYPE":"Peddler, non-food, special","LEGAL_NAME":"BOBBY LOUIS HOLIDAY","LONGITUDE":-87.53455855561775},
{"STATE":"IL","ZIP":60659,"LATTITUDE":41.99360501680627,"ADDRESS":"3817 W GRANVILLE AVE  ","YEAR":2010,"DOING_BUSINESS_AS_NAME":"HERBERT HOFFMAN SR.","POP_AT_RISK":120152,"BUSINESS_TYPE":"Peddler, non-food, special","LEGAL_NAME":"HERBERT HOFFMAN SR.","LONGITUDE":-87.72467514813182},
{"STATE":"IL","ZIP":60645,"LATTITUDE":42.00639374235568,"ADDRESS":"2310 W FARWELL AVE  ","YEAR":2010,"DOING_BUSINESS_AS_NAME":"HOWARD L. WHISENTON","POP_AT_RISK":234144,"BUSINESS_TYPE":"Peddler, non-food, special","LEGAL_NAME":"HOWARD L. WHISENTON","LONGITUDE":-87.6884980558811},
{"STATE":"IL","ZIP":60629,"LATTITUDE":41.77183829668123,"ADDRESS":"3026 W MARQUETTE RD 3 ","YEAR":2010,"DOING_BUSINESS_AS_NAME":"NEDRA Y LOGAN-DYE","POP_AT_RISK":96976,"BUSINESS_TYPE":"Peddler, non-food, special","LEGAL_NAME":"NIEDRAH Y LOGAN-DYE","LONGITUDE":-87.69908243017711},
{"STATE":"IL","ZIP":60612,"LATTITUDE":41.884678131218955,"ADDRESS":"2066 W RANDOLPH ST  ","YEAR":2010,"DOING_BUSINESS_AS_NAME":"GWENDOLYN M. WOODSON","POP_AT_RISK":73560,"BUSINESS_TYPE":"Peddler, non-food, special","LEGAL_NAME":"GWENDOLYN M. WOODSON","LONGITUDE":-87.67908513926295},
{"STATE":"IL","ZIP":60607,"LATTITUDE":41.88371507587743,"ADDRESS":"120 N SANGAMON ST  ","YEAR":2010,"DOING_BUSINESS_AS_NAME":"HAROLD CORNELL HALEY","POP_AT_RISK":43409,"BUSINESS_TYPE":"Peddler, non-food, special","LEGAL_NAME":"HAROLD CORNELL HALEY","LONGITUDE":-87.65106665042869},
{"STATE":"IL","ZIP":60618,"LATTITUDE":41.942046484997896,"ADDRESS":"3335 N RIDGEWAY AVE  ","YEAR":2010,"DOING_BUSINESS_AS_NAME":"JULIANA MARIE MARTIN","POP_AT_RISK":121510,"BUSINESS_TYPE":"Peddler, non-food, special","LEGAL_NAME":"JULIANA MARIE MARTIN","LONGITUDE":-87.721007984604},
{"STATE":"IL","ZIP":60202,"LATTITUDE":41.87471264144523,"ADDRESS":"548  SHERMAN AVE  ","YEAR":2010,"DOING_BUSINESS_AS_NAME":"LOUIS ANDREW CALHOUN","POP_AT_RISK":143010,"BUSINESS_TYPE":"Peddler, non-food, special","LEGAL_NAME":"LOUIS ANDREW CALHOUN","LONGITUDE":-87.63320763683711},
{"STATE":"IL","ZIP":60624,"LATTITUDE":41.88177474368886,"ADDRESS":"3833 W WASHINGTON BLVD  606","YEAR":2010,"DOING_BUSINESS_AS_NAME":"CHARLES ANTHONY GLASS","POP_AT_RISK":108537,"BUSINESS_TYPE":"Peddler, non-food, special","LEGAL_NAME":"CHARLES ANTHONY GLASS","LONGITUDE":-87.72208641476261},
{"STATE":"IL","ZIP":60643,"LATTITUDE":41.700741427626355,"ADDRESS":"10604 S WALDEN PKWY  ","YEAR":2010,"DOING_BUSINESS_AS_NAME":"JEANETTE MARIE HANSON","POP_AT_RISK":49428,"BUSINESS_TYPE":"Peddler, non-food, special","LEGAL_NAME":"JEANETTE MARIE HANSON","LONGITUDE":-87.66996835430386},
{"STATE":"IL","ZIP":60653,"LATTITUDE":41.82575322072134,"ADDRESS":"340 E 38TH ST 1 1008","YEAR":2010,"DOING_BUSINESS_AS_NAME":"LENORD S. MONTGOMERY","POP_AT_RISK":93519,"BUSINESS_TYPE":"Peddler, non-food, special","LEGAL_NAME":"LENORDE S. MONTGOMERY","LONGITUDE":-87.61751742817356},
{"STATE":"IL","ZIP":60613,"LATTITUDE":41.950542973283994,"ADDRESS":"3727 N PINE GROVE AVE 1 ","YEAR":2010,"DOING_BUSINESS_AS_NAME":"JOHN J. HOLTSCHLAG JR.","POP_AT_RISK":735669,"BUSINESS_TYPE":"Peddler, non-food, special","LEGAL_NAME":"JOHN J. HOLTSCHLAG JR.","LONGITUDE":-87.64697530148996},
{"STATE":"IL","ZIP":60628,"LATTITUDE":41.709734536063664,"ADDRESS":"10138 S PRAIRIE AVE  ","YEAR":2010,"DOING_BUSINESS_AS_NAME":"LONNIE GEORGE BUGGS","POP_AT_RISK":25120,"BUSINESS_TYPE":"Peddler, non-food, special","LEGAL_NAME":"LONNIE GEORGE BUGGS JR.","LONGITUDE":-87.61763033718914},
{"STATE":"IL","ZIP":60609,"LATTITUDE":41.81431029889535,"ADDRESS":"4346 S WESTERN AVE 2 ","YEAR":2010,"DOING_BUSINESS_AS_NAME":"J. ISMAEL PALOMAR PADILLA","POP_AT_RISK":53778,"BUSINESS_TYPE":"Peddler, non-food, special","LEGAL_NAME":"J ISMAEL PALOMAR PADILLA","LONGITUDE":-87.68473320613371},
{}]