[
{"STATE":"IL","ZIP":60628,"LATTITUDE":41.721521661075066,"ADDRESS":"247 W 95TH ST 1ST ","YEAR":1998,"DOING_BUSINESS_AS_NAME":"SKYNET","POP_AT_RISK":271000,"BUSINESS_TYPE":"Limited Business License","LEGAL_NAME":"SKYNET","LONGITUDE":-87.63057632938276},
{"STATE":"IL","ZIP":60608,"LATTITUDE":41.8578724323867,"ADDRESS":"1648 W 18TH ST  ","YEAR":1998,"DOING_BUSINESS_AS_NAME":"RUBY REED","POP_AT_RISK":41944,"BUSINESS_TYPE":"Limited Business License","LEGAL_NAME":"RUBY REED","LONGITUDE":-87.66819631105814},
{"STATE":"IL","ZIP":60608,"LATTITUDE":41.851551840089186,"ADDRESS":"2221 S ASHLAND AVE  1ST","YEAR":1998,"DOING_BUSINESS_AS_NAME":"MARK'S USED AUTO PARTS,INC.","POP_AT_RISK":119796,"BUSINESS_TYPE":"Limited Business License","LEGAL_NAME":"MARK CITRON","LONGITUDE":-87.66587169900897},
{"STATE":"IL","ZIP":60629,"LATTITUDE":41.785831843419345,"ADDRESS":"5913 S KEDZIE AVE 1ST ","YEAR":1998,"DOING_BUSINESS_AS_NAME":"JASMINE'S FLOWERS & GIFT SHOP","POP_AT_RISK":1081346,"BUSINESS_TYPE":"Limited Business License","LEGAL_NAME":"GAVIO FLORES","LONGITUDE":-87.70319149397002},
{"STATE":"IL","ZIP":60649,"LATTITUDE":41.766408479170444,"ADDRESS":"2230 E 71ST ST  1","YEAR":1998,"DOING_BUSINESS_AS_NAME":"SHORELANE CARPET CO","POP_AT_RISK":364815,"BUSINESS_TYPE":"Limited Business License","LEGAL_NAME":"ALEX P GBAYEE","LONGITUDE":-87.57015458712299},
{"STATE":"IL","ZIP":60608,"LATTITUDE":41.85180565614899,"ADDRESS":"2735 W CERMAK RD 1ST ","YEAR":1998,"DOING_BUSINESS_AS_NAME":"SANTOS ELETRONICS","POP_AT_RISK":791154,"BUSINESS_TYPE":"Limited Business License","LEGAL_NAME":"BERNABE SANTOS","LONGITUDE":-87.69442865831746},
{"STATE":"IL","ZIP":60630,"LATTITUDE":41.96635643578692,"ADDRESS":"5415 W GIDDINGS ST  ","YEAR":1998,"DOING_BUSINESS_AS_NAME":"ZYWARSKI CONSTRUCTION","POP_AT_RISK":385065,"BUSINESS_TYPE":"Limited Business License","LEGAL_NAME":"BOZENA ZYWARSKI","LONGITUDE":-87.76314377942447},
{"STATE":"IL","ZIP":60657,"LATTITUDE":41.93881137515479,"ADDRESS":"3144 N LINCOLN AVE 1ST ","YEAR":1998,"DOING_BUSINESS_AS_NAME":"JAKES JUNK","POP_AT_RISK":478296,"BUSINESS_TYPE":"Limited Business License","LEGAL_NAME":"JAKE BLUMENTHAL","LONGITUDE":-87.6676774511358},
{"STATE":"IL","ZIP":60607,"LATTITUDE":41.86613815036876,"ADDRESS":"1235 S HALSTED ST 1ST ","YEAR":1998,"DOING_BUSINESS_AS_NAME":"JESSE'S STORE FOR MEN","POP_AT_RISK":317128,"BUSINESS_TYPE":"Limited Business License","LEGAL_NAME":"JAY OPPENHEIMER","LONGITUDE":-87.64673847325493},
{"STATE":"IL","ZIP":60622,"LATTITUDE":41.90307533447052,"ADDRESS":"2007 W DIVISION ST 1ST ","YEAR":1998,"DOING_BUSINESS_AS_NAME":"FOOD & DRINK INC","POP_AT_RISK":804991,"BUSINESS_TYPE":"Limited Business License","LEGAL_NAME":"FOOD & DRINK INC","LONGITUDE":-87.67760361077798},
{"STATE":"IL","ZIP":60614,"LATTITUDE":41.921819404928456,"ADDRESS":"2222 N ELSTON AVE 1ST ","YEAR":1998,"DOING_BUSINESS_AS_NAME":"DOYLE STEARNS SAILMAKERS","POP_AT_RISK":355306,"BUSINESS_TYPE":"Limited Business License","LEGAL_NAME":"MURPHY & NYE INC","LONGITUDE":-87.67301521676625},
{"STATE":"IL","ZIP":60657,"LATTITUDE":41.944572137471724,"ADDRESS":"946 W NEWPORT AVE 1ST ","YEAR":1998,"DOING_BUSINESS_AS_NAME":"ECLIPSE","POP_AT_RISK":1217552,"BUSINESS_TYPE":"Limited Business License","LEGAL_NAME":"IRENE M GUTIERREZ","LONGITUDE":-87.65371289840517},
{"STATE":"IL","ZIP":60612,"LATTITUDE":41.88665484948844,"ADDRESS":"2011 W FULTON ST 1ST ","YEAR":1998,"DOING_BUSINESS_AS_NAME":"GLOBAL BEVERAGE INC","POP_AT_RISK":269388,"BUSINESS_TYPE":"Limited Business License","LEGAL_NAME":"GLOBAL BEVERAGE INC","LONGITUDE":-87.67729024853641},
{"STATE":"IL","ZIP":60618,"LATTITUDE":41.93605703419472,"ADDRESS":"3022 N MILWAUKEE AVE 1ST ","YEAR":1998,"DOING_BUSINESS_AS_NAME":"C & Z TRADING","POP_AT_RISK":621700,"BUSINESS_TYPE":"Limited Business License","LEGAL_NAME":"ZDSISLAW & ELWIRA CZUBA","LONGITUDE":-87.7190941332981},
{"STATE":"IL","ZIP":60644,"LATTITUDE":41.880188362611925,"ADDRESS":"5419 W MADISON ST  ","YEAR":1998,"DOING_BUSINESS_AS_NAME":"PATTERSON'S DONE RITE FLORIST","POP_AT_RISK":612216,"BUSINESS_TYPE":"Limited Business License","LEGAL_NAME":"PATTERSON'S DONE RITE FLORIST","LONGITUDE":-87.76086644497366},
{"STATE":"IL","ZIP":60618,"LATTITUDE":41.94491316658512,"ADDRESS":"3508 N ELSTON AVE  1","YEAR":1998,"DOING_BUSINESS_AS_NAME":"SIGNATURE SCREEN PRINTING CORP","POP_AT_RISK":435544,"BUSINESS_TYPE":"Limited Business License","LEGAL_NAME":"SIGNATURE SCREEN PRINTING CORP","LONGITUDE":-87.7065567333575},
{}]