[
{"STATE":"IL","ZIP":60617,"LATTITUDE":41.74269984844993,"ADDRESS":"8401 S MUSKEGON AVE  ","YEAR":2003,"DOING_BUSINESS_AS_NAME":"LA MODERNA","POP_AT_RISK":332470,"BUSINESS_TYPE":"Tobacco Retail Over Counter","LEGAL_NAME":"HECTOR ZAMUDIO","LONGITUDE":-87.55501855817249},
{"STATE":"IL","ZIP":60609,"LATTITUDE":41.82853331319285,"ADDRESS":"3637 S STATE ST 1ST ","YEAR":2003,"DOING_BUSINESS_AS_NAME":"ABUADAS'S FOOD","POP_AT_RISK":565668,"BUSINESS_TYPE":"Tobacco Retail Over Counter","LEGAL_NAME":"YASSER ABUADAS","LONGITUDE":-87.6263556588877},
{"STATE":"IL","ZIP":60651,"LATTITUDE":41.90099231575187,"ADDRESS":"1101 N RIDGEWAY AVE  ","YEAR":2003,"DOING_BUSINESS_AS_NAME":"DEER FOODS, INC.","POP_AT_RISK":584796,"BUSINESS_TYPE":"Tobacco Retail Over Counter","LEGAL_NAME":"DEER FOODS, INC.","LONGITUDE":-87.7200119529277},
{"STATE":"IL","ZIP":60651,"LATTITUDE":41.90229423400523,"ADDRESS":"5418 W DIVISION ST  ","YEAR":2003,"DOING_BUSINESS_AS_NAME":"D.I.V. MINI MART","POP_AT_RISK":745612,"BUSINESS_TYPE":"Tobacco Retail Over Counter","LEGAL_NAME":"TERESA L. BELLAMY","LONGITUDE":-87.76175168022696},
{"STATE":"IL","ZIP":60647,"LATTITUDE":41.91017264385976,"ADDRESS":"2525 W NORTH AVE  ","YEAR":2003,"DOING_BUSINESS_AS_NAME":"LUNA FOOD MART INC.","POP_AT_RISK":1617216,"BUSINESS_TYPE":"Tobacco Retail Over Counter","LEGAL_NAME":"LUNA FOOD MART INC.","LONGITUDE":-87.69067799640872},
{"STATE":"IL","ZIP":60622,"LATTITUDE":41.8938974141881,"ADDRESS":"649 N ASHLAND AVE 1ST ","YEAR":2003,"DOING_BUSINESS_AS_NAME":"GLOBAL GAS FOR LESS","POP_AT_RISK":606099,"BUSINESS_TYPE":"Tobacco Retail Over Counter","LEGAL_NAME":"GOLDEN INDUSTRIES INC","LONGITUDE":-87.66707935455437},
{"STATE":"IL","ZIP":60611,"LATTITUDE":41.89924859703626,"ADDRESS":"900 N MICHIGAN AVE  ","YEAR":2003,"DOING_BUSINESS_AS_NAME":"METROMART NEWSSTAND","POP_AT_RISK":1181768,"BUSINESS_TYPE":"Tobacco Retail Over Counter","LEGAL_NAME":"ELECTROCOM ENTERPRISE INC","LONGITUDE":-87.62427497820545},
{"STATE":"IL","ZIP":60602,"LATTITUDE":41.88199229825289,"ADDRESS":"2 N LA SALLE ST  GROUN","YEAR":2003,"DOING_BUSINESS_AS_NAME":"METROMART NEWSSTAND","POP_AT_RISK":263175,"BUSINESS_TYPE":"Tobacco Retail Over Counter","LEGAL_NAME":"ELECTROCOM ENTERPRISE INC","LONGITUDE":-87.63250662670102},
{}]