[
  {
    "BUSINESS_TYPE": "Tobacco", 
    "LEGAL_NAME": "FOUR FRIENDS CIGAR CO", 
    "STATE": "IL", 
    "DOING_BUSINESS_AS_NAME": "FOUR FRIENDS CIGAR SHOP", 
    "POP_AT_RISK": 33204, 
    "ZIP": 60609, 
    "ADDRESS": "3516 S HALSTED ST 1ST", 
    "YEAR": 2000, 
    "LONGITUDE": -87.646240828, 
    "LATTITUDE": 41.830197345
  }, 
  {
    "BUSINESS_TYPE": "Tobacco", 
    "LEGAL_NAME": "ZACATECAS, INC.", 
    "STATE": "IL", 
    "DOING_BUSINESS_AS_NAME": "SON OF A BUTCHER TAVERN", 
    "POP_AT_RISK": 54119, 
    "ZIP": 60647, 
    "ADDRESS": "2934 W DIVERSEY AVE 1ST", 
    "YEAR": 2000, 
    "LONGITUDE": -87.701518317, 
    "LATTITUDE": 41.932178909
  }, 
  {
    "BUSINESS_TYPE": "Tobacco", 
    "LEGAL_NAME": "REDD'S FOOD INC", 
    "STATE": "IL", 
    "DOING_BUSINESS_AS_NAME": "REDD'S FOOD", 
    "POP_AT_RISK": 58928, 
    "ZIP": 60623, 
    "ADDRESS": "1501 S CENTRAL PARK AVE 1", 
    "YEAR": 2000, 
    "LONGITUDE": -87.715111331, 
    "LATTITUDE": 41.860714096
  }, 
  {
    "BUSINESS_TYPE": "Tobacco", 
    "LEGAL_NAME": "LORRAINE STEPIEN", 
    "STATE": "IL", 
    "DOING_BUSINESS_AS_NAME": "LORRAINE STEPIEN", 
    "POP_AT_RISK": 54810, 
    "ZIP": 60622, 
    "ADDRESS": "1415 N WOOD ST 1ST", 
    "YEAR": 2000, 
    "LONGITUDE": -87.672348411, 
    "LATTITUDE": 41.907583209
  }, 
  {
    "BUSINESS_TYPE": "Tobacco", 
    "LEGAL_NAME": "JEFFREY & MIKE EISERMAN", 
    "STATE": "IL", 
    "DOING_BUSINESS_AS_NAME": "NATIONAL OIL COMPANY", 
    "POP_AT_RISK": 56887, 
    "ZIP": 60659, 
    "ADDRESS": "2500 W PETERSON AVE 1ST", 
    "YEAR": 2000, 
    "LONGITUDE": -87.692161963, 
    "LATTITUDE": 41.990593214
  }, 
  {
    "BUSINESS_TYPE": "Tobacco", 
    "LEGAL_NAME": "SHREE RIDDHI DOLLAR BUY PLUS I", 
    "STATE": "IL", 
    "DOING_BUSINESS_AS_NAME": "K & S FOOD MART", 
    "POP_AT_RISK": 73733, 
    "ZIP": 60639, 
    "ADDRESS": "1854 N PULASKI RD 1ST", 
    "YEAR": 2000, 
    "LONGITUDE": -87.72664923, 
    "LATTITUDE": 41.915197345
  }, 
  {
    "BUSINESS_TYPE": "Tobacco", 
    "LEGAL_NAME": "HAPPY DAY CORPORATION", 
    "STATE": "IL", 
    "DOING_BUSINESS_AS_NAME": "HAPPY DAY FOOD & LIQUOR", 
    "POP_AT_RISK": 63177, 
    "ZIP": 60618, 
    "ADDRESS": "3755 W MONTROSE AVE 1ST", 
    "YEAR": 2000, 
    "LONGITUDE": -87.722707523, 
    "LATTITUDE": 41.960902061
  }, 
  {
    "BUSINESS_TYPE": "Tobacco", 
    "LEGAL_NAME": "7 DAY FOOD MART INC.", 
    "STATE": "IL", 
    "DOING_BUSINESS_AS_NAME": "7 DAY FOOD MART INC", 
    "POP_AT_RISK": 30366, 
    "ZIP": 60628, 
    "ADDRESS": "10634 S HALSTED ST", 
    "YEAR": 2000, 
    "LONGITUDE": -87.642777508, 
    "LATTITUDE": 41.700405992
  }, 
  {
    "BUSINESS_TYPE": "Tobacco", 
    "LEGAL_NAME": "SAM-MET INC", 
    "STATE": "IL", 
    "DOING_BUSINESS_AS_NAME": "CICERO & DIVISION SHELL", 
    "POP_AT_RISK": 43668, 
    "ZIP": 60651, 
    "ADDRESS": "1150 N CICERO AVE 1ST", 
    "YEAR": 2000, 
    "LONGITUDE": -87.746117056, 
    "LATTITUDE": 41.902028438
  }, 
  {
    "BUSINESS_TYPE": "Tobacco", 
    "LEGAL_NAME": "SAMIA MOHAMMAD", 
    "STATE": "IL", 
    "DOING_BUSINESS_AS_NAME": "DOLLAR STORE", 
    "POP_AT_RISK": 43497, 
    "ZIP": 60629, 
    "ADDRESS": "2413 W 63RD ST", 
    "YEAR": 2000, 
    "LONGITUDE": -87.684247594, 
    "LATTITUDE": 41.779136612
  }, 
  {
    "BUSINESS_TYPE": "Tobacco", 
    "LEGAL_NAME": "ITEHAD INCORPORATED", 
    "STATE": "IL", 
    "DOING_BUSINESS_AS_NAME": "J&B SUBMAR1NE", 
    "POP_AT_RISK": 34909, 
    "ZIP": 60637, 
    "ADDRESS": "6315 S COTTAGE GROVE AVE 1", 
    "YEAR": 2000, 
    "LONGITUDE": -87.605772938, 
    "LATTITUDE": 41.779926504
  }, 
  {
    "BUSINESS_TYPE": "Tobacco", 
    "LEGAL_NAME": "LOW PRICE PANTRY INC", 
    "STATE": "IL", 
    "DOING_BUSINESS_AS_NAME": "LOW PRICE PANTRY", 
    "POP_AT_RISK": 31938, 
    "ZIP": 60645, 
    "ADDRESS": "2804 W TOUHY AVE", 
    "YEAR": 2000, 
    "LONGITUDE": -87.699987963, 
    "LATTITUDE": 42.012168722
  }, 
  {
    "BUSINESS_TYPE": "Tobacco", 
    "LEGAL_NAME": "FRANK'S SERVICE II, INC", 
    "STATE": "IL", 
    "DOING_BUSINESS_AS_NAME": "FRANK'S SERVICE II, INC", 
    "POP_AT_RISK": 74533, 
    "ZIP": 60647, 
    "ADDRESS": "2801 W ARMITAGE AVE  1ST", 
    "YEAR": 2000, 
    "LONGITUDE": -87.69725064, 
    "LATTITUDE": 41.917379317
  }, 
  {
    "BUSINESS_TYPE": "Tobacco", 
    "LEGAL_NAME": "GASPAR ARIAS, INC.", 
    "STATE": "IL", 
    "DOING_BUSINESS_AS_NAME": "THE BARREL", 
    "POP_AT_RISK": 47021, 
    "ZIP": 60608, 
    "ADDRESS": "2015 S DAMEN AVE", 
    "YEAR": 2000, 
    "LONGITUDE": -87.675759762, 
    "LATTITUDE": 41.854439155
  }, 
  {
    "BUSINESS_TYPE": "Tobacco", 
    "LEGAL_NAME": "JOSE RODRIGUEZ", 
    "STATE": "IL", 
    "DOING_BUSINESS_AS_NAME": "THE LEGACY", 
    "POP_AT_RISK": 65231, 
    "ZIP": 60618, 
    "ADDRESS": "3042 W IRVING PARK RD 1ST", 
    "YEAR": 2000, 
    "LONGITUDE": -87.704886117, 
    "LATTITUDE": 41.954049206
  }, 
  {
    "BUSINESS_TYPE": "Tobacco", 
    "LEGAL_NAME": "REOLA CHARLESTON", 
    "STATE": "IL", 
    "DOING_BUSINESS_AS_NAME": "REOLA CHARLESTON", 
    "POP_AT_RISK": 18513, 
    "ZIP": 60619, 
    "ADDRESS": "1024 E 93RD ST", 
    "YEAR": 2000, 
    "LONGITUDE": -87.598570443, 
    "LATTITUDE": 41.725904541
  }, 
  {
    "BUSINESS_TYPE": "Tobacco", 
    "LEGAL_NAME": "ALI MEAT MARKET INC", 
    "STATE": "IL", 
    "DOING_BUSINESS_AS_NAME": "ALI MEAT MARKET", 
    "POP_AT_RISK": 29949, 
    "ZIP": 60637, 
    "ADDRESS": "200 E 69TH ST", 
    "YEAR": 2000, 
    "LONGITUDE": -87.620133021, 
    "LATTITUDE": 41.769358766
  }, 
  {
    "BUSINESS_TYPE": "Tobacco", 
    "LEGAL_NAME": "LAKEVIEW BILLIARD CAFE, INC.", 
    "STATE": "IL", 
    "DOING_BUSINESS_AS_NAME": "LAKEVIEW BILLIARD CAFE", 
    "POP_AT_RISK": 77916, 
    "ZIP": 60657, 
    "ADDRESS": "3449 N LINCOLN AVE", 
    "YEAR": 2000, 
    "LONGITUDE": -87.672009689, 
    "LATTITUDE": 41.944712685
  }, 
  {
    "BUSINESS_TYPE": "Tobacco", 
    "LEGAL_NAME": "CLARK RETAIL ENTERPRISES, INC.", 
    "STATE": "IL", 
    "DOING_BUSINESS_AS_NAME": "CLARK #192", 
    "POP_AT_RISK": 22174, 
    "ZIP": 60652, 
    "ADDRESS": "3750 W 79TH ST 1ST", 
    "YEAR": 2000, 
    "LONGITUDE": -87.716214954, 
    "LATTITUDE": 41.749768889
  }, 
  {
    "BUSINESS_TYPE": "Tobacco", 
    "LEGAL_NAME": "AHMAD'S FOOD INC", 
    "STATE": "IL", 
    "DOING_BUSINESS_AS_NAME": "69TH & MORGAN FOODS", 
    "POP_AT_RISK": 33808, 
    "ZIP": 60621, 
    "ADDRESS": "1001 W 69TH ST 1ST", 
    "YEAR": 2000, 
    "LONGITUDE": -87.649415033, 
    "LATTITUDE": 41.768654696
  }, 
  {
    "BUSINESS_TYPE": "Tobacco", 
    "LEGAL_NAME": "DE LOISE GAINES", 
    "STATE": "IL", 
    "DOING_BUSINESS_AS_NAME": "GAINES MINI MART", 
    "POP_AT_RISK": 37302, 
    "ZIP": 60636, 
    "ADDRESS": "6729 S HERMITAGE AVE 1ST", 
    "YEAR": 2000, 
    "LONGITUDE": -87.667486845, 
    "LATTITUDE": 41.771268132
  }, 
  {
    "BUSINESS_TYPE": "Tobacco", 
    "LEGAL_NAME": "BOCKWINKEL FOOD MARKETS, INC.", 
    "STATE": "IL", 
    "DOING_BUSINESS_AS_NAME": "BOCKWINKEL'S FOOD MARKET", 
    "POP_AT_RISK": 64861, 
    "ZIP": 60610, 
    "ADDRESS": "1313 N RITCHIE CT  1ST", 
    "YEAR": 2000, 
    "LONGITUDE": -87.626459679, 
    "LATTITUDE": 41.906293549
  }, 
  {
    "BUSINESS_TYPE": "Tobacco", 
    "LEGAL_NAME": "CAVANAUGH'S LLC", 
    "STATE": "IL", 
    "DOING_BUSINESS_AS_NAME": "CAVANAUGH'S BAR & RESTAURANT", 
    "POP_AT_RISK": 50511, 
    "ZIP": 60604, 
    "ADDRESS": "53 W JACKSON BLVD", 
    "YEAR": 2000, 
    "LONGITUDE": -87.629781008, 
    "LATTITUDE": 41.878050681
  }, 
  {
    "BUSINESS_TYPE": "Tobacco", 
    "LEGAL_NAME": "CZERWONE JABLUSZKO REST INC", 
    "STATE": "IL", 
    "DOING_BUSINESS_AS_NAME": "CZERWONE JABLUSZKO RESTAURANT", 
    "POP_AT_RISK": 20191, 
    "ZIP": 60631, 
    "ADDRESS": "6474 N MILWAUKEE AVE", 
    "YEAR": 2000, 
    "LONGITUDE": -87.789541951, 
    "LATTITUDE": 41.998984373
  }, 
  {
    "BUSINESS_TYPE": "Tobacco", 
    "LEGAL_NAME": "ABDULLA SALEH SAEED", 
    "STATE": "IL", 
    "DOING_BUSINESS_AS_NAME": "LAWRENCE DOLLAR PLUS", 
    "POP_AT_RISK": 67391, 
    "ZIP": 60625, 
    "ADDRESS": "3959 W LAWRENCE AVE 1ST", 
    "YEAR": 2000, 
    "LONGITUDE": -87.727964428, 
    "LATTITUDE": 41.968133311
  }, 
  {
    "BUSINESS_TYPE": "Tobacco", 
    "LEGAL_NAME": "A & B TOBACCO,  INC.", 
    "STATE": "IL", 
    "DOING_BUSINESS_AS_NAME": "A & B TOBACCO,INC.", 
    "POP_AT_RISK": 34997, 
    "ZIP": 60608, 
    "ADDRESS": "3011 S ASHLAND AVE 1ST", 
    "YEAR": 2000, 
    "LONGITUDE": -87.665636379, 
    "LATTITUDE": 41.839104883
  }, 
  {
    "BUSINESS_TYPE": "Tobacco", 
    "LEGAL_NAME": "PRINCE C OROGBY", 
    "STATE": "IL", 
    "DOING_BUSINESS_AS_NAME": "HOMELAND STORE", 
    "POP_AT_RISK": 60933, 
    "ZIP": 60660, 
    "ADDRESS": "6206 N BROADWAY  1ST", 
    "YEAR": 2000, 
    "LONGITUDE": -87.660560313, 
    "LATTITUDE": 41.994805167
  }, 
  {
    "BUSINESS_TYPE": "Tobacco", 
    "LEGAL_NAME": "GRAND + ASHLAND TAP, INC.", 
    "STATE": "IL", 
    "DOING_BUSINESS_AS_NAME": "GRANDBAR", 
    "POP_AT_RISK": 47191, 
    "ZIP": 60622, 
    "ADDRESS": "1600 W GRAND AVE 1ST", 
    "YEAR": 2000, 
    "LONGITUDE": -87.667204058, 
    "LATTITUDE": 41.891087112
  }, 
  {
    "BUSINESS_TYPE": "Tobacco", 
    "LEGAL_NAME": "WARREN ROBINSON", 
    "STATE": "IL", 
    "DOING_BUSINESS_AS_NAME": "ROB'S", 
    "POP_AT_RISK": 41078, 
    "ZIP": 60619, 
    "ADDRESS": "7158 S WOODLAWN AVE 1ST", 
    "YEAR": 2000, 
    "LONGITUDE": -87.595952971, 
    "LATTITUDE": 41.764203476
  }, 
  {
    "BUSINESS_TYPE": "Tobacco", 
    "LEGAL_NAME": "4637 N DAMEN INC", 
    "STATE": "IL", 
    "DOING_BUSINESS_AS_NAME": "4637 1/2 N DAMEN AVE", 
    "POP_AT_RISK": 62834, 
    "ZIP": 60625, 
    "ADDRESS": "4637 N DAMEN AVE", 
    "YEAR": 2000, 
    "LONGITUDE": -87.678966089, 
    "LATTITUDE": 41.966231644
  }, 
  {
    "BUSINESS_TYPE": "Tobacco", 
    "LEGAL_NAME": "ROSARIO ANAYA", 
    "STATE": "IL", 
    "DOING_BUSINESS_AS_NAME": "LA REYNA", 
    "POP_AT_RISK": 34144, 
    "ZIP": 60626, 
    "ADDRESS": "7658 N PAULINA ST 1ST", 
    "YEAR": 2000, 
    "LONGITUDE": -87.673226352, 
    "LATTITUDE": 42.021087676
  }, 
  {
    "BUSINESS_TYPE": "Tobacco", 
    "LEGAL_NAME": "CAROLYN M MOUNDAY", 
    "STATE": "IL", 
    "DOING_BUSINESS_AS_NAME": "M & M RECORDS", 
    "POP_AT_RISK": 27135, 
    "ZIP": 60621, 
    "ADDRESS": "834 W 59TH ST  FIRST", 
    "YEAR": 2000, 
    "LONGITUDE": -87.646338469, 
    "LATTITUDE": 41.787115835
  }
]