[
  {
    "BUSINESS_TYPE": "Broker", 
    "LEGAL_NAME": "DOMA TRAVEL INC", 
    "STATE": "IL", 
    "DOING_BUSINESS_AS_NAME": "DOMA TRAVEL INC", 
    "POP_AT_RISK": 30856, 
    "ZIP": 60634, 
    "ADDRESS": "3410 N HARLEM AVE", 
    "YEAR": 2000, 
    "LONGITUDE": -87.807036531, 
    "LATTITUDE": 41.941988756
  }, 
  {
    "BUSINESS_TYPE": "Broker", 
    "LEGAL_NAME": "UNIVERSITY TRAVEL INC.", 
    "STATE": "IL", 
    "DOING_BUSINESS_AS_NAME": "UNIVERSITY TRAVEL INC.", 
    "POP_AT_RISK": 38939, 
    "ZIP": 60615, 
    "ADDRESS": "1525 E 53RD ST  1", 
    "YEAR": 2000, 
    "LONGITUDE": -87.588098389, 
    "LATTITUDE": 41.799441872
  }, 
  {
    "BUSINESS_TYPE": "Broker", 
    "LEGAL_NAME": "MAGNUM TRAVEL SERVICES, INC.", 
    "STATE": "IL", 
    "DOING_BUSINESS_AS_NAME": "MAGNUM INSURANCE AGENCY", 
    "POP_AT_RISK": 63090, 
    "ZIP": 60639, 
    "ADDRESS": "5010 W FULLERTON AVE", 
    "YEAR": 2000, 
    "LONGITUDE": -87.751734076, 
    "LATTITUDE": 41.924278592
  }, 
  {
    "BUSINESS_TYPE": "Broker", 
    "LEGAL_NAME": "CENTRAVEL, INC.", 
    "STATE": "IL", 
    "DOING_BUSINESS_AS_NAME": "COSTA AZUL TRAVEL", 
    "POP_AT_RISK": 63565, 
    "ZIP": 60625, 
    "ADDRESS": "3553 W LAWRENCE AVE 1ST", 
    "YEAR": 2000, 
    "LONGITUDE": -87.717955094, 
    "LATTITUDE": 41.968243167
  }, 
  {
    "BUSINESS_TYPE": "Broker", 
    "LEGAL_NAME": "BEST SEATS AVAILABLE", 
    "STATE": "IL", 
    "DOING_BUSINESS_AS_NAME": "BEST SEATS AVAILABLE", 
    "POP_AT_RISK": 31167, 
    "ZIP": 60612, 
    "ADDRESS": "1645 W JACKSON BLVD 1ST", 
    "YEAR": 2000, 
    "LONGITUDE": -87.668521042, 
    "LATTITUDE": 41.877485535
  }, 
  {
    "BUSINESS_TYPE": "Broker", 
    "LEGAL_NAME": "SMR TRAVEL ENTERPRISES, LTD.", 
    "STATE": "IL", 
    "DOING_BUSINESS_AS_NAME": "UNIGLOBE PREMIER TRAVEL", 
    "POP_AT_RISK": 39368, 
    "ZIP": 60606, 
    "ADDRESS": "300 S WACKER DR  1ST", 
    "YEAR": 2000, 
    "LONGITUDE": -87.637058522, 
    "LATTITUDE": 41.878010924
  }, 
  {
    "BUSINESS_TYPE": "Broker", 
    "LEGAL_NAME": "ESCAPE TRAVEL AGENCY INC.", 
    "STATE": "IL", 
    "DOING_BUSINESS_AS_NAME": "ESCAPE TRAVEL AGENCY INC", 
    "POP_AT_RISK": 49064, 
    "ZIP": 60623, 
    "ADDRESS": "4202 W 26TH ST", 
    "YEAR": 2000, 
    "LONGITUDE": -87.729554179, 
    "LATTITUDE": 41.844292844
  }, 
  {
    "BUSINESS_TYPE": "Broker", 
    "LEGAL_NAME": "ESCAPE TRAVEL AGENCY INC.", 
    "STATE": "IL", 
    "DOING_BUSINESS_AS_NAME": "ESCAPE TRAVEL", 
    "POP_AT_RISK": 62427, 
    "ZIP": 60623, 
    "ADDRESS": "3757 W 26TH ST", 
    "YEAR": 2000, 
    "LONGITUDE": -87.719527342, 
    "LATTITUDE": 41.844208338
  }, 
  {
    "BUSINESS_TYPE": "Broker", 
    "LEGAL_NAME": "VIRGINIA P NEWMAN", 
    "STATE": "IL", 
    "DOING_BUSINESS_AS_NAME": "SEA SHIP-N-SHORE TRAVEL", 
    "POP_AT_RISK": 38146, 
    "ZIP": 60619, 
    "ADDRESS": "448 E 75TH ST 1ST", 
    "YEAR": 2000, 
    "LONGITUDE": -87.613156058, 
    "LATTITUDE": 41.758553272
  }, 
  {
    "BUSINESS_TYPE": "Broker", 
    "LEGAL_NAME": "MAGNUM TRAVEL SERVICES, INC.", 
    "STATE": "IL", 
    "DOING_BUSINESS_AS_NAME": "VIAJES MAGNUM", 
    "POP_AT_RISK": 67593, 
    "ZIP": 60618, 
    "ADDRESS": "4259 N WESTERN AVE", 
    "YEAR": 2000, 
    "LONGITUDE": -87.688481553, 
    "LATTITUDE": 41.959448021
  }, 
  {
    "BUSINESS_TYPE": "Broker", 
    "LEGAL_NAME": "ACTION TRAVEL INC", 
    "STATE": "IL", 
    "DOING_BUSINESS_AS_NAME": "ACTION TRAVEL", 
    "POP_AT_RISK": 72684, 
    "ZIP": 60618, 
    "ADDRESS": "3050 W IRVING PARK RD", 
    "YEAR": 2000, 
    "LONGITUDE": -87.705200205, 
    "LATTITUDE": 41.954047423
  }
]