[
  {
    "BUSINESS_TYPE": "Junk Peddler", 
    "LEGAL_NAME": "HECTOR L. GONZALEZ, SR", 
    "STATE": "IL", 
    "DOING_BUSINESS_AS_NAME": "HECTOR L. GONZALEZ, SR.", 
    "POP_AT_RISK": 35578, 
    "ZIP": 60634, 
    "ADDRESS": "4106 N MOODY AVE", 
    "YEAR": 2005, 
    "LONGITUDE": -87.780666395, 
    "LATTITUDE": 41.955171056
  }, 
  {
    "BUSINESS_TYPE": "Junk Peddler", 
    "LEGAL_NAME": "JOSE LUIS AVALOS", 
    "STATE": "IL", 
    "DOING_BUSINESS_AS_NAME": "JOSE LUIS AVALOS", 
    "POP_AT_RISK": 68393, 
    "ZIP": 60647, 
    "ADDRESS": "3721 W CONCORD PL 1ST", 
    "YEAR": 2005, 
    "LONGITUDE": -87.719858094, 
    "LATTITUDE": 41.910782437
  }, 
  {
    "BUSINESS_TYPE": "Junk Peddler", 
    "LEGAL_NAME": "JUAN A MENCHACA", 
    "STATE": "IL", 
    "DOING_BUSINESS_AS_NAME": "JUAN A MENCHACA", 
    "POP_AT_RISK": 66313, 
    "ZIP": 60629, 
    "ADDRESS": "5625 S SAWYER AVE", 
    "YEAR": 2005, 
    "LONGITUDE": -87.704559578, 
    "LATTITUDE": 41.790915057
  }, 
  {
    "BUSINESS_TYPE": "Junk Peddler", 
    "LEGAL_NAME": "JOAQUIN CAZALEZ", 
    "STATE": "IL", 
    "DOING_BUSINESS_AS_NAME": "PICK-UP METALS", 
    "POP_AT_RISK": 75660, 
    "ZIP": 60625, 
    "ADDRESS": "4512 N ST LOUIS AVE", 
    "YEAR": 2005, 
    "LONGITUDE": -87.715802012, 
    "LATTITUDE": 41.963350062
  }, 
  {
    "BUSINESS_TYPE": "Junk Peddler", 
    "LEGAL_NAME": "PETER A. KWAME", 
    "STATE": "IL", 
    "DOING_BUSINESS_AS_NAME": "PETER A. KWAME", 
    "POP_AT_RISK": 61530, 
    "ZIP": 60613, 
    "ADDRESS": "820 W BELLE PLAINE AVE  1602", 
    "YEAR": 2005, 
    "LONGITUDE": -87.650645766, 
    "LATTITUDE": 41.957443859
  }, 
  {
    "BUSINESS_TYPE": "Junk Peddler", 
    "LEGAL_NAME": "ANDRES  FLORES SR.", 
    "STATE": "IL", 
    "DOING_BUSINESS_AS_NAME": "ANDRES FLORES SR.", 
    "POP_AT_RISK": 65346, 
    "ZIP": 60659, 
    "ADDRESS": "6228 N BELL AVE", 
    "YEAR": 2005, 
    "LONGITUDE": -87.686265018, 
    "LATTITUDE": 41.995014178
  }, 
  {
    "BUSINESS_TYPE": "Junk Peddler", 
    "LEGAL_NAME": "JOSE RODRIGUEZ", 
    "STATE": "IL", 
    "DOING_BUSINESS_AS_NAME": "JOSE RODRIGUEZ", 
    "POP_AT_RISK": 59657, 
    "ZIP": 60630, 
    "ADDRESS": "4713 N KEYSTONE AVE", 
    "YEAR": 2005, 
    "LONGITUDE": -87.729036237, 
    "LATTITUDE": 41.966100992
  }, 
  {
    "BUSINESS_TYPE": "Junk Peddler", 
    "LEGAL_NAME": "VICTOR MANUEL GARIBAY", 
    "STATE": "IL", 
    "DOING_BUSINESS_AS_NAME": "VICTOR MANUEL GARIBAY", 
    "POP_AT_RISK": 19727, 
    "ZIP": 60617, 
    "ADDRESS": "10233 S AVENUE J", 
    "YEAR": 2005, 
    "LONGITUDE": -87.533931419, 
    "LATTITUDE": 41.709047667
  }, 
  {
    "BUSINESS_TYPE": "Junk Peddler", 
    "LEGAL_NAME": "HENRY L REEVES, SR.", 
    "STATE": "IL", 
    "DOING_BUSINESS_AS_NAME": "HENRY L. REEVES, SR.", 
    "POP_AT_RISK": 30939, 
    "ZIP": 60609, 
    "ADDRESS": "5242 S ABERDEEN ST", 
    "YEAR": 2005, 
    "LONGITUDE": -87.652702535, 
    "LATTITUDE": 41.798379293
  }, 
  {
    "BUSINESS_TYPE": "Junk Peddler", 
    "LEGAL_NAME": "JUAN A SANCHEZ", 
    "STATE": "IL", 
    "DOING_BUSINESS_AS_NAME": "JUAN A SANCHEZ", 
    "POP_AT_RISK": 42037, 
    "ZIP": 60608, 
    "ADDRESS": "932 W 32ND PL 1ST", 
    "YEAR": 2005, 
    "LONGITUDE": -87.649981942, 
    "LATTITUDE": 41.835726486
  }, 
  {
    "BUSINESS_TYPE": "Junk Peddler", 
    "LEGAL_NAME": "AQUILINO ALVAREZ", 
    "STATE": "IL", 
    "DOING_BUSINESS_AS_NAME": "AQUILINO ALVAREZ", 
    "POP_AT_RISK": 51566, 
    "ZIP": 60647, 
    "ADDRESS": "2424 N CAMPBELL AVE", 
    "YEAR": 2005, 
    "LONGITUDE": -87.690260814, 
    "LATTITUDE": 41.925699503
  }, 
  {
    "BUSINESS_TYPE": "Junk Peddler", 
    "LEGAL_NAME": "HECTOR L COSME", 
    "STATE": "IL", 
    "DOING_BUSINESS_AS_NAME": "HECTOR COSME", 
    "POP_AT_RISK": 60936, 
    "ZIP": 60660, 
    "ADDRESS": "5710 N WINTHROP AVE", 
    "YEAR": 2005, 
    "LONGITUDE": -87.658232154, 
    "LATTITUDE": 41.985854698
  }, 
  {
    "BUSINESS_TYPE": "Junk Peddler", 
    "LEGAL_NAME": "LUIS RODRIGUEZ-MARTINEZ", 
    "STATE": "IL", 
    "DOING_BUSINESS_AS_NAME": "LUIS RODRIGUEZ-MARTINEZ", 
    "POP_AT_RISK": 57282, 
    "ZIP": 60629, 
    "ADDRESS": "3924 W 56TH ST", 
    "YEAR": 2005, 
    "LONGITUDE": -87.721697688, 
    "LATTITUDE": 41.791528968
  }, 
  {
    "BUSINESS_TYPE": "Junk Peddler", 
    "LEGAL_NAME": "JUAN ESTRADA HERRERA", 
    "STATE": "IL", 
    "DOING_BUSINESS_AS_NAME": "JUAN ESTRADA", 
    "POP_AT_RISK": 63933, 
    "ZIP": 60625, 
    "ADDRESS": "4908 N ST LOUIS AVE", 
    "YEAR": 2005, 
    "LONGITUDE": -87.716011923, 
    "LATTITUDE": 41.970476136
  }, 
  {
    "BUSINESS_TYPE": "Junk Peddler", 
    "LEGAL_NAME": "DOMINGO ALCANTARA", 
    "STATE": "IL", 
    "DOING_BUSINESS_AS_NAME": "DOMINGO ALCANTARA", 
    "POP_AT_RISK": 47203, 
    "ZIP": 60639, 
    "ADDRESS": "2175 N MENARD AVE  B2", 
    "YEAR": 2005, 
    "LONGITUDE": -87.770571143, 
    "LATTITUDE": 41.920128225
  }, 
  {
    "BUSINESS_TYPE": "Junk Peddler", 
    "LEGAL_NAME": "ISIDRO BAUTISTA", 
    "STATE": "IL", 
    "DOING_BUSINESS_AS_NAME": "ISIDRO BAUTISTA", 
    "POP_AT_RISK": 61497, 
    "ZIP": 60641, 
    "ADDRESS": "5007 W BARRY AVE 2ND", 
    "YEAR": 2005, 
    "LONGITUDE": -87.752068321, 
    "LATTITUDE": 41.936826932
  }, 
  {
    "BUSINESS_TYPE": "Junk Peddler", 
    "LEGAL_NAME": "FERNANDO R FLORIAN", 
    "STATE": "IL", 
    "DOING_BUSINESS_AS_NAME": "SCRAP PICK-UP", 
    "POP_AT_RISK": 78489, 
    "ZIP": 60618, 
    "ADDRESS": "4338 N FRANCISCO AVE", 
    "YEAR": 2005, 
    "LONGITUDE": -87.701038578, 
    "LATTITUDE": 41.960568979
  }, 
  {
    "BUSINESS_TYPE": "Junk Peddler", 
    "LEGAL_NAME": "KOFI AGYEKUM", 
    "STATE": "IL", 
    "DOING_BUSINESS_AS_NAME": "KOFI AGYEKUM", 
    "POP_AT_RISK": 38266, 
    "ZIP": 60619, 
    "ADDRESS": "7654 S WABASH AVE", 
    "YEAR": 2005, 
    "LONGITUDE": -87.623223998, 
    "LATTITUDE": 41.754823188
  }, 
  {
    "BUSINESS_TYPE": "Junk Peddler", 
    "LEGAL_NAME": "NOHEMI LOPEZ", 
    "STATE": "IL", 
    "DOING_BUSINESS_AS_NAME": "NOHEMI LOPEZ", 
    "POP_AT_RISK": 28615, 
    "ZIP": 60617, 
    "ADDRESS": "8531 S EXCHANGE AVE", 
    "YEAR": 2005, 
    "LONGITUDE": -87.552557073, 
    "LATTITUDE": 41.740067674
  }, 
  {
    "BUSINESS_TYPE": "Junk Peddler", 
    "LEGAL_NAME": "OFORMA B. OKOLO", 
    "STATE": "IL", 
    "DOING_BUSINESS_AS_NAME": "OFORMA SCRAP METAL", 
    "POP_AT_RISK": 54976, 
    "ZIP": 60640, 
    "ADDRESS": "4550 N CLARENDON AVE", 
    "YEAR": 2005, 
    "LONGITUDE": -87.650158098, 
    "LATTITUDE": 41.965202235
  }, 
  {
    "BUSINESS_TYPE": "Junk Peddler", 
    "LEGAL_NAME": "TOM BALLOG", 
    "STATE": "IL", 
    "DOING_BUSINESS_AS_NAME": "TOM BALLOG", 
    "POP_AT_RISK": 50325, 
    "ZIP": 60618, 
    "ADDRESS": "3000 N ELSTON AVE", 
    "YEAR": 2005, 
    "LONGITUDE": -87.693230982, 
    "LATTITUDE": 41.93574656
  }, 
  {
    "BUSINESS_TYPE": "Junk Peddler", 
    "LEGAL_NAME": "RAFAEL MERCADO", 
    "STATE": "IL", 
    "DOING_BUSINESS_AS_NAME": "RAFAEL MERCADO", 
    "POP_AT_RISK": 43409, 
    "ZIP": 60651, 
    "ADDRESS": "919 N KEYSTONE AVE", 
    "YEAR": 2005, 
    "LONGITUDE": -87.727237196, 
    "LATTITUDE": 41.897784713
  }, 
  {
    "BUSINESS_TYPE": "Junk Peddler", 
    "LEGAL_NAME": "JOSE R ARELLANO", 
    "STATE": "IL", 
    "DOING_BUSINESS_AS_NAME": "JOSE R ARELLANO", 
    "POP_AT_RISK": 36274, 
    "ZIP": 60608, 
    "ADDRESS": "1717 W 21ST ST", 
    "YEAR": 2005, 
    "LONGITUDE": -87.669274552, 
    "LATTITUDE": 41.853989748
  }, 
  {
    "BUSINESS_TYPE": "Junk Peddler", 
    "LEGAL_NAME": "ALFONSO PEREZ", 
    "STATE": "IL", 
    "DOING_BUSINESS_AS_NAME": "ALFONSO PEREZ", 
    "POP_AT_RISK": 30226, 
    "ZIP": 60707, 
    "ADDRESS": "2706 N NORDICA AVE", 
    "YEAR": 2005, 
    "LONGITUDE": -87.802910289, 
    "LATTITUDE": 41.929240156
  }, 
  {
    "BUSINESS_TYPE": "Junk Peddler", 
    "LEGAL_NAME": "ROGELIO VILCHIS", 
    "STATE": "IL", 
    "DOING_BUSINESS_AS_NAME": "ROGER'S SCRAP", 
    "POP_AT_RISK": 44045, 
    "ZIP": 60632, 
    "ADDRESS": "2908 W 40TH ST 1ST", 
    "YEAR": 2005, 
    "LONGITUDE": -87.697503065, 
    "LATTITUDE": 41.821053315
  }, 
  {
    "BUSINESS_TYPE": "Junk Peddler", 
    "LEGAL_NAME": "JUAN S. GARCIA", 
    "STATE": "IL", 
    "DOING_BUSINESS_AS_NAME": "JUAN S. GARCIA", 
    "POP_AT_RISK": 32623, 
    "ZIP": 60630, 
    "ADDRESS": "4557 N NARRAGANSETT AVE", 
    "YEAR": 2005, 
    "LONGITUDE": -87.786621809, 
    "LATTITUDE": 41.963588205
  }, 
  {
    "BUSINESS_TYPE": "Junk Peddler", 
    "LEGAL_NAME": "JOSE L. ARROYO", 
    "STATE": "IL", 
    "DOING_BUSINESS_AS_NAME": "JOSE L. ARROYO", 
    "POP_AT_RISK": 33756, 
    "ZIP": 60630, 
    "ADDRESS": "5210 N LIEB AVE", 
    "YEAR": 2005, 
    "LONGITUDE": -87.764512375, 
    "LATTITUDE": 41.976217332
  }, 
  {
    "BUSINESS_TYPE": "Junk Peddler", 
    "LEGAL_NAME": "GLORIA F ROLDAN", 
    "STATE": "IL", 
    "DOING_BUSINESS_AS_NAME": "GLORIA ROLDAN", 
    "POP_AT_RISK": 27518, 
    "ZIP": 60609, 
    "ADDRESS": "928 W 37TH PL", 
    "YEAR": 2005, 
    "LONGITUDE": -87.648841891, 
    "LATTITUDE": 41.82667191
  }, 
  {
    "BUSINESS_TYPE": "Junk Peddler", 
    "LEGAL_NAME": "JOHN P. ORPHAN JR.", 
    "STATE": "IL", 
    "DOING_BUSINESS_AS_NAME": "JOHN P ORPHAN", 
    "POP_AT_RISK": 29544, 
    "ZIP": 60638, 
    "ADDRESS": "6044 W 60TH ST", 
    "YEAR": 2005, 
    "LONGITUDE": -87.773537984, 
    "LATTITUDE": 41.78344194
  }, 
  {
    "BUSINESS_TYPE": "Junk Peddler", 
    "LEGAL_NAME": "LUTHER J. MOORE", 
    "STATE": "IL", 
    "DOING_BUSINESS_AS_NAME": "LUTHER J. MOORE/LJM DUMP TRUCK HAULING", 
    "POP_AT_RISK": 35003, 
    "ZIP": 60621, 
    "ADDRESS": "6644 S SANGAMON ST", 
    "YEAR": 2005, 
    "LONGITUDE": -87.648395729, 
    "LATTITUDE": 41.772904617
  }
]