[
{"STATE":"IL","ZIP":60609,"LATTITUDE":41.80861135030531,"ADDRESS":"1221 W 47TH ST 1 ","YEAR":2007,"DOING_BUSINESS_AS_NAME":"LA BARCA","POP_AT_RISK":31553,"BUSINESS_TYPE":"Consumption on Premises - Incidental Activity","LEGAL_NAME":"MPV INC","LONGITUDE":-87.6562138229373},
{"STATE":"IL","ZIP":60617,"LATTITUDE":41.734164308734876,"ADDRESS":"8847 S COMMERCIAL AVE  1","YEAR":2007,"DOING_BUSINESS_AS_NAME":"COCULA RESTAURANT","POP_AT_RISK":50420,"BUSINESS_TYPE":"Consumption on Premises - Incidental Activity","LEGAL_NAME":"COCULA INC.","LONGITUDE":-87.55121061634853},
{"STATE":"IL","ZIP":60619,"LATTITUDE":41.7259581808161,"ADDRESS":"1200 E 93RD ST 1ST ","YEAR":2007,"DOING_BUSINESS_AS_NAME":"WOODLAWN GARDENS","POP_AT_RISK":32542,"BUSINESS_TYPE":"Consumption on Premises - Incidental Activity","LEGAL_NAME":"HARRIET WATT","LONGITUDE":-87.59481759727105},
{"STATE":"IL","ZIP":60617,"LATTITUDE":41.71488533977168,"ADDRESS":"9915 S TORRENCE AVE 1ST ","YEAR":2007,"DOING_BUSINESS_AS_NAME":"SKYWAY LANES","POP_AT_RISK":15082,"BUSINESS_TYPE":"Consumption on Premises - Incidental Activity","LEGAL_NAME":"SNEKCID, INC.","LONGITUDE":-87.55962172308115},
{"STATE":"IL","ZIP":60651,"LATTITUDE":41.904309420890215,"ADDRESS":"1255 N PULASKI RD  ","YEAR":2007,"DOING_BUSINESS_AS_NAME":"EL SITIO","POP_AT_RISK":121844,"BUSINESS_TYPE":"Consumption on Premises - Incidental Activity","LEGAL_NAME":"SONRISAS, INC.","LONGITUDE":-87.72619548575881},
{"STATE":"IL","ZIP":60619,"LATTITUDE":41.74404480254745,"ADDRESS":"712 E 83RD ST 1 ","YEAR":2007,"DOING_BUSINESS_AS_NAME":"CITY-LIFE, LTD.","POP_AT_RISK":37593,"BUSINESS_TYPE":"Consumption on Premises - Incidental Activity","LEGAL_NAME":"CITY-LIFE, LTD.","LONGITUDE":-87.60688998764581},
{"STATE":"IL","ZIP":60612,"LATTITUDE":41.86910773759604,"ADDRESS":"2322-2324 W TAYLOR ST  ","YEAR":2007,"DOING_BUSINESS_AS_NAME":"DAMENZO'S INC","POP_AT_RISK":113628,"BUSINESS_TYPE":"Consumption on Premises - Incidental Activity","LEGAL_NAME":"DAMENZO'S, INC.","LONGITUDE":-87.6845837581009},
{"STATE":"IL","ZIP":60633,"LATTITUDE":41.655209102868895,"ADDRESS":"13191 S BRAINARD AVE  ","YEAR":2007,"DOING_BUSINESS_AS_NAME":"JUST JIM'S","POP_AT_RISK":2798,"BUSINESS_TYPE":"Consumption on Premises - Incidental Activity","LEGAL_NAME":"GADDINI'S, INC.","LONGITUDE":-87.55444660744494},
{"STATE":"IL","ZIP":60617,"LATTITUDE":41.73051756929612,"ADDRESS":"9031 S STONY ISLAND AVE  ","YEAR":2007,"DOING_BUSINESS_AS_NAME":"SOUL QUEEN RESTAURANT & LOUNGE","POP_AT_RISK":18937,"BUSINESS_TYPE":"Consumption on Premises - Incidental Activity","LEGAL_NAME":"HELEN C MAYBELL","LONGITUDE":-87.58491993249247},
{"STATE":"IL","ZIP":60655,"LATTITUDE":41.691399886046646,"ADDRESS":"3333 W 111TH ST 1ST ","YEAR":2007,"DOING_BUSINESS_AS_NAME":"LA FIESTA RESTAURANT","POP_AT_RISK":21003,"BUSINESS_TYPE":"Consumption on Premises - Incidental Activity","LEGAL_NAME":"LA FIESTA, INC.","LONGITUDE":-87.70464634367544},
{"STATE":"IL","ZIP":60636,"LATTITUDE":41.76181563290822,"ADDRESS":"7247-7251 S RACINE AVE 1ST ","YEAR":2007,"DOING_BUSINESS_AS_NAME":"E T RESTAURANT AND LOUNGE","POP_AT_RISK":450801,"BUSINESS_TYPE":"Consumption on Premises - Incidental Activity","LEGAL_NAME":"LEVERNE  BURNETT","LONGITUDE":-87.65388431693869},
{"STATE":"IL","ZIP":60652,"LATTITUDE":41.7495573130227,"ADDRESS":"3359 W 79TH ST 1ST ","YEAR":2007,"DOING_BUSINESS_AS_NAME":"NINA'S RESTAURANT","POP_AT_RISK":100620,"BUSINESS_TYPE":"Consumption on Premises - Incidental Activity","LEGAL_NAME":"M. T. GLASS, CO.","LONGITUDE":-87.70721111204942},
{"STATE":"IL","ZIP":60649,"LATTITUDE":41.77863624961709,"ADDRESS":"6401 S COAST GUARD DR  ","YEAR":2007,"DOING_BUSINESS_AS_NAME":"MARINA CAFE","POP_AT_RISK":23674,"BUSINESS_TYPE":"Consumption on Premises - Incidental Activity","LEGAL_NAME":"MARINA CAFE, LLC","LONGITUDE":-87.57545140496221},
{"STATE":"IL","ZIP":60615,"LATTITUDE":41.79492106897254,"ADDRESS":"1055 E 55TH ST  ","YEAR":2007,"DOING_BUSINESS_AS_NAME":"SEVEN TEN","POP_AT_RISK":39918,"BUSINESS_TYPE":"Consumption on Premises - Incidental Activity","LEGAL_NAME":"STRIKE TWO CORP.","LONGITUDE":-87.59985203106729},
{"STATE":"IL","ZIP":60637,"LATTITUDE":41.77891251190159,"ADDRESS":"6351-6359 S COTTAGE GROVE AVE  ","YEAR":2007,"DOING_BUSINESS_AS_NAME":"THE BALLROOM","POP_AT_RISK":216618,"BUSINESS_TYPE":"Consumption on Premises - Incidental Activity","LEGAL_NAME":"THE BALLROOM, LLC","LONGITUDE":-87.60575071895529},
{"STATE":"IL","ZIP":60619,"LATTITUDE":41.75853578786506,"ADDRESS":"420-422 E 75TH ST  ","YEAR":2007,"DOING_BUSINESS_AS_NAME":"Army & Lou's Restaurant","POP_AT_RISK":38146,"BUSINESS_TYPE":"Consumption on Premises - Incidental Activity","LEGAL_NAME":"IN GOOD TASTE, INC.","LONGITUDE":-87.61420475549959},
{"STATE":"IL","ZIP":60628,"LATTITUDE":41.66920524810207,"ADDRESS":"12345 S HALSTED ST  ","YEAR":2007,"DOING_BUSINESS_AS_NAME":"HALSTED BOWL","POP_AT_RISK":61974,"BUSINESS_TYPE":"Consumption on Premises - Incidental Activity","LEGAL_NAME":"THE SIX GRANDS, CO.","LONGITUDE":-87.6414739367472},
{"STATE":"IL","ZIP":60633,"LATTITUDE":41.64995899068516,"ADDRESS":"13501-13503 S AVENUE N   ","YEAR":2007,"DOING_BUSINESS_AS_NAME":"THE GREEN OLIVE","POP_AT_RISK":21668,"BUSINESS_TYPE":"Consumption on Premises - Incidental Activity","LEGAL_NAME":"THE GREEN OLIVE, LLC","LONGITUDE":-87.53851419968274},
{"STATE":"IL","ZIP":60652,"LATTITUDE":41.75595600567047,"ADDRESS":"7519 S CICERO AVE  ","YEAR":2007,"DOING_BUSINESS_AS_NAME":"APPLEBEE'S NEIGHBORHOOD GRILL & BAR","POP_AT_RISK":51644,"BUSINESS_TYPE":"Consumption on Premises - Incidental Activity","LEGAL_NAME":"APPLEILLINOIS, L.L.C.","LONGITUDE":-87.74143262060872},
{"STATE":"IL","ZIP":60656,"LATTITUDE":41.96645317297049,"ADDRESS":"8443-8445 W LAWRENCE AVE  ","YEAR":2007,"DOING_BUSINESS_AS_NAME":"CAFE IL CORTILE","POP_AT_RISK":17082,"BUSINESS_TYPE":"Consumption on Premises - Incidental Activity","LEGAL_NAME":"CAFE IL CORTILE, INC.","LONGITUDE":-87.83838525840713},
{"STATE":"IL","ZIP":60620,"LATTITUDE":41.735691078577986,"ADDRESS":"1543 W 87TH ST  ","YEAR":2007,"DOING_BUSINESS_AS_NAME":"MR G SUPPER CLUB","POP_AT_RISK":465612,"BUSINESS_TYPE":"Consumption on Premises - Incidental Activity","LEGAL_NAME":"M. V. ONE INCORPORATED","LONGITUDE":-87.66232767688463},
{"STATE":"IL","ZIP":60655,"LATTITUDE":41.70582355306317,"ADDRESS":"3901 W 103RD ST  ","YEAR":2007,"DOING_BUSINESS_AS_NAME":"GILHOOLEY'S GRANDE SALOON","POP_AT_RISK":91208,"BUSINESS_TYPE":"Consumption on Premises - Incidental Activity","LEGAL_NAME":"COMPASS GROUP USA, INC.","LONGITUDE":-87.71853994620498},
{"STATE":"IL","ZIP":60617,"LATTITUDE":41.704927939107726,"ADDRESS":"10468 S INDIANAPOLIS AVE  ","YEAR":2007,"DOING_BUSINESS_AS_NAME":"MR. D'S VILLA","POP_AT_RISK":18423,"BUSINESS_TYPE":"Consumption on Premises - Incidental Activity","LEGAL_NAME":"LAS FUENTES NO. 2, INC.","LONGITUDE":-87.52701935312722},
{"STATE":"IL","ZIP":60643,"LATTITUDE":41.68109249164601,"ADDRESS":"11652 S WESTERN AVE  ","YEAR":2007,"DOING_BUSINESS_AS_NAME":"PEPE TACO","POP_AT_RISK":14948,"BUSINESS_TYPE":"Consumption on Premises - Incidental Activity","LEGAL_NAME":"A.M.R. (OF ILLINOIS), INC.","LONGITUDE":-87.68096792419318},
{"STATE":"IL","ZIP":60653,"LATTITUDE":41.81677868564627,"ADDRESS":"1041-1043 E 43RD ST 1ST-BSMT ","YEAR":2007,"DOING_BUSINESS_AS_NAME":"ROOM FORTY THREE","POP_AT_RISK":30498,"BUSINESS_TYPE":"Consumption on Premises - Incidental Activity","LEGAL_NAME":"NORFLO HOLDING CORPORATION","LONGITUDE":-87.60025634483348},
{"STATE":"IL","ZIP":60636,"LATTITUDE":41.78643717477366,"ADDRESS":"5900 S WESTERN AVE  ","YEAR":2007,"DOING_BUSINESS_AS_NAME":"PIZZA HUT","POP_AT_RISK":110570,"BUSINESS_TYPE":"Consumption on Premises - Incidental Activity","LEGAL_NAME":"PIZZA HUT OF AMERICA, INC.","LONGITUDE":-87.68397524648124},
{"STATE":"IL","ZIP":60639,"LATTITUDE":41.90946997358203,"ADDRESS":"4925 W NORTH AVE  ","YEAR":2007,"DOING_BUSINESS_AS_NAME":"PIZZA HUT #405039","POP_AT_RISK":179331,"BUSINESS_TYPE":"Consumption on Premises - Incidental Activity","LEGAL_NAME":"PIZZA HUT OF AMERICA, INC.","LONGITUDE":-87.74966585106277},
{"STATE":"IL","ZIP":60631,"LATTITUDE":41.99898437284463,"ADDRESS":"6474 N MILWAUKEE AVE  ","YEAR":2007,"DOING_BUSINESS_AS_NAME":"CZERWONE JABLUSZKO RESTAURANT","POP_AT_RISK":20191,"BUSINESS_TYPE":"Consumption on Premises - Incidental Activity","LEGAL_NAME":"CZERWONE JABLUSZKO REST INC","LONGITUDE":-87.7895419514987},
{"STATE":"IL","ZIP":60656,"LATTITUDE":41.973400958457454,"ADDRESS":"9440 W FOSTER AVE  ","YEAR":2007,"DOING_BUSINESS_AS_NAME":"MARIA'S MEXICAN RESTURANT","POP_AT_RISK":28998,"BUSINESS_TYPE":"Consumption on Premises - Incidental Activity","LEGAL_NAME":"LUNA RESTAURANT CORPORATION","LONGITUDE":-87.86302998092812},
{"STATE":"IL","ZIP":60623,"LATTITUDE":41.85164601340353,"ADDRESS":"3219 W CERMAK RD 1ST ","YEAR":2007,"DOING_BUSINESS_AS_NAME":"EL BURRITO FELIZ RESTAURANT","POP_AT_RISK":62497,"BUSINESS_TYPE":"Consumption on Premises - Incidental Activity","LEGAL_NAME":"EL BURRITO FELIZ CORPORATION","LONGITUDE":-87.70613515053118},
{"STATE":"IL","ZIP":60628,"LATTITUDE":41.707469998187015,"ADDRESS":"512 E 103RD ST  ","YEAR":2007,"DOING_BUSINESS_AS_NAME":"JUDI'S SPORTS BAR & GRILL","POP_AT_RISK":95880,"BUSINESS_TYPE":"Consumption on Premises - Incidental Activity","LEGAL_NAME":"JUDI SPORTS BAR & GRILL, INC","LONGITUDE":-87.610766504817},
{"STATE":"IL","ZIP":60609,"LATTITUDE":41.80248132741467,"ADDRESS":"5020 S ASHLAND AVE  ","YEAR":2007,"DOING_BUSINESS_AS_NAME":"TAQUERA EL TIO","POP_AT_RISK":77004,"BUSINESS_TYPE":"Consumption on Premises - Incidental Activity","LEGAL_NAME":"RESTAURANT EL TIO CORPORATION","LONGITUDE":-87.66495141654707},
{"STATE":"IL","ZIP":60628,"LATTITUDE":41.67803592622016,"ADDRESS":"344 W 119TH ST  ","YEAR":2007,"DOING_BUSINESS_AS_NAME":"GREENVILLE MISSISSIPPI CLUB, INC.","POP_AT_RISK":46258,"BUSINESS_TYPE":"Consumption on Premises - Incidental Activity","LEGAL_NAME":"GREENVILLE MISSISSIPPI CLUB, INC.","LONGITUDE":-87.63163137047623},
{"STATE":"IL","ZIP":60649,"LATTITUDE":41.76660302216941,"ADDRESS":"7059 S SOUTH SHORE DR  ","YEAR":2007,"DOING_BUSINESS_AS_NAME":"THE PARROT CAGE","POP_AT_RISK":33177,"BUSINESS_TYPE":"Consumption on Premises - Incidental Activity","LEGAL_NAME":"FRIENDS OF WASHBURNE CULINARY INSTITUTE","LONGITUDE":-87.56632372273566},
{"STATE":"IL","ZIP":60643,"LATTITUDE":41.677565550357954,"ADDRESS":"11901 S LOOMIS ST 1ST ","YEAR":2007,"DOING_BUSINESS_AS_NAME":"HARAMBEE HOUSE BANQUETS & DUSTIES BUFFETS, INC.","POP_AT_RISK":19451,"BUSINESS_TYPE":"Consumption on Premises - Incidental Activity","LEGAL_NAME":"HARAMBEE HOUSE BANQUETS & DUSTIES BUFFETS, INC.","LONGITUDE":-87.65638236856995},
{}]