[
  {
    "BUSINESS_TYPE": "Tobacco", 
    "LEGAL_NAME": "U S PETRO MART INC", 
    "STATE": "IL", 
    "DOING_BUSINESS_AS_NAME": "U S PETRO MART INC", 
    "POP_AT_RISK": 29519, 
    "ZIP": 60653, 
    "ADDRESS": "4654 S WABASH AVE", 
    "YEAR": 1997, 
    "LONGITUDE": -87.62461156, 
    "LATTITUDE": 41.809461886
  }, 
  {
    "BUSINESS_TYPE": "Tobacco", 
    "LEGAL_NAME": "LUCKY DOLLAR PLUS INC", 
    "STATE": "IL", 
    "DOING_BUSINESS_AS_NAME": "LUCKY DOLLAR PLUS INC", 
    "POP_AT_RISK": 54839, 
    "ZIP": 60622, 
    "ADDRESS": "1618 W CHICAGO AVE 1ST", 
    "YEAR": 1997, 
    "LONGITUDE": -87.66811805, 
    "LATTITUDE": 41.89616972
  }, 
  {
    "BUSINESS_TYPE": "Tobacco", 
    "LEGAL_NAME": "MAJEDA M EL HINDI", 
    "STATE": "IL", 
    "DOING_BUSINESS_AS_NAME": "OMAR FOOD MARKET", 
    "POP_AT_RISK": 72076, 
    "ZIP": 60622, 
    "ADDRESS": "1501 N ARTESIAN AVE", 
    "YEAR": 1997, 
    "LONGITUDE": -87.688257615, 
    "LATTITUDE": 41.908573441
  }, 
  {
    "BUSINESS_TYPE": "Tobacco", 
    "LEGAL_NAME": "LA VILLITA GROCERY INC #1", 
    "STATE": "IL", 
    "DOING_BUSINESS_AS_NAME": "LA VILLITA GROCERY INC #1", 
    "POP_AT_RISK": 47176, 
    "ZIP": 60608, 
    "ADDRESS": "1924 S LOOMIS ST 1ST", 
    "YEAR": 1997, 
    "LONGITUDE": -87.661396198, 
    "LATTITUDE": 41.855257872
  }, 
  {
    "BUSINESS_TYPE": "Tobacco", 
    "LEGAL_NAME": "A-ONE-FOOD MART", 
    "STATE": "IL", 
    "DOING_BUSINESS_AS_NAME": "A ONE FOOD MART", 
    "POP_AT_RISK": 62834, 
    "ZIP": 60625, 
    "ADDRESS": "4637 N DAMEN AVE", 
    "YEAR": 1997, 
    "LONGITUDE": -87.678966089, 
    "LATTITUDE": 41.966231644
  }, 
  {
    "BUSINESS_TYPE": "Tobacco", 
    "LEGAL_NAME": "HANEEN FOOD", 
    "STATE": "IL", 
    "DOING_BUSINESS_AS_NAME": "HANEEN FOOD", 
    "POP_AT_RISK": 37032, 
    "ZIP": 60609, 
    "ADDRESS": "1738 W 51ST ST", 
    "YEAR": 1997, 
    "LONGITUDE": -87.668742044, 
    "LATTITUDE": 41.801393326
  }, 
  {
    "BUSINESS_TYPE": "Tobacco", 
    "LEGAL_NAME": "S.A.D MINI SUPERMARKET", 
    "STATE": "IL", 
    "DOING_BUSINESS_AS_NAME": "S.A.D SUPERMARKET", 
    "POP_AT_RISK": 30402, 
    "ZIP": 60628, 
    "ADDRESS": "603 W 111TH ST 1ST", 
    "YEAR": 1997, 
    "LONGITUDE": -87.637683931, 
    "LATTITUDE": 41.692304206
  }, 
  {
    "BUSINESS_TYPE": "Tobacco", 
    "LEGAL_NAME": "OAK ST CIGARS LOWER LEVEL INC", 
    "STATE": "IL", 
    "DOING_BUSINESS_AS_NAME": "BLUE HAVANA III", 
    "POP_AT_RISK": 77420, 
    "ZIP": 60611, 
    "ADDRESS": "46 E OAK ST  LOWER", 
    "YEAR": 1997, 
    "LONGITUDE": -87.6266469, 
    "LATTITUDE": 41.900883914
  }, 
  {
    "BUSINESS_TYPE": "Tobacco", 
    "LEGAL_NAME": "VINCENNES ENTERPRISES INC", 
    "STATE": "IL", 
    "DOING_BUSINESS_AS_NAME": "VINCENNES CITGO", 
    "POP_AT_RISK": 30068, 
    "ZIP": 60643, 
    "ADDRESS": "9906 S VINCENNES AVE", 
    "YEAR": 1997, 
    "LONGITUDE": -87.653570224, 
    "LATTITUDE": 41.713822824
  }
]