[
{"STATE":"IL","ZIP":60623,"LATTITUDE":41.84628573429517,"ADDRESS":"2459 S LAWNDALE AVE 1ST ","YEAR":2011,"DOING_BUSINESS_AS_NAME":"LA SEGUNDA","POP_AT_RISK":1372060,"BUSINESS_TYPE":"Secondhand Dealer - Children's Products","LEGAL_NAME":"JOSE ANDRES","LONGITUDE":-87.71713708512483},
{"STATE":"IL","ZIP":60626,"LATTITUDE":42.010560539258606,"ADDRESS":"7053 N CLARK ST 1ST ","YEAR":2011,"DOING_BUSINESS_AS_NAME":"MARY'S FASHION","POP_AT_RISK":1201232,"BUSINESS_TYPE":"Secondhand Dealer - Children's Products","LEGAL_NAME":"SARA AVELAR","LONGITUDE":-87.67414766095729},
{"STATE":"IL","ZIP":60641,"LATTITUDE":41.95862443257959,"ADDRESS":"4264-4266 N MILWAUKEE AVE 1ST ","YEAR":2011,"DOING_BUSINESS_AS_NAME":"FIRST SECONDS RESALE","POP_AT_RISK":415900,"BUSINESS_TYPE":"Secondhand Dealer - Children's Products","LEGAL_NAME":"DEBRA L GARY","LONGITUDE":-87.75291492330301},
{"STATE":"IL","ZIP":60609,"LATTITUDE":41.81944142629576,"ADDRESS":"4100 S ASHLAND AVE 1ST ","YEAR":2011,"DOING_BUSINESS_AS_NAME":"NANCY STORE","POP_AT_RISK":122040,"BUSINESS_TYPE":"Secondhand Dealer - Children's Products","LEGAL_NAME":"MARIA G. ANAYA","LONGITUDE":-87.6653755449091},
{"STATE":"IL","ZIP":60614,"LATTITUDE":41.91821840544163,"ADDRESS":"954 W ARMITAGE AVE  ","YEAR":2011,"DOING_BUSINESS_AS_NAME":"THE SECOND CHILD","POP_AT_RISK":1151480,"BUSINESS_TYPE":"Secondhand Dealer - Children's Products","LEGAL_NAME":"THE SECOND CHILD","LONGITUDE":-87.65314158811844},
{"STATE":"IL","ZIP":60629,"LATTITUDE":41.786152159483564,"ADDRESS":"3137 W 59TH ST 1ST ","YEAR":2011,"DOING_BUSINESS_AS_NAME":"LA SOLUCION, INC.","POP_AT_RISK":1081346,"BUSINESS_TYPE":"Secondhand Dealer - Children's Products","LEGAL_NAME":"LA SOLUCION, INC.","LONGITUDE":-87.70235519811696},
{"STATE":"IL","ZIP":60656,"LATTITUDE":41.974603344400215,"ADDRESS":"7246 W FOSTER AVE  17A","YEAR":2011,"DOING_BUSINESS_AS_NAME":"ONCE UPON A CHILD","POP_AT_RISK":125440,"BUSINESS_TYPE":"Secondhand Dealer - Children's Products","LEGAL_NAME":"TOREN CORPORATION","LONGITUDE":-87.80902108629118},
{"STATE":"IL","ZIP":60639,"LATTITUDE":41.93121411023036,"ADDRESS":"6100 W DIVERSEY AVE 1ST ","YEAR":2011,"DOING_BUSINESS_AS_NAME":"The Kiddie Kloset","POP_AT_RISK":670776,"BUSINESS_TYPE":"Secondhand Dealer - Children's Products","LEGAL_NAME":"Leons Family Stores & Services, LLC","LONGITUDE":-87.77845847713088},
{}]