[
{"STATE":"IL","ZIP":60626,"LATTITUDE":41.999988014812224,"ADDRESS":"6501 N CLARK ST  ","YEAR":2013,"DOING_BUSINESS_AS_NAME":"CLARK TIRE SERVICE","POP_AT_RISK":973260,"BUSINESS_TYPE":"Motor Vehicle Repair
{"STATE":"IL","ZIP":60609,"LATTITUDE":41.81615271790165,"ADDRESS":"4250 S ASHLAND AVE  ","YEAR":2013,"DOING_BUSINESS_AS_NAME":"P ADAME TIRE SHOP","POP_AT_RISK":101241,"BUSINESS_TYPE":"Motor Vehicle Repair
{"STATE":"IL","ZIP":60636,"LATTITUDE":41.78675314130303,"ADDRESS":"1241-1247 W 59TH ST 1ST ","YEAR":2013,"DOING_BUSINESS_AS_NAME":"ALAMO'S TIRE SHOP & REPAIR","POP_AT_RISK":69626,"BUSINESS_TYPE":"Motor Vehicle Repair
{"STATE":"IL","ZIP":60631,"LATTITUDE":42.00047578589979,"ADDRESS":"6544 N MILWAUKEE AVE 1ST ","YEAR":2013,"DOING_BUSINESS_AS_NAME":"R A S TIRE SALES","POP_AT_RISK":60573,"BUSINESS_TYPE":"Motor Vehicle Repair
{"STATE":"IL","ZIP":60639,"LATTITUDE":41.92443929099319,"ADDRESS":"4510-4512 W FULLERTON AVE  ","YEAR":2013,"DOING_BUSINESS_AS_NAME":"CHICAGO TIRE","POP_AT_RISK":69469,"BUSINESS_TYPE":"Motor Vehicle Repair
{"STATE":"IL","ZIP":60609,"LATTITUDE":41.801353718296276,"ADDRESS":"1934 W 51ST ST # 1ST","YEAR":2013,"DOING_BUSINESS_AS_NAME":"GOMEZ TIRES & WHEELS","POP_AT_RISK":82596,"BUSINESS_TYPE":"Motor Vehicle Repair
{"STATE":"IL","ZIP":60618,"LATTITUDE":41.953858474224184,"ADDRESS":"3708 W IRVING PARK RD  ","YEAR":2013,"DOING_BUSINESS_AS_NAME":"MR KUSTOM","POP_AT_RISK":762300,"BUSINESS_TYPE":"Motor Vehicle Repair
{"STATE":"IL","ZIP":60609,"LATTITUDE":41.81633161182101,"ADDRESS":"700 W 43RD ST  ","YEAR":2013,"DOING_BUSINESS_AS_NAME":"STOKES AUTO SERVICE","POP_AT_RISK":28080,"BUSINESS_TYPE":"Motor Vehicle Repair
{"STATE":"IL","ZIP":60608,"LATTITUDE":41.84489437548901,"ADDRESS":"2514 W 26TH ST  ","YEAR":2013,"DOING_BUSINESS_AS_NAME":"SOTO TIRES, INC","POP_AT_RISK":43409,"BUSINESS_TYPE":"Motor Vehicle Repair
{"STATE":"IL","ZIP":60620,"LATTITUDE":41.752747620891796,"ADDRESS":"7749 S CARPENTER ST 1ST ","YEAR":2013,"DOING_BUSINESS_AS_NAME":"ODUM'S GARAGE","POP_AT_RISK":33153,"BUSINESS_TYPE":"Motor Vehicle Repair
{"STATE":"IL","ZIP":60617,"LATTITUDE":41.71997451296936,"ADDRESS":"9647 S EWING AVE  ","YEAR":2013,"DOING_BUSINESS_AS_NAME":"CITYWIDE RIMS & SOUNDS","POP_AT_RISK":13632,"BUSINESS_TYPE":"Motor Vehicle Repair
{"STATE":"IL","ZIP":60622,"LATTITUDE":41.90858090357951,"ADDRESS":"1500 N WESTERN AVE 1ST ","YEAR":2013,"DOING_BUSINESS_AS_NAME":"EL SEGUNDO  YUMURI","POP_AT_RISK":493318,"BUSINESS_TYPE":"Motor Vehicle Repair
{"STATE":"IL","ZIP":60639,"LATTITUDE":41.91963992911631,"ADDRESS":"5811 W GRAND AVE  ","YEAR":2013,"DOING_BUSINESS_AS_NAME":"ROMANS TIRE SHOP","POP_AT_RISK":47203,"BUSINESS_TYPE":"Motor Vehicle Repair
{"STATE":"IL","ZIP":60659,"LATTITUDE":41.99791541556752,"ADDRESS":"2210 W DEVON AVE 1ST ","YEAR":2013,"DOING_BUSINESS_AS_NAME":"BENNY'S TIRES","POP_AT_RISK":382974,"BUSINESS_TYPE":"Motor Vehicle Repair
{"STATE":"IL","ZIP":60610,"LATTITUDE":41.895653319250044,"ADDRESS":"356 W SUPERIOR ST 1ST ","YEAR":2013,"DOING_BUSINESS_AS_NAME":"River North Car Wash Inc.","POP_AT_RISK":890773,"BUSINESS_TYPE":"Motor Vehicle Repair
{"STATE":"IL","ZIP":60612,"LATTITUDE":41.86797423344521,"ADDRESS":"1112-18 S WESTERN AVE 1ST ","YEAR":2013,"DOING_BUSINESS_AS_NAME":"A TO Z TIRES, INC.","POP_AT_RISK":28586,"BUSINESS_TYPE":"Motor Vehicle Repair
{"STATE":"IL","ZIP":60639,"LATTITUDE":41.92411498506491,"ADDRESS":"5514-5516 W FULLERTON AVE 1 ","YEAR":2013,"DOING_BUSINESS_AS_NAME":"EZ AUTO GLASS INC.","POP_AT_RISK":147864,"BUSINESS_TYPE":"Motor Vehicle Repair
{"STATE":"IL","ZIP":60619,"LATTITUDE":41.757133415130944,"ADDRESS":"7549-7557 S COTTAGE GROVE AVE  ","YEAR":2013,"DOING_BUSINESS_AS_NAME":"BAROMAN TIRE SHOP","POP_AT_RISK":94383,"BUSINESS_TYPE":"Motor Vehicle Repair
{"STATE":"IL","ZIP":60619,"LATTITUDE":41.74622788224334,"ADDRESS":"8146 S COTTAGE GROVE AVE 1ST ","YEAR":2013,"DOING_BUSINESS_AS_NAME":"D. & GU WHEELS INC.","POP_AT_RISK":35793,"BUSINESS_TYPE":"Motor Vehicle Repair
{"STATE":"IL","ZIP":60622,"LATTITUDE":41.893644225167506,"ADDRESS":"641 N ASHLAND AVE 1ST ","YEAR":2013,"DOING_BUSINESS_AS_NAME":"ORLANDO AUTO TOP","POP_AT_RISK":139869,"BUSINESS_TYPE":"Motor Vehicle Repair
{"STATE":"IL","ZIP":60614,"LATTITUDE":41.93083301378749,"ADDRESS":"2650 N CLARK ST  ","YEAR":2013,"DOING_BUSINESS_AS_NAME":"BEST BUY","POP_AT_RISK":1541679,"BUSINESS_TYPE":"Motor Vehicle Repair
{"STATE":"IL","ZIP":60622,"LATTITUDE":41.910948762561205,"ADDRESS":"1000 W NORTH AVE  E","YEAR":2013,"DOING_BUSINESS_AS_NAME":"BEST BUY","POP_AT_RISK":164085,"BUSINESS_TYPE":"Motor Vehicle Repair
{"STATE":"IL","ZIP":60607,"LATTITUDE":41.86712201727935,"ADDRESS":"555 W ROOSEVELT RD 1 ","YEAR":2013,"DOING_BUSINESS_AS_NAME":"BEST BUY","POP_AT_RISK":229747,"BUSINESS_TYPE":"Motor Vehicle Repair
{"STATE":"IL","ZIP":60618,"LATTITUDE":41.939416427669265,"ADDRESS":"3262 W BELMONT AVE 1ST-GRNDLEVEL ","YEAR":2013,"DOING_BUSINESS_AS_NAME":"BEST BUY","POP_AT_RISK":246496,"BUSINESS_TYPE":"Motor Vehicle Repair
{"STATE":"IL","ZIP":60614,"LATTITUDE":41.919633169042875,"ADDRESS":"2100 N ELSTON AVE  ","YEAR":2013,"DOING_BUSINESS_AS_NAME":"BEST BUY #814","POP_AT_RISK":58130,"BUSINESS_TYPE":"Motor Vehicle Repair
{"STATE":"IL","ZIP":60619,"LATTITUDE":41.75906173436098,"ADDRESS":"7433 S STATE ST  ","YEAR":2013,"DOING_BUSINESS_AS_NAME":"J & J ELECTRONICS","POP_AT_RISK":29927,"BUSINESS_TYPE":"Motor Vehicle Repair
{"STATE":"IL","ZIP":60646,"LATTITUDE":41.99343746173311,"ADDRESS":"6152 N PULASKI RD  ","YEAR":2013,"DOING_BUSINESS_AS_NAME":"SNAPPY CAR WASH, INC.","POP_AT_RISK":158940,"BUSINESS_TYPE":"Motor Vehicle Repair
{"STATE":"IL","ZIP":60638,"LATTITUDE":41.77628457780426,"ADDRESS":"6358 S CENTRAL AVE  1ST","YEAR":2013,"DOING_BUSINESS_AS_NAME":"DAYTON AUTO UPHOLSTERY","POP_AT_RISK":27062,"BUSINESS_TYPE":"Motor Vehicle Repair
{"STATE":"IL","ZIP":60632,"LATTITUDE":41.819623137571064,"ADDRESS":"4041-4043 S KEDZIE AVE 1ST ","YEAR":2013,"DOING_BUSINESS_AS_NAME":"TENORIO TIRE SHOP INC.","POP_AT_RISK":356512,"BUSINESS_TYPE":"Motor Vehicle Repair
{"STATE":"IL","ZIP":60623,"LATTITUDE":41.844011645517114,"ADDRESS":"4369 W 26TH ST 1ST 1","YEAR":2013,"DOING_BUSINESS_AS_NAME":"EXPRESS AUTOMOTIVE INC","POP_AT_RISK":91804,"BUSINESS_TYPE":"Motor Vehicle Repair
{"STATE":"IL","ZIP":60647,"LATTITUDE":41.91011319364989,"ADDRESS":"3544-3546 W NORTH AVE  ","YEAR":2013,"DOING_BUSINESS_AS_NAME":"YUMURI TIRE CENTER","POP_AT_RISK":1098426,"BUSINESS_TYPE":"Motor Vehicle Repair
{"STATE":"IL","ZIP":60621,"LATTITUDE":41.76431905817667,"ADDRESS":"7128 S HALSTED ST 1ST ","YEAR":2013,"DOING_BUSINESS_AS_NAME":"DANIEL'S TIRE SHOP","POP_AT_RISK":78562,"BUSINESS_TYPE":"Motor Vehicle Repair
{"STATE":"IL","ZIP":60613,"LATTITUDE":41.94865132143591,"ADDRESS":"3664 N LINCOLN AVE  1ST","YEAR":2013,"DOING_BUSINESS_AS_NAME":"LAWRENCE AUTO TRIM CO INC.","POP_AT_RISK":1008320,"BUSINESS_TYPE":"Motor Vehicle Repair
{"STATE":"IL","ZIP":60608,"LATTITUDE":41.85347224694092,"ADDRESS":"2120 S ASHLAND AVE 1 1","YEAR":2013,"DOING_BUSINESS_AS_NAME":"NEW PILSEN AUTO GLASS","POP_AT_RISK":82564,"BUSINESS_TYPE":"Motor Vehicle Repair
{"STATE":"IL","ZIP":60639,"LATTITUDE":41.909544842437064,"ADDRESS":"4655 W NORTH AVE  ","YEAR":2013,"DOING_BUSINESS_AS_NAME":"BIONIC AUTO PARTS & SALE INC","POP_AT_RISK":112248,"BUSINESS_TYPE":"Motor Vehicle Repair
{"STATE":"IL","ZIP":60620,"LATTITUDE":41.727488176485615,"ADDRESS":"9132 S ASHLAND AVE 1ST ","YEAR":2013,"DOING_BUSINESS_AS_NAME":"RELIABLE ALARM SYSTEM","POP_AT_RISK":29296,"BUSINESS_TYPE":"Motor Vehicle Repair
{"STATE":"IL","ZIP":60638,"LATTITUDE":41.792603240395486,"ADDRESS":"5635 W 55TH ST 1ST ","YEAR":2013,"DOING_BUSINESS_AS_NAME":"A-1    SMART START OF GREATER CHICAGO","POP_AT_RISK":91300,"BUSINESS_TYPE":"Motor Vehicle Repair
{"STATE":"IL","ZIP":60616,"LATTITUDE":41.83806671096745,"ADDRESS":"349 W 31ST ST 1ST ","YEAR":2013,"DOING_BUSINESS_AS_NAME":"J & J SOFT CAR WASH INC","POP_AT_RISK":833000,"BUSINESS_TYPE":"Motor Vehicle Repair
{"STATE":"IL","ZIP":60612,"LATTITUDE":41.88067250099072,"ADDRESS":"2823-2825 W FIFTH AVE 1ST ","YEAR":2013,"DOING_BUSINESS_AS_NAME":"EAST GARDEN HAND CAR WASH INC.","POP_AT_RISK":340060,"BUSINESS_TYPE":"Motor Vehicle Repair
{"STATE":"IL","ZIP":60630,"LATTITUDE":41.982409756101816,"ADDRESS":"5584 N NORTHWEST HWY 1ST FLOOR ","YEAR":2013,"DOING_BUSINESS_AS_NAME":"NEMETH GLASS OF ILLINOIS, INC.","POP_AT_RISK":138700,"BUSINESS_TYPE":"Motor Vehicle Repair
{"STATE":"IL","ZIP":60636,"LATTITUDE":41.77193392666377,"ADDRESS":"6707 S ASHLAND AVE 1ST ","YEAR":2013,"DOING_BUSINESS_AS_NAME":"J&M TIRE SHOP","POP_AT_RISK":193665,"BUSINESS_TYPE":"Motor Vehicle Repair
{"STATE":"IL","ZIP":60618,"LATTITUDE":41.94768506636846,"ADDRESS":"3635 N KEDZIE AVE  ","YEAR":2013,"DOING_BUSINESS_AS_NAME":"123 CARWASH & DETAILING CENTER","POP_AT_RISK":110306,"BUSINESS_TYPE":"Motor Vehicle Repair
{"STATE":"IL","ZIP":60652,"LATTITUDE":41.73638928135282,"ADDRESS":"3949 W COLUMBUS AVE 1ST ","YEAR":2013,"DOING_BUSINESS_AS_NAME":"WILLIAM J CASSIDY TIRE SUPPLY","POP_AT_RISK":126165,"BUSINESS_TYPE":"Motor Vehicle Repair
{"STATE":"IL","ZIP":60644,"LATTITUDE":41.87226805526286,"ADDRESS":"626-628 S CICERO AVE  ","YEAR":2013,"DOING_BUSINESS_AS_NAME":"A. DELGADO'Z AUTO SALES & CAR ALARMS N AUDIO","POP_AT_RISK":132228,"BUSINESS_TYPE":"Motor Vehicle Repair
{}]