[
  {
    "BUSINESS_TYPE": "Street Performer", 
    "LEGAL_NAME": "GONZALEZ CARMEN", 
    "STATE": "IL", 
    "DOING_BUSINESS_AS_NAME": "GONZALEZ CARMEN", 
    "POP_AT_RISK": 38086, 
    "ZIP": 60609, 
    "ADDRESS": "2236 W 35TH ST", 
    "YEAR": 2004, 
    "LONGITUDE": -87.681613687, 
    "LATTITUDE": 41.830427721
  }, 
  {
    "BUSINESS_TYPE": "Street Performer", 
    "LEGAL_NAME": "CHARLES A MC SHANE", 
    "STATE": "IL", 
    "DOING_BUSINESS_AS_NAME": "CHARLES A MCSHANE", 
    "POP_AT_RISK": 23071, 
    "ZIP": 60631, 
    "ADDRESS": "5993 N NORTHWEST HWY", 
    "YEAR": 2004, 
    "LONGITUDE": -87.794851355, 
    "LATTITUDE": 41.990086893
  }, 
  {
    "BUSINESS_TYPE": "Street Performer", 
    "LEGAL_NAME": "SHERRY D. MARKS", 
    "STATE": "IL", 
    "DOING_BUSINESS_AS_NAME": "SHERRY D. MARKS", 
    "POP_AT_RISK": 27535, 
    "ZIP": 60638, 
    "ADDRESS": "6306 S ARCHER AVE", 
    "YEAR": 2004, 
    "LONGITUDE": -87.778733198, 
    "LATTITUDE": 41.793293149
  }, 
  {
    "BUSINESS_TYPE": "Street Performer", 
    "LEGAL_NAME": "HERMAN GUNN", 
    "STATE": "IL", 
    "DOING_BUSINESS_AS_NAME": "HERMAN GUNN", 
    "POP_AT_RISK": 37767, 
    "ZIP": 60624, 
    "ADDRESS": "4220 W ADAMS ST", 
    "YEAR": 2004, 
    "LONGITUDE": -87.731366726, 
    "LATTITUDE": 41.878016622
  }, 
  {
    "BUSINESS_TYPE": "Street Performer", 
    "LEGAL_NAME": "LANCE D. ANDERSON", 
    "STATE": "IL", 
    "DOING_BUSINESS_AS_NAME": "LANCE D. ANDERSON", 
    "POP_AT_RISK": 8129, 
    "ZIP": 60646, 
    "ADDRESS": "7045 N LEOTI AVE", 
    "YEAR": 2004, 
    "LONGITUDE": -87.782887751, 
    "LATTITUDE": 42.009666895
  }, 
  {
    "BUSINESS_TYPE": "Street Performer", 
    "LEGAL_NAME": "RAYNARD BALKCOM", 
    "STATE": "IL", 
    "DOING_BUSINESS_AS_NAME": "RAYNARD BALKCOM", 
    "POP_AT_RISK": 56385, 
    "ZIP": 60623, 
    "ADDRESS": "4145 W CERMAK RD 2ND", 
    "YEAR": 2004, 
    "LONGITUDE": -87.728956361, 
    "LATTITUDE": 41.851375635
  }, 
  {
    "BUSINESS_TYPE": "Street Performer", 
    "LEGAL_NAME": "MICHAEL A TAYLOR", 
    "STATE": "IL", 
    "DOING_BUSINESS_AS_NAME": "MICHAEL A TAYLOR", 
    "POP_AT_RISK": 45617, 
    "ZIP": 60609, 
    "ADDRESS": "2131 W 52ND ST", 
    "YEAR": 2004, 
    "LONGITUDE": -87.678164634, 
    "LATTITUDE": 41.798790128
  }, 
  {
    "BUSINESS_TYPE": "Street Performer", 
    "LEGAL_NAME": "AMANDA MERDITH COHEN", 
    "STATE": "IL", 
    "DOING_BUSINESS_AS_NAME": "AMANDA COHEN", 
    "POP_AT_RISK": 56081, 
    "ZIP": 60659, 
    "ADDRESS": "5621 N CHRISTIANA AVE 3", 
    "YEAR": 2004, 
    "LONGITUDE": -87.712405688, 
    "LATTITUDE": 41.983679712
  }, 
  {
    "BUSINESS_TYPE": "Street Performer", 
    "LEGAL_NAME": "RAY ALVAREZ", 
    "STATE": "IL", 
    "DOING_BUSINESS_AS_NAME": "MISSION CRISTIAN ELIM CHURCH", 
    "POP_AT_RISK": 21759, 
    "ZIP": 60634, 
    "ADDRESS": "3833 N NOTTINGHAM AVE", 
    "YEAR": 2004, 
    "LONGITUDE": -87.804576771, 
    "LATTITUDE": 41.949949366
  }, 
  {
    "BUSINESS_TYPE": "Street Performer", 
    "LEGAL_NAME": "JOSEPH H. SHIVE", 
    "STATE": "IL", 
    "DOING_BUSINESS_AS_NAME": "JOSEPH H. SHIVE", 
    "POP_AT_RISK": 21773, 
    "ZIP": 60643, 
    "ADDRESS": "10810 S HOYNE AVE", 
    "YEAR": 2004, 
    "LONGITUDE": -87.674166093, 
    "LATTITUDE": 41.696946671
  }, 
  {
    "BUSINESS_TYPE": "Street Performer", 
    "LEGAL_NAME": "GARRICK G. PATTEN", 
    "STATE": "IL", 
    "DOING_BUSINESS_AS_NAME": "GARRICK G. PATTEN", 
    "POP_AT_RISK": 23298, 
    "ZIP": 60621, 
    "ADDRESS": "257 W 60TH ST", 
    "YEAR": 2004, 
    "LONGITUDE": -87.632599632, 
    "LATTITUDE": 41.785307187
  }, 
  {
    "BUSINESS_TYPE": "Street Performer", 
    "LEGAL_NAME": "MARY A. WILLIAMS", 
    "STATE": "IL", 
    "DOING_BUSINESS_AS_NAME": "MARY A. WILLIAMS", 
    "POP_AT_RISK": 54242, 
    "ZIP": 60644, 
    "ADDRESS": "215 N LATROBE AVE", 
    "YEAR": 2004, 
    "LONGITUDE": -87.756304002, 
    "LATTITUDE": 41.884800303
  }, 
  {
    "BUSINESS_TYPE": "Street Performer", 
    "LEGAL_NAME": "LARRY LEE STEWART", 
    "STATE": "IL", 
    "DOING_BUSINESS_AS_NAME": "LARRY LEE STEWART", 
    "POP_AT_RISK": 20309, 
    "ZIP": 60628, 
    "ADDRESS": "739 E 105TH ST", 
    "YEAR": 2004, 
    "LONGITUDE": -87.604741925, 
    "LATTITUDE": 41.703684474
  }, 
  {
    "BUSINESS_TYPE": "Street Performer", 
    "LEGAL_NAME": "CAROL EPHRAIM", 
    "STATE": "IL", 
    "DOING_BUSINESS_AS_NAME": "CAROL EPHRAIM", 
    "POP_AT_RISK": 32143, 
    "ZIP": 60652, 
    "ADDRESS": "3643 W 79TH ST", 
    "YEAR": 2004, 
    "LONGITUDE": -87.713778115, 
    "LATTITUDE": 41.749455613
  }, 
  {
    "BUSINESS_TYPE": "Street Performer", 
    "LEGAL_NAME": "THOMAS M SEXTON", 
    "STATE": "IL", 
    "DOING_BUSINESS_AS_NAME": "THOMAS M SEXTON", 
    "POP_AT_RISK": 12033, 
    "ZIP": 60656, 
    "ADDRESS": "8615 W SUNNYSIDE AVE", 
    "YEAR": 2004, 
    "LONGITUDE": -87.842301739, 
    "LATTITUDE": 41.961202595
  }, 
  {
    "BUSINESS_TYPE": "Street Performer", 
    "LEGAL_NAME": "LYDEN A. ALLEN", 
    "STATE": "IL", 
    "DOING_BUSINESS_AS_NAME": "LYDEN A. ALLEN", 
    "POP_AT_RISK": 30330, 
    "ZIP": 60649, 
    "ADDRESS": "7742 S SOUTH SHORE DR  2B", 
    "YEAR": 2004, 
    "LONGITUDE": -87.552568762, 
    "LATTITUDE": 41.756019899
  }, 
  {
    "BUSINESS_TYPE": "Street Performer", 
    "LEGAL_NAME": "ALLEN G. HOLLAND", 
    "STATE": "IL", 
    "DOING_BUSINESS_AS_NAME": "ALLEN G. HOLLAND", 
    "POP_AT_RISK": 34232, 
    "ZIP": 60651, 
    "ADDRESS": "1241 N AUSTIN BLVD", 
    "YEAR": 2004, 
    "LONGITUDE": -87.775255305, 
    "LATTITUDE": 41.903216744
  }, 
  {
    "BUSINESS_TYPE": "Street Performer", 
    "LEGAL_NAME": "DONATO H RAMIREZ", 
    "STATE": "IL", 
    "DOING_BUSINESS_AS_NAME": "DONATO H RAMIREZ", 
    "POP_AT_RISK": 65921, 
    "ZIP": 60623, 
    "ADDRESS": "2652 S HAMLIN AVE", 
    "YEAR": 2004, 
    "LONGITUDE": -87.719772842, 
    "LATTITUDE": 41.842740123
  }, 
  {
    "BUSINESS_TYPE": "Street Performer", 
    "LEGAL_NAME": "MICHELLE     EPHRAIM", 
    "STATE": "IL", 
    "DOING_BUSINESS_AS_NAME": "MICHELLE  EPHRAIM", 
    "POP_AT_RISK": 71718, 
    "ZIP": 60629, 
    "ADDRESS": "5945 S TROY ST", 
    "YEAR": 2004, 
    "LONGITUDE": -87.701945117, 
    "LATTITUDE": 41.784935114
  }, 
  {
    "BUSINESS_TYPE": "Street Performer", 
    "LEGAL_NAME": "RYAN C. MEREDITH", 
    "STATE": "IL", 
    "DOING_BUSINESS_AS_NAME": "RYAN C. MEREDITH", 
    "POP_AT_RISK": 38823, 
    "ZIP": 60637, 
    "ADDRESS": "5709 S KIMBARK AVE  3", 
    "YEAR": 2004, 
    "LONGITUDE": -87.594683881, 
    "LATTITUDE": 41.791147633
  }, 
  {
    "BUSINESS_TYPE": "Street Performer", 
    "LEGAL_NAME": "DALE S DUFFALA", 
    "STATE": "IL", 
    "DOING_BUSINESS_AS_NAME": "DRBLOOZ", 
    "POP_AT_RISK": 15852, 
    "ZIP": 60631, 
    "ADDRESS": "6822 N NORTHWEST HWY", 
    "YEAR": 2004, 
    "LONGITUDE": -87.819696593, 
    "LATTITUDE": 42.00487624
  }, 
  {
    "BUSINESS_TYPE": "Street Performer", 
    "LEGAL_NAME": "WILLIAM J. WIECZOREK JR.", 
    "STATE": "IL", 
    "DOING_BUSINESS_AS_NAME": "WILLIAM J. WIECZOREK JR.", 
    "POP_AT_RISK": 12702, 
    "ZIP": 60646, 
    "ADDRESS": "6731 N IONIA AVE", 
    "YEAR": 2004, 
    "LONGITUDE": -87.764913451, 
    "LATTITUDE": 42.003046022
  }, 
  {
    "BUSINESS_TYPE": "Street Performer", 
    "LEGAL_NAME": "FRANK SCOTT JR.", 
    "STATE": "IL", 
    "DOING_BUSINESS_AS_NAME": "FRANK SCOTT JR", 
    "POP_AT_RISK": 24393, 
    "ZIP": 60628, 
    "ADDRESS": "11717 S STATE ST", 
    "YEAR": 2004, 
    "LONGITUDE": -87.622606434, 
    "LATTITUDE": 41.681013796
  }, 
  {
    "BUSINESS_TYPE": "Street Performer", 
    "LEGAL_NAME": "STEVEN W. PAJEAU", 
    "STATE": "IL", 
    "DOING_BUSINESS_AS_NAME": "STEVEN W. PAJEAU", 
    "POP_AT_RISK": 54952, 
    "ZIP": 60629, 
    "ADDRESS": "6253 S PULASKI RD", 
    "YEAR": 2004, 
    "LONGITUDE": -87.722620174, 
    "LATTITUDE": 41.7788895
  }, 
  {
    "BUSINESS_TYPE": "Street Performer", 
    "LEGAL_NAME": "JOSEPH P. JEKOT", 
    "STATE": "IL", 
    "DOING_BUSINESS_AS_NAME": "JOSEPH P. JEKOT", 
    "POP_AT_RISK": 40605, 
    "ZIP": 60630, 
    "ADDRESS": "5255 N RIVERSEDGE TER  213", 
    "YEAR": 2004, 
    "LONGITUDE": -87.73531081, 
    "LATTITUDE": 41.977243168
  }, 
  {
    "BUSINESS_TYPE": "Street Performer", 
    "LEGAL_NAME": "CHARLES A FEIPEL III", 
    "STATE": "IL", 
    "DOING_BUSINESS_AS_NAME": "CHARLES A FEIPEL III", 
    "POP_AT_RISK": 25020, 
    "ZIP": 60655, 
    "ADDRESS": "10939 S ST LOUIS AVE", 
    "YEAR": 2004, 
    "LONGITUDE": -87.708121168, 
    "LATTITUDE": 41.693938022
  }, 
  {
    "BUSINESS_TYPE": "Street Performer", 
    "LEGAL_NAME": "IRENEUSZ MACIEJEWSKI", 
    "STATE": "IL", 
    "DOING_BUSINESS_AS_NAME": "IRENEUSZ MACIEJEWSKI", 
    "POP_AT_RISK": 64311, 
    "ZIP": 60641, 
    "ADDRESS": "5522 W BELMONT AVE", 
    "YEAR": 2004, 
    "LONGITUDE": -87.764974281, 
    "LATTITUDE": 41.938703776
  }, 
  {
    "BUSINESS_TYPE": "Street Performer", 
    "LEGAL_NAME": "LEONEL LOEZA JR.", 
    "STATE": "IL", 
    "DOING_BUSINESS_AS_NAME": "LEONEL LOEZA JR.", 
    "POP_AT_RISK": 26799, 
    "ZIP": 60629, 
    "ADDRESS": "6437 S KILPATRICK AVE", 
    "YEAR": 2004, 
    "LONGITUDE": -87.739611156, 
    "LATTITUDE": 41.775533098
  }, 
  {
    "BUSINESS_TYPE": "Street Performer", 
    "LEGAL_NAME": "AINA J LONDON", 
    "STATE": "IL", 
    "DOING_BUSINESS_AS_NAME": "AINA J LONDON", 
    "POP_AT_RISK": 35838, 
    "ZIP": 60620, 
    "ADDRESS": "8352 S PEORIA ST 2", 
    "YEAR": 2004, 
    "LONGITUDE": -87.646414135, 
    "LATTITUDE": 41.741750085
  }, 
  {
    "BUSINESS_TYPE": "Street Performer", 
    "LEGAL_NAME": "HOWELL TRUCKING INC.", 
    "STATE": "IL", 
    "DOING_BUSINESS_AS_NAME": "JOHN HOWELL", 
    "POP_AT_RISK": 34051, 
    "ZIP": 60617, 
    "ADDRESS": "8027 S YATES BLVD", 
    "YEAR": 2004, 
    "LONGITUDE": -87.566040529, 
    "LATTITUDE": 41.749037746
  }, 
  {
    "BUSINESS_TYPE": "Street Performer", 
    "LEGAL_NAME": "JOSE S. FARINAGO SR.", 
    "STATE": "IL", 
    "DOING_BUSINESS_AS_NAME": "JOSE S. FARINAGO SR.", 
    "POP_AT_RISK": 71600, 
    "ZIP": 60639, 
    "ADDRESS": "2442 N KILDARE AVE 1ST", 
    "YEAR": 2004, 
    "LONGITUDE": -87.7343044, 
    "LATTITUDE": 41.925674287
  }, 
  {
    "BUSINESS_TYPE": "Street Performer", 
    "LEGAL_NAME": "OTTO C. RICHARD", 
    "STATE": "IL", 
    "DOING_BUSINESS_AS_NAME": "OTTO C. RICHARD", 
    "POP_AT_RISK": 37320, 
    "ZIP": 60619, 
    "ADDRESS": "8404 S DORCHESTER AVE", 
    "YEAR": 2004, 
    "LONGITUDE": -87.590549681, 
    "LATTITUDE": 41.742111581
  }
]