[
{"STATE":"IL","ZIP":60623,"LATTITUDE":41.84451439218131,"ADDRESS":"3516 W 26TH ST  ","YEAR":2013,"DOING_BUSINESS_AS_NAME":"PAWS CHICAGO","POP_AT_RISK":1265688,"BUSINESS_TYPE":"Veterinary Hospital","LEGAL_NAME":"PAWS CHICAGO","LONGITUDE":-87.71314257435705},
{"STATE":"IL","ZIP":60639,"LATTITUDE":41.90975958200588,"ADDRESS":"4712 W NORTH AVE  1","YEAR":2013,"DOING_BUSINESS_AS_NAME":"SELIGMAN ANIMAL HOSPITAL","POP_AT_RISK":258640,"BUSINESS_TYPE":"Veterinary Hospital","LEGAL_NAME":"BATHALA BHASKAR","LONGITUDE":-87.74412927450804},
{"STATE":"IL","ZIP":60639,"LATTITUDE":41.91698834322758,"ADDRESS":"5144 W GRAND AVE 1ST ","YEAR":2013,"DOING_BUSINESS_AS_NAME":"STRESSER ANIMAL HOSPITAL","POP_AT_RISK":337314,"BUSINESS_TYPE":"Veterinary Hospital","LEGAL_NAME":"GEORGE KOSHY DVM","LONGITUDE":-87.75514518197966},
{"STATE":"IL","ZIP":60647,"LATTITUDE":41.91765570324503,"ADDRESS":"2520 W ARMITAGE AVE 1ST ","YEAR":2013,"DOING_BUSINESS_AS_NAME":"INTEGRATIVE PET CARE","POP_AT_RISK":502389,"BUSINESS_TYPE":"Veterinary Hospital","LEGAL_NAME":"INK2K9 GROUP INC.","LONGITUDE":-87.69079717342971},
{"STATE":"IL","ZIP":60617,"LATTITUDE":41.72542026345421,"ADDRESS":"9333 S ESCANABA AVE 1ST ","YEAR":2013,"DOING_BUSINESS_AS_NAME":"ESCANABA ANIMAL HOSPITAL","POP_AT_RISK":129003,"BUSINESS_TYPE":"Veterinary Hospital","LEGAL_NAME":"SUBBARAJU LIMITED","LONGITUDE":-87.55375989955488},
{"STATE":"IL","ZIP":60620,"LATTITUDE":41.72629173006071,"ADDRESS":"9210 S ASHLAND AVE 1 ","YEAR":2013,"DOING_BUSINESS_AS_NAME":"ASHLAND ANIMAL HOSPITAL","POP_AT_RISK":169002,"BUSINESS_TYPE":"Veterinary Hospital","LEGAL_NAME":"TANYA LARESA DAVIS","LONGITUDE":-87.66294433982236},
{"STATE":"IL","ZIP":60630,"LATTITUDE":41.96820759243381,"ADDRESS":"4490 W LAWRENCE AVE 1ST ","YEAR":2013,"DOING_BUSINESS_AS_NAME":"JEFFERSON PARK ANIMAL HOSPITAL","POP_AT_RISK":550800,"BUSINESS_TYPE":"Veterinary Hospital","LEGAL_NAME":"ROBERTO C. GERONIMO","LONGITUDE":-87.74124035698242},
{"STATE":"IL","ZIP":60638,"LATTITUDE":41.79207533023176,"ADDRESS":"6721 W ARCHER AVE 1ST ","YEAR":2013,"DOING_BUSINESS_AS_NAME":"ABBOT ANIMAL HOSPITAL","POP_AT_RISK":177690,"BUSINESS_TYPE":"Veterinary Hospital","LEGAL_NAME":"KOTIPYINA SUBRAMANYAM","LONGITUDE":-87.79003453870169},
{"STATE":"IL","ZIP":60647,"LATTITUDE":41.923446660286565,"ADDRESS":"2319 N DAMEN AVE 1 ","YEAR":2013,"DOING_BUSINESS_AS_NAME":"Your Pet's Wellness","POP_AT_RISK":156891,"BUSINESS_TYPE":"Veterinary Hospital","LEGAL_NAME":"Your Pets Wellness LLC","LONGITUDE":-87.6776806034359},
{"STATE":"IL","ZIP":60610,"LATTITUDE":41.89242478465077,"ADDRESS":"600 N WELLS ST  ","YEAR":2013,"DOING_BUSINESS_AS_NAME":"CITY CAT DOCTOR","POP_AT_RISK":72484,"BUSINESS_TYPE":"Veterinary Hospital","LEGAL_NAME":"PET PARTNERS OF CHICAGO","LONGITUDE":-87.63423713563589},
{"STATE":"IL","ZIP":60620,"LATTITUDE":41.74322146923827,"ADDRESS":"8256 S ASHLAND AVE 1ST ","YEAR":2013,"DOING_BUSINESS_AS_NAME":"AUBURN ANIMAL HOSPITAL","POP_AT_RISK":301456,"BUSINESS_TYPE":"Veterinary Hospital","LEGAL_NAME":"SHEILA M DAVIS CARPENTER","LONGITUDE":-87.66340065682246},
{"STATE":"IL","ZIP":60631,"LATTITUDE":41.99884963756694,"ADDRESS":"6468 N MILWAUKEE AVE  ","YEAR":2013,"DOING_BUSINESS_AS_NAME":"TLC FIRST ANIMAL HOSPITAL","POP_AT_RISK":40382,"BUSINESS_TYPE":"Veterinary Hospital","LEGAL_NAME":"TLC FIRST ANIMAL HOSPITAL","LONGITUDE":-87.78942289172674},
{"STATE":"IL","ZIP":60613,"LATTITUDE":41.95365394998408,"ADDRESS":"3941 N ASHLAND AVE 1ST ","YEAR":2013,"DOING_BUSINESS_AS_NAME":"DUKE ANIMAL HOSPITAL, INC.","POP_AT_RISK":458952,"BUSINESS_TYPE":"Veterinary Hospital","LEGAL_NAME":"DUKE ANIMAL HOSPITAL, INC.","LONGITUDE":-87.66888347552636},
{"STATE":"IL","ZIP":60616,"LATTITUDE":41.838257021640345,"ADDRESS":"203-205 E 31ST ST 1ST ","YEAR":2013,"DOING_BUSINESS_AS_NAME":"BRONZEVILLE ANIMAL CLINIC","POP_AT_RISK":581346,"BUSINESS_TYPE":"Veterinary Hospital","LEGAL_NAME":"SOPHIA H. GILL, D.V.M., P.C.","LONGITUDE":-87.62176873928115},
{"STATE":"IL","ZIP":60631,"LATTITUDE":41.993226659363295,"ADDRESS":"6146 N NORTHWEST HWY  ","YEAR":2013,"DOING_BUSINESS_AS_NAME":"AVONDALE ANIMAL HOSPITAL","POP_AT_RISK":55018,"BUSINESS_TYPE":"Veterinary Hospital","LEGAL_NAME":"AVONDALE ANIMAL HOSPITAL, LTD","LONGITUDE":-87.80074267157521},
{"STATE":"IL","ZIP":60615,"LATTITUDE":41.79938949027767,"ADDRESS":"1363 E 53RD ST 1ST ","YEAR":2013,"DOING_BUSINESS_AS_NAME":"HYDE PARK ANIMAL CLINIC","POP_AT_RISK":653429,"BUSINESS_TYPE":"Veterinary Hospital","LEGAL_NAME":"HYDE PARK ANIMAL CLINIC, P.C.","LONGITUDE":-87.59268914036797},
{"STATE":"IL","ZIP":60649,"LATTITUDE":41.76869276344308,"ADDRESS":"6937 S STONY ISLAND AVE 1 ","YEAR":2013,"DOING_BUSINESS_AS_NAME":"HYDE PARK ANIMAL CLINIC","POP_AT_RISK":446364,"BUSINESS_TYPE":"Veterinary Hospital","LEGAL_NAME":"HYDE PARK ANIMAL CLINIC, P.C.","LONGITUDE":-87.58584581329808},
{"STATE":"IL","ZIP":60609,"LATTITUDE":41.80015376711059,"ADDRESS":"5132 S WESTERN AVE 1ST ","YEAR":2013,"DOING_BUSINESS_AS_NAME":"SOUTH WESTERN ANIMAL HOSPITAL","POP_AT_RISK":705376,"BUSINESS_TYPE":"Veterinary Hospital","LEGAL_NAME":"SOUTH WESTERN ANIMAL HOSPITAL","LONGITUDE":-87.68434530108541},
{"STATE":"IL","ZIP":60657,"LATTITUDE":41.943751690028435,"ADDRESS":"3413 N BROADWAY  1ST ","YEAR":2013,"DOING_BUSINESS_AS_NAME":"PETS FIRST VETERINARY CLINIC, LLC","POP_AT_RISK":1257966,"BUSINESS_TYPE":"Veterinary Hospital","LEGAL_NAME":"PETS FIRST VETERINARY CLINIC, LLC","LONGITUDE":-87.64491582401713},
{"STATE":"IL","ZIP":60707,"LATTITUDE":41.923691374039635,"ADDRESS":"6854 W GRAND AVE 1ST ","YEAR":2013,"DOING_BUSINESS_AS_NAME":"MONT CLARE ANIMAL HOSPITAL LTD","POP_AT_RISK":452232,"BUSINESS_TYPE":"Veterinary Hospital","LEGAL_NAME":"MONT CLARE ANIMAL HOSPITAL LIMITED","LONGITUDE":-87.79737653121663},
{"STATE":"IL","ZIP":60613,"LATTITUDE":41.94702805563717,"ADDRESS":"1808 W ADDISON ST 1 ","YEAR":2013,"DOING_BUSINESS_AS_NAME":"NORTH CENTER ANIMAL HOSPITAL, INC.","POP_AT_RISK":184929,"BUSINESS_TYPE":"Veterinary Hospital","LEGAL_NAME":"NORTH CENTER ANIMAL HOSPITAL, INC.","LONGITUDE":-87.67441503338652},
{"STATE":"IL","ZIP":60642,"LATTITUDE":41.902863912673865,"ADDRESS":"1166 N MILWAUKEE AVE 1ST ","YEAR":2013,"DOING_BUSINESS_AS_NAME":"WICKER PARK VETERINARY CLINIC","POP_AT_RISK":482904,"BUSINESS_TYPE":"Veterinary Hospital","LEGAL_NAME":"WICKER PARK VETERINARY CLINIC, LLC","LONGITUDE":-87.66593769046925},
{"STATE":"IL","ZIP":60647,"LATTITUDE":41.93014937988974,"ADDRESS":"2665 N ELSTON AVE  428","YEAR":2013,"DOING_BUSINESS_AS_NAME":"BANFIELD, THE PET HOSPITAL","POP_AT_RISK":93306,"BUSINESS_TYPE":"Veterinary Hospital","LEGAL_NAME":"MEDICAL MANAGEMENT INTERNATIONAL, INC.","LONGITUDE":-87.68464688578122},
{"STATE":"IL","ZIP":60642,"LATTITUDE":41.90651211514793,"ADDRESS":"1415 N KINGSBURY ST 1 ","YEAR":2013,"DOING_BUSINESS_AS_NAME":"Banfield Pet Hospital #2262","POP_AT_RISK":41448,"BUSINESS_TYPE":"Veterinary Hospital","LEGAL_NAME":"MEDICAL MANAGEMENT INTERNATIONAL, INC.","LONGITUDE":-87.6502973995951},
{"STATE":"IL","ZIP":60607,"LATTITUDE":41.86888971111206,"ADDRESS":"1101 S CANAL ST 1ST ","YEAR":2013,"DOING_BUSINESS_AS_NAME":"BANFIELD, THE PET HOSPITAL #1658","POP_AT_RISK":32478,"BUSINESS_TYPE":"Veterinary Hospital","LEGAL_NAME":"MEDICAL MANAGEMENT INTERNATIONAL, INC.","LONGITUDE":-87.63909892808796},
{"STATE":"IL","ZIP":60607,"LATTITUDE":41.88428667586031,"ADDRESS":"815 W RANDOLPH ST 1 1","YEAR":2013,"DOING_BUSINESS_AS_NAME":"CHICAGO VETERINARY HOUSECALLS","POP_AT_RISK":132375,"BUSINESS_TYPE":"Veterinary Hospital","LEGAL_NAME":"WEST LOOP VETERINARY CARE CENTER, P.C.","LONGITUDE":-87.64810435599084},
{}]