[
  {
    "BUSINESS_TYPE": "Hotel", 
    "LEGAL_NAME": "ARLO HOTEL CORPORATION", 
    "STATE": "IL", 
    "DOING_BUSINESS_AS_NAME": "HOTEL MILSHIRE", 
    "POP_AT_RISK": 66143, 
    "ZIP": 60647, 
    "ADDRESS": "2525 N MILWAUKEE AVE", 
    "YEAR": 2002, 
    "LONGITUDE": -87.704315776, 
    "LATTITUDE": 41.927319935
  }, 
  {
    "BUSINESS_TYPE": "Hotel", 
    "LEGAL_NAME": "NEW PARIE HOSPITALITY INC", 
    "STATE": "IL", 
    "DOING_BUSINESS_AS_NAME": "NEW PARIE HOTEL", 
    "POP_AT_RISK": 32387, 
    "ZIP": 60612, 
    "ADDRESS": "2847 W WASHINGTON BLVD", 
    "YEAR": 2002, 
    "LONGITUDE": -87.698259954, 
    "LATTITUDE": 41.882767301
  }, 
  {
    "BUSINESS_TYPE": "Hotel", 
    "LEGAL_NAME": "NISU INC", 
    "STATE": "IL", 
    "DOING_BUSINESS_AS_NAME": "ROYAL CASTLE MOTEL", 
    "POP_AT_RISK": 34022, 
    "ZIP": 60628, 
    "ADDRESS": "45 W 103RD ST", 
    "YEAR": 2002, 
    "LONGITUDE": -87.625323133, 
    "LATTITUDE": 41.70703034
  }, 
  {
    "BUSINESS_TYPE": "Hotel", 
    "LEGAL_NAME": "ROLLIN' WHEELS MANAGEMENT CORP", 
    "STATE": "IL", 
    "DOING_BUSINESS_AS_NAME": "ROLLIN' WHEELS MOTOR HOTEL", 
    "POP_AT_RISK": 44002, 
    "ZIP": 60632, 
    "ADDRESS": "5335 S PULASKI RD", 
    "YEAR": 2002, 
    "LONGITUDE": -87.723088059, 
    "LATTITUDE": 41.795812441
  }, 
  {
    "BUSINESS_TYPE": "Hotel", 
    "LEGAL_NAME": "HOTEL TOLEDO", 
    "STATE": "IL", 
    "DOING_BUSINESS_AS_NAME": "HOTEL TOLEDO INC", 
    "POP_AT_RISK": 31036, 
    "ZIP": 60628, 
    "ADDRESS": "10928 S MICHIGAN AVE", 
    "YEAR": 2002, 
    "LONGITUDE": -87.620917954, 
    "LATTITUDE": 41.695367641
  }, 
  {
    "BUSINESS_TYPE": "Hotel", 
    "LEGAL_NAME": "HYATT CORPORATION", 
    "STATE": "IL", 
    "DOING_BUSINESS_AS_NAME": "HYATT AT UNIVERSITY VILLAGE", 
    "POP_AT_RISK": 36487, 
    "ZIP": 60607, 
    "ADDRESS": "625 S ASHLAND AVE  1ST F", 
    "YEAR": 2002, 
    "LONGITUDE": -87.666433681, 
    "LATTITUDE": 41.873434566
  }, 
  {
    "BUSINESS_TYPE": "Hotel", 
    "LEGAL_NAME": "A C MOTEL INC.", 
    "STATE": "IL", 
    "DOING_BUSINESS_AS_NAME": "DIPLOMAT MOTEL", 
    "POP_AT_RISK": 57767, 
    "ZIP": 60625, 
    "ADDRESS": "5230 N LINCOLN AVE 1ST", 
    "YEAR": 2002, 
    "LONGITUDE": -87.692562101, 
    "LATTITUDE": 41.976810199
  }, 
  {
    "BUSINESS_TYPE": "Hotel", 
    "LEGAL_NAME": "S O C INC", 
    "STATE": "IL", 
    "DOING_BUSINESS_AS_NAME": "EDGEBROOK MOTEL", 
    "POP_AT_RISK": 8129, 
    "ZIP": 60646, 
    "ADDRESS": "6401 W TOUHY AVE", 
    "YEAR": 2002, 
    "LONGITUDE": -87.786825921, 
    "LATTITUDE": 42.011881972
  }, 
  {
    "BUSINESS_TYPE": "Hotel", 
    "LEGAL_NAME": "S.T.M ENETERPRISES INC.", 
    "STATE": "IL", 
    "DOING_BUSINESS_AS_NAME": "SARATOGA MOTEL", 
    "POP_AT_RISK": 16758, 
    "ZIP": 60652, 
    "ADDRESS": "7701 S CICERO AVE 1ST", 
    "YEAR": 2002, 
    "LONGITUDE": -87.741354493, 
    "LATTITUDE": 41.752822021
  }, 
  {
    "BUSINESS_TYPE": "Hotel", 
    "LEGAL_NAME": "1409 W DIVERSEY CORPORATION", 
    "STATE": "IL", 
    "DOING_BUSINESS_AS_NAME": "BELLWOOD HOTEL", 
    "POP_AT_RISK": 76394, 
    "ZIP": 60614, 
    "ADDRESS": "1409 W DIVERSEY PKWY", 
    "YEAR": 2002, 
    "LONGITUDE": -87.663958205, 
    "LATTITUDE": 41.932364186
  }, 
  {
    "BUSINESS_TYPE": "Hotel", 
    "LEGAL_NAME": "TANGIERS MANAGEMENT CORP", 
    "STATE": "IL", 
    "DOING_BUSINESS_AS_NAME": "TANGIERS INN", 
    "POP_AT_RISK": 32140, 
    "ZIP": 60632, 
    "ADDRESS": "4944 S ARCHER AVE 1ST", 
    "YEAR": 2002, 
    "LONGITUDE": -87.72178643, 
    "LATTITUDE": 41.803466981
  }, 
  {
    "BUSINESS_TYPE": "Hotel", 
    "LEGAL_NAME": "LAXMI CORP", 
    "STATE": "IL", 
    "DOING_BUSINESS_AS_NAME": "EAGLE INN MOTEL", 
    "POP_AT_RISK": 33939, 
    "ZIP": 60653, 
    "ADDRESS": "453 E PERSHING RD", 
    "YEAR": 2002, 
    "LONGITUDE": -87.614792064, 
    "LATTITUDE": 41.823753961
  }, 
  {
    "BUSINESS_TYPE": "Hotel", 
    "LEGAL_NAME": "GEORGE E TOMASEK", 
    "STATE": "IL", 
    "DOING_BUSINESS_AS_NAME": "BONITA APT HOTEL", 
    "POP_AT_RISK": 80284, 
    "ZIP": 60647, 
    "ADDRESS": "2438 N KEDZIE BLVD  102", 
    "YEAR": 2002, 
    "LONGITUDE": -87.707403325, 
    "LATTITUDE": 41.926079689
  }, 
  {
    "BUSINESS_TYPE": "Hotel", 
    "LEGAL_NAME": "VICEROY HOTEL LCC.", 
    "STATE": "IL", 
    "DOING_BUSINESS_AS_NAME": "VICEROY HOTEL", 
    "POP_AT_RISK": 43474, 
    "ZIP": 60607, 
    "ADDRESS": "1519 W WARREN BLVD  1ST", 
    "YEAR": 2002, 
    "LONGITUDE": -87.665980977, 
    "LATTITUDE": 41.882271828
  }, 
  {
    "BUSINESS_TYPE": "Hotel", 
    "LEGAL_NAME": "M J M HOSPITALITY INC", 
    "STATE": "IL", 
    "DOING_BUSINESS_AS_NAME": "ALOHA MOTEL", 
    "POP_AT_RISK": 11047, 
    "ZIP": 60652, 
    "ADDRESS": "8515 S CICERO AVE 1ST", 
    "YEAR": 2002, 
    "LONGITUDE": -87.740813041, 
    "LATTITUDE": 41.737711982
  }, 
  {
    "BUSINESS_TYPE": "Hotel", 
    "LEGAL_NAME": "LAKE SHORE HOSPITALITY INC", 
    "STATE": "IL", 
    "DOING_BUSINESS_AS_NAME": "RAMADA LAKE SHORE INN", 
    "POP_AT_RISK": 32591, 
    "ZIP": 60615, 
    "ADDRESS": "4900 S CHICAGO BEACH DR", 
    "YEAR": 2002, 
    "LONGITUDE": -87.585799573, 
    "LATTITUDE": 41.806170388
  }, 
  {
    "BUSINESS_TYPE": "Hotel", 
    "LEGAL_NAME": "GRAND MOTEL, INC.", 
    "STATE": "IL", 
    "DOING_BUSINESS_AS_NAME": "GRAND MOTEL", 
    "POP_AT_RISK": 25432, 
    "ZIP": 60628, 
    "ADDRESS": "10022 S HALSTED ST", 
    "YEAR": 2002, 
    "LONGITUDE": -87.643099414, 
    "LATTITUDE": 41.711660352
  }, 
  {
    "BUSINESS_TYPE": "Hotel", 
    "LEGAL_NAME": "M J R M CORPORATION", 
    "STATE": "IL", 
    "DOING_BUSINESS_AS_NAME": "BEST MOTEL", 
    "POP_AT_RISK": 39166, 
    "ZIP": 60637, 
    "ADDRESS": "6535 S DR MARTIN LUTHER KING JR DR", 
    "YEAR": 2002, 
    "LONGITUDE": -87.6153632, 
    "LATTITUDE": 41.775555482
  }, 
  {
    "BUSINESS_TYPE": "Hotel", 
    "LEGAL_NAME": "HYATT CORPORATION", 
    "STATE": "IL", 
    "DOING_BUSINESS_AS_NAME": "HYATT REGENCY MCCORMICK PLACE HOTEL", 
    "POP_AT_RISK": 35622, 
    "ZIP": 60616, 
    "ADDRESS": "2233 S DR MARTIN LUTHER KING JR DR", 
    "YEAR": 2002, 
    "LONGITUDE": -87.618850804, 
    "LATTITUDE": 41.852075574
  }, 
  {
    "BUSINESS_TYPE": "Hotel", 
    "LEGAL_NAME": "KIKI ENTERPRISES, LTD.", 
    "STATE": "IL", 
    "DOING_BUSINESS_AS_NAME": "NEW BUDGET MOTEL", 
    "POP_AT_RISK": 29257, 
    "ZIP": 60620, 
    "ADDRESS": "8903 S ASHLAND AVE", 
    "YEAR": 2002, 
    "LONGITUDE": -87.662804261, 
    "LATTITUDE": 41.73187237
  }, 
  {
    "BUSINESS_TYPE": "Hotel", 
    "LEGAL_NAME": "BARCELO HOSPITALITY USA, INC.", 
    "STATE": "IL", 
    "DOING_BUSINESS_AS_NAME": "CLARION BARCELO HOTEL", 
    "POP_AT_RISK": 24933, 
    "ZIP": 60631, 
    "ADDRESS": "5615 N CUMBERLAND AVE 1ST", 
    "YEAR": 2002, 
    "LONGITUDE": -87.836434302, 
    "LATTITUDE": 41.981428164
  }, 
  {
    "BUSINESS_TYPE": "Hotel", 
    "LEGAL_NAME": "NATWAR PATEL", 
    "STATE": "IL", 
    "DOING_BUSINESS_AS_NAME": "SUPER 8", 
    "POP_AT_RISK": 47368, 
    "ZIP": 60626, 
    "ADDRESS": "7300 N SHERIDAN RD 1ST", 
    "YEAR": 2002, 
    "LONGITUDE": -87.664243236, 
    "LATTITUDE": 42.013957777
  }, 
  {
    "BUSINESS_TYPE": "Hotel", 
    "LEGAL_NAME": "ROYAL ZANAIBAR INC", 
    "STATE": "IL", 
    "DOING_BUSINESS_AS_NAME": "ROYAL ZANZIBAR INC", 
    "POP_AT_RISK": 37875, 
    "ZIP": 60617, 
    "ADDRESS": "8101 S STONY ISLAND AVE GRND 1", 
    "YEAR": 2002, 
    "LONGITUDE": -87.585300236, 
    "LATTITUDE": 41.747758854
  }, 
  {
    "BUSINESS_TYPE": "Hotel", 
    "LEGAL_NAME": "A R I ENTERPRISE LLC", 
    "STATE": "IL", 
    "DOING_BUSINESS_AS_NAME": "CAMELOT MOTEL", 
    "POP_AT_RISK": 25108, 
    "ZIP": 60619, 
    "ADDRESS": "9118 S COTTAGE GROVE AVE 1ST", 
    "YEAR": 2002, 
    "LONGITUDE": -87.604778651, 
    "LATTITUDE": 41.728740917
  }, 
  {
    "BUSINESS_TYPE": "Hotel", 
    "LEGAL_NAME": "CLARIDGE HOTEL INC", 
    "STATE": "IL", 
    "DOING_BUSINESS_AS_NAME": "CLARIDGE HOTEL", 
    "POP_AT_RISK": 81122, 
    "ZIP": 60610, 
    "ADDRESS": "1244 N DEARBORN ST", 
    "YEAR": 2002, 
    "LONGITUDE": -87.630169952, 
    "LATTITUDE": 41.905215314
  }, 
  {
    "BUSINESS_TYPE": "Hotel", 
    "LEGAL_NAME": "FULLERTON HOTEL CORP.", 
    "STATE": "IL", 
    "DOING_BUSINESS_AS_NAME": "FULLERTON HOTEL CORP", 
    "POP_AT_RISK": 80835, 
    "ZIP": 60647, 
    "ADDRESS": "3919 W FULLERTON AVE", 
    "YEAR": 2002, 
    "LONGITUDE": -87.725094374, 
    "LATTITUDE": 41.924397349
  }, 
  {
    "BUSINESS_TYPE": "Hotel", 
    "LEGAL_NAME": "Hilton Illinois Corp.", 
    "STATE": "IL", 
    "DOING_BUSINESS_AS_NAME": "O'Hare Hilton Hotel", 
    "POP_AT_RISK": 4956, 
    "ZIP": 60666, 
    "ADDRESS": "11601 W TOUHY AVE", 
    "YEAR": 2002, 
    "LONGITUDE": -87.914428439, 
    "LATTITUDE": 42.008536401
  }, 
  {
    "BUSINESS_TYPE": "Hotel", 
    "LEGAL_NAME": "JOHN SCHMIEGEL & A LABUNSKI", 
    "STATE": "IL", 
    "DOING_BUSINESS_AS_NAME": "SHEFFIELD HOUSE", 
    "POP_AT_RISK": 75493, 
    "ZIP": 60613, 
    "ADDRESS": "3834 N SHEFFIELD AVE  1ST", 
    "YEAR": 2002, 
    "LONGITUDE": -87.65462246, 
    "LATTITUDE": 41.952187416
  }, 
  {
    "BUSINESS_TYPE": "Hotel", 
    "LEGAL_NAME": "JACKSON HOTEL INC", 
    "STATE": "IL", 
    "DOING_BUSINESS_AS_NAME": "JACKSON HOTEL INC", 
    "POP_AT_RISK": 28106, 
    "ZIP": 60637, 
    "ADDRESS": "5615 S PRAIRIE AVE", 
    "YEAR": 2002, 
    "LONGITUDE": -87.619019057, 
    "LATTITUDE": 41.792461769
  }, 
  {
    "BUSINESS_TYPE": "Hotel", 
    "LEGAL_NAME": "T C B INVESTMENTS INC", 
    "STATE": "IL", 
    "DOING_BUSINESS_AS_NAME": "TCB INVESTMENTS INC", 
    "POP_AT_RISK": 44982, 
    "ZIP": 60644, 
    "ADDRESS": "4925 W MADISON ST # 1", 
    "YEAR": 2002, 
    "LONGITUDE": -87.748705801, 
    "LATTITUDE": 41.880343274
  }, 
  {
    "BUSINESS_TYPE": "Hotel", 
    "LEGAL_NAME": "PETERSON - RIDGE CORP", 
    "STATE": "IL", 
    "DOING_BUSINESS_AS_NAME": "PETERSON - RIDGE CORP", 
    "POP_AT_RISK": 69081, 
    "ZIP": 60660, 
    "ADDRESS": "5990 N RIDGE AVE 1ST", 
    "YEAR": 2002, 
    "LONGITUDE": -87.671912673, 
    "LATTITUDE": 41.990523338
  }, 
  {
    "BUSINESS_TYPE": "Hotel", 
    "LEGAL_NAME": "WOODED ISLE INC", 
    "STATE": "IL", 
    "DOING_BUSINESS_AS_NAME": "WOODED ISLE SUITES", 
    "POP_AT_RISK": 32922, 
    "ZIP": 60637, 
    "ADDRESS": "5750 S STONY ISLAND AVE", 
    "YEAR": 2002, 
    "LONGITUDE": -87.586831374, 
    "LATTITUDE": 41.790115921
  }, 
  {
    "BUSINESS_TYPE": "Hotel", 
    "LEGAL_NAME": "DENHAM INC", 
    "STATE": "IL", 
    "DOING_BUSINESS_AS_NAME": "HOTEL TOLEDO #2", 
    "POP_AT_RISK": 37746, 
    "ZIP": 60636, 
    "ADDRESS": "6219 S ASHLAND AVE", 
    "YEAR": 2002, 
    "LONGITUDE": -87.664102996, 
    "LATTITUDE": 41.780693093
  }, 
  {
    "BUSINESS_TYPE": "Hotel", 
    "LEGAL_NAME": "SOUTH PARKWAY INN, INC.", 
    "STATE": "IL", 
    "DOING_BUSINESS_AS_NAME": "SOUTH PARKWAY INN, INC.", 
    "POP_AT_RISK": 28949, 
    "ZIP": 60616, 
    "ADDRESS": "2600 S STATE ST", 
    "YEAR": 2002, 
    "LONGITUDE": -87.627106592, 
    "LATTITUDE": 41.845520397
  }, 
  {
    "BUSINESS_TYPE": "Hotel", 
    "LEGAL_NAME": "KTKY, INC.", 
    "STATE": "IL", 
    "DOING_BUSINESS_AS_NAME": "STONY ISLAND MOTEL", 
    "POP_AT_RISK": 20682, 
    "ZIP": 60617, 
    "ADDRESS": "9201 S STONY ISLAND AVE", 
    "YEAR": 2002, 
    "LONGITUDE": -87.58487782, 
    "LATTITUDE": 41.727766454
  }, 
  {
    "BUSINESS_TYPE": "Hotel", 
    "LEGAL_NAME": "ARLINGTON INTERNATIONAL HOUSE, INC", 
    "STATE": "IL", 
    "DOING_BUSINESS_AS_NAME": "CHICAGO GETAWAY HOSTEL", 
    "POP_AT_RISK": 76461, 
    "ZIP": 60614, 
    "ADDRESS": "616 W ARLINGTON PL", 
    "YEAR": 2002, 
    "LONGITUDE": -87.644706266, 
    "LATTITUDE": 41.926825002
  }, 
  {
    "BUSINESS_TYPE": "Hotel", 
    "LEGAL_NAME": "WILSON MEN'S HOTEL, LTD.", 
    "STATE": "IL", 
    "DOING_BUSINESS_AS_NAME": "WILSON MEN'S HOTEL LTD ON ILL", 
    "POP_AT_RISK": 61363, 
    "ZIP": 60640, 
    "ADDRESS": "4603 N RACINE AVE 1ST", 
    "YEAR": 2002, 
    "LONGITUDE": -87.659482441, 
    "LATTITUDE": 41.965516847
  }, 
  {
    "BUSINESS_TYPE": "Hotel", 
    "LEGAL_NAME": "MANUEL & MARTHA ALBA", 
    "STATE": "IL", 
    "DOING_BUSINESS_AS_NAME": "MARSHALL SQUARE HOTEL", 
    "POP_AT_RISK": 60693, 
    "ZIP": 60623, 
    "ADDRESS": "2860 W CERMAK RD 1ST", 
    "YEAR": 2002, 
    "LONGITUDE": -87.698029934, 
    "LATTITUDE": 41.851977149
  }, 
  {
    "BUSINESS_TYPE": "Hotel", 
    "LEGAL_NAME": "VERMON C FOX", 
    "STATE": "IL", 
    "DOING_BUSINESS_AS_NAME": "VERMON C FOX", 
    "POP_AT_RISK": 33636, 
    "ZIP": 60615, 
    "ADDRESS": "4719 S INDIANA AVE", 
    "YEAR": 2002, 
    "LONGITUDE": -87.621051083, 
    "LATTITUDE": 41.808713655
  }, 
  {
    "BUSINESS_TYPE": "Hotel", 
    "LEGAL_NAME": "VMM INC", 
    "STATE": "IL", 
    "DOING_BUSINESS_AS_NAME": "SKYLARK MOTEL", 
    "POP_AT_RISK": 32432, 
    "ZIP": 60638, 
    "ADDRESS": "5435 S ARCHER AVE", 
    "YEAR": 2002, 
    "LONGITUDE": -87.744316941, 
    "LATTITUDE": 41.79834535
  }, 
  {
    "BUSINESS_TYPE": "Hotel", 
    "LEGAL_NAME": "BAR INVESTORS INC", 
    "STATE": "IL", 
    "DOING_BUSINESS_AS_NAME": "NORTH PARK INN", 
    "POP_AT_RISK": 30246, 
    "ZIP": 60659, 
    "ADDRESS": "6250 N LINCOLN AVE 1ST", 
    "YEAR": 2002, 
    "LONGITUDE": -87.715786527, 
    "LATTITUDE": 41.995417144
  }, 
  {
    "BUSINESS_TYPE": "Hotel", 
    "LEGAL_NAME": "REGENCY CAMELOT INC", 
    "STATE": "IL", 
    "DOING_BUSINESS_AS_NAME": "REGENCY CASTLE LODGE", 
    "POP_AT_RISK": 30832, 
    "ZIP": 60643, 
    "ADDRESS": "1140 W 95TH ST", 
    "YEAR": 2002, 
    "LONGITUDE": -87.652263184, 
    "LATTITUDE": 41.721455295
  }, 
  {
    "BUSINESS_TYPE": "Hotel", 
    "LEGAL_NAME": "SAI-SHARAN, INC.", 
    "STATE": "IL", 
    "DOING_BUSINESS_AS_NAME": "NEW HALSTED MOTEL", 
    "POP_AT_RISK": 38685, 
    "ZIP": 60620, 
    "ADDRESS": "8220 S HALSTED ST", 
    "YEAR": 2002, 
    "LONGITUDE": -87.644010323, 
    "LATTITUDE": 41.744526862
  }, 
  {
    "BUSINESS_TYPE": "Hotel", 
    "LEGAL_NAME": "JAMES SYKES", 
    "STATE": "IL", 
    "DOING_BUSINESS_AS_NAME": "DORCHESTER HOTEL", 
    "POP_AT_RISK": 35021, 
    "ZIP": 60619, 
    "ADDRESS": "1357 E 75TH ST 1ST", 
    "YEAR": 2002, 
    "LONGITUDE": -87.590942298, 
    "LATTITUDE": 41.758612565
  }, 
  {
    "BUSINESS_TYPE": "Hotel", 
    "LEGAL_NAME": "BUDGET HOSPITALITY INC", 
    "STATE": "IL", 
    "DOING_BUSINESS_AS_NAME": "ESQUIRE MOTEL", 
    "POP_AT_RISK": 24342, 
    "ZIP": 60646, 
    "ADDRESS": "6145 N ELSTON AVE", 
    "YEAR": 2002, 
    "LONGITUDE": -87.782508555, 
    "LATTITUDE": 41.992488429
  }, 
  {
    "BUSINESS_TYPE": "Hotel", 
    "LEGAL_NAME": "DEW CENTRAL MOTEL", 
    "STATE": "IL", 
    "DOING_BUSINESS_AS_NAME": "DEW CENTRAL MOTEL", 
    "POP_AT_RISK": 35168, 
    "ZIP": 60620, 
    "ADDRESS": "425 W 79TH ST  1ST", 
    "YEAR": 2002, 
    "LONGITUDE": -87.635284401, 
    "LATTITUDE": 41.750658267
  }
]