[
  {
    "BUSINESS_TYPE": "Late Hour", 
    "LEGAL_NAME": "MARY'S DISCOUNT FOOD & LIQUOR", 
    "STATE": "IL", 
    "DOING_BUSINESS_AS_NAME": "MARY'S DISCOUNT FOOD & LIQUOR", 
    "POP_AT_RISK": 39615, 
    "ZIP": 60624, 
    "ADDRESS": "260 N PULASKI RD 1ST #", 
    "YEAR": 2003, 
    "LONGITUDE": -87.72594758, 
    "LATTITUDE": 41.885267224
  }, 
  {
    "BUSINESS_TYPE": "Late Hour", 
    "LEGAL_NAME": "MARK II, LTD.", 
    "STATE": "IL", 
    "DOING_BUSINESS_AS_NAME": "MARK II LTD", 
    "POP_AT_RISK": 31637, 
    "ZIP": 60645, 
    "ADDRESS": "7436 N WESTERN AVE 1ST", 
    "YEAR": 2003, 
    "LONGITUDE": -87.690347254, 
    "LATTITUDE": 42.016961013
  }, 
  {
    "BUSINESS_TYPE": "Late Hour", 
    "LEGAL_NAME": "HELEN PETERS", 
    "STATE": "IL", 
    "DOING_BUSINESS_AS_NAME": "LEATHER LOUNGE", 
    "POP_AT_RISK": 34170, 
    "ZIP": 60637, 
    "ADDRESS": "401 E 69TH ST 1ST", 
    "YEAR": 2003, 
    "LONGITUDE": -87.615290699, 
    "LATTITUDE": 41.769231013
  }, 
  {
    "BUSINESS_TYPE": "Late Hour", 
    "LEGAL_NAME": "KAREGIANES INC", 
    "STATE": "IL", 
    "DOING_BUSINESS_AS_NAME": "KAREGIANES INC", 
    "POP_AT_RISK": 26756, 
    "ZIP": 60707, 
    "ADDRESS": "7043 W GRAND AVE  1ST", 
    "YEAR": 2003, 
    "LONGITUDE": -87.802480815, 
    "LATTITUDE": 41.923432971
  }, 
  {
    "BUSINESS_TYPE": "Late Hour", 
    "LEGAL_NAME": "RESTAURANTE ALANIS LTD.", 
    "STATE": "IL", 
    "DOING_BUSINESS_AS_NAME": "RESTAURANTE ALANIS LTD", 
    "POP_AT_RISK": 49064, 
    "ZIP": 60623, 
    "ADDRESS": "4153 W 26TH ST 1ST #", 
    "YEAR": 2003, 
    "LONGITUDE": -87.729074693, 
    "LATTITUDE": 41.84408107
  }, 
  {
    "BUSINESS_TYPE": "Late Hour", 
    "LEGAL_NAME": "CHARLIE'S I LIMITED", 
    "STATE": "IL", 
    "DOING_BUSINESS_AS_NAME": "CHARLIE'S I LTD", 
    "POP_AT_RISK": 55423, 
    "ZIP": 60644, 
    "ADDRESS": "417 N LARAMIE AVE 1ST", 
    "YEAR": 2003, 
    "LONGITUDE": -87.75520983, 
    "LATTITUDE": 41.888322843
  }, 
  {
    "BUSINESS_TYPE": "Late Hour", 
    "LEGAL_NAME": "ELMO CURRIE", 
    "STATE": "IL", 
    "DOING_BUSINESS_AS_NAME": "NEW RIALTO LOUNGE", 
    "POP_AT_RISK": 41455, 
    "ZIP": 60620, 
    "ADDRESS": "8038 S ASHLAND AVE 1ST", 
    "YEAR": 2003, 
    "LONGITUDE": -87.663506873, 
    "LATTITUDE": 41.747366001
  }, 
  {
    "BUSINESS_TYPE": "Late Hour", 
    "LEGAL_NAME": "ZIEMEK CORPORATION, INC.", 
    "STATE": "IL", 
    "DOING_BUSINESS_AS_NAME": "ZIEMEK CORP.", 
    "POP_AT_RISK": 33756, 
    "ZIP": 60630, 
    "ADDRESS": "5368 N MILWAUKEE AVE", 
    "YEAR": 2003, 
    "LONGITUDE": -87.770377202, 
    "LATTITUDE": 41.978363925
  }, 
  {
    "BUSINESS_TYPE": "Late Hour", 
    "LEGAL_NAME": "PAUL AND MARC'S ENTERPRISES, LTD.", 
    "STATE": "IL", 
    "DOING_BUSINESS_AS_NAME": "GROUCHO'S BAR & GRILL", 
    "POP_AT_RISK": 27493, 
    "ZIP": 60652, 
    "ADDRESS": "8355 S PULASKI RD", 
    "YEAR": 2003, 
    "LONGITUDE": -87.721478363, 
    "LATTITUDE": 41.740515143
  }, 
  {
    "BUSINESS_TYPE": "Late Hour", 
    "LEGAL_NAME": "MIAMI BOWL LOUNGE", 
    "STATE": "IL", 
    "DOING_BUSINESS_AS_NAME": "MIAMI BOWL LOUNGE INC", 
    "POP_AT_RISK": 37282, 
    "ZIP": 60632, 
    "ADDRESS": "5023 S KOMENSKY AVE", 
    "YEAR": 2003, 
    "LONGITUDE": -87.724482676, 
    "LATTITUDE": 41.801639681
  }, 
  {
    "BUSINESS_TYPE": "Late Hour", 
    "LEGAL_NAME": "R & G MILLER INC.", 
    "STATE": "IL", 
    "DOING_BUSINESS_AS_NAME": "BROTHER'S PALACE -939", 
    "POP_AT_RISK": 48358, 
    "ZIP": 60651, 
    "ADDRESS": "939-941 N PULASKI RD", 
    "YEAR": 2003, 
    "LONGITUDE": -87.726027844, 
    "LATTITUDE": 41.898367071
  }, 
  {
    "BUSINESS_TYPE": "Late Hour", 
    "LEGAL_NAME": "LAS VEGAS NITE CLUB, INC.", 
    "STATE": "IL", 
    "DOING_BUSINESS_AS_NAME": "LAS VEGAS NITE CLUB INC", 
    "POP_AT_RISK": 77243, 
    "ZIP": 60647, 
    "ADDRESS": "3702 W ARMITAGE AVE", 
    "YEAR": 2003, 
    "LONGITUDE": -87.719361145, 
    "LATTITUDE": 41.917360988
  }, 
  {
    "BUSINESS_TYPE": "Late Hour", 
    "LEGAL_NAME": "CARDE LOUNGE LIMITED", 
    "STATE": "IL", 
    "DOING_BUSINESS_AS_NAME": "CHICAGO 21 NIGHT CLUB", 
    "POP_AT_RISK": 51156, 
    "ZIP": 60634, 
    "ADDRESS": "6018-6020 W BELMONT AVE 1ST", 
    "YEAR": 2003, 
    "LONGITUDE": -87.777017216, 
    "LATTITUDE": 41.938547396
  }, 
  {
    "BUSINESS_TYPE": "Late Hour", 
    "LEGAL_NAME": "LA MIRAGE STUDIO LIMITED", 
    "STATE": "IL", 
    "DOING_BUSINESS_AS_NAME": "EPITOME E2", 
    "POP_AT_RISK": 38199, 
    "ZIP": 60616, 
    "ADDRESS": "2347 S MICHIGAN AVE  MAIN", 
    "YEAR": 2003, 
    "LONGITUDE": -87.623579086, 
    "LATTITUDE": 41.849721451
  }, 
  {
    "BUSINESS_TYPE": "Late Hour", 
    "LEGAL_NAME": "THE CONCORD RESTAURANT INC", 
    "STATE": "IL", 
    "DOING_BUSINESS_AS_NAME": "SIDEKICKS", 
    "POP_AT_RISK": 46331, 
    "ZIP": 60641, 
    "ADDRESS": "4420  -04430 W MONTROSE AVE 1ST", 
    "YEAR": 2003, 
    "LONGITUDE": -87.739335861, 
    "LATTITUDE": 41.960927728
  }, 
  {
    "BUSINESS_TYPE": "Late Hour", 
    "LEGAL_NAME": "TROY LOGIC, INC", 
    "STATE": "IL", 
    "DOING_BUSINESS_AS_NAME": "MARIANNA'S PLACE", 
    "POP_AT_RISK": 22202, 
    "ZIP": 60638, 
    "ADDRESS": "5625 W 63RD ST 1ST", 
    "YEAR": 2003, 
    "LONGITUDE": -87.762659385, 
    "LATTITUDE": 41.777923814
  }, 
  {
    "BUSINESS_TYPE": "Late Hour", 
    "LEGAL_NAME": "HARRIET COLEMAN", 
    "STATE": "IL", 
    "DOING_BUSINESS_AS_NAME": "HARRIET COLEMAN", 
    "POP_AT_RISK": 42721, 
    "ZIP": 60644, 
    "ADDRESS": "4716 W MADISON ST 1ST", 
    "YEAR": 2003, 
    "LONGITUDE": -87.743562239, 
    "LATTITUDE": 41.880626746
  }, 
  {
    "BUSINESS_TYPE": "Late Hour", 
    "LEGAL_NAME": "LULA'S INC.", 
    "STATE": "IL", 
    "DOING_BUSINESS_AS_NAME": "WILLIAMS INN", 
    "POP_AT_RISK": 30540, 
    "ZIP": 60636, 
    "ADDRESS": "5701 S ASHLAND AVE", 
    "YEAR": 2003, 
    "LONGITUDE": -87.664341682, 
    "LATTITUDE": 41.790298025
  }, 
  {
    "BUSINESS_TYPE": "Late Hour", 
    "LEGAL_NAME": "MR. B'S STUFFED PIZZA, INC.", 
    "STATE": "IL", 
    "DOING_BUSINESS_AS_NAME": "SUPAROSSA", 
    "POP_AT_RISK": 52427, 
    "ZIP": 60634, 
    "ADDRESS": "4250 N CENTRAL AVE", 
    "YEAR": 2003, 
    "LONGITUDE": -87.767320762, 
    "LATTITUDE": 41.958373846
  }, 
  {
    "BUSINESS_TYPE": "Late Hour", 
    "LEGAL_NAME": "JAF, LTD.", 
    "STATE": "IL", 
    "DOING_BUSINESS_AS_NAME": "JEFFERY PUB", 
    "POP_AT_RISK": 43909, 
    "ZIP": 60649, 
    "ADDRESS": "7041 S JEFFERY BLVD", 
    "YEAR": 2003, 
    "LONGITUDE": -87.576170828, 
    "LATTITUDE": 41.766818068
  }, 
  {
    "BUSINESS_TYPE": "Late Hour", 
    "LEGAL_NAME": "SHEILA D. THOMPSON", 
    "STATE": "IL", 
    "DOING_BUSINESS_AS_NAME": "LEISURE LIFE LOUNGE", 
    "POP_AT_RISK": 33128, 
    "ZIP": 60649, 
    "ADDRESS": "2442 E 79TH ST 1ST", 
    "YEAR": 2003, 
    "LONGITUDE": -87.564542243, 
    "LATTITUDE": 41.751863534
  }, 
  {
    "BUSINESS_TYPE": "Late Hour", 
    "LEGAL_NAME": "M. T. GLASS, CO.", 
    "STATE": "IL", 
    "DOING_BUSINESS_AS_NAME": "NINA'S RESTAURANT", 
    "POP_AT_RISK": 33540, 
    "ZIP": 60652, 
    "ADDRESS": "3359 W 79TH ST 1ST", 
    "YEAR": 2003, 
    "LONGITUDE": -87.707211112, 
    "LATTITUDE": 41.749557313
  }, 
  {
    "BUSINESS_TYPE": "Late Hour", 
    "LEGAL_NAME": "PALIATSOS & SON CO.", 
    "STATE": "IL", 
    "DOING_BUSINESS_AS_NAME": "ROMA'S REST", 
    "POP_AT_RISK": 21833, 
    "ZIP": 60617, 
    "ADDRESS": "9273 S SOUTH CHICAGO AVE", 
    "YEAR": 2003, 
    "LONGITUDE": -87.550943262, 
    "LATTITUDE": 41.726723094
  }, 
  {
    "BUSINESS_TYPE": "Late Hour", 
    "LEGAL_NAME": "FAUSTO ENTERPRISES INC.", 
    "STATE": "IL", 
    "DOING_BUSINESS_AS_NAME": "El Sinaloense", 
    "POP_AT_RISK": 49473, 
    "ZIP": 60623, 
    "ADDRESS": "2759 S PULASKI RD 1ST", 
    "YEAR": 2003, 
    "LONGITUDE": -87.724305978, 
    "LATTITUDE": 41.840660595
  }, 
  {
    "BUSINESS_TYPE": "Late Hour", 
    "LEGAL_NAME": "TOMMY KRAW'S LOUNGE INC", 
    "STATE": "IL", 
    "DOING_BUSINESS_AS_NAME": "TOMMY KRAW'S LOUNGE INC", 
    "POP_AT_RISK": 44396, 
    "ZIP": 60629, 
    "ADDRESS": "6459 S KEDZIE AVE", 
    "YEAR": 2003, 
    "LONGITUDE": -87.70290726, 
    "LATTITUDE": 41.775370729
  }, 
  {
    "BUSINESS_TYPE": "Late Hour", 
    "LEGAL_NAME": "6301 SOUTH HARLEM, INC.", 
    "STATE": "IL", 
    "DOING_BUSINESS_AS_NAME": "ESCAPADES", 
    "POP_AT_RISK": 11842, 
    "ZIP": 60638, 
    "ADDRESS": "6301 S HARLEM AVE 1ST", 
    "YEAR": 2003, 
    "LONGITUDE": -87.800749629, 
    "LATTITUDE": 41.777261773
  }, 
  {
    "BUSINESS_TYPE": "Late Hour", 
    "LEGAL_NAME": "GORDON LOUNGE, INC", 
    "STATE": "IL", 
    "DOING_BUSINESS_AS_NAME": "BREWBAKERS", 
    "POP_AT_RISK": 22491, 
    "ZIP": 60643, 
    "ADDRESS": "10350 S WESTERN AVE", 
    "YEAR": 2003, 
    "LONGITUDE": -87.681719587, 
    "LATTITUDE": 41.704868712
  }, 
  {
    "BUSINESS_TYPE": "Late Hour", 
    "LEGAL_NAME": "ROSE DEVEREAUX", 
    "STATE": "IL", 
    "DOING_BUSINESS_AS_NAME": "BRIANS LOUNGE", 
    "POP_AT_RISK": 56522, 
    "ZIP": 60623, 
    "ADDRESS": "3245 W 16TH ST 1ST", 
    "YEAR": 2003, 
    "LONGITUDE": -87.707190558, 
    "LATTITUDE": 41.858951711
  }, 
  {
    "BUSINESS_TYPE": "Late Hour", 
    "LEGAL_NAME": "D. T. D., INC.", 
    "STATE": "IL", 
    "DOING_BUSINESS_AS_NAME": "LASKO'S", 
    "POP_AT_RISK": 27547, 
    "ZIP": 60630, 
    "ADDRESS": "5525 N MILWAUKEE AVE", 
    "YEAR": 2003, 
    "LONGITUDE": -87.773620284, 
    "LATTITUDE": 41.982306615
  }, 
  {
    "BUSINESS_TYPE": "Late Hour", 
    "LEGAL_NAME": "7123 W. HIGGINS RD. CORP.", 
    "STATE": "IL", 
    "DOING_BUSINESS_AS_NAME": "TEASER'S PUB", 
    "POP_AT_RISK": 24680, 
    "ZIP": 60656, 
    "ADDRESS": "7123 W HIGGINS AVE 1ST", 
    "YEAR": 2003, 
    "LONGITUDE": -87.80571278, 
    "LATTITUDE": 41.980726198
  }, 
  {
    "BUSINESS_TYPE": "Late Hour", 
    "LEGAL_NAME": "FOX LOUNGE INC.", 
    "STATE": "IL", 
    "DOING_BUSINESS_AS_NAME": "FOX LOUNGE", 
    "POP_AT_RISK": 59159, 
    "ZIP": 60632, 
    "ADDRESS": "3314 W 55TH ST  1", 
    "YEAR": 2003, 
    "LONGITUDE": -87.706712803, 
    "LATTITUDE": 41.793578394
  }, 
  {
    "BUSINESS_TYPE": "Late Hour", 
    "LEGAL_NAME": "AZTECA TACOS RESTAURANT INC", 
    "STATE": "IL", 
    "DOING_BUSINESS_AS_NAME": "AZTECA TACOS RESTAURANT INC", 
    "POP_AT_RISK": 46026, 
    "ZIP": 60608, 
    "ADDRESS": "1514 W 18TH ST", 
    "YEAR": 2003, 
    "LONGITUDE": -87.66440106, 
    "LATTITUDE": 41.857935649
  }, 
  {
    "BUSINESS_TYPE": "Late Hour", 
    "LEGAL_NAME": "EAST OF THE RYAN INC", 
    "STATE": "IL", 
    "DOING_BUSINESS_AS_NAME": "EAST OF THE RYAN,INC", 
    "POP_AT_RISK": 41847, 
    "ZIP": 60619, 
    "ADDRESS": "914 E 79TH ST 1ST", 
    "YEAR": 2003, 
    "LONGITUDE": -87.602112125, 
    "LATTITUDE": 41.751431303
  }, 
  {
    "BUSINESS_TYPE": "Late Hour", 
    "LEGAL_NAME": "PAULA A CORP", 
    "STATE": "IL", 
    "DOING_BUSINESS_AS_NAME": "123 STOP", 
    "POP_AT_RISK": 38580, 
    "ZIP": 60632, 
    "ADDRESS": "4157 S KEDZIE AVE 1ST", 
    "YEAR": 2003, 
    "LONGITUDE": -87.704189652, 
    "LATTITUDE": 41.817310074
  }, 
  {
    "BUSINESS_TYPE": "Late Hour", 
    "LEGAL_NAME": "GRAND + ASHLAND TAP, INC.", 
    "STATE": "IL", 
    "DOING_BUSINESS_AS_NAME": "GRANDBAR", 
    "POP_AT_RISK": 47191, 
    "ZIP": 60622, 
    "ADDRESS": "1600 W GRAND AVE 1ST", 
    "YEAR": 2003, 
    "LONGITUDE": -87.667204058, 
    "LATTITUDE": 41.891087112
  }, 
  {
    "BUSINESS_TYPE": "Late Hour", 
    "LEGAL_NAME": "VINCENT ENRIQUEZ", 
    "STATE": "IL", 
    "DOING_BUSINESS_AS_NAME": "MEMBERS ONLY", 
    "POP_AT_RISK": 28554, 
    "ZIP": 60609, 
    "ADDRESS": "4518 S MCDOWELL AVE", 
    "YEAR": 2003, 
    "LONGITUDE": -87.661012967, 
    "LATTITUDE": 41.811835758
  }, 
  {
    "BUSINESS_TYPE": "Late Hour", 
    "LEGAL_NAME": "KYMO INC", 
    "STATE": "IL", 
    "DOING_BUSINESS_AS_NAME": "ALIBIS", 
    "POP_AT_RISK": 72841, 
    "ZIP": 60645, 
    "ADDRESS": "6420 N WESTERN AVE", 
    "YEAR": 2003, 
    "LONGITUDE": -87.690051282, 
    "LATTITUDE": 41.998382026
  }, 
  {
    "BUSINESS_TYPE": "Late Hour", 
    "LEGAL_NAME": "D & R MANAGEMENT INC", 
    "STATE": "IL", 
    "DOING_BUSINESS_AS_NAME": "SILK NIGHT CLUB", 
    "POP_AT_RISK": 37209, 
    "ZIP": 60659, 
    "ADDRESS": "6255 N MCCORMICK RD", 
    "YEAR": 2003, 
    "LONGITUDE": -87.712791064, 
    "LATTITUDE": 41.995555369
  }, 
  {
    "BUSINESS_TYPE": "Late Hour", 
    "LEGAL_NAME": "DONALD ROTTO", 
    "STATE": "IL", 
    "DOING_BUSINESS_AS_NAME": "QUINN II", 
    "POP_AT_RISK": 51586, 
    "ZIP": 60608, 
    "ADDRESS": "2701 S ARCHER AVE", 
    "YEAR": 2003, 
    "LONGITUDE": -87.651847063, 
    "LATTITUDE": 41.844485944
  }, 
  {
    "BUSINESS_TYPE": "Late Hour", 
    "LEGAL_NAME": "SANGAMON DISCOUNT LIQUOR", 
    "STATE": "IL", 
    "DOING_BUSINESS_AS_NAME": "SANGAMON DISCOUNT LIQUOR", 
    "POP_AT_RISK": 33341, 
    "ZIP": 60621, 
    "ADDRESS": "934 W 59TH ST", 
    "YEAR": 2003, 
    "LONGITUDE": -87.64876588, 
    "LATTITUDE": 41.787082255
  }, 
  {
    "BUSINESS_TYPE": "Late Hour", 
    "LEGAL_NAME": "TASTE INC", 
    "STATE": "IL", 
    "DOING_BUSINESS_AS_NAME": "TASTE DISCO & STEAK HOUSE", 
    "POP_AT_RISK": 33360, 
    "ZIP": 60621, 
    "ADDRESS": "6331 S LOWE AVE", 
    "YEAR": 2003, 
    "LONGITUDE": -87.640694956, 
    "LATTITUDE": 41.778854177
  }, 
  {
    "BUSINESS_TYPE": "Late Hour", 
    "LEGAL_NAME": "LOCAL 5544/BUILDING CORP", 
    "STATE": "IL", 
    "DOING_BUSINESS_AS_NAME": "LOCAL 5544/BUILDING CORP", 
    "POP_AT_RISK": 28634, 
    "ZIP": 60619, 
    "ADDRESS": "8930 S HARPER AVE", 
    "YEAR": 2003, 
    "LONGITUDE": -87.586965132, 
    "LATTITUDE": 41.732311358
  }, 
  {
    "BUSINESS_TYPE": "Late Hour", 
    "LEGAL_NAME": "GUISEPPE'S INC", 
    "STATE": "IL", 
    "DOING_BUSINESS_AS_NAME": "GUISEPPE'S INC", 
    "POP_AT_RISK": 32178, 
    "ZIP": 60634, 
    "ADDRESS": "7429 W ADDISON ST 1ST", 
    "YEAR": 2003, 
    "LONGITUDE": -87.813047181, 
    "LATTITUDE": 41.945036676
  }
]