[
  {
    "BUSINESS_TYPE": "Outdoor Patio", 
    "LEGAL_NAME": "234 W. 31ST ST., INC.", 
    "STATE": "IL", 
    "DOING_BUSINESS_AS_NAME": "ROCKY'S", 
    "POP_AT_RISK": 38766, 
    "ZIP": 60616, 
    "ADDRESS": "234-236 W 31ST ST", 
    "YEAR": 2009, 
    "LONGITUDE": -87.633032019, 
    "LATTITUDE": 41.838328502
  }, 
  {
    "BUSINESS_TYPE": "Outdoor Patio", 
    "LEGAL_NAME": "BIG CHICKS, INC.", 
    "STATE": "IL", 
    "DOING_BUSINESS_AS_NAME": "BIG CHICKS, INC.", 
    "POP_AT_RISK": 55323, 
    "ZIP": 60640, 
    "ADDRESS": "5024 N SHERIDAN RD  1ST F", 
    "YEAR": 2009, 
    "LONGITUDE": -87.655094492, 
    "LATTITUDE": 41.974069119
  }, 
  {
    "BUSINESS_TYPE": "Outdoor Patio", 
    "LEGAL_NAME": "PORT SILVER LIMITED PARTNERSHIP", 
    "STATE": "IL", 
    "DOING_BUSINESS_AS_NAME": "THE ORIGINAL GINO'S EAST", 
    "POP_AT_RISK": 15633, 
    "ZIP": 60631, 
    "ADDRESS": "8725 W HIGGINS RD", 
    "YEAR": 2009, 
    "LONGITUDE": -87.844388665, 
    "LATTITUDE": 41.987409597
  }, 
  {
    "BUSINESS_TYPE": "Outdoor Patio", 
    "LEGAL_NAME": "MCKINNEY'S PUB, LTD.", 
    "STATE": "IL", 
    "DOING_BUSINESS_AS_NAME": "CHIEF O'NEILL'S PUB & RESTAURANT", 
    "POP_AT_RISK": 56736, 
    "ZIP": 60618, 
    "ADDRESS": "3471-3479 N ELSTON AVE 1ST", 
    "YEAR": 2009, 
    "LONGITUDE": -87.705254822, 
    "LATTITUDE": 41.944311954
  }, 
  {
    "BUSINESS_TYPE": "Outdoor Patio", 
    "LEGAL_NAME": "GIORDANOS ENTERPRISES INC", 
    "STATE": "IL", 
    "DOING_BUSINESS_AS_NAME": "GIORDANO'S RESTAURANT & PIZZER", 
    "POP_AT_RISK": 40702, 
    "ZIP": 60632, 
    "ADDRESS": "5159 S PULASKI RD", 
    "YEAR": 2009, 
    "LONGITUDE": -87.723174753, 
    "LATTITUDE": 41.798806895
  }, 
  {
    "BUSINESS_TYPE": "Outdoor Patio", 
    "LEGAL_NAME": "STRIKE TWO CORP.", 
    "STATE": "IL", 
    "DOING_BUSINESS_AS_NAME": "SEVEN TEN", 
    "POP_AT_RISK": 39918, 
    "ZIP": 60615, 
    "ADDRESS": "1055 E 55TH ST", 
    "YEAR": 2009, 
    "LONGITUDE": -87.599852031, 
    "LATTITUDE": 41.794921069
  }, 
  {
    "BUSINESS_TYPE": "Outdoor Patio", 
    "LEGAL_NAME": "DAMENZO'S, INC.", 
    "STATE": "IL", 
    "DOING_BUSINESS_AS_NAME": "DAMENZO'S INC", 
    "POP_AT_RISK": 31436, 
    "ZIP": 60612, 
    "ADDRESS": "2322-2324 W TAYLOR ST", 
    "YEAR": 2009, 
    "LONGITUDE": -87.684583758, 
    "LATTITUDE": 41.869107738
  }, 
  {
    "BUSINESS_TYPE": "Outdoor Patio", 
    "LEGAL_NAME": "2610 RESTAURANT INC.", 
    "STATE": "IL", 
    "DOING_BUSINESS_AS_NAME": "PICCOLO", 
    "POP_AT_RISK": 61951, 
    "ZIP": 60659, 
    "ADDRESS": "2610-2612 W PETERSON AVE", 
    "YEAR": 2009, 
    "LONGITUDE": -87.695051595, 
    "LATTITUDE": 41.990577712
  }, 
  {
    "BUSINESS_TYPE": "Outdoor Patio", 
    "LEGAL_NAME": "H.T.A. INC.", 
    "STATE": "IL", 
    "DOING_BUSINESS_AS_NAME": "HAM TREE INN", 
    "POP_AT_RISK": 33756, 
    "ZIP": 60630, 
    "ADDRESS": "5333 N MILWAUKEE AVE 1ST", 
    "YEAR": 2009, 
    "LONGITUDE": -87.769236631, 
    "LATTITUDE": 41.977503479
  }, 
  {
    "BUSINESS_TYPE": "Outdoor Patio", 
    "LEGAL_NAME": "FONDA DEL MAR, INC.", 
    "STATE": "IL", 
    "DOING_BUSINESS_AS_NAME": "FONDA DEL MAR, INC.", 
    "POP_AT_RISK": 79421, 
    "ZIP": 60647, 
    "ADDRESS": "3749 W FULLERTON AVE", 
    "YEAR": 2009, 
    "LONGITUDE": -87.721425904, 
    "LATTITUDE": 41.924438535
  }, 
  {
    "BUSINESS_TYPE": "Outdoor Patio", 
    "LEGAL_NAME": "CARUSO'S, L.L.C.", 
    "STATE": "IL", 
    "DOING_BUSINESS_AS_NAME": "THE WINDSOR", 
    "POP_AT_RISK": 49161, 
    "ZIP": 60630, 
    "ADDRESS": "4530 N MILWAUKEE AVE 1", 
    "YEAR": 2009, 
    "LONGITUDE": -87.756842432, 
    "LATTITUDE": 41.963158817
  }, 
  {
    "BUSINESS_TYPE": "Outdoor Patio", 
    "LEGAL_NAME": "EAT-N-PIE, INC.", 
    "STATE": "IL", 
    "DOING_BUSINESS_AS_NAME": "ANGIE'S", 
    "POP_AT_RISK": 27493, 
    "ZIP": 60652, 
    "ADDRESS": "8352 S PULASKI RD", 
    "YEAR": 2009, 
    "LONGITUDE": -87.721773481, 
    "LATTITUDE": 41.740568372
  }, 
  {
    "BUSINESS_TYPE": "Outdoor Patio", 
    "LEGAL_NAME": "4911 DIVERSEY CORP", 
    "STATE": "IL", 
    "DOING_BUSINESS_AS_NAME": "4911 DIVERSEY CORP", 
    "POP_AT_RISK": 72221, 
    "ZIP": 60639, 
    "ADDRESS": "4911 W DIVERSEY AVE 1ST", 
    "YEAR": 2009, 
    "LONGITUDE": -87.749555903, 
    "LATTITUDE": 41.931383489
  }, 
  {
    "BUSINESS_TYPE": "Outdoor Patio", 
    "LEGAL_NAME": "GRAIN LIQUORS, LLC", 
    "STATE": "IL", 
    "DOING_BUSINESS_AS_NAME": "PLEASANT HOUSE PUB", 
    "POP_AT_RISK": 47472, 
    "ZIP": 60608, 
    "ADDRESS": "2119 S HALSTED ST BSMT & 1ST FLOOR", 
    "YEAR": 2009, 
    "LONGITUDE": -87.646371689, 
    "LATTITUDE": 41.853544076
  }, 
  {
    "BUSINESS_TYPE": "Outdoor Patio", 
    "LEGAL_NAME": "HYATT CORPORATION", 
    "STATE": "IL", 
    "DOING_BUSINESS_AS_NAME": "HYATT REGENCY MCCORMICK PLACE HOTEL", 
    "POP_AT_RISK": 35622, 
    "ZIP": 60616, 
    "ADDRESS": "2233 S DR MARTIN LUTHER KING JR DR", 
    "YEAR": 2009, 
    "LONGITUDE": -87.618850804, 
    "LATTITUDE": 41.852075574
  }, 
  {
    "BUSINESS_TYPE": "Outdoor Patio", 
    "LEGAL_NAME": "CITY REFLECTIONS INC", 
    "STATE": "IL", 
    "DOING_BUSINESS_AS_NAME": "CITY REFLECTIONS INC", 
    "POP_AT_RISK": 46193, 
    "ZIP": 60632, 
    "ADDRESS": "4459 S KEDZIE AVE", 
    "YEAR": 2009, 
    "LONGITUDE": -87.703975055, 
    "LATTITUDE": 41.811853275
  }, 
  {
    "BUSINESS_TYPE": "Outdoor Patio", 
    "LEGAL_NAME": "INTER-TRACK PARTNERS L.L.C.", 
    "STATE": "IL", 
    "DOING_BUSINESS_AS_NAME": "111TH STREET OTB", 
    "POP_AT_RISK": 10503, 
    "ZIP": 60628, 
    "ADDRESS": "11203 S CORLISS AVE 1ST #", 
    "YEAR": 2009, 
    "LONGITUDE": -87.600677902, 
    "LATTITUDE": 41.690742007
  }, 
  {
    "BUSINESS_TYPE": "Outdoor Patio", 
    "LEGAL_NAME": "ERRO INC", 
    "STATE": "IL", 
    "DOING_BUSINESS_AS_NAME": "MONTROSE SALOON", 
    "POP_AT_RISK": 81213, 
    "ZIP": 60618, 
    "ADDRESS": "2933 W MONTROSE AVE 1 #", 
    "YEAR": 2009, 
    "LONGITUDE": -87.702274158, 
    "LATTITUDE": 41.961116939
  }, 
  {
    "BUSINESS_TYPE": "Outdoor Patio", 
    "LEGAL_NAME": "WESTSIDE RAIL, INC.", 
    "STATE": "IL", 
    "DOING_BUSINESS_AS_NAME": "THE CONTINENTAL LOUNGE", 
    "POP_AT_RISK": 42464, 
    "ZIP": 60622, 
    "ADDRESS": "2801 W CHICAGO AVE", 
    "YEAR": 2009, 
    "LONGITUDE": -87.69676464, 
    "LATTITUDE": 41.895543708
  }, 
  {
    "BUSINESS_TYPE": "Outdoor Patio", 
    "LEGAL_NAME": "LAURETTE N VACCARO", 
    "STATE": "IL", 
    "DOING_BUSINESS_AS_NAME": "COBBLESTONES BAR & GRILL", 
    "POP_AT_RISK": 29504, 
    "ZIP": 60609, 
    "ADDRESS": "514 W PERSHING RD  W", 
    "YEAR": 2009, 
    "LONGITUDE": -87.639272075, 
    "LATTITUDE": 41.823655141
  }, 
  {
    "BUSINESS_TYPE": "Outdoor Patio", 
    "LEGAL_NAME": "Bubu, Inc.", 
    "STATE": "IL", 
    "DOING_BUSINESS_AS_NAME": "CAFE LAGUARDIA WEST", 
    "POP_AT_RISK": 7538, 
    "ZIP": 60707, 
    "ADDRESS": "6818 W NORTH AVE", 
    "YEAR": 2009, 
    "LONGITUDE": -87.795620293, 
    "LATTITUDE": 41.90912536
  }, 
  {
    "BUSINESS_TYPE": "Outdoor Patio", 
    "LEGAL_NAME": "P J'S BREWERY INC", 
    "STATE": "IL", 
    "DOING_BUSINESS_AS_NAME": "P J'S BREWERY", 
    "POP_AT_RISK": 24739, 
    "ZIP": 60634, 
    "ADDRESS": "3848 N HARLEM AVE", 
    "YEAR": 2009, 
    "LONGITUDE": -87.807329446, 
    "LATTITUDE": 41.950347693
  }, 
  {
    "BUSINESS_TYPE": "Outdoor Patio", 
    "LEGAL_NAME": "CALIFORNIA BAR & GRILL CORP.", 
    "STATE": "IL", 
    "DOING_BUSINESS_AS_NAME": "LOGAN'S BAR AND GRILL", 
    "POP_AT_RISK": 69815, 
    "ZIP": 60647, 
    "ADDRESS": "2230-2232 N CALIFORNIA AVE", 
    "YEAR": 2009, 
    "LONGITUDE": -87.697499973, 
    "LATTITUDE": 41.922631912
  }, 
  {
    "BUSINESS_TYPE": "Outdoor Patio", 
    "LEGAL_NAME": "O'CONNOR'S PUB, INC.", 
    "STATE": "IL", 
    "DOING_BUSINESS_AS_NAME": "MARTINI CLUB", 
    "POP_AT_RISK": 55125, 
    "ZIP": 60634, 
    "ADDRESS": "5737 W IRVING PARK RD", 
    "YEAR": 2009, 
    "LONGITUDE": -87.770968001, 
    "LATTITUDE": 41.953020309
  }, 
  {
    "BUSINESS_TYPE": "Outdoor Patio", 
    "LEGAL_NAME": "GRANAT'S FIRST COUNT, INC.", 
    "STATE": "IL", 
    "DOING_BUSINESS_AS_NAME": "BOBBY G'S", 
    "POP_AT_RISK": 13444, 
    "ZIP": 60638, 
    "ADDRESS": "6843 W ARCHER AVE 1", 
    "YEAR": 2009, 
    "LONGITUDE": -87.793276429, 
    "LATTITUDE": 41.792013747
  }, 
  {
    "BUSINESS_TYPE": "Outdoor Patio", 
    "LEGAL_NAME": "BAR LOUIE HYDE PARK, INC.", 
    "STATE": "IL", 
    "DOING_BUSINESS_AS_NAME": "BAR LOUIE", 
    "POP_AT_RISK": 27340, 
    "ZIP": 60637, 
    "ADDRESS": "5500 S SHORE DR", 
    "YEAR": 2009, 
    "LONGITUDE": -87.580597772, 
    "LATTITUDE": 41.795185016
  }, 
  {
    "BUSINESS_TYPE": "Outdoor Patio", 
    "LEGAL_NAME": "CHIPOTLE MEXICAN GRILL, INC.", 
    "STATE": "IL", 
    "DOING_BUSINESS_AS_NAME": "Chipotle Mexican Grill", 
    "POP_AT_RISK": 51822, 
    "ZIP": 60639, 
    "ADDRESS": "2640 N NARRAGANSETT AVE", 
    "YEAR": 2009, 
    "LONGITUDE": -87.785771164, 
    "LATTITUDE": 41.928562731
  }, 
  {
    "BUSINESS_TYPE": "Outdoor Patio", 
    "LEGAL_NAME": "ALEXANDRA'S CAFE CORP.", 
    "STATE": "IL", 
    "DOING_BUSINESS_AS_NAME": "ALEXANDRA'S CAFE SHOP", 
    "POP_AT_RISK": 20191, 
    "ZIP": 60631, 
    "ADDRESS": "6458 N MILWAUKEE AVE 1", 
    "YEAR": 2009, 
    "LONGITUDE": -87.78921769, 
    "LATTITUDE": 41.998626061
  }
]