[
  {
    "BUSINESS_TYPE": "Home Occupation", 
    "LEGAL_NAME": "TUDOR TOMESCU", 
    "STATE": "IL", 
    "DOING_BUSINESS_AS_NAME": "DYNAMIC HEATING & COOLING", 
    "POP_AT_RISK": 70070, 
    "ZIP": 60641, 
    "ADDRESS": "2815 N LARAMIE AVE 1ST", 
    "YEAR": 1998, 
    "LONGITUDE": -87.756291179, 
    "LATTITUDE": 41.931859955
  }, 
  {
    "BUSINESS_TYPE": "Home Occupation", 
    "LEGAL_NAME": "RAYMOND GONZALES", 
    "STATE": "IL", 
    "DOING_BUSINESS_AS_NAME": "GREEN CARD FILING CENTER", 
    "POP_AT_RISK": 73797, 
    "ZIP": 60640, 
    "ADDRESS": "4407 N WOLCOTT AVE 1ST", 
    "YEAR": 1998, 
    "LONGITUDE": -87.67586331, 
    "LATTITUDE": 41.961758165
  }, 
  {
    "BUSINESS_TYPE": "Home Occupation", 
    "LEGAL_NAME": "VANCE THOMAS", 
    "STATE": "IL", 
    "DOING_BUSINESS_AS_NAME": "INFO-EXPRESS", 
    "POP_AT_RISK": 35517, 
    "ZIP": 60636, 
    "ADDRESS": "6922 S WINCHESTER AVE  1", 
    "YEAR": 1998, 
    "LONGITUDE": -87.672541689, 
    "LATTITUDE": 41.767793966
  }, 
  {
    "BUSINESS_TYPE": "Home Occupation", 
    "LEGAL_NAME": "RANDALL D SEIBERT", 
    "STATE": "IL", 
    "DOING_BUSINESS_AS_NAME": "RDS COMPUTER SERVICES", 
    "POP_AT_RISK": 53203, 
    "ZIP": 60612, 
    "ADDRESS": "621 N OAKLEY BLVD  1", 
    "YEAR": 1998, 
    "LONGITUDE": -87.684165064, 
    "LATTITUDE": 41.892826423
  }, 
  {
    "BUSINESS_TYPE": "Home Occupation", 
    "LEGAL_NAME": "CHARLES MORTEL", 
    "STATE": "IL", 
    "DOING_BUSINESS_AS_NAME": "KYLIAN LOGAN", 
    "POP_AT_RISK": 49336, 
    "ZIP": 60629, 
    "ADDRESS": "4118 W 58TH ST", 
    "YEAR": 1998, 
    "LONGITUDE": -87.726265657, 
    "LATTITUDE": 41.787832563
  }, 
  {
    "BUSINESS_TYPE": "Home Occupation", 
    "LEGAL_NAME": "MICHAEL J KANDAH", 
    "STATE": "IL", 
    "DOING_BUSINESS_AS_NAME": "ALL SEASON MAINTENANCE", 
    "POP_AT_RISK": 63215, 
    "ZIP": 60630, 
    "ADDRESS": "4419 N KEYSTONE AVE  1", 
    "YEAR": 1998, 
    "LONGITUDE": -87.728906078, 
    "LATTITUDE": 41.961488339
  }, 
  {
    "BUSINESS_TYPE": "Home Occupation", 
    "LEGAL_NAME": "QING ZHI LI", 
    "STATE": "IL", 
    "DOING_BUSINESS_AS_NAME": "HENRY CONSTRUCTION CO", 
    "POP_AT_RISK": 39527, 
    "ZIP": 60616, 
    "ADDRESS": "3410 S WALLACE ST 1ST", 
    "YEAR": 1998, 
    "LONGITUDE": -87.641412917, 
    "LATTITUDE": 41.832191817
  }, 
  {
    "BUSINESS_TYPE": "Home Occupation", 
    "LEGAL_NAME": "ELLEN HARAN", 
    "STATE": "IL", 
    "DOING_BUSINESS_AS_NAME": "CREATOR'S CONSTRUCTION", 
    "POP_AT_RISK": 80622, 
    "ZIP": 60613, 
    "ADDRESS": "3718 N ASHLAND AVE  1", 
    "YEAR": 1998, 
    "LONGITUDE": -87.669068331, 
    "LATTITUDE": 41.949413153
  }
]