[
{"STATE":"IL","ZIP":60621,"LATTITUDE":41.77365127547508,"ADDRESS":"6629 S WENTWORTH AVE  1","YEAR":2006,"DOING_BUSINESS_AS_NAME":"AUTOTRUCK PARKING & STOR INC","POP_AT_RISK":294300,"BUSINESS_TYPE":"Public Garage","LEGAL_NAME":"JOHN STILP","LONGITUDE":-87.62985023814868},
{"STATE":"IL","ZIP":60615,"LATTITUDE":41.802238709769085,"ADDRESS":"500 E 51ST ST  INDOO","YEAR":2006,"DOING_BUSINESS_AS_NAME":"INTERPARK","POP_AT_RISK":328401,"BUSINESS_TYPE":"Public Garage","LEGAL_NAME":"INTERPARK LLC","LONGITUDE":-87.61399572714086},
{"STATE":"IL","ZIP":60624,"LATTITUDE":41.87555130474603,"ADDRESS":"3436 W VAN BUREN ST  PARKI","YEAR":2006,"DOING_BUSINESS_AS_NAME":"INTERPARK","POP_AT_RISK":622920,"BUSINESS_TYPE":"Public Garage","LEGAL_NAME":"INTERPARK LLC","LONGITUDE":-87.71250871652596},
{"STATE":"IL","ZIP":60609,"LATTITUDE":41.83067697104952,"ADDRESS":"3501 S EMERALD AVE  ","YEAR":2006,"DOING_BUSINESS_AS_NAME":"RAMEL PHILLIPS 66","POP_AT_RISK":33924,"BUSINESS_TYPE":"Public Garage","LEGAL_NAME":"JOSEPH M RAMEL","LONGITUDE":-87.6447405582136},
{"STATE":"IL","ZIP":60638,"LATTITUDE":41.80771214039897,"ADDRESS":"4832 - 34 W 47TH ST  ","YEAR":2006,"DOING_BUSINESS_AS_NAME":"AIRPORT PARKING","POP_AT_RISK":61434,"BUSINESS_TYPE":"Public Garage","LEGAL_NAME":"AIRPORT PARKING","LONGITUDE":-87.74443951507291},
{"STATE":"IL","ZIP":60631,"LATTITUDE":41.98118072487806,"ADDRESS":"8500 W BRYN MAWR AVE  ","YEAR":2006,"DOING_BUSINESS_AS_NAME":"RENAISSANCE CHICAGO O'HARE HOTEL AS OF 7\/25\/2013 Paying under account 381630","POP_AT_RISK":105845,"BUSINESS_TYPE":"Public Garage","LEGAL_NAME":"RCO Hotel, Inc.","LONGITUDE":-87.83916755770461},
{"STATE":"IL","ZIP":60641,"LATTITUDE":41.93511935803638,"ADDRESS":"4625 W WELLINGTON AVE  ","YEAR":2006,"DOING_BUSINESS_AS_NAME":"ALLS STORAGE L.L.C.","POP_AT_RISK":679445,"BUSINESS_TYPE":"Public Garage","LEGAL_NAME":"ALLS STORAGE LCC.","LONGITUDE":-87.74322159707353},
{"STATE":"IL","ZIP":60630,"LATTITUDE":41.969196775538116,"ADDRESS":"4849 N MILWAUKEE AVE 1ST ","YEAR":2006,"DOING_BUSINESS_AS_NAME":"MEGA PROPERTIES INC","POP_AT_RISK":304632,"BUSINESS_TYPE":"Public Garage","LEGAL_NAME":"MEGA PROPERTIES INC","LONGITUDE":-87.76171988022168},
{"STATE":"IL","ZIP":60657,"LATTITUDE":41.838743926273445,"ADDRESS":"3050 S MOE DR  ","YEAR":2006,"DOING_BUSINESS_AS_NAME":"STANDARD PARKING","POP_AT_RISK":18838,"BUSINESS_TYPE":"Public Garage","LEGAL_NAME":"SP PLUS CORPORATION","LONGITUDE":-87.61002325300002},
{"STATE":"IL","ZIP":60656,"LATTITUDE":41.98221573286358,"ADDRESS":"5550 N HARLEM AVE  1600","YEAR":2006,"DOING_BUSINESS_AS_NAME":"STANDARD PARKING","POP_AT_RISK":177684,"BUSINESS_TYPE":"Public Garage","LEGAL_NAME":"SP PLUS CORPORATION","LONGITUDE":-87.80708846765953},
{"STATE":"IL","ZIP":60632,"LATTITUDE":41.79319266338371,"ADDRESS":"4532 W 55TH ST  OUTDO","YEAR":2006,"DOING_BUSINESS_AS_NAME":"AIRWAYS PARKING","POP_AT_RISK":37692,"BUSINESS_TYPE":"Public Garage","LEGAL_NAME":"AIRWAYS PARKING CORP","LONGITUDE":-87.73684553047367},
{"STATE":"IL","ZIP":60626,"LATTITUDE":42.006458430277874,"ADDRESS":"1677 W FARWELL AVE  ","YEAR":2006,"DOING_BUSINESS_AS_NAME":"SYSTEM PARKING INC","POP_AT_RISK":387305,"BUSINESS_TYPE":"Public Garage","LEGAL_NAME":"ABM PARKING SERVICES, INC.","LONGITUDE":-87.67286603186704},
{"STATE":"IL","ZIP":60608,"LATTITUDE":41.86093729800648,"ADDRESS":"2705 W 15TH ST  ","YEAR":2006,"DOING_BUSINESS_AS_NAME":"SYSTEM PARKING INC.","POP_AT_RISK":42266,"BUSINESS_TYPE":"Public Garage","LEGAL_NAME":"ABM PARKING SERVICES, INC.","LONGITUDE":-87.69368470776661},
{"STATE":"IL","ZIP":60625,"LATTITUDE":41.97160604981699,"ADDRESS":"4950 N AVERS AVE  ","YEAR":2006,"DOING_BUSINESS_AS_NAME":"SYSTEM PARKING INC.","POP_AT_RISK":743847,"BUSINESS_TYPE":"Public Garage","LEGAL_NAME":"ABM PARKING SERVICES, INC.","LONGITUDE":-87.72464138821852},
{"STATE":"IL","ZIP":60643,"LATTITUDE":41.720781521886025,"ADDRESS":"9510 S PROSPECT AVE  ","YEAR":2006,"DOING_BUSINESS_AS_NAME":"SYSTEM PARKING, INC.","POP_AT_RISK":211208,"BUSINESS_TYPE":"Public Garage","LEGAL_NAME":"ABM PARKING SERVICES, INC.","LONGITUDE":-87.66558525674999},
{"STATE":"IL","ZIP":60660,"LATTITUDE":41.98915734238827,"ADDRESS":"5900 N WINTHROP AVE  ","YEAR":2006,"DOING_BUSINESS_AS_NAME":"AMPCO SYSTEM PARKING, INC.","POP_AT_RISK":117622,"BUSINESS_TYPE":"Public Garage","LEGAL_NAME":"ABM PARKING SERVICES, INC.","LONGITUDE":-87.65833342161731},
{"STATE":"IL","ZIP":60629,"LATTITUDE":41.78562796054326,"ADDRESS":"4607 W 59TH ST  ","YEAR":2006,"DOING_BUSINESS_AS_NAME":"MIDWAY PARK SAVER","POP_AT_RISK":96774,"BUSINESS_TYPE":"Public Garage","LEGAL_NAME":"CAPITAL COUNSELORS LIMITED","LONGITUDE":-87.73804241580194},
{"STATE":"IL","ZIP":60607,"LATTITUDE":41.86863443299172,"ADDRESS":"1434-1446 W FILLMORE ST  ","YEAR":2006,"DOING_BUSINESS_AS_NAME":"PREMIER VALET CHICAGO, INC.","POP_AT_RISK":74296,"BUSINESS_TYPE":"Public Garage","LEGAL_NAME":"PREMIER VALET-CHICAGO INC.","LONGITUDE":-87.6630274872515},
{"STATE":"IL","ZIP":60615,"LATTITUDE":41.799317592141975,"ADDRESS":"5307 S LAKE PARK AVE  ","YEAR":2006,"DOING_BUSINESS_AS_NAME":"VALET PARKING SERVICES","POP_AT_RISK":38939,"BUSINESS_TYPE":"Public Garage","LEGAL_NAME":"VALET PARKING SERVICE, INC.","LONGITUDE":-87.58713414206618},
{"STATE":"IL","ZIP":60647,"LATTITUDE":41.92866978990974,"ADDRESS":"2600 N WESTERN AVE  ","YEAR":2006,"DOING_BUSINESS_AS_NAME":"CITY NORTH 14","POP_AT_RISK":250230,"BUSINESS_TYPE":"Public Garage","LEGAL_NAME":"KERASOTES SHOWPLACE THEATRES, LLC","LONGITUDE":-87.68792223553898},
{"STATE":"IL","ZIP":60609,"LATTITUDE":41.827339819897354,"ADDRESS":"3658 S WENTWORTH AVE  ","YEAR":2006,"DOING_BUSINESS_AS_NAME":"PROGRESSIVE BAPTIST CHURCH INC OF CHICAGO","POP_AT_RISK":29229,"BUSINESS_TYPE":"Public Garage","LEGAL_NAME":"PROGRESSIVE BAPTIST CHURCH INC OF CHICAGO","LONGITUDE":-87.63156878978693},
{"STATE":"IL","ZIP":60622,"LATTITUDE":41.90297191226172,"ADDRESS":"2233 W DIVISION ST 1ST ","YEAR":2006,"DOING_BUSINESS_AS_NAME":"PRESENCE SAINT MARY OF NAZARETH HOSPITAL","POP_AT_RISK":733080,"BUSINESS_TYPE":"Public Garage","LEGAL_NAME":"PRESENCE SAINTS MARY AND ELIZABETH MEDICAL CENTER","LONGITUDE":-87.68348493134597},
{}]