[
  {
    "BUSINESS_TYPE": "Filling Station", 
    "LEGAL_NAME": "MBS PETROLEUM, INC.", 
    "STATE": "IL", 
    "DOING_BUSINESS_AS_NAME": "ARCHER SHELL", 
    "POP_AT_RISK": 30725, 
    "ZIP": 60638, 
    "ADDRESS": "6434 W ARCHER AVE 1ST", 
    "YEAR": 2008, 
    "LONGITUDE": -87.78317609, 
    "LATTITUDE": 41.792425779
  }, 
  {
    "BUSINESS_TYPE": "Filling Station", 
    "LEGAL_NAME": "M & R SAHLOUL, INC.", 
    "STATE": "IL", 
    "DOING_BUSINESS_AS_NAME": "COMMUNITY GAS AND BP", 
    "POP_AT_RISK": 15621, 
    "ZIP": 60628, 
    "ADDRESS": "150 W 127TH ST", 
    "YEAR": 2008, 
    "LONGITUDE": -87.626506112, 
    "LATTITUDE": 41.66350259
  }, 
  {
    "BUSINESS_TYPE": "Filling Station", 
    "LEGAL_NAME": "FIFY CORPORATION", 
    "STATE": "IL", 
    "DOING_BUSINESS_AS_NAME": "BP AMOCO", 
    "POP_AT_RISK": 32725, 
    "ZIP": 60616, 
    "ADDRESS": "3101 S MICHIGAN AVE 1ST", 
    "YEAR": 2008, 
    "LONGITUDE": -87.623294811, 
    "LATTITUDE": 41.838251391
  }, 
  {
    "BUSINESS_TYPE": "Filling Station", 
    "LEGAL_NAME": "KEAN BROTHERS INC", 
    "STATE": "IL", 
    "DOING_BUSINESS_AS_NAME": "KEAN BROS INC", 
    "POP_AT_RISK": 21672, 
    "ZIP": 60655, 
    "ADDRESS": "2632 W 111TH ST", 
    "YEAR": 2008, 
    "LONGITUDE": -87.687364482, 
    "LATTITUDE": 41.691836286
  }, 
  {
    "BUSINESS_TYPE": "Filling Station", 
    "LEGAL_NAME": "MAL-NAJ CORPORATION", 
    "STATE": "IL", 
    "DOING_BUSINESS_AS_NAME": "MIDWAY GASMART / BP TOGO", 
    "POP_AT_RISK": 28777, 
    "ZIP": 60629, 
    "ADDRESS": "4710 W 63RD ST", 
    "YEAR": 2008, 
    "LONGITUDE": -87.740277214, 
    "LATTITUDE": 41.778563244
  }, 
  {
    "BUSINESS_TYPE": "Filling Station", 
    "LEGAL_NAME": "MOHAMMAD ZAHIR", 
    "STATE": "IL", 
    "DOING_BUSINESS_AS_NAME": "WOOD LAWN AMOCO", 
    "POP_AT_RISK": 45423, 
    "ZIP": 60653, 
    "ADDRESS": "1158 E 47TH ST 1ST", 
    "YEAR": 2008, 
    "LONGITUDE": -87.596955553, 
    "LATTITUDE": 41.809750334
  }, 
  {
    "BUSINESS_TYPE": "Filling Station", 
    "LEGAL_NAME": "SUNSET BAY MARINA, LLC", 
    "STATE": "IL", 
    "DOING_BUSINESS_AS_NAME": "SUNSET BAY MARINA, LLC", 
    "POP_AT_RISK": 2798, 
    "ZIP": 60633, 
    "ADDRESS": "13501 S BENSLEY AVE", 
    "YEAR": 2008, 
    "LONGITUDE": -87.562775906, 
    "LATTITUDE": 41.649904864
  }, 
  {
    "BUSINESS_TYPE": "Filling Station", 
    "LEGAL_NAME": "ESCABANA CITGO INC.", 
    "STATE": "IL", 
    "DOING_BUSINESS_AS_NAME": "ESCABANA CITGO INC.", 
    "POP_AT_RISK": 22246, 
    "ZIP": 60617, 
    "ADDRESS": "2863 E 95TH ST", 
    "YEAR": 2008, 
    "LONGITUDE": -87.554078002, 
    "LATTITUDE": 41.722619985
  }, 
  {
    "BUSINESS_TYPE": "Filling Station", 
    "LEGAL_NAME": "BP PRODUCTS NORTH AMERICA INC.", 
    "STATE": "IL", 
    "DOING_BUSINESS_AS_NAME": "AM/PM", 
    "POP_AT_RISK": 39491, 
    "ZIP": 60605, 
    "ADDRESS": "1221-1223 S WABASH AVE", 
    "YEAR": 2008, 
    "LONGITUDE": -87.625669609, 
    "LATTITUDE": 41.866831454
  }, 
  {
    "BUSINESS_TYPE": "Filling Station", 
    "LEGAL_NAME": "PERSHING GAS INC.", 
    "STATE": "IL", 
    "DOING_BUSINESS_AS_NAME": "PERSHING GAS CITGO", 
    "POP_AT_RISK": 33939, 
    "ZIP": 60653, 
    "ADDRESS": "437 E PERSHING RD", 
    "YEAR": 2008, 
    "LONGITUDE": -87.61529192, 
    "LATTITUDE": 41.823747833
  }, 
  {
    "BUSINESS_TYPE": "Filling Station", 
    "LEGAL_NAME": "P & P AMOCO INC", 
    "STATE": "IL", 
    "DOING_BUSINESS_AS_NAME": "P & P AMOCO INC", 
    "POP_AT_RISK": 17974, 
    "ZIP": 60646, 
    "ADDRESS": "4000 W PETERSON AVE", 
    "YEAR": 2008, 
    "LONGITUDE": -87.728714391, 
    "LATTITUDE": 41.990244186
  }, 
  {
    "BUSINESS_TYPE": "Filling Station", 
    "LEGAL_NAME": "TUMARA FOOD MART INC.", 
    "STATE": "IL", 
    "DOING_BUSINESS_AS_NAME": "CITGO", 
    "POP_AT_RISK": 33876, 
    "ZIP": 60617, 
    "ADDRESS": "2941 E 83RD ST TH", 
    "YEAR": 2008, 
    "LONGITUDE": -87.552358447, 
    "LATTITUDE": 41.744535937
  }, 
  {
    "BUSINESS_TYPE": "Filling Station", 
    "LEGAL_NAME": "CKNP CORPORATION", 
    "STATE": "IL", 
    "DOING_BUSINESS_AS_NAME": "NORTHWEST BP GAS", 
    "POP_AT_RISK": 23928, 
    "ZIP": 60631, 
    "ADDRESS": "6405 N NORTHWEST HWY", 
    "YEAR": 2008, 
    "LONGITUDE": -87.806908034, 
    "LATTITUDE": 41.997182041
  }, 
  {
    "BUSINESS_TYPE": "Filling Station", 
    "LEGAL_NAME": "THOMAS'S MINIMART & GAS INC.", 
    "STATE": "IL", 
    "DOING_BUSINESS_AS_NAME": "2001 GAS CENTRAL", 
    "POP_AT_RISK": 17956, 
    "ZIP": 60646, 
    "ADDRESS": "6308 N CENTRAL AVE", 
    "YEAR": 2008, 
    "LONGITUDE": -87.764277038, 
    "LATTITUDE": 41.996371597
  }, 
  {
    "BUSINESS_TYPE": "Filling Station", 
    "LEGAL_NAME": "AVIS RENT A CAR SYSTEM, LLC", 
    "STATE": "IL", 
    "DOING_BUSINESS_AS_NAME": "AVIS RENT A CAR SYSTEMS INC", 
    "POP_AT_RISK": 76739, 
    "ZIP": 60601, 
    "ADDRESS": "214 N CLARK ST", 
    "YEAR": 2008, 
    "LONGITUDE": -87.631133872, 
    "LATTITUDE": 41.886150771
  }
]