[
  {
    "BUSINESS_TYPE": "Package Goods", 
    "LEGAL_NAME": "RALPHS GROCERY COMPANY", 
    "STATE": "IL", 
    "DOING_BUSINESS_AS_NAME": "FOOD 4 LESS MIDWEST #789", 
    "POP_AT_RISK": 39937, 
    "ZIP": 60609, 
    "ADDRESS": "4620 S DAMEN AVE", 
    "YEAR": 2020, 
    "LONGITUDE": -87.675115696, 
    "LATTITUDE": 41.809668528
  }, 
  {
    "BUSINESS_TYPE": "Package Goods", 
    "LEGAL_NAME": "ALDI INC.", 
    "STATE": "IL", 
    "DOING_BUSINESS_AS_NAME": "ALDI 16", 
    "POP_AT_RISK": 54575, 
    "ZIP": 60651, 
    "ADDRESS": "1440 N KOSTNER AVE 1", 
    "YEAR": 2020, 
    "LONGITUDE": -87.736419121, 
    "LATTITUDE": 41.90737693
  }, 
  {
    "BUSINESS_TYPE": "Package Goods", 
    "LEGAL_NAME": "ALDI INC.", 
    "STATE": "IL", 
    "DOING_BUSINESS_AS_NAME": "ALDI INC #58", 
    "POP_AT_RISK": 66735, 
    "ZIP": 60618, 
    "ADDRESS": "2431 W MONTROSE AVE", 
    "YEAR": 2020, 
    "LONGITUDE": -87.68996697, 
    "LATTITUDE": 41.961194099
  }, 
  {
    "BUSINESS_TYPE": "Package Goods", 
    "LEGAL_NAME": "LIS ENTERPRISES INC.", 
    "STATE": "IL", 
    "DOING_BUSINESS_AS_NAME": "LIS STORE", 
    "POP_AT_RISK": 41622, 
    "ZIP": 60630, 
    "ADDRESS": "5316 W LAWRENCE AVE 1ST", 
    "YEAR": 2020, 
    "LONGITUDE": -87.760180445, 
    "LATTITUDE": 41.967984304
  }, 
  {
    "BUSINESS_TYPE": "Package Goods", 
    "LEGAL_NAME": "ALDI INC.", 
    "STATE": "IL", 
    "DOING_BUSINESS_AS_NAME": "ALDI INC STORE #62", 
    "POP_AT_RISK": 43282, 
    "ZIP": 60608, 
    "ADDRESS": "1739 W CERMAK RD  1ST 6", 
    "YEAR": 2020, 
    "LONGITUDE": -87.670074602, 
    "LATTITUDE": 41.852151199
  }, 
  {
    "BUSINESS_TYPE": "Package Goods", 
    "LEGAL_NAME": "ALDI INC.", 
    "STATE": "IL", 
    "DOING_BUSINESS_AS_NAME": "ALDI #30", 
    "POP_AT_RISK": 57462, 
    "ZIP": 60623, 
    "ADDRESS": "3030 S KEDZIE AVE", 
    "YEAR": 2020, 
    "LONGITUDE": -87.704994465, 
    "LATTITUDE": 41.838114152
  }, 
  {
    "BUSINESS_TYPE": "Package Goods", 
    "LEGAL_NAME": "SUPERMERCADO EL GUERO NO 1 INC.", 
    "STATE": "IL", 
    "DOING_BUSINESS_AS_NAME": "SUPERMERCADO EL GUERO # 1", 
    "POP_AT_RISK": 41076, 
    "ZIP": 60609, 
    "ADDRESS": "1701 W 47TH ST 1ST", 
    "YEAR": 2020, 
    "LONGITUDE": -87.667454513, 
    "LATTITUDE": 41.808471238
  }, 
  {
    "BUSINESS_TYPE": "Package Goods", 
    "LEGAL_NAME": "RALPHS GROCERY COMPANY", 
    "STATE": "IL", 
    "DOING_BUSINESS_AS_NAME": "Food 4 Less Midwest #567", 
    "POP_AT_RISK": 51728, 
    "ZIP": 60639, 
    "ADDRESS": "4821 W NORTH AVE 1", 
    "YEAR": 2020, 
    "LONGITUDE": -87.746959936, 
    "LATTITUDE": 41.909505148
  }, 
  {
    "BUSINESS_TYPE": "Package Goods", 
    "LEGAL_NAME": "RALPHS GROCERY COMPANY", 
    "STATE": "IL", 
    "DOING_BUSINESS_AS_NAME": "Food 4 Less Midwest #552", 
    "POP_AT_RISK": 40672, 
    "ZIP": 60636, 
    "ADDRESS": "7030 S ASHLAND AVE", 
    "YEAR": 2020, 
    "LONGITUDE": -87.663966886, 
    "LATTITUDE": 41.76579077
  }, 
  {
    "BUSINESS_TYPE": "Package Goods", 
    "LEGAL_NAME": "ALDI INC.", 
    "STATE": "IL", 
    "DOING_BUSINESS_AS_NAME": "ALDI INC #83", 
    "POP_AT_RISK": 11047, 
    "ZIP": 60652, 
    "ADDRESS": "8333 S CICERO AVE  -", 
    "YEAR": 2020, 
    "LONGITUDE": -87.740922859, 
    "LATTITUDE": 41.740911065
  }, 
  {
    "BUSINESS_TYPE": "Package Goods", 
    "LEGAL_NAME": "ALDI INC.", 
    "STATE": "IL", 
    "DOING_BUSINESS_AS_NAME": "ALDI #79", 
    "POP_AT_RISK": 37982, 
    "ZIP": 60619, 
    "ADDRESS": "7800 S SOUTH CHICAGO AVE", 
    "YEAR": 2020, 
    "LONGITUDE": -87.587523485, 
    "LATTITUDE": 41.75274564
  }, 
  {
    "BUSINESS_TYPE": "Package Goods", 
    "LEGAL_NAME": "ALDI INC.", 
    "STATE": "IL", 
    "DOING_BUSINESS_AS_NAME": "ALDI #88", 
    "POP_AT_RISK": 26582, 
    "ZIP": 60620, 
    "ADDRESS": "8500 S HOLLAND RD 1", 
    "YEAR": 2020, 
    "LONGITUDE": -87.632089065, 
    "LATTITUDE": 41.739896706
  }, 
  {
    "BUSINESS_TYPE": "Package Goods", 
    "LEGAL_NAME": "ALDI INC.", 
    "STATE": "IL", 
    "DOING_BUSINESS_AS_NAME": "ALDI", 
    "POP_AT_RISK": 40493, 
    "ZIP": 60637, 
    "ADDRESS": "6621 S COTTAGE GROVE AVE 1", 
    "YEAR": 2020, 
    "LONGITUDE": -87.605648025, 
    "LATTITUDE": 41.774305881
  }, 
  {
    "BUSINESS_TYPE": "Package Goods", 
    "LEGAL_NAME": "ALDI INC.", 
    "STATE": "IL", 
    "DOING_BUSINESS_AS_NAME": "ALDI'S # 26", 
    "POP_AT_RISK": 18423, 
    "ZIP": 60617, 
    "ADDRESS": "10532 S INDIANAPOLIS AVE 1ST FLOOR 1ST", 
    "YEAR": 2020, 
    "LONGITUDE": -87.525712427, 
    "LATTITUDE": 41.703662361
  }, 
  {
    "BUSINESS_TYPE": "Package Goods", 
    "LEGAL_NAME": "ALDI INC.", 
    "STATE": "IL", 
    "DOING_BUSINESS_AS_NAME": "ALDI INC STORE #95", 
    "POP_AT_RISK": 20644, 
    "ZIP": 60617, 
    "ADDRESS": "2333 E 95TH ST", 
    "YEAR": 2020, 
    "LONGITUDE": -87.566673052, 
    "LATTITUDE": 41.722466242
  }, 
  {
    "BUSINESS_TYPE": "Package Goods", 
    "LEGAL_NAME": "LIS ENTERPRISES INC.", 
    "STATE": "IL", 
    "DOING_BUSINESS_AS_NAME": "LIS STORE", 
    "POP_AT_RISK": 18922, 
    "ZIP": 60638, 
    "ADDRESS": "5713 S ARCHER AVE", 
    "YEAR": 2020, 
    "LONGITUDE": -87.754689796, 
    "LATTITUDE": 41.796791146
  }, 
  {
    "BUSINESS_TYPE": "Package Goods", 
    "LEGAL_NAME": "ALDI INC.", 
    "STATE": "IL", 
    "DOING_BUSINESS_AS_NAME": "ALDI INC.#94", 
    "POP_AT_RISK": 59083, 
    "ZIP": 60636, 
    "ADDRESS": "6025 S WESTERN AVE  1ST", 
    "YEAR": 2020, 
    "LONGITUDE": -87.683623378, 
    "LATTITUDE": 41.783965842
  }, 
  {
    "BUSINESS_TYPE": "Package Goods", 
    "LEGAL_NAME": "ALDI INC.", 
    "STATE": "IL", 
    "DOING_BUSINESS_AS_NAME": "ALDI STORE #32", 
    "POP_AT_RISK": 48204, 
    "ZIP": 60614, 
    "ADDRESS": "1836 N CLYBOURN AVE", 
    "YEAR": 2020, 
    "LONGITUDE": -87.65452411, 
    "LATTITUDE": 41.914349676
  }, 
  {
    "BUSINESS_TYPE": "Package Goods", 
    "LEGAL_NAME": "TOMARAS & TOMARAS LIMITED", 
    "STATE": "IL", 
    "DOING_BUSINESS_AS_NAME": "ARCHER LIQUORS", 
    "POP_AT_RISK": 20765, 
    "ZIP": 60638, 
    "ADDRESS": "5996 S ARCHER AVE  1", 
    "YEAR": 2020, 
    "LONGITUDE": -87.766312868, 
    "LATTITUDE": 41.795222141
  }, 
  {
    "BUSINESS_TYPE": "Package Goods", 
    "LEGAL_NAME": "ALDI INC.", 
    "STATE": "IL", 
    "DOING_BUSINESS_AS_NAME": "ALDI INC # 62", 
    "POP_AT_RISK": 55784, 
    "ZIP": 60659, 
    "ADDRESS": "6220 N CALIFORNIA AVE  1", 
    "YEAR": 2020, 
    "LONGITUDE": -87.699686862, 
    "LATTITUDE": 41.994620959
  }, 
  {
    "BUSINESS_TYPE": "Package Goods", 
    "LEGAL_NAME": "ALDI INC.", 
    "STATE": "IL", 
    "DOING_BUSINESS_AS_NAME": "ALDI INC STORE 14", 
    "POP_AT_RISK": 13725, 
    "ZIP": 60644, 
    "ADDRESS": "5629 W FILLMORE ST", 
    "YEAR": 2020, 
    "LONGITUDE": -87.765597943, 
    "LATTITUDE": 41.867315648
  }, 
  {
    "BUSINESS_TYPE": "Package Goods", 
    "LEGAL_NAME": "ALDI INC.", 
    "STATE": "IL", 
    "DOING_BUSINESS_AS_NAME": "ALDI'S FOODS BELMONT", 
    "POP_AT_RISK": 65684, 
    "ZIP": 60618, 
    "ADDRESS": "3320 W BELMONT AVE 1 3320B", 
    "YEAR": 2020, 
    "LONGITUDE": -87.710900592, 
    "LATTITUDE": 41.939405188
  }, 
  {
    "BUSINESS_TYPE": "Package Goods", 
    "LEGAL_NAME": "BC LIQUOR INC.", 
    "STATE": "IL", 
    "DOING_BUSINESS_AS_NAME": "SUTTON LIQUOR", 
    "POP_AT_RISK": 29296, 
    "ZIP": 60620, 
    "ADDRESS": "9041 S ASHLAND AVE 1ST", 
    "YEAR": 2020, 
    "LONGITUDE": -87.662721072, 
    "LATTITUDE": 41.729082289
  }, 
  {
    "BUSINESS_TYPE": "Package Goods", 
    "LEGAL_NAME": "ALDI INC.", 
    "STATE": "IL", 
    "DOING_BUSINESS_AS_NAME": "ALDI FOODS STORE #26", 
    "POP_AT_RISK": 55636, 
    "ZIP": 60614, 
    "ADDRESS": "2600 N CLYBOURN AVE  BLDG", 
    "YEAR": 2020, 
    "LONGITUDE": -87.674195083, 
    "LATTITUDE": 41.928695001
  }, 
  {
    "BUSINESS_TYPE": "Package Goods", 
    "LEGAL_NAME": "ALDI INC.", 
    "STATE": "IL", 
    "DOING_BUSINESS_AS_NAME": "ALDI INC #64", 
    "POP_AT_RISK": 58128, 
    "ZIP": 60647, 
    "ADDRESS": "1753 N MILWAUKEE AVE", 
    "YEAR": 2020, 
    "LONGITUDE": -87.681822481, 
    "LATTITUDE": 41.913342468
  }, 
  {
    "BUSINESS_TYPE": "Package Goods", 
    "LEGAL_NAME": "FIRYAL RAHO CORPORATION", 
    "STATE": "IL", 
    "DOING_BUSINESS_AS_NAME": "7-ELEVEN", 
    "POP_AT_RISK": 11842, 
    "ZIP": 60638, 
    "ADDRESS": "6754 W 63RD ST", 
    "YEAR": 2020, 
    "LONGITUDE": -87.790794192, 
    "LATTITUDE": 41.777644994
  }, 
  {
    "BUSINESS_TYPE": "Package Goods", 
    "LEGAL_NAME": "51ST & DAMEN, INC.", 
    "STATE": "IL", 
    "DOING_BUSINESS_AS_NAME": "GOLDMORE FOOD", 
    "POP_AT_RISK": 46667, 
    "ZIP": 60609, 
    "ADDRESS": "1949-1957 W 51ST ST", 
    "YEAR": 2020, 
    "LONGITUDE": -87.674080344, 
    "LATTITUDE": 41.801127809
  }, 
  {
    "BUSINESS_TYPE": "Package Goods", 
    "LEGAL_NAME": "JAYBYRD INC", 
    "STATE": "IL", 
    "DOING_BUSINESS_AS_NAME": "7-ELEVEN #38183 A", 
    "POP_AT_RISK": 52635, 
    "ZIP": 60602, 
    "ADDRESS": "135 W MADISON ST 1", 
    "YEAR": 2020, 
    "LONGITUDE": -87.631896162, 
    "LATTITUDE": 41.881856744
  }, 
  {
    "BUSINESS_TYPE": "Package Goods", 
    "LEGAL_NAME": "RALPHS GROCERY COMPANY", 
    "STATE": "IL", 
    "DOING_BUSINESS_AS_NAME": "Food 4 Less Midwest #570", 
    "POP_AT_RISK": 29261, 
    "ZIP": 60620, 
    "ADDRESS": "112 W 87TH ST 1ST", 
    "YEAR": 2020, 
    "LONGITUDE": -87.627509219, 
    "LATTITUDE": 41.736380046
  }, 
  {
    "BUSINESS_TYPE": "Package Goods", 
    "LEGAL_NAME": "ALDI INC.", 
    "STATE": "IL", 
    "DOING_BUSINESS_AS_NAME": "ALDI'S", 
    "POP_AT_RISK": 49792, 
    "ZIP": 60707, 
    "ADDRESS": "6520 W FULLERTON AVE 1ST FLOOR 1", 
    "YEAR": 2020, 
    "LONGITUDE": -87.788747763, 
    "LATTITUDE": 41.923760402
  }
]