[
{"STATE":"IL","ZIP":60707,"LATTITUDE":41.934231432330066,"ADDRESS":"2957 N HARLEM AVE  ","YEAR":2015,"DOING_BUSINESS_AS_NAME":"MONT CLARE LANES","POP_AT_RISK":173140,"BUSINESS_TYPE":"Public Place of Amusement","LEGAL_NAME":"RLD CORP","LONGITUDE":-87.80646608253966},
{"STATE":"IL","ZIP":60639,"LATTITUDE":41.91892249549356,"ADDRESS":"5637-5639 W GRAND AVE  ","YEAR":2015,"DOING_BUSINESS_AS_NAME":"BOBY G","POP_AT_RISK":380304,"BUSINESS_TYPE":"Public Place of Amusement","LEGAL_NAME":"BOBY G INC.","LONGITUDE":-87.76732160126718},
{"STATE":"IL","ZIP":60609,"LATTITUDE":41.830073693447986,"ADDRESS":"3504 S WESTERN AVE 1 1","YEAR":2015,"DOING_BUSINESS_AS_NAME":"EL REY BALLROOM","POP_AT_RISK":232280,"BUSINESS_TYPE":"Public Place of Amusement","LEGAL_NAME":"CYNPAT, INC","LONGITUDE":-87.68517426995787},
{"STATE":"IL","ZIP":60625,"LATTITUDE":41.96855261492736,"ADDRESS":"3220-3224 W LAWRENCE AVE 1ST ","YEAR":2015,"DOING_BUSINESS_AS_NAME":"TORTUGA'S CANTINA","POP_AT_RISK":228363,"BUSINESS_TYPE":"Public Place of Amusement","LEGAL_NAME":"UR IN, INC.","LONGITUDE":-87.70938107470327},
{"STATE":"IL","ZIP":60632,"LATTITUDE":41.80120544865184,"ADDRESS":"2522-2524 W 51ST ST  1","YEAR":2015,"DOING_BUSINESS_AS_NAME":"STUDIO 51","POP_AT_RISK":598080,"BUSINESS_TYPE":"Public Place of Amusement","LEGAL_NAME":"GORALKA,INC.","LONGITUDE":-87.68775219068961},
{"STATE":"IL","ZIP":60619,"LATTITUDE":41.7259581808161,"ADDRESS":"1200 E 93RD ST 1ST ","YEAR":2015,"DOING_BUSINESS_AS_NAME":"WOODLAWN GARDENS","POP_AT_RISK":48813,"BUSINESS_TYPE":"Public Place of Amusement","LEGAL_NAME":"HARRIET WATT","LONGITUDE":-87.59481759727105},
{"STATE":"IL","ZIP":60649,"LATTITUDE":41.75888651800864,"ADDRESS":"2419-2425 E 75TH ST 1 ","YEAR":2015,"DOING_BUSINESS_AS_NAME":"THE QUARRY EVENT CENTER","POP_AT_RISK":654332,"BUSINESS_TYPE":"Public Place of Amusement","LEGAL_NAME":"UNEARTHED LLC","LONGITUDE":-87.56565795329745},
{"STATE":"IL","ZIP":60707,"LATTITUDE":41.923648647963255,"ADDRESS":"7110 W GRAND AVE 1ST ","YEAR":2015,"DOING_BUSINESS_AS_NAME":"LAILA'S GRAND GAME ROOM INC","POP_AT_RISK":42019,"BUSINESS_TYPE":"Public Place of Amusement","LEGAL_NAME":"ANWAR HADDADIN","LONGITUDE":-87.80308394347287},
{"STATE":"IL","ZIP":60619,"LATTITUDE":41.744914440439004,"ADDRESS":"8229  -08231 S COTTAGE GROVE AVE  1ST","YEAR":2015,"DOING_BUSINESS_AS_NAME":"SEYMOUR RECREATIONS","POP_AT_RISK":175725,"BUSINESS_TYPE":"Public Place of Amusement","LEGAL_NAME":"CALVIN SEYMOUR","LONGITUDE":-87.60491267993511},
{"STATE":"IL","ZIP":60623,"LATTITUDE":41.844319676878946,"ADDRESS":"4078 W 26TH ST  ","YEAR":2015,"DOING_BUSINESS_AS_NAME":"LUCKY GREEN POOL HALL","POP_AT_RISK":49934,"BUSINESS_TYPE":"Public Place of Amusement","LEGAL_NAME":"RITA JO GARCIA","LONGITUDE":-87.72775492142739},
{"STATE":"IL","ZIP":60609,"LATTITUDE":41.81432611672509,"ADDRESS":"4403 S WALLACE ST 1ST ","YEAR":2015,"DOING_BUSINESS_AS_NAME":"KELLY'S TAVERN","POP_AT_RISK":56487,"BUSINESS_TYPE":"Public Place of Amusement","LEGAL_NAME":"BILL BABS, INC.","LONGITUDE":-87.64066843784394},
{"STATE":"IL","ZIP":60655,"LATTITUDE":41.691406189233774,"ADDRESS":"3908 W 111TH ST  1","YEAR":2015,"DOING_BUSINESS_AS_NAME":"T R'S PUB","POP_AT_RISK":78644,"BUSINESS_TYPE":"Public Place of Amusement","LEGAL_NAME":"LEANN-CAOL CORP","LONGITUDE":-87.71830607808162},
{"STATE":"IL","ZIP":60616,"LATTITUDE":41.853618799140406,"ADDRESS":"2120 S JEFFERSON ST 1ST & MEZZ ","YEAR":2015,"DOING_BUSINESS_AS_NAME":"REDMOON THEATER","POP_AT_RISK":44396,"BUSINESS_TYPE":"Public Place of Amusement","LEGAL_NAME":"REDMOON THEATER","LONGITUDE":-87.6418796860035},
{"STATE":"IL","ZIP":60615,"LATTITUDE":41.79492106897254,"ADDRESS":"1055 E 55TH ST  ","YEAR":2015,"DOING_BUSINESS_AS_NAME":"SEVEN TEN","POP_AT_RISK":239508,"BUSINESS_TYPE":"Public Place of Amusement","LEGAL_NAME":"STRIKE TWO CORP.","LONGITUDE":-87.59985203106729},
{"STATE":"IL","ZIP":60638,"LATTITUDE":41.7947531566514,"ADDRESS":"6072 S ARCHER AVE  GROUN","YEAR":2015,"DOING_BUSINESS_AS_NAME":"THE MAYFIELD  INC","POP_AT_RISK":48782,"BUSINESS_TYPE":"Public Place of Amusement","LEGAL_NAME":"THE MAYFIELD INC","LONGITUDE":-87.76937662292175},
{"STATE":"IL","ZIP":60620,"LATTITUDE":41.736217960782156,"ADDRESS":"210 W 87TH ST 1 ","YEAR":2015,"DOING_BUSINESS_AS_NAME":"DFL MANAGEMENT LLC","POP_AT_RISK":160769,"BUSINESS_TYPE":"Public Place of Amusement","LEGAL_NAME":"DFL MANAGEMENT LLC","LONGITUDE":-87.62931043653778},
{"STATE":"IL","ZIP":60623,"LATTITUDE":41.836913225394206,"ADDRESS":"4254 W 31ST ST  ","YEAR":2015,"DOING_BUSINESS_AS_NAME":"HOME RUN INN","POP_AT_RISK":38049,"BUSINESS_TYPE":"Public Place of Amusement","LEGAL_NAME":"HOME RUN INN, INC.","LONGITUDE":-87.73141129560165},
{"STATE":"IL","ZIP":60628,"LATTITUDE":41.69475452654066,"ADDRESS":"11001 S DOTY AVE  ","YEAR":2015,"DOING_BUSINESS_AS_NAME":"HARBORSIDE INTERNATIONAL GOLF CENTER & PIER 37 BAR & GRILLE","POP_AT_RISK":7362,"BUSINESS_TYPE":"Public Place of Amusement","LEGAL_NAME":"KS HARBORSIDE, LLC","LONGITUDE":-87.5961860043188},
{"STATE":"IL","ZIP":60630,"LATTITUDE":41.97566222712531,"ADDRESS":"5242 -5250 N NORTHWEST HWY 1ST ","YEAR":2015,"DOING_BUSINESS_AS_NAME":"HABETLER BOWL INC","POP_AT_RISK":270048,"BUSINESS_TYPE":"Public Place of Amusement","LEGAL_NAME":"HABETLER BOWL, INC.","LONGITUDE":-87.76952928845782},
{"STATE":"IL","ZIP":60613,"LATTITUDE":41.961655308981946,"ADDRESS":"1021 W MONTROSE AVE  ","YEAR":2015,"DOING_BUSINESS_AS_NAME":"Driftwood","POP_AT_RISK":409905,"BUSINESS_TYPE":"Public Place of Amusement","LEGAL_NAME":"1021 MONTROSE, L.L.C.","LONGITUDE":-87.65564994485091},
{"STATE":"IL","ZIP":60660,"LATTITUDE":41.99802474346836,"ADDRESS":"1401-1405 W DEVON AVE 1 ","YEAR":2015,"DOING_BUSINESS_AS_NAME":"UNCOMMON GROUND","POP_AT_RISK":389260,"BUSINESS_TYPE":"Public Place of Amusement","LEGAL_NAME":"UNCOMMON GROUND, INC.","LONGITUDE":-87.66556345762727},
{"STATE":"IL","ZIP":60631,"LATTITUDE":41.99148225930689,"ADDRESS":"6064-6070 N NORTHWEST HWY 1 ","YEAR":2015,"DOING_BUSINESS_AS_NAME":"MO DAILEY'S PUB & GRILLE","POP_AT_RISK":92284,"BUSINESS_TYPE":"Public Place of Amusement","LEGAL_NAME":"CREAMER & DAILEY, INC.","LONGITUDE":-87.7978116394828},
{"STATE":"IL","ZIP":60623,"LATTITUDE":41.83714876958831,"ADDRESS":"3059 S CENTRAL PARK AVE 1ST ","YEAR":2015,"DOING_BUSINESS_AS_NAME":"LOS GLOBOS BALLROOM","POP_AT_RISK":65389,"BUSINESS_TYPE":"Public Place of Amusement","LEGAL_NAME":"M. MONREAL CORPORATION","LONGITUDE":-87.71444788654136},
{"STATE":"IL","ZIP":60620,"LATTITUDE":41.735691078577986,"ADDRESS":"1543 W 87TH ST  ","YEAR":2015,"DOING_BUSINESS_AS_NAME":"MR G SUPPER CLUB","POP_AT_RISK":388010,"BUSINESS_TYPE":"Public Place of Amusement","LEGAL_NAME":"M. V. ONE INCORPORATED","LONGITUDE":-87.66232767688463},
{"STATE":"IL","ZIP":60612,"LATTITUDE":41.88123342371891,"ADDRESS":"2550 W MADISON ST 1ST - 3RD ","YEAR":2015,"DOING_BUSINESS_AS_NAME":"JOHNNY'S ICE HOUSE","POP_AT_RISK":219268,"BUSINESS_TYPE":"Public Place of Amusement","LEGAL_NAME":"JOHNNY'S ICE HOUSE, INC.","LONGITUDE":-87.69038958620825},
{"STATE":"IL","ZIP":60618,"LATTITUDE":41.937109112504686,"ADDRESS":"3084 N MILWAUKEE AVE  ","YEAR":2015,"DOING_BUSINESS_AS_NAME":"BRISTOL LOUNGE","POP_AT_RISK":292196,"BUSINESS_TYPE":"Public Place of Amusement","LEGAL_NAME":"JOSEPH & JOHN  MILKOWSKI","LONGITUDE":-87.72082349029948},
{"STATE":"IL","ZIP":60647,"LATTITUDE":41.92981810773004,"ADDRESS":"2646-2648 N MILWAUKEE AVE 1ST ","YEAR":2015,"DOING_BUSINESS_AS_NAME":"THE LOGAN THEATRE","POP_AT_RISK":76323,"BUSINESS_TYPE":"Public Place of Amusement","LEGAL_NAME":"LOGAN SQUARE THEATRE LLC","LONGITUDE":-87.70886554390576},
{"STATE":"IL","ZIP":60619,"LATTITUDE":41.736972872974235,"ADDRESS":"1420 E 87TH ST  1ST","YEAR":2015,"DOING_BUSINESS_AS_NAME":"MIDWEST BRIDGE UNIT, INC","POP_AT_RISK":85902,"BUSINESS_TYPE":"Public Place of Amusement","LEGAL_NAME":"MIDWEST BRIDGE UNIT INC.","LONGITUDE":-87.58939464020219},
{"STATE":"IL","ZIP":60608,"LATTITUDE":41.85767620809241,"ADDRESS":"1807 S ALLPORT ST 2-3 ","YEAR":2015,"DOING_BUSINESS_AS_NAME":"THALIA HALL","POP_AT_RISK":116154,"BUSINESS_TYPE":"Public Place of Amusement","LEGAL_NAME":"THALIA HALL CHICAGO, LLC","LONGITUDE":-87.65749590342607},
{"STATE":"IL","ZIP":60620,"LATTITUDE":41.75594978114761,"ADDRESS":"1219 W 76TH ST  ","YEAR":2015,"DOING_BUSINESS_AS_NAME":"DR. MLK, JR. PARK AND FAMILY ENTERTAINMENT CENTER","POP_AT_RISK":444213,"BUSINESS_TYPE":"Public Place of Amusement","LEGAL_NAME":"CHICAGO CITY SKATING, LLC","LONGITUDE":-87.65466615567901},
{"STATE":"IL","ZIP":60609,"LATTITUDE":41.82302765703953,"ADDRESS":"3900 S ASHLAND AVE  ","YEAR":2015,"DOING_BUSINESS_AS_NAME":"CHICAGO INDOOR SPORTS, LLC","POP_AT_RISK":96216,"BUSINESS_TYPE":"Public Place of Amusement","LEGAL_NAME":"CHICAGO INDOOR SPORTS LLC","LONGITUDE":-87.66574403109463},
{"STATE":"IL","ZIP":60623,"LATTITUDE":41.859528939715666,"ADDRESS":"1539 S PULASKI RD  ","YEAR":2015,"DOING_BUSINESS_AS_NAME":"Livin' Clean Entertainment","POP_AT_RISK":242442,"BUSINESS_TYPE":"Public Place of Amusement","LEGAL_NAME":"CLEAN CUT BARBERSHOP P.C.","LONGITUDE":-87.72482717905926},
{"STATE":"IL","ZIP":60618,"LATTITUDE":41.946639592877055,"ADDRESS":"3454 W ADDISON ST 1ST ","YEAR":2015,"DOING_BUSINESS_AS_NAME":"Mirabell Restaurant","POP_AT_RISK":67328,"BUSINESS_TYPE":"Public Place of Amusement","LEGAL_NAME":"MIRABELL RESTAURANT, INC.","LONGITUDE":-87.71494918308186},
{"STATE":"IL","ZIP":60638,"LATTITUDE":41.79812662454975,"ADDRESS":"5518 S ARCHER AVE 1ST D","YEAR":2015,"DOING_BUSINESS_AS_NAME":"BOHICA BAR AND GRILL","POP_AT_RISK":113845,"BUSINESS_TYPE":"Public Place of Amusement","LEGAL_NAME":"BOHICA BAR AND GRILL, INC.","LONGITUDE":-87.74741651396842},
{"STATE":"IL","ZIP":60617,"LATTITUDE":41.67851714188012,"ADDRESS":"11919 S AVENUE O  1ST ","YEAR":2015,"DOING_BUSINESS_AS_NAME":"EASTSIDE SOCCER DOME, INC.","POP_AT_RISK":2544,"BUSINESS_TYPE":"Public Place of Amusement","LEGAL_NAME":"EASTSIDE SOCCER DOME, INC.","LONGITUDE":-87.53989365304756},
{"STATE":"IL","ZIP":60653,"LATTITUDE":41.81676172087383,"ADDRESS":"1001-1003 E 43RD ST 1ST ","YEAR":2015,"DOING_BUSINESS_AS_NAME":"NORMAN'S","POP_AT_RISK":97374,"BUSINESS_TYPE":"Public Place of Amusement","LEGAL_NAME":"NORFLO HOLDING CORPORATION","LONGITUDE":-87.60178731861693},
{"STATE":"IL","ZIP":60622,"LATTITUDE":41.89938196589096,"ADDRESS":"1002 N CALIFORNIA AVE 1ST ","YEAR":2015,"DOING_BUSINESS_AS_NAME":"THE CLIPPER","POP_AT_RISK":152856,"BUSINESS_TYPE":"Public Place of Amusement","LEGAL_NAME":"THE CALIFORNIA CLIPPER CORP.","LONGITUDE":-87.69694004377007},
{"STATE":"IL","ZIP":60639,"LATTITUDE":41.931374091845875,"ADDRESS":"5616-5622 W DIVERSEY AVE  ","YEAR":2015,"DOING_BUSINESS_AS_NAME":"STEREO NIGHT CLUB","POP_AT_RISK":384648,"BUSINESS_TYPE":"Public Place of Amusement","LEGAL_NAME":"PETER'S ONE TWO THREE LOUNGE I","LONGITUDE":-87.76703855660186},
{"STATE":"IL","ZIP":60617,"LATTITUDE":41.70920921884732,"ADDRESS":"10226-10236 S AVENUE N  1 ","YEAR":2015,"DOING_BUSINESS_AS_NAME":"SOUTHEAST CHICAGO SOCCER","POP_AT_RISK":98635,"BUSINESS_TYPE":"Public Place of Amusement","LEGAL_NAME":"SOUTHEAST CHICAGO SOCCER, INC.","LONGITUDE":-87.53905097430159},
{"STATE":"IL","ZIP":60666,"LATTITUDE":42.008058189255244,"ADDRESS":"12521 W TOUHY AVE ADULTWORLD ","YEAR":2015,"DOING_BUSINESS_AS_NAME":"TOUHY AVENUE VIDEO STORE","POP_AT_RISK":15272,"BUSINESS_TYPE":"Public Place of Amusement","LEGAL_NAME":"TOUHY AVENUE OPERATING COMPANY","LONGITUDE":-87.93397650361851},
{"STATE":"IL","ZIP":60631,"LATTITUDE":41.98118072487806,"ADDRESS":"8500 W BRYN MAWR AVE  ","YEAR":2015,"DOING_BUSINESS_AS_NAME":"RENAISSANCE CHICAGO O'HARE HOTEL","POP_AT_RISK":105845,"BUSINESS_TYPE":"Public Place of Amusement","LEGAL_NAME":"CHICAGO ORD HOTEL PARTNERS, LLC","LONGITUDE":-87.83916755770461},
{"STATE":"IL","ZIP":60625,"LATTITUDE":41.96525973742128,"ADDRESS":"4614 N LINCOLN AVE 1ST ","YEAR":2015,"DOING_BUSINESS_AS_NAME":"DAVIS THEATER","POP_AT_RISK":175431,"BUSINESS_TYPE":"Public Place of Amusement","LEGAL_NAME":"GREEN SCREENZ ENTERTAINMENT INC.","LONGITUDE":-87.68651075511647},
{"STATE":"IL","ZIP":60626,"LATTITUDE":42.018812793757284,"ADDRESS":"7537-7539 N CLARK ST 1ST ","YEAR":2015,"DOING_BUSINESS_AS_NAME":"ETHIOPIAN DIAMOND II RESTAURANT INC.","POP_AT_RISK":125148,"BUSINESS_TYPE":"Public Place of Amusement","LEGAL_NAME":"ETHIOPIAN DIAMOND II RESTAURANT INC.","LONGITUDE":-87.67592023089395},
{}]