[
{"STATE":"IL","ZIP":60629,"LATTITUDE":41.77849677260882,"ADDRESS":"4145 W 63RD ST 1ST ","YEAR":2008,"DOING_BUSINESS_AS_NAME":"THE LEON'S COMPUTERS","POP_AT_RISK":183575,"BUSINESS_TYPE":"Retail Computing Center","LEGAL_NAME":"MARIO LEON","LONGITUDE":-87.72698941172489},
{"STATE":"IL","ZIP":60622,"LATTITUDE":41.90584332514768,"ADDRESS":"1321 N MILWAUKEE AVE 1ST ","YEAR":2008,"DOING_BUSINESS_AS_NAME":"COPY MAX","POP_AT_RISK":159858,"BUSINESS_TYPE":"Retail Computing Center","LEGAL_NAME":"JEONG S KIM","LONGITUDE":-87.67014702982526},
{"STATE":"IL","ZIP":60613,"LATTITUDE":41.952086643485636,"ADDRESS":"3828 N BROADWAY   ","YEAR":2008,"DOING_BUSINESS_AS_NAME":"COMPUFIND","POP_AT_RISK":72818,"BUSINESS_TYPE":"Retail Computing Center","LEGAL_NAME":"ANDREW ASUNMO","LONGITUDE":-87.64977978532295},
{"STATE":"IL","ZIP":60625,"LATTITUDE":41.9795143154988,"ADDRESS":"5400 N KEDZIE AVE 1 ","YEAR":2008,"DOING_BUSINESS_AS_NAME":"PC-ZONE","POP_AT_RISK":52056,"BUSINESS_TYPE":"Retail Computing Center","LEGAL_NAME":"YOUNG H. PARK","LONGITUDE":-87.70891967012712},
{"STATE":"IL","ZIP":60628,"LATTITUDE":41.69646826664951,"ADDRESS":"10846 S HALSTED ST  ","YEAR":2008,"DOING_BUSINESS_AS_NAME":"R & R COMPUTER SERVICES","POP_AT_RISK":50500,"BUSINESS_TYPE":"Retail Computing Center","LEGAL_NAME":"ROCHELLE SMITH","LONGITUDE":-87.64265412117399},
{"STATE":"IL","ZIP":60631,"LATTITUDE":41.981143964082634,"ADDRESS":"8550 W BRYN MAWR AVE 400 ","YEAR":2008,"DOING_BUSINESS_AS_NAME":"NH CHICAGO LLC","POP_AT_RISK":105845,"BUSINESS_TYPE":"Retail Computing Center","LEGAL_NAME":"NH CHICAGO, LLC","LONGITUDE":-87.84108737455419},
{"STATE":"IL","ZIP":60628,"LATTITUDE":41.67780269846228,"ADDRESS":"415 W 119TH ST  ","YEAR":2008,"DOING_BUSINESS_AS_NAME":"HOUSTON & ASSOCIATES COFFEE PLUS","POP_AT_RISK":209820,"BUSINESS_TYPE":"Retail Computing Center","LEGAL_NAME":"MARTIN H HOUSTON","LONGITUDE":-87.63296168371305},
{"STATE":"IL","ZIP":60645,"LATTITUDE":42.01195388843777,"ADDRESS":"2801 W TOUHY AVE  ","YEAR":2008,"DOING_BUSINESS_AS_NAME":"OFFICE MART","POP_AT_RISK":77808,"BUSINESS_TYPE":"Retail Computing Center","LEGAL_NAME":"OFFICE MART INC.","LONGITUDE":-87.69983023199094},
{"STATE":"IL","ZIP":60623,"LATTITUDE":41.842403950499424,"ADDRESS":"2700 S RIDGEWAY AVE 1ST ","YEAR":2008,"DOING_BUSINESS_AS_NAME":"COMPUTERWOW, INC.","POP_AT_RISK":63898,"BUSINESS_TYPE":"Retail Computing Center","LEGAL_NAME":"COMPUTERWOW, INC.","LONGITUDE":-87.71855052411769},
{"STATE":"IL","ZIP":60609,"LATTITUDE":41.809692947343486,"ADDRESS":"4622 S MARSHFIELD AVE  ","YEAR":2008,"DOING_BUSINESS_AS_NAME":"OROZCO DESIGN","POP_AT_RISK":75718,"BUSINESS_TYPE":"Retail Computing Center","LEGAL_NAME":"DENISE A. IVANOVA","LONGITUDE":-87.66635580332856},
{"STATE":"IL","ZIP":60615,"LATTITUDE":41.79943077995451,"ADDRESS":"1459 E 53RD ST 2ND 2WEST","YEAR":2008,"DOING_BUSINESS_AS_NAME":"KIDS CONCIERGE CYBER LOUNGE","POP_AT_RISK":116817,"BUSINESS_TYPE":"Retail Computing Center","LEGAL_NAME":"KIDS CONCIERGE INC.","LONGITUDE":-87.58947933531431},
{"STATE":"IL","ZIP":60619,"LATTITUDE":41.751211574824836,"ADDRESS":"358 E 79TH ST 1 ","YEAR":2008,"DOING_BUSINESS_AS_NAME":"COMPUTERS BY THE HOUR & COPYING TOO","POP_AT_RISK":188570,"BUSINESS_TYPE":"Retail Computing Center","LEGAL_NAME":"KIERKEN CORPORATION","LONGITUDE":-87.61583018670413},
{"STATE":"IL","ZIP":60639,"LATTITUDE":41.924517532075264,"ADDRESS":"4236 W FULLERTON AVE 1 ","YEAR":2008,"DOING_BUSINESS_AS_NAME":"ECU-MEX TRAVEL EXPRESS","POP_AT_RISK":75767,"BUSINESS_TYPE":"Retail Computing Center","LEGAL_NAME":"RIGOBERTO  ILLESCAS","LONGITUDE":-87.73319140957126},
{"STATE":"IL","ZIP":60634,"LATTITUDE":41.94522171663337,"ADDRESS":"7105 W ADDISON ST  ","YEAR":2008,"DOING_BUSINESS_AS_NAME":"COMPUTER LOUNGE INC","POP_AT_RISK":260864,"BUSINESS_TYPE":"Retail Computing Center","LEGAL_NAME":"COMPUTER LOUNGE INC.","LONGITUDE":-87.80352484199379},
{"STATE":"IL","ZIP":60645,"LATTITUDE":42.01238941676102,"ADDRESS":"2358 W TOUHY AVE  ","YEAR":2008,"DOING_BUSINESS_AS_NAME":"BELLA INTERNET CAFE","POP_AT_RISK":117554,"BUSINESS_TYPE":"Retail Computing Center","LEGAL_NAME":"INTERNET WORLD, INC.","LONGITUDE":-87.68993662905656},
{"STATE":"IL","ZIP":60626,"LATTITUDE":42.002473724305595,"ADDRESS":"6624 N CLARK ST  2","YEAR":2008,"DOING_BUSINESS_AS_NAME":"LA BELLA CAFE & INTERNET","POP_AT_RISK":75948,"BUSINESS_TYPE":"Retail Computing Center","LEGAL_NAME":"INTERNET WORLD, INC.","LONGITUDE":-87.67227603034296},
{"STATE":"IL","ZIP":60623,"LATTITUDE":41.844004597432054,"ADDRESS":"4379 W 26TH ST 1 ","YEAR":2008,"DOING_BUSINESS_AS_NAME":"CONECTA","POP_AT_RISK":91804,"BUSINESS_TYPE":"Retail Computing Center","LEGAL_NAME":"YESENIA I MONTES INC.","LONGITUDE":-87.73413154858753},
{"STATE":"IL","ZIP":60639,"LATTITUDE":41.90993159529754,"ADDRESS":"4156 W NORTH AVE 1 ","YEAR":2008,"DOING_BUSINESS_AS_NAME":"BALOP SERVICES CORPORATION","POP_AT_RISK":105356,"BUSINESS_TYPE":"Retail Computing Center","LEGAL_NAME":"BALOP SERVICES CORPORATION","LONGITUDE":-87.73107855232001},
{"STATE":"IL","ZIP":60616,"LATTITUDE":41.8382635962444,"ADDRESS":"215 E 31ST ST 1 ","YEAR":2008,"DOING_BUSINESS_AS_NAME":"BRONZEVILLE CORPORATIUM","POP_AT_RISK":503234,"BUSINESS_TYPE":"Retail Computing Center","LEGAL_NAME":"BRONZEVILLE CORPORATIUM, INC.","LONGITUDE":-87.62123336655749},
{"STATE":"IL","ZIP":60640,"LATTITUDE":41.961748076470776,"ADDRESS":"4401 N CLARK ST 1 1","YEAR":2008,"DOING_BUSINESS_AS_NAME":"CLARK FOOD & CYBER CAFE, INC.","POP_AT_RISK":157744,"BUSINESS_TYPE":"Retail Computing Center","LEGAL_NAME":"CLARK FOOD & CYBER CAFE, INC.","LONGITUDE":-87.66583650071568},
{"STATE":"IL","ZIP":60639,"LATTITUDE":41.92384038399135,"ADDRESS":"5649 W FULLERTON AVE 1ST ","YEAR":2008,"DOING_BUSINESS_AS_NAME":"CHICAGO TECHNICAL CENTERS INC.","POP_AT_RISK":204237,"BUSINESS_TYPE":"Retail Computing Center","LEGAL_NAME":"CHICAGO TECHNICAL CENTERS LTD.","LONGITUDE":-87.76796675121247},
{"STATE":"IL","ZIP":60632,"LATTITUDE":41.812138754991516,"ADDRESS":"4440 S PULASKI RD 1ST ","YEAR":2008,"DOING_BUSINESS_AS_NAME":"CHICAGO TECHNICAL CENTERS LTD.","POP_AT_RISK":17199,"BUSINESS_TYPE":"Retail Computing Center","LEGAL_NAME":"CHICAGO TECHNICAL CENTERS LTD.","LONGITUDE":-87.72388884190333},
{"STATE":"IL","ZIP":60647,"LATTITUDE":41.91020094371503,"ADDRESS":"2419 W NORTH AVE GROUND ","YEAR":2008,"DOING_BUSINESS_AS_NAME":"FLIES COMMUNICATIONS II","POP_AT_RISK":209037,"BUSINESS_TYPE":"Retail Computing Center","LEGAL_NAME":"FACI INTERNATIONAL CORPORATION","LONGITUDE":-87.68804064391732},
{"STATE":"IL","ZIP":60632,"LATTITUDE":41.81515906522002,"ADDRESS":"4309 S ARCHER AVE 1ST ","YEAR":2008,"DOING_BUSINESS_AS_NAME":"SAMILIPRO COMPUTERS INCORPORATED","POP_AT_RISK":136701,"BUSINESS_TYPE":"Retail Computing Center","LEGAL_NAME":"SAMILIPRO COMPUTERS INCORPORATED","LONGITUDE":-87.70227317490556},
{"STATE":"IL","ZIP":60618,"LATTITUDE":41.9393046361322,"ADDRESS":"3642 W BELMONT AVE 1 ","YEAR":2008,"DOING_BUSINESS_AS_NAME":"CUENCAMEX","POP_AT_RISK":134112,"BUSINESS_TYPE":"Retail Computing Center","LEGAL_NAME":"EDUARDO CASTANEDA & CAREMEN CASTANEDA","LONGITUDE":-87.7190617739959},
{"STATE":"IL","ZIP":60614,"LATTITUDE":41.9255723272499,"ADDRESS":"744 W FULLERTON AVE 1ST 1C","YEAR":2008,"DOING_BUSINESS_AS_NAME":"FEDEX KINKO'S #1935","POP_AT_RISK":155026,"BUSINESS_TYPE":"Retail Computing Center","LEGAL_NAME":"FEDEX OFFICE AND PRINT SERVICES, INC.","LONGITUDE":-87.6481109289284},
{"STATE":"IL","ZIP":60661,"LATTITUDE":41.885814492017886,"ADDRESS":"608 W LAKE ST  ","YEAR":2008,"DOING_BUSINESS_AS_NAME":"FEDEX OFFICE AND PRINT SVCS, INC.","POP_AT_RISK":48612,"BUSINESS_TYPE":"Retail Computing Center","LEGAL_NAME":"FEDEX OFFICE AND PRINT SERVICES, INC.","LONGITUDE":-87.64319994224046},
{"STATE":"IL","ZIP":60637,"LATTITUDE":41.79135958090396,"ADDRESS":"1315 E 57TH ST  1","YEAR":2008,"DOING_BUSINESS_AS_NAME":"FEDEX OFFICE AND PRINT SVCS, INC.","POP_AT_RISK":184265,"BUSINESS_TYPE":"Retail Computing Center","LEGAL_NAME":"FEDEX OFFICE AND PRINT SERVICES, INC.","LONGITUDE":-87.59418728522255},
{"STATE":"IL","ZIP":60610,"LATTITUDE":41.90401954694065,"ADDRESS":"1201 N DEARBORN ST  1","YEAR":2008,"DOING_BUSINESS_AS_NAME":"FEDEX OFFICE AND PRINT SVCS, INC.","POP_AT_RISK":224487,"BUSINESS_TYPE":"Retail Computing Center","LEGAL_NAME":"FEDEX OFFICE AND PRINT SERVICES, INC.","LONGITUDE":-87.62984192085615},
{"STATE":"IL","ZIP":60607,"LATTITUDE":41.87653862860462,"ADDRESS":"843 W VAN BUREN ST 1ST ","YEAR":2008,"DOING_BUSINESS_AS_NAME":"FEDEX KINKO'S OFFICE & PRINT SERVICES #3615","POP_AT_RISK":48450,"BUSINESS_TYPE":"Retail Computing Center","LEGAL_NAME":"FEDEX OFFICE AND PRINT SERVICES, INC.","LONGITUDE":-87.64885483251508},
{"STATE":"IL","ZIP":60619,"LATTITUDE":41.743567680303435,"ADDRESS":"33 E 83RD ST 1ST ","YEAR":2008,"DOING_BUSINESS_AS_NAME":"MATHER'S MORE THAN A CAFE","POP_AT_RISK":81714,"BUSINESS_TYPE":"Retail Computing Center","LEGAL_NAME":"MATHER LIFEWAYS COMMUNITY INITIATIVES","LONGITUDE":-87.6229553664139},
{"STATE":"IL","ZIP":60656,"LATTITUDE":41.98100034161097,"ADDRESS":"7134 W HIGGINS AVE 1ST ","YEAR":2008,"DOING_BUSINESS_AS_NAME":"MATHER'S MORE THAN A CAFE","POP_AT_RISK":177684,"BUSINESS_TYPE":"Retail Computing Center","LEGAL_NAME":"MATHER LIFEWAYS COMMUNITY INITIATIVES","LONGITUDE":-87.8059054660053},
{"STATE":"IL","ZIP":60634,"LATTITUDE":41.9396542640577,"ADDRESS":"3235 N CENTRAL AVE 1ST ","YEAR":2008,"DOING_BUSINESS_AS_NAME":"MATHER'S MORE THEN A CAFE","POP_AT_RISK":418208,"BUSINESS_TYPE":"Retail Computing Center","LEGAL_NAME":"MATHER LIFEWAYS COMMUNITY INITIATIVES","LONGITUDE":-87.76639051535662},
{"STATE":"IL","ZIP":60632,"LATTITUDE":41.793358902863275,"ADDRESS":"3315 W 55TH ST 1ST ","YEAR":2008,"DOING_BUSINESS_AS_NAME":"HENRY'S TECHNOLOGY INTERNET CAFE, INC.","POP_AT_RISK":59159,"BUSINESS_TYPE":"Retail Computing Center","LEGAL_NAME":"HENRY'S TECHNOLOGY INTERNET CAFE, INC.","LONGITUDE":-87.70670679266324},
{}]