[
{"STATE":"IL","ZIP":60625,"LATTITUDE":41.96581008115543,"ADDRESS":"4639 N KEDZIE AVE  ","YEAR":2003,"DOING_BUSINESS_AS_NAME":"SHAWARMA KING","POP_AT_RISK":1051557,"BUSINESS_TYPE":"Retail Food Establishment","LEGAL_NAME":"AZZAM TBAKHI","LONGITUDE":-87.70824638504152},
{"STATE":"IL","ZIP":60636,"LATTITUDE":41.788150520767076,"ADDRESS":"5804 S WESTERN AVE  ","YEAR":2003,"DOING_BUSINESS_AS_NAME":"CLOWN'S HOT DOGS","POP_AT_RISK":844144,"BUSINESS_TYPE":"Retail Food Establishment","LEGAL_NAME":"GUS KOUVELIS","LONGITUDE":-87.68402468529148},
{"STATE":"IL","ZIP":60630,"LATTITUDE":41.96597189407212,"ADDRESS":"4716 N MILWAUKEE AVE  ","YEAR":2003,"DOING_BUSINESS_AS_NAME":"HOUSE OF HUNAN","POP_AT_RISK":374598,"BUSINESS_TYPE":"Retail Food Establishment","LEGAL_NAME":"KAN WAY CHAN","LONGITUDE":-87.75928157828317},
{"STATE":"IL","ZIP":60657,"LATTITUDE":41.940219521866084,"ADDRESS":"3204 N BROADWAY  1ST ","YEAR":2003,"DOING_BUSINESS_AS_NAME":"HSY ICECREAM & MORE","POP_AT_RISK":1757300,"BUSINESS_TYPE":"Retail Food Establishment","LEGAL_NAME":"MICHAEL W WU","LONGITUDE":-87.64455219683036},
{"STATE":"IL","ZIP":60653,"LATTITUDE":41.816542586633986,"ADDRESS":"419 E 43RD ST  ","YEAR":2003,"DOING_BUSINESS_AS_NAME":"ALMA'S PLACE","POP_AT_RISK":496210,"BUSINESS_TYPE":"Retail Food Establishment","LEGAL_NAME":"ALMA REE SAIN","LONGITUDE":-87.61567319832027},
{"STATE":"IL","ZIP":60608,"LATTITUDE":41.85809236854504,"ADDRESS":"1134 W 18TH ST  ","YEAR":2003,"DOING_BUSINESS_AS_NAME":"REVOLUCION CAFE AND GRILL","POP_AT_RISK":538398,"BUSINESS_TYPE":"Retail Food Establishment","LEGAL_NAME":"JESUS VASQUEZ","LONGITUDE":-87.65470464143156},
{"STATE":"IL","ZIP":60617,"LATTITUDE":41.74269984844993,"ADDRESS":"8401 S MUSKEGON AVE  ","YEAR":2003,"DOING_BUSINESS_AS_NAME":"LA MODERNA","POP_AT_RISK":166235,"BUSINESS_TYPE":"Retail Food Establishment","LEGAL_NAME":"HECTOR ZAMUDIO","LONGITUDE":-87.55501855817249},
{"STATE":"IL","ZIP":60609,"LATTITUDE":41.82853331319285,"ADDRESS":"3637 S STATE ST 1ST ","YEAR":2003,"DOING_BUSINESS_AS_NAME":"ABUADAS'S FOOD","POP_AT_RISK":282834,"BUSINESS_TYPE":"Retail Food Establishment","LEGAL_NAME":"YASSER ABUADAS","LONGITUDE":-87.6263556588877},
{"STATE":"IL","ZIP":60625,"LATTITUDE":41.972911618595504,"ADDRESS":"5019 N WESTERN AVE  ","YEAR":2003,"DOING_BUSINESS_AS_NAME":"KABOB CORNER PLUS","POP_AT_RISK":322218,"BUSINESS_TYPE":"Retail Food Establishment","LEGAL_NAME":"ALBER E GEORGES","LONGITUDE":-87.68890203932801},
{"STATE":"IL","ZIP":60609,"LATTITUDE":41.808667770562145,"ADDRESS":"1758 W 47TH ST  ","YEAR":2003,"DOING_BUSINESS_AS_NAME":"TAQUERIA MOROLEON","POP_AT_RISK":358450,"BUSINESS_TYPE":"Retail Food Establishment","LEGAL_NAME":"GUADALUPE ROJAS","LONGITUDE":-87.66976890118669},
{"STATE":"IL","ZIP":60651,"LATTITUDE":41.90099231575187,"ADDRESS":"1101 N RIDGEWAY AVE  ","YEAR":2003,"DOING_BUSINESS_AS_NAME":"DEER FOODS, INC.","POP_AT_RISK":536063,"BUSINESS_TYPE":"Retail Food Establishment","LEGAL_NAME":"DEER FOODS, INC.","LONGITUDE":-87.7200119529277},
{"STATE":"IL","ZIP":60640,"LATTITUDE":41.96736229781675,"ADDRESS":"1020 W LELAND AVE  ","YEAR":2003,"DOING_BUSINESS_AS_NAME":"CAATO FOODS INC.","POP_AT_RISK":1141056,"BUSINESS_TYPE":"Retail Food Establishment","LEGAL_NAME":"CAATO FOODS, INC.","LONGITUDE":-87.65566321282995},
{"STATE":"IL","ZIP":60652,"LATTITUDE":41.73880044687521,"ADDRESS":"8451 S PULASKI RD 1ST ","YEAR":2003,"DOING_BUSINESS_AS_NAME":"JED'S PHILIPPINE TRADING","POP_AT_RISK":191052,"BUSINESS_TYPE":"Retail Food Establishment","LEGAL_NAME":"LOVEJOY A MADAYAG","LONGITUDE":-87.72142255898846},
{"STATE":"IL","ZIP":60655,"LATTITUDE":41.69150143605311,"ADDRESS":"3031-3033 W 111TH ST  ","YEAR":2003,"DOING_BUSINESS_AS_NAME":"VEGETARIAN GOURMET EXPRESS","POP_AT_RISK":128358,"BUSINESS_TYPE":"Retail Food Establishment","LEGAL_NAME":"SHOMARI T ASHEBER","LONGITUDE":-87.69723142718472},
{"STATE":"IL","ZIP":60651,"LATTITUDE":41.90229423400523,"ADDRESS":"5418 W DIVISION ST  ","YEAR":2003,"DOING_BUSINESS_AS_NAME":"D.I.V. MINI MART","POP_AT_RISK":745612,"BUSINESS_TYPE":"Retail Food Establishment","LEGAL_NAME":"TERESA L. BELLAMY","LONGITUDE":-87.76175168022696},
{"STATE":"IL","ZIP":60657,"LATTITUDE":41.939570356107744,"ADDRESS":"1629 W BELMONT AVE  ","YEAR":2003,"DOING_BUSINESS_AS_NAME":"SEATTLE SUTTONS HEALTHY EATING","POP_AT_RISK":1334700,"BUSINESS_TYPE":"Retail Food Establishment","LEGAL_NAME":"LORI REBECCA TYBON","LONGITUDE":-87.66983770870691},
{"STATE":"IL","ZIP":60660,"LATTITUDE":41.996072555837806,"ADDRESS":"6258 N CLARK ST  ","YEAR":2003,"DOING_BUSINESS_AS_NAME":"EAST AFRICA RESTURANT","POP_AT_RISK":1909362,"BUSINESS_TYPE":"Retail Food Establishment","LEGAL_NAME":"WALI MOHAMED FARAH","LONGITUDE":-87.67035563206306},
{"STATE":"IL","ZIP":60619,"LATTITUDE":41.76579951274441,"ADDRESS":"1201 E 71ST ST  ","YEAR":2003,"DOING_BUSINESS_AS_NAME":"D & D FAST FOOD","POP_AT_RISK":487071,"BUSINESS_TYPE":"Retail Food Establishment","LEGAL_NAME":"ANDRE GORDON HARRIS","LONGITUDE":-87.59576957772748},
{"STATE":"IL","ZIP":60647,"LATTITUDE":41.91017264385976,"ADDRESS":"2525 W NORTH AVE  ","YEAR":2003,"DOING_BUSINESS_AS_NAME":"LUNA FOOD MART INC.","POP_AT_RISK":1819368,"BUSINESS_TYPE":"Retail Food Establishment","LEGAL_NAME":"LUNA FOOD MART INC.","LONGITUDE":-87.69067799640872},
{"STATE":"IL","ZIP":60624,"LATTITUDE":41.87317660969763,"ADDRESS":"610 S CENTRAL PARK AVE  ","YEAR":2003,"DOING_BUSINESS_AS_NAME":"BOB'S EATERY","POP_AT_RISK":380043,"BUSINESS_TYPE":"Retail Food Establishment","LEGAL_NAME":"ROBERT EDWARD WELLS","LONGITUDE":-87.7157898228953},
{"STATE":"IL","ZIP":60624,"LATTITUDE":41.87891736497124,"ADDRESS":"131 S PULASKI RD  ","YEAR":2003,"DOING_BUSINESS_AS_NAME":"WILCOX CANTEEN INC.","POP_AT_RISK":196730,"BUSINESS_TYPE":"Retail Food Establishment","LEGAL_NAME":"WILCOX CANTEEN INC.","LONGITUDE":-87.72546178408192},
{"STATE":"IL","ZIP":60617,"LATTITUDE":41.73084525367364,"ADDRESS":"9034 S COMMERCIAL AVE  ","YEAR":2003,"DOING_BUSINESS_AS_NAME":"JIMMY'S FAST FOOD INC.","POP_AT_RISK":35404,"BUSINESS_TYPE":"Retail Food Establishment","LEGAL_NAME":"JIMMY'S FAST FOOD INC.","LONGITUDE":-87.55142179860157},
{"STATE":"IL","ZIP":60611,"LATTITUDE":41.89924859703626,"ADDRESS":"900 N MICHIGAN AVE  ","YEAR":2003,"DOING_BUSINESS_AS_NAME":"METROMART NEWSSTAND","POP_AT_RISK":1181768,"BUSINESS_TYPE":"Retail Food Establishment","LEGAL_NAME":"ELECTROCOM ENTERPRISE INC","LONGITUDE":-87.62427497820545},
{"STATE":"IL","ZIP":60602,"LATTITUDE":41.88199229825289,"ADDRESS":"2 N LA SALLE ST  GROUN","YEAR":2003,"DOING_BUSINESS_AS_NAME":"METROMART NEWSSTAND","POP_AT_RISK":263175,"BUSINESS_TYPE":"Retail Food Establishment","LEGAL_NAME":"ELECTROCOM ENTERPRISE INC","LONGITUDE":-87.63250662670102},
{"STATE":"IL","ZIP":60646,"LATTITUDE":41.9877840069617,"ADDRESS":"5844 N MILWAUKEE AVE  ","YEAR":2003,"DOING_BUSINESS_AS_NAME":"AMERICAN ATHLETIC CLUB","POP_AT_RISK":126525,"BUSINESS_TYPE":"Retail Food Establishment","LEGAL_NAME":"AMERICAN ATHLETIC CLUB OF CHICAGO","LONGITUDE":-87.77899396984665},
{}]