[
  {
    "BUSINESS_TYPE": "Massage Therapist", 
    "LEGAL_NAME": "DURON WISE-ARMOUR", 
    "STATE": "IL", 
    "DOING_BUSINESS_AS_NAME": "DURON WISE-ARMOUR", 
    "POP_AT_RISK": 19772, 
    "ZIP": 60643, 
    "ADDRESS": "2039 W 95TH ST  REAR", 
    "YEAR": 2005, 
    "LONGITUDE": -87.673946223, 
    "LATTITUDE": 41.720945958
  }, 
  {
    "BUSINESS_TYPE": "Massage Therapist", 
    "LEGAL_NAME": "OJILVIA AGUIRRE", 
    "STATE": "IL", 
    "DOING_BUSINESS_AS_NAME": "OJILVIA AGUIRRE", 
    "POP_AT_RISK": 55261, 
    "ZIP": 60632, 
    "ADDRESS": "5363 S MAPLEWOOD AVE", 
    "YEAR": 2005, 
    "LONGITUDE": -87.687606668, 
    "LATTITUDE": 41.795620923
  }, 
  {
    "BUSINESS_TYPE": "Massage Therapist", 
    "LEGAL_NAME": "NINA SMOLYAR", 
    "STATE": "IL", 
    "DOING_BUSINESS_AS_NAME": "NINA SMOLYAR", 
    "POP_AT_RISK": 35448, 
    "ZIP": 60025, 
    "ADDRESS": "3014  LEXINGTON LN  CONDO", 
    "YEAR": 2005, 
    "LONGITUDE": -87.701610311, 
    "LATTITUDE": 41.872019743
  }, 
  {
    "BUSINESS_TYPE": "Massage Therapist", 
    "LEGAL_NAME": "TAMELA M. DOUGLAS-FRAZIER", 
    "STATE": "IL", 
    "DOING_BUSINESS_AS_NAME": "TAMELA M. DOUGLAS-FRAZIER", 
    "POP_AT_RISK": 47805, 
    "ZIP": 60651, 
    "ADDRESS": "809 N MENARD AVE", 
    "YEAR": 2005, 
    "LONGITUDE": -87.770123312, 
    "LATTITUDE": 41.89506433
  }, 
  {
    "BUSINESS_TYPE": "Massage Therapist", 
    "LEGAL_NAME": "EDITH PEREZ", 
    "STATE": "IL", 
    "DOING_BUSINESS_AS_NAME": "EDITH PEREZ", 
    "POP_AT_RISK": 45493, 
    "ZIP": 60632, 
    "ADDRESS": "4000 S ROCKWELL ST", 
    "YEAR": 2005, 
    "LONGITUDE": -87.689826892, 
    "LATTITUDE": 41.820991803
  }, 
  {
    "BUSINESS_TYPE": "Massage Therapist", 
    "LEGAL_NAME": "GUSSIE  BRIDGEMAN", 
    "STATE": "IL", 
    "DOING_BUSINESS_AS_NAME": "GUSSIE    BRIDGEMAN", 
    "POP_AT_RISK": 25432, 
    "ZIP": 60628, 
    "ADDRESS": "9956 S LOWE AVE", 
    "YEAR": 2005, 
    "LONGITUDE": -87.639489059, 
    "LATTITUDE": 41.712577033
  }, 
  {
    "BUSINESS_TYPE": "Massage Therapist", 
    "LEGAL_NAME": "GABRIELA H. LOPEZ", 
    "STATE": "IL", 
    "DOING_BUSINESS_AS_NAME": "GABRIELA H. LOPEZ", 
    "POP_AT_RISK": 38502, 
    "ZIP": 60609, 
    "ADDRESS": "5032 S ASHLAND AVE", 
    "YEAR": 2005, 
    "LONGITUDE": -87.66494193, 
    "LATTITUDE": 41.802142459
  }, 
  {
    "BUSINESS_TYPE": "Massage Therapist", 
    "LEGAL_NAME": "ELANDA R BROWN", 
    "STATE": "IL", 
    "DOING_BUSINESS_AS_NAME": "ELANDA R BROWN", 
    "POP_AT_RISK": 39916, 
    "ZIP": 60637, 
    "ADDRESS": "6237 S RHODES AVE", 
    "YEAR": 2005, 
    "LONGITUDE": -87.611894774, 
    "LATTITUDE": 41.781018213
  }, 
  {
    "BUSINESS_TYPE": "Massage Therapist", 
    "LEGAL_NAME": "REGINA M DAVIS", 
    "STATE": "IL", 
    "DOING_BUSINESS_AS_NAME": "REGINA M DAVIS", 
    "POP_AT_RISK": 21920, 
    "ZIP": 60643, 
    "ADDRESS": "1101 W 115TH ST", 
    "YEAR": 2005, 
    "LONGITUDE": -87.649504072, 
    "LATTITUDE": 41.684875077
  }, 
  {
    "BUSINESS_TYPE": "Massage Therapist", 
    "LEGAL_NAME": "ERINN R. COLE", 
    "STATE": "IL", 
    "DOING_BUSINESS_AS_NAME": "ERINN R.COLE", 
    "POP_AT_RISK": 34677, 
    "ZIP": 60619, 
    "ADDRESS": "7711 S PRAIRIE AVE", 
    "YEAR": 2005, 
    "LONGITUDE": -87.618079857, 
    "LATTITUDE": 41.754333843
  }, 
  {
    "BUSINESS_TYPE": "Massage Therapist", 
    "LEGAL_NAME": "DANGUOLE VILKIENE", 
    "STATE": "IL", 
    "DOING_BUSINESS_AS_NAME": "DANGUOLE VILKIENE", 
    "POP_AT_RISK": 28456, 
    "ZIP": 60559, 
    "ADDRESS": "604 W 65TH ST  1", 
    "YEAR": 2005, 
    "LONGITUDE": -87.63997959, 
    "LATTITUDE": 41.776281618
  }, 
  {
    "BUSINESS_TYPE": "Massage Therapist", 
    "LEGAL_NAME": "TINA ADDISON", 
    "STATE": "IN", 
    "DOING_BUSINESS_AS_NAME": "TINA ADDISON", 
    "POP_AT_RISK": 27493, 
    "ZIP": 46410, 
    "ADDRESS": "3942 W 79TH CT  30", 
    "YEAR": 2005, 
    "LONGITUDE": -87.721836296, 
    "LATTITUDE": 41.749681441
  }, 
  {
    "BUSINESS_TYPE": "Massage Therapist", 
    "LEGAL_NAME": "VALERIE JEAN DAVIS", 
    "STATE": "IL", 
    "DOING_BUSINESS_AS_NAME": "VALERIE DAVIS", 
    "POP_AT_RISK": 46033, 
    "ZIP": 60620, 
    "ADDRESS": "7738 S BISHOP ST  1ST", 
    "YEAR": 2005, 
    "LONGITUDE": -87.660408583, 
    "LATTITUDE": 41.752875547
  }, 
  {
    "BUSINESS_TYPE": "Massage Therapist", 
    "LEGAL_NAME": "NKEM E. UWAGBOI", 
    "STATE": "IL", 
    "DOING_BUSINESS_AS_NAME": "NKEM UWAGBOI", 
    "POP_AT_RISK": 32160, 
    "ZIP": 60617, 
    "ADDRESS": "8513 S ESCANABA AVE  2N", 
    "YEAR": 2005, 
    "LONGITUDE": -87.553771617, 
    "LATTITUDE": 41.740559405
  }, 
  {
    "BUSINESS_TYPE": "Massage Therapist", 
    "LEGAL_NAME": "MARILYN G HENRY", 
    "STATE": "IL", 
    "DOING_BUSINESS_AS_NAME": "MARILYN G HENRY", 
    "POP_AT_RISK": 14869, 
    "ZIP": 60646, 
    "ADDRESS": "6338 N LENOX AVE 1ST", 
    "YEAR": 2005, 
    "LONGITUDE": -87.753023117, 
    "LATTITUDE": 41.996504621
  }, 
  {
    "BUSINESS_TYPE": "Massage Therapist", 
    "LEGAL_NAME": "TAMMY LYNN SMITH", 
    "STATE": "IL", 
    "DOING_BUSINESS_AS_NAME": "TAMMY LYNN SMITH", 
    "POP_AT_RISK": 26262, 
    "ZIP": 60415, 
    "ADDRESS": "10500  FOREST LN", 
    "YEAR": 2005, 
    "LONGITUDE": -87.616249896, 
    "LATTITUDE": 41.703534753
  }, 
  {
    "BUSINESS_TYPE": "Massage Therapist", 
    "LEGAL_NAME": "RENATA ZALECKI", 
    "STATE": "IL", 
    "DOING_BUSINESS_AS_NAME": "RENATA ZALECKI", 
    "POP_AT_RISK": 24933, 
    "ZIP": 60656, 
    "ADDRESS": "8301 W BALMORAL AVE", 
    "YEAR": 2005, 
    "LONGITUDE": -87.834192237, 
    "LATTITUDE": 41.977969742
  }, 
  {
    "BUSINESS_TYPE": "Massage Therapist", 
    "LEGAL_NAME": "VALERIE DANGLES", 
    "STATE": "IL", 
    "DOING_BUSINESS_AS_NAME": "VALERIE DANGLES", 
    "POP_AT_RISK": 19004, 
    "ZIP": 60655, 
    "ADDRESS": "10721 S CHRISTIANA AVE # 1ST", 
    "YEAR": 2005, 
    "LONGITUDE": -87.704658522, 
    "LATTITUDE": 41.698208748
  }, 
  {
    "BUSINESS_TYPE": "Massage Therapist", 
    "LEGAL_NAME": "ZBIGNIEW CHUCHRA", 
    "STATE": "IL", 
    "DOING_BUSINESS_AS_NAME": "ZBIGNIEW CHUCHRA", 
    "POP_AT_RISK": 30221, 
    "ZIP": 60632, 
    "ADDRESS": "3847 W 47TH ST", 
    "YEAR": 2005, 
    "LONGITUDE": -87.720546079, 
    "LATTITUDE": 41.807798847
  }, 
  {
    "BUSINESS_TYPE": "Massage Therapist", 
    "LEGAL_NAME": "PATRICIA BERNADETTE SWISTOWICZ", 
    "STATE": "IL", 
    "DOING_BUSINESS_AS_NAME": "PATRICIA SWISTOWICZ", 
    "POP_AT_RISK": 15425, 
    "ZIP": 60655, 
    "ADDRESS": "11450 S DRAKE AVE", 
    "YEAR": 2005, 
    "LONGITUDE": -87.709268167, 
    "LATTITUDE": 41.685148845
  }, 
  {
    "BUSINESS_TYPE": "Massage Therapist", 
    "LEGAL_NAME": "ANDREA V JACKSON", 
    "STATE": "IL", 
    "DOING_BUSINESS_AS_NAME": "ANDREA V JACKSON", 
    "POP_AT_RISK": 58113, 
    "ZIP": 60651, 
    "ADDRESS": "1149 N KEYSTONE AVE", 
    "YEAR": 2005, 
    "LONGITUDE": -87.72737342, 
    "LATTITUDE": 41.902328547
  }, 
  {
    "BUSINESS_TYPE": "Massage Therapist", 
    "LEGAL_NAME": "CYNTHIA C MACK", 
    "STATE": "IL", 
    "DOING_BUSINESS_AS_NAME": "CYNTHIA C MACK", 
    "POP_AT_RISK": 40261, 
    "ZIP": 60624, 
    "ADDRESS": "4437 W WEST END AVE  1ST", 
    "YEAR": 2005, 
    "LONGITUDE": -87.737083485, 
    "LATTITUDE": 41.883117269
  }, 
  {
    "BUSINESS_TYPE": "Massage Therapist", 
    "LEGAL_NAME": "IRVINE MIA PASQUIER", 
    "STATE": "IL", 
    "DOING_BUSINESS_AS_NAME": "IRVINE M PASQUIER", 
    "POP_AT_RISK": 26135, 
    "ZIP": 60617, 
    "ADDRESS": "9350 S COLFAX AVE", 
    "YEAR": 2005, 
    "LONGITUDE": -87.560921392, 
    "LATTITUDE": 41.724805152
  }, 
  {
    "BUSINESS_TYPE": "Massage Therapist", 
    "LEGAL_NAME": "ALLISON A LISKH", 
    "STATE": "IL", 
    "DOING_BUSINESS_AS_NAME": "ALLISON A  LISKH", 
    "POP_AT_RISK": 30255, 
    "ZIP": 60629, 
    "ADDRESS": "6854 S TRIPP AVE", 
    "YEAR": 2005, 
    "LONGITUDE": -87.728730056, 
    "LATTITUDE": 41.76784654
  }, 
  {
    "BUSINESS_TYPE": "Massage Therapist", 
    "LEGAL_NAME": "BERNADETTE PENNY", 
    "STATE": "IL", 
    "DOING_BUSINESS_AS_NAME": "BERNADETTE PENNY", 
    "POP_AT_RISK": 42005, 
    "ZIP": 60629, 
    "ADDRESS": "7336 S ARTESIAN AVE", 
    "YEAR": 2005, 
    "LONGITUDE": -87.684482591, 
    "LATTITUDE": 41.759919452
  }, 
  {
    "BUSINESS_TYPE": "Massage Therapist", 
    "LEGAL_NAME": "JENNIFER D. JACKSON", 
    "STATE": "IL", 
    "DOING_BUSINESS_AS_NAME": "JENNIFER D. JACKSON", 
    "POP_AT_RISK": 23144, 
    "ZIP": 60628, 
    "ADDRESS": "12125 S HARVARD AVE", 
    "YEAR": 2005, 
    "LONGITUDE": -87.630794356, 
    "LATTITUDE": 41.673541173
  }
]