[
  {
    "BUSINESS_TYPE": "Massage Therapist", 
    "LEGAL_NAME": "JOANETTE CATINO", 
    "STATE": "IL", 
    "DOING_BUSINESS_AS_NAME": "JOANETTE CATINO", 
    "POP_AT_RISK": 18537, 
    "ZIP": 60609, 
    "ADDRESS": "4205 S LOWE AVE  1ST", 
    "YEAR": 2002, 
    "LONGITUDE": -87.641965786, 
    "LATTITUDE": 41.817426493
  }, 
  {
    "BUSINESS_TYPE": "Massage Therapist", 
    "LEGAL_NAME": "VAIDA WOLYNIEC", 
    "STATE": "IL", 
    "DOING_BUSINESS_AS_NAME": "VAIDA WOLYNIEC", 
    "POP_AT_RISK": 26354, 
    "ZIP": 60638, 
    "ADDRESS": "5711 S MEADE AVE", 
    "YEAR": 2002, 
    "LONGITUDE": -87.774198627, 
    "LATTITUDE": 41.788452274
  }, 
  {
    "BUSINESS_TYPE": "Massage Therapist", 
    "LEGAL_NAME": "RENATA ZALECKI", 
    "STATE": "IL", 
    "DOING_BUSINESS_AS_NAME": "RENATA ZALECKI", 
    "POP_AT_RISK": 24933, 
    "ZIP": 60656, 
    "ADDRESS": "8301 W BALMORAL AVE", 
    "YEAR": 2002, 
    "LONGITUDE": -87.834192237, 
    "LATTITUDE": 41.977969742
  }, 
  {
    "BUSINESS_TYPE": "Massage Therapist", 
    "LEGAL_NAME": "VIRGINIA ALLEN", 
    "STATE": "IL", 
    "DOING_BUSINESS_AS_NAME": "VIRGINIA  ALLEN", 
    "POP_AT_RISK": 41718, 
    "ZIP": 60637, 
    "ADDRESS": "5550 S DORCHESTER AVE  903", 
    "YEAR": 2002, 
    "LONGITUDE": -87.591793818, 
    "LATTITUDE": 41.793615165
  }, 
  {
    "BUSINESS_TYPE": "Massage Therapist", 
    "LEGAL_NAME": "NATASHA THURMAN", 
    "STATE": "IL", 
    "DOING_BUSINESS_AS_NAME": "NATASHA THURMAN", 
    "POP_AT_RISK": 36591, 
    "ZIP": 60619, 
    "ADDRESS": "7415 S DR MARTIN LUTHER KING JR DR", 
    "YEAR": 2002, 
    "LONGITUDE": -87.615006408, 
    "LATTITUDE": 41.759747866
  }, 
  {
    "BUSINESS_TYPE": "Massage Therapist", 
    "LEGAL_NAME": "SHERIE KAYE ARMSTRONG", 
    "STATE": "IL", 
    "DOING_BUSINESS_AS_NAME": "SHERIE KAYE ARMSTRONG", 
    "POP_AT_RISK": 39698, 
    "ZIP": 60620, 
    "ADDRESS": "7758 S DAMEN AVE", 
    "YEAR": 2002, 
    "LONGITUDE": -87.673330928, 
    "LATTITUDE": 41.752140344
  }, 
  {
    "BUSINESS_TYPE": "Massage Therapist", 
    "LEGAL_NAME": "MARIANNE LOPEZ", 
    "STATE": "IL", 
    "DOING_BUSINESS_AS_NAME": "MARIANNE LOPEZ", 
    "POP_AT_RISK": 36064, 
    "ZIP": 60632, 
    "ADDRESS": "4437 S HOMAN AVE", 
    "YEAR": 2002, 
    "LONGITUDE": -87.708905335, 
    "LATTITUDE": 41.812506912
  }, 
  {
    "BUSINESS_TYPE": "Massage Therapist", 
    "LEGAL_NAME": "REGINA M DAVIS", 
    "STATE": "IL", 
    "DOING_BUSINESS_AS_NAME": "REGINA M DAVIS", 
    "POP_AT_RISK": 21920, 
    "ZIP": 60643, 
    "ADDRESS": "1101 W 115TH ST", 
    "YEAR": 2002, 
    "LONGITUDE": -87.649504072, 
    "LATTITUDE": 41.684875077
  }, 
  {
    "BUSINESS_TYPE": "Massage Therapist", 
    "LEGAL_NAME": "CARRIE N HOWARD", 
    "STATE": "IL", 
    "DOING_BUSINESS_AS_NAME": "CARRIE N HOWARD", 
    "POP_AT_RISK": 34872, 
    "ZIP": 60617, 
    "ADDRESS": "8521 S JEFFERY BLVD", 
    "YEAR": 2002, 
    "LONGITUDE": -87.575619468, 
    "LATTITUDE": 41.740039967
  }, 
  {
    "BUSINESS_TYPE": "Massage Therapist", 
    "LEGAL_NAME": "ALEJANDRO AVALOS JR.", 
    "STATE": "IL", 
    "DOING_BUSINESS_AS_NAME": "ALEJANDRO  AVALOS JR.", 
    "POP_AT_RISK": 54285, 
    "ZIP": 60623, 
    "ADDRESS": "2717 S CHRISTIANA AVE", 
    "YEAR": 2002, 
    "LONGITUDE": -87.708480341, 
    "LATTITUDE": 41.842099716
  }, 
  {
    "BUSINESS_TYPE": "Massage Therapist", 
    "LEGAL_NAME": "DENNIS M. GRANNAN", 
    "STATE": "IL", 
    "DOING_BUSINESS_AS_NAME": "DENNIS M. GRANNAN", 
    "POP_AT_RISK": 41499, 
    "ZIP": 60201, 
    "ADDRESS": "3437 W HARRISON", 
    "YEAR": 2002, 
    "LONGITUDE": -87.71226467, 
    "LATTITUDE": 41.873500872
  }, 
  {
    "BUSINESS_TYPE": "Massage Therapist", 
    "LEGAL_NAME": "VALERIE JEAN DAVIS", 
    "STATE": "IL", 
    "DOING_BUSINESS_AS_NAME": "VALERIE DAVIS", 
    "POP_AT_RISK": 46033, 
    "ZIP": 60620, 
    "ADDRESS": "7738 S BISHOP ST  1ST", 
    "YEAR": 2002, 
    "LONGITUDE": -87.660408583, 
    "LATTITUDE": 41.752875547
  }, 
  {
    "BUSINESS_TYPE": "Massage Therapist", 
    "LEGAL_NAME": "NORMAN WINKFIELD", 
    "STATE": "IL", 
    "DOING_BUSINESS_AS_NAME": "NORMAN WINKFIELD", 
    "POP_AT_RISK": 41251, 
    "ZIP": 60620, 
    "ADDRESS": "8001 S LAFLIN ST", 
    "YEAR": 2002, 
    "LONGITUDE": -87.660818053, 
    "LATTITUDE": 41.748481615
  }, 
  {
    "BUSINESS_TYPE": "Massage Therapist", 
    "LEGAL_NAME": "JULIA M CHANDLER", 
    "STATE": "IL", 
    "DOING_BUSINESS_AS_NAME": "JULIA M CHANDLER", 
    "POP_AT_RISK": 6628, 
    "ZIP": 60633, 
    "ADDRESS": "13455 S BUFFALO AVE", 
    "YEAR": 2002, 
    "LONGITUDE": -87.543368023, 
    "LATTITUDE": 41.650227464
  }, 
  {
    "BUSINESS_TYPE": "Massage Therapist", 
    "LEGAL_NAME": "MARILYN G HENRY", 
    "STATE": "IL", 
    "DOING_BUSINESS_AS_NAME": "MARILYN G HENRY", 
    "POP_AT_RISK": 14869, 
    "ZIP": 60646, 
    "ADDRESS": "6338 N LENOX AVE 1ST", 
    "YEAR": 2002, 
    "LONGITUDE": -87.753023117, 
    "LATTITUDE": 41.996504621
  }, 
  {
    "BUSINESS_TYPE": "Massage Therapist", 
    "LEGAL_NAME": "TAMMY LYNN SMITH", 
    "STATE": "IL", 
    "DOING_BUSINESS_AS_NAME": "TAMMY LYNN SMITH", 
    "POP_AT_RISK": 26262, 
    "ZIP": 60415, 
    "ADDRESS": "10500  FOREST LN", 
    "YEAR": 2002, 
    "LONGITUDE": -87.616249896, 
    "LATTITUDE": 41.703534753
  }, 
  {
    "BUSINESS_TYPE": "Massage Therapist", 
    "LEGAL_NAME": "KARIN ELIZABETH PETERSON", 
    "STATE": "IL", 
    "DOING_BUSINESS_AS_NAME": "KARIN ELIZABETH PETERSON", 
    "POP_AT_RISK": 44038, 
    "ZIP": 60608, 
    "ADDRESS": "1639 S FAIRFIELD AVE 1ST", 
    "YEAR": 2002, 
    "LONGITUDE": -87.694262944, 
    "LATTITUDE": 41.858069799
  }, 
  {
    "BUSINESS_TYPE": "Massage Therapist", 
    "LEGAL_NAME": "ROMAN SUKALSKI", 
    "STATE": "IL", 
    "DOING_BUSINESS_AS_NAME": "ROMAN SUKALSKI", 
    "POP_AT_RISK": 42094, 
    "ZIP": 60629, 
    "ADDRESS": "5609 S KILDARE AVE 1ST", 
    "YEAR": 2002, 
    "LONGITUDE": -87.730301253, 
    "LATTITUDE": 41.791010166
  }, 
  {
    "BUSINESS_TYPE": "Massage Therapist", 
    "LEGAL_NAME": "DIONDA SHANTE JOHNSON - PUMPHREY", 
    "STATE": "IL", 
    "DOING_BUSINESS_AS_NAME": "DIONDA  JOHNSON - PUMPHERY", 
    "POP_AT_RISK": 41794, 
    "ZIP": 60649, 
    "ADDRESS": "7519 S ESSEX AVE  1", 
    "YEAR": 2002, 
    "LONGITUDE": -87.563789048, 
    "LATTITUDE": 41.758422635
  }, 
  {
    "BUSINESS_TYPE": "Massage Therapist", 
    "LEGAL_NAME": "CLAUDIA L. PETRIE", 
    "STATE": "IL", 
    "DOING_BUSINESS_AS_NAME": "CLAUDIA L. PETRIE", 
    "POP_AT_RISK": 15272, 
    "ZIP": 60631, 
    "ADDRESS": "7228 W FITCH AVE 1ST", 
    "YEAR": 2002, 
    "LONGITUDE": -87.807807217, 
    "LATTITUDE": 42.010894744
  }, 
  {
    "BUSINESS_TYPE": "Massage Therapist", 
    "LEGAL_NAME": "KATICA DJULABIC", 
    "STATE": "IL", 
    "DOING_BUSINESS_AS_NAME": "KATICA DJULABIC", 
    "POP_AT_RISK": 24497, 
    "ZIP": 60617, 
    "ADDRESS": "10710 S AVENUE O   1", 
    "YEAR": 2002, 
    "LONGITUDE": -87.540234161, 
    "LATTITUDE": 41.700573967
  }, 
  {
    "BUSINESS_TYPE": "Massage Therapist", 
    "LEGAL_NAME": "JURATE EINORIS", 
    "STATE": "IL", 
    "DOING_BUSINESS_AS_NAME": "JURATE  EINORIS", 
    "POP_AT_RISK": 60878, 
    "ZIP": 60632, 
    "ADDRESS": "5337 S FAIRFIELD AVE", 
    "YEAR": 2002, 
    "LONGITUDE": -87.692502354, 
    "LATTITUDE": 41.796253192
  }, 
  {
    "BUSINESS_TYPE": "Massage Therapist", 
    "LEGAL_NAME": "MARSHA B CAMPBELL", 
    "STATE": "IL", 
    "DOING_BUSINESS_AS_NAME": "MARSHA B CAMPBELL", 
    "POP_AT_RISK": 29177, 
    "ZIP": 60644, 
    "ADDRESS": "5223 W LEXINGTON ST", 
    "YEAR": 2002, 
    "LONGITUDE": -87.755688427, 
    "LATTITUDE": 41.870932612
  }, 
  {
    "BUSINESS_TYPE": "Massage Therapist", 
    "LEGAL_NAME": "NACHA LATRICE FORD", 
    "STATE": "IL", 
    "DOING_BUSINESS_AS_NAME": "NACHA LATRICE FORD", 
    "POP_AT_RISK": 34291, 
    "ZIP": 60651, 
    "ADDRESS": "1059 N MAYFIELD AVE", 
    "YEAR": 2002, 
    "LONGITUDE": -87.772730045, 
    "LATTITUDE": 41.900124059
  }, 
  {
    "BUSINESS_TYPE": "Massage Therapist", 
    "LEGAL_NAME": "CYNTHIA C MACK", 
    "STATE": "IL", 
    "DOING_BUSINESS_AS_NAME": "CYNTHIA C MACK", 
    "POP_AT_RISK": 40261, 
    "ZIP": 60624, 
    "ADDRESS": "4437 W WEST END AVE  1ST", 
    "YEAR": 2002, 
    "LONGITUDE": -87.737083485, 
    "LATTITUDE": 41.883117269
  }, 
  {
    "BUSINESS_TYPE": "Massage Therapist", 
    "LEGAL_NAME": "RHONDA JOHNSON", 
    "STATE": "IL", 
    "DOING_BUSINESS_AS_NAME": "RHONDA JOHNSON", 
    "POP_AT_RISK": 30889, 
    "ZIP": 60653, 
    "ADDRESS": "3550 S RHODES AVE 1ST", 
    "YEAR": 2002, 
    "LONGITUDE": -87.61459953, 
    "LATTITUDE": 41.829657195
  }, 
  {
    "BUSINESS_TYPE": "Massage Therapist", 
    "LEGAL_NAME": "ANITRA C. HUTCHERSON", 
    "STATE": "IL", 
    "DOING_BUSINESS_AS_NAME": "ANITRA HUTCHERSON", 
    "POP_AT_RISK": 27326, 
    "ZIP": 60628, 
    "ADDRESS": "10502 S UNION AVE", 
    "YEAR": 2002, 
    "LONGITUDE": -87.64043583, 
    "LATTITUDE": 41.703103738
  }, 
  {
    "BUSINESS_TYPE": "Massage Therapist", 
    "LEGAL_NAME": "AUGUSTUS WILSON JR", 
    "STATE": "IL", 
    "DOING_BUSINESS_AS_NAME": "AUGUSTUS WILSON JR", 
    "POP_AT_RISK": 23501, 
    "ZIP": 60652, 
    "ADDRESS": "4232 W 77TH ST  207", 
    "YEAR": 2002, 
    "LONGITUDE": -87.727995653, 
    "LATTITUDE": 41.753902522
  }, 
  {
    "BUSINESS_TYPE": "Massage Therapist", 
    "LEGAL_NAME": "WANDA BOLTON", 
    "STATE": "IL", 
    "DOING_BUSINESS_AS_NAME": "WANDA BOLTON", 
    "POP_AT_RISK": 27893, 
    "ZIP": 60615, 
    "ADDRESS": "114 E 50TH ST  2", 
    "YEAR": 2002, 
    "LONGITUDE": -87.621977903, 
    "LATTITUDE": 41.80394163
  }, 
  {
    "BUSINESS_TYPE": "Massage Therapist", 
    "LEGAL_NAME": "CARLA DENISE FOREMAN", 
    "STATE": "IL", 
    "DOING_BUSINESS_AS_NAME": "CARLA DENISE FOREMAN", 
    "POP_AT_RISK": 22103, 
    "ZIP": 60643, 
    "ADDRESS": "9963 S PROSPECT AVE", 
    "YEAR": 2002, 
    "LONGITUDE": -87.662652584, 
    "LATTITUDE": 41.712235493
  }, 
  {
    "BUSINESS_TYPE": "Massage Therapist", 
    "LEGAL_NAME": "ELIZABETH JACKSON- DISMUKE", 
    "STATE": "IL", 
    "DOING_BUSINESS_AS_NAME": "ELIZABETH JACKSON- DISMUKE", 
    "POP_AT_RISK": 18730, 
    "ZIP": 60628, 
    "ADDRESS": "12630 S EDBROOKE AVE", 
    "YEAR": 2002, 
    "LONGITUDE": -87.618851763, 
    "LATTITUDE": 41.664098577
  }, 
  {
    "BUSINESS_TYPE": "Massage Therapist", 
    "LEGAL_NAME": "ALMEDA MC PHERSON", 
    "STATE": "IL", 
    "DOING_BUSINESS_AS_NAME": "ALMEDA MC PHERSON", 
    "POP_AT_RISK": 27094, 
    "ZIP": 60628, 
    "ADDRESS": "9833 S MICHIGAN AVE", 
    "YEAR": 2002, 
    "LONGITUDE": -87.620318852, 
    "LATTITUDE": 41.715330086
  }, 
  {
    "BUSINESS_TYPE": "Massage Therapist", 
    "LEGAL_NAME": "MARIBEL CASTRO", 
    "STATE": "IL", 
    "DOING_BUSINESS_AS_NAME": "MARIBEL CASTRO", 
    "POP_AT_RISK": 37657, 
    "ZIP": 60623, 
    "ADDRESS": "4353 W 25TH PL", 
    "YEAR": 2002, 
    "LONGITUDE": -87.733107285, 
    "LATTITUDE": 41.84493664
  }, 
  {
    "BUSINESS_TYPE": "Massage Therapist", 
    "LEGAL_NAME": "CHRISTINE WASHINGTON", 
    "STATE": "IL", 
    "DOING_BUSINESS_AS_NAME": "CHRISTINE WASHINGTON, CMT", 
    "POP_AT_RISK": 29986, 
    "ZIP": 60619, 
    "ADDRESS": "515 E 88TH ST", 
    "YEAR": 2002, 
    "LONGITUDE": -87.611402005, 
    "LATTITUDE": 41.734616475
  }, 
  {
    "BUSINESS_TYPE": "Massage Therapist", 
    "LEGAL_NAME": "MARY SABATINO", 
    "STATE": "IL", 
    "DOING_BUSINESS_AS_NAME": "MARY  SABATINO", 
    "POP_AT_RISK": 30396, 
    "ZIP": 60609, 
    "ADDRESS": "1951 W 38TH ST", 
    "YEAR": 2002, 
    "LONGITUDE": -87.674733748, 
    "LATTITUDE": 41.824813117
  }
]