[
{"STATE":"IL","ZIP":60639,"LATTITUDE":41.924273889407615,"ADDRESS":"5018 W FULLERTON AVE  MAIN","YEAR":2007,"DOING_BUSINESS_AS_NAME":"FOUR BOYS LABOR SERVICE","POP_AT_RISK":147280,"BUSINESS_TYPE":"Day Labor Agency","LEGAL_NAME":"SMRJ, INC.","LONGITUDE":-87.752038845423},
{"STATE":"IL","ZIP":60625,"LATTITUDE":41.96139887311322,"ADDRESS":"4406 N KEDZIE AVE  ","YEAR":2007,"DOING_BUSINESS_AS_NAME":"ASSIST, INC.","POP_AT_RISK":297364,"BUSINESS_TYPE":"Day Labor Agency","LEGAL_NAME":"ASSIST, INC.","LONGITUDE":-87.70840260526055},
{"STATE":"IL","ZIP":60639,"LATTITUDE":41.917045522183265,"ADDRESS":"4019 W ARMITAGE AVE  ","YEAR":2007,"DOING_BUSINESS_AS_NAME":"ALL WORK, INC","POP_AT_RISK":222555,"BUSINESS_TYPE":"Day Labor Agency","LEGAL_NAME":"ALL-WORK  INC.","LONGITUDE":-87.7274427108034},
{"STATE":"IL","ZIP":60641,"LATTITUDE":41.958488691641136,"ADDRESS":"4255 N MILWAUKEE AVE 1ST ","YEAR":2007,"DOING_BUSINESS_AS_NAME":"ANDREW'S STAFFING","POP_AT_RISK":113112,"BUSINESS_TYPE":"Day Labor Agency","LEGAL_NAME":"ALLSTAFF, INC.","LONGITUDE":-87.75244686450957},
{"STATE":"IL","ZIP":60641,"LATTITUDE":41.93630787916192,"ADDRESS":"3031 N PULASKI RD  ","YEAR":2007,"DOING_BUSINESS_AS_NAME":"CLEARSTAFF, INC.","POP_AT_RISK":68230,"BUSINESS_TYPE":"Day Labor Agency","LEGAL_NAME":"STAFF ONE, INC","LONGITUDE":-87.72695732800902},
{"STATE":"IL","ZIP":60608,"LATTITUDE":41.857860498679294,"ADDRESS":"1157 W 18TH ST  ","YEAR":2007,"DOING_BUSINESS_AS_NAME":"LABOR TEMPS INC","POP_AT_RISK":326384,"BUSINESS_TYPE":"Day Labor Agency","LEGAL_NAME":"LABOR TEMPS INC","LONGITUDE":-87.65542558893371},
{"STATE":"IL","ZIP":60647,"LATTITUDE":41.921210945593764,"ADDRESS":"2147 N WESTERN AVE  ","YEAR":2007,"DOING_BUSINESS_AS_NAME":"LABOR TEMPS INC","POP_AT_RISK":255660,"BUSINESS_TYPE":"Day Labor Agency","LEGAL_NAME":"LABOR TEMPS INC","LONGITUDE":-87.68738061501521},
{"STATE":"IL","ZIP":60647,"LATTITUDE":41.92335589370734,"ADDRESS":"2313 N MILWAUKEE AVE  ","YEAR":2007,"DOING_BUSINESS_AS_NAME":"SURESTAFF INC","POP_AT_RISK":135416,"BUSINESS_TYPE":"Day Labor Agency","LEGAL_NAME":"SURESTAFF, INC.","LONGITUDE":-87.69785017026875},
{"STATE":"IL","ZIP":60623,"LATTITUDE":41.84403422163486,"ADDRESS":"4333 W 26TH ST  ","YEAR":2007,"DOING_BUSINESS_AS_NAME":"TEMPS PDQ","POP_AT_RISK":45902,"BUSINESS_TYPE":"Day Labor Agency","LEGAL_NAME":"TEMPS  P.D.Q., INC","LONGITUDE":-87.73234207594318},
{"STATE":"IL","ZIP":60623,"LATTITUDE":41.84242320635649,"ADDRESS":"2700 S LAWNDALE AVE 1ST ","YEAR":2007,"DOING_BUSINESS_AS_NAME":"CUSTOM STAFFING INC","POP_AT_RISK":63898,"BUSINESS_TYPE":"Day Labor Agency","LEGAL_NAME":"CUSTOM STAFFING, INC","LONGITUDE":-87.71732389772104},
{"STATE":"IL","ZIP":60639,"LATTITUDE":41.922374478959746,"ADDRESS":"6336 W GRAND AVE  ","YEAR":2007,"DOING_BUSINESS_AS_NAME":"LABOR SOLUTIONS","POP_AT_RISK":247615,"BUSINESS_TYPE":"Day Labor Agency","LEGAL_NAME":"LABOR SOLUTIONS, LLC","LONGITUDE":-87.78418729537402},
{"STATE":"IL","ZIP":60630,"LATTITUDE":41.98220597103919,"ADDRESS":"5526 N MILWAUKEE AVE  ","YEAR":2007,"DOING_BUSINESS_AS_NAME":"EXPRESS PERSONNEL SERVICES","POP_AT_RISK":165282,"BUSINESS_TYPE":"Day Labor Agency","LEGAL_NAME":"RYAN EMPLOYMENT, INC.","LONGITUDE":-87.77388431422818},
{"STATE":"IL","ZIP":60631,"LATTITUDE":41.98119839122929,"ADDRESS":"8410 W BRYN MAWR AVE  ","YEAR":2007,"DOING_BUSINESS_AS_NAME":"FURST STAFFING","POP_AT_RISK":161688,"BUSINESS_TYPE":"Day Labor Agency","LEGAL_NAME":"FURST SERVICES COMPANY","LONGITUDE":-87.83723872496944},
{"STATE":"IL","ZIP":60625,"LATTITUDE":41.97183282242704,"ADDRESS":"4953 N KEDZIE AVE 1 ","YEAR":2007,"DOING_BUSINESS_AS_NAME":"ELITE STAFFING, INC.","POP_AT_RISK":287724,"BUSINESS_TYPE":"Day Labor Agency","LEGAL_NAME":"ELITE LABOR SERVICES, LTD.","LONGITUDE":-87.70842384864491},
{"STATE":"IL","ZIP":60647,"LATTITUDE":41.91728464388116,"ADDRESS":"3215 W ARMITAGE AVE  ","YEAR":2007,"DOING_BUSINESS_AS_NAME":"ELITE LABOR SERVICES, LTD.","POP_AT_RISK":223923,"BUSINESS_TYPE":"Day Labor Agency","LEGAL_NAME":"ELITE LABOR SERVICES, LTD.","LONGITUDE":-87.7076145512335},
{"STATE":"IL","ZIP":60617,"LATTITUDE":41.70373450399325,"ADDRESS":"10526 S EWING AVE 1ST ","YEAR":2007,"DOING_BUSINESS_AS_NAME":"PRONTO STAFFING SERVICES INC","POP_AT_RISK":109765,"BUSINESS_TYPE":"Day Labor Agency","LEGAL_NAME":"PRONTO STAFFING SERVICES INC","LONGITUDE":-87.53543154188513},
{"STATE":"IL","ZIP":60608,"LATTITUDE":41.85772967449894,"ADDRESS":"2134 W 18TH ST 1 ","YEAR":2007,"DOING_BUSINESS_AS_NAME":"PREMIER STAFFING SERVICES","POP_AT_RISK":37210,"BUSINESS_TYPE":"Day Labor Agency","LEGAL_NAME":"PREMIER MANAGEMENT SYSTEMS CORP.","LONGITUDE":-87.6798174685405},
{"STATE":"IL","ZIP":60609,"LATTITUDE":41.80860618877574,"ADDRESS":"1237 W 47TH ST 1 ","YEAR":2007,"DOING_BUSINESS_AS_NAME":"STAFFING NETWORK","POP_AT_RISK":410189,"BUSINESS_TYPE":"Day Labor Agency","LEGAL_NAME":"STAFFING NETWORK HOLDINGS, L.L.C.","LONGITUDE":-87.65660836045107},
{"STATE":"IL","ZIP":60632,"LATTITUDE":41.793596916417194,"ADDRESS":"3244-3248 W 55TH ST 1ST ","YEAR":2007,"DOING_BUSINESS_AS_NAME":"ELITE LABOR SERVICES ON 55TH, LTD.","POP_AT_RISK":434744,"BUSINESS_TYPE":"Day Labor Agency","LEGAL_NAME":"ELITE LABOR SERVICES ON 55TH, LTD.","LONGITUDE":-87.70531638023938},
{"STATE":"IL","ZIP":60639,"LATTITUDE":41.931207419922025,"ADDRESS":"5445 W DIVERSEY AVE  1","YEAR":2007,"DOING_BUSINESS_AS_NAME":"INDUSTRIAL LABOR SERVICES","POP_AT_RISK":66927,"BUSINESS_TYPE":"Day Labor Agency","LEGAL_NAME":"INDUSTRIAL STAFFING SERVICES, INC.","LONGITUDE":-87.76317346823909},
{"STATE":"IL","ZIP":60618,"LATTITUDE":41.96115384522803,"ADDRESS":"3648 - 3650 W MONTROSE AVE  ","YEAR":2007,"DOING_BUSINESS_AS_NAME":"ELITE LABOR SERVICES LIMITED","POP_AT_RISK":73492,"BUSINESS_TYPE":"Day Labor Agency","LEGAL_NAME":"ELITE LABOR SERVICES ON MONTROSE, LTD.","LONGITUDE":-87.72003415518682},
{"STATE":"IL","ZIP":60632,"LATTITUDE":41.80772111499567,"ADDRESS":"4117 W 47TH ST  106","YEAR":2007,"DOING_BUSINESS_AS_NAME":"DEBBIE'S CUSTOMIZED STAFFING","POP_AT_RISK":45788,"BUSINESS_TYPE":"Day Labor Agency","LEGAL_NAME":"DEBBIE'S CUSTOMIZED STAFFING, INCORPORATED","LONGITUDE":-87.72682517366316},
{}]