[
{"STATE":"IL","ZIP":60615,"LATTITUDE":41.80544291958861,"ADDRESS":"4905-4907 S MICHIGAN AVE  ","YEAR":2009,"DOING_BUSINESS_AS_NAME":"QUEENS PLACE","POP_AT_RISK":221072,"BUSINESS_TYPE":"Single Room Occupancy Class I","LEGAL_NAME":"LTDM LLC","LONGITUDE":-87.6225915068075},
{"STATE":"IL","ZIP":60657,"LATTITUDE":41.939538376623446,"ADDRESS":"3150 N RACINE AVE  1ST","YEAR":2009,"DOING_BUSINESS_AS_NAME":"BELRAY APTS","POP_AT_RISK":1007748,"BUSINESS_TYPE":"Single Room Occupancy Class I","LEGAL_NAME":"BELRAY LP","LONGITUDE":-87.65910706443513},
{"STATE":"IL","ZIP":60628,"LATTITUDE":41.69034734097836,"ADDRESS":"11221 S ST LAWRENCE AVE  ","YEAR":2009,"DOING_BUSINESS_AS_NAME":"MEEKS APARTMENTS","POP_AT_RISK":17960,"BUSINESS_TYPE":"Single Room Occupancy Class I","LEGAL_NAME":"GLENN MEEKS","LONGITUDE":-87.60821850843966},
{"STATE":"IL","ZIP":60639,"LATTITUDE":41.90990326796351,"ADDRESS":"4250 W NORTH AVE  ","YEAR":2009,"DOING_BUSINESS_AS_NAME":"LOS VECINOS","POP_AT_RISK":57942,"BUSINESS_TYPE":"Single Room Occupancy Class I","LEGAL_NAME":"NORTH AVENUE","LONGITUDE":-87.7333042287006},
{"STATE":"IL","ZIP":60637,"LATTITUDE":41.79194255756477,"ADDRESS":"5634-5636 S DR MARTIN LUTHER KING JR DR  ","YEAR":2009,"DOING_BUSINESS_AS_NAME":"PARK LAWN APTS","POP_AT_RISK":159255,"BUSINESS_TYPE":"Single Room Occupancy Class I","LEGAL_NAME":"OSCAR JOHNSON","LONGITUDE":-87.61605484659171},
{"STATE":"IL","ZIP":60608,"LATTITUDE":41.85478767122989,"ADDRESS":"2008 S BLUE ISLAND AVE  ","YEAR":2009,"DOING_BUSINESS_AS_NAME":"LUGO HOTEL","POP_AT_RISK":82564,"BUSINESS_TYPE":"Single Room Occupancy Class I","LEGAL_NAME":"LUGO HOTEL LLC","LONGITUDE":-87.66395145001795},
{"STATE":"IL","ZIP":60608,"LATTITUDE":41.8464028792881,"ADDRESS":"2500 S THROOP ST  ","YEAR":2009,"DOING_BUSINESS_AS_NAME":"2500 THROOP LLC","POP_AT_RISK":43393,"BUSINESS_TYPE":"Single Room Occupancy Class I","LEGAL_NAME":"2500 THROOP LLC","LONGITUDE":-87.65677960016752},
{"STATE":"IL","ZIP":60647,"LATTITUDE":41.9318714995383,"ADDRESS":"3335 W DIVERSEY AVE  ","YEAR":2009,"DOING_BUSINESS_AS_NAME":"Diversey West Apartments","POP_AT_RISK":150046,"BUSINESS_TYPE":"Single Room Occupancy Class I","LEGAL_NAME":"ARNOLD ANDERSON","LONGITUDE":-87.71134028696407},
{"STATE":"IL","ZIP":60610,"LATTITUDE":41.91017752520468,"ADDRESS":"1530-1532 N SEDGWICK ST  ","YEAR":2009,"DOING_BUSINESS_AS_NAME":"DEBORAH'S PLACE II","POP_AT_RISK":141044,"BUSINESS_TYPE":"Single Room Occupancy Class I","LEGAL_NAME":"DEBORAH'S PLACE","LONGITUDE":-87.63870982686717},
{"STATE":"IL","ZIP":60608,"LATTITUDE":41.84749940020452,"ADDRESS":"2474-76 S BLUE ISLAND AVE  ","YEAR":2009,"DOING_BUSINESS_AS_NAME":"BLANC VIRA","POP_AT_RISK":143076,"BUSINESS_TYPE":"Single Room Occupancy Class I","LEGAL_NAME":"DOLORES AGUIRRE","LONGITUDE":-87.67878025606329},
{"STATE":"IL","ZIP":60637,"LATTITUDE":41.773422305838835,"ADDRESS":"1506 E 67TH ST  ","YEAR":2009,"DOING_BUSINESS_AS_NAME":"MOHMMAD ELAYYAN","POP_AT_RISK":220140,"BUSINESS_TYPE":"Single Room Occupancy Class I","LEGAL_NAME":"MOHMMAD ELAYYAN","LONGITUDE":-87.58841351797714},
{"STATE":"IL","ZIP":60609,"LATTITUDE":41.817362895234844,"ADDRESS":"4202 S WESTERN AVE  ","YEAR":2009,"DOING_BUSINESS_AS_NAME":"ANDY'S ROOMS","POP_AT_RISK":105216,"BUSINESS_TYPE":"Single Room Occupancy Class I","LEGAL_NAME":"MARIA F. DELGADO","LONGITUDE":-87.68481850300184},
{"STATE":"IL","ZIP":60605,"LATTITUDE":41.87434258001862,"ADDRESS":"600-618 S WABASH AVE  ","YEAR":2009,"DOING_BUSINESS_AS_NAME":"600 S. WABASH, LP","POP_AT_RISK":42798,"BUSINESS_TYPE":"Single Room Occupancy Class I","LEGAL_NAME":"600 S. WABASH, LP","LONGITUDE":-87.62614177042674},
{"STATE":"IL","ZIP":60622,"LATTITUDE":41.910150567285044,"ADDRESS":"1567  -01569 N HOYNE AVE  1ST","YEAR":2009,"DOING_BUSINESS_AS_NAME":"HOWARD APTS","POP_AT_RISK":71832,"BUSINESS_TYPE":"Single Room Occupancy Class I","LEGAL_NAME":"HOWARD APARTMENTS","LONGITUDE":-87.67975185387394},
{"STATE":"IL","ZIP":60609,"LATTITUDE":41.79417263165267,"ADDRESS":"1510-1514 W GARFIELD BLVD  ","YEAR":2009,"DOING_BUSINESS_AS_NAME":"KEITH A. ERICKSON","POP_AT_RISK":924084,"BUSINESS_TYPE":"Single Room Occupancy Class I","LEGAL_NAME":"KEITH A. ERICKSON","LONGITUDE":-87.66267636761441},
{"STATE":"IL","ZIP":60628,"LATTITUDE":41.677223399904406,"ADDRESS":"11919 S EMERALD AVE  ","YEAR":2009,"DOING_BUSINESS_AS_NAME":"TOWNSEND SRO HOTEL","POP_AT_RISK":142600,"BUSINESS_TYPE":"Single Room Occupancy Class I","LEGAL_NAME":"MAGNOLIA TOWNSEND","LONGITUDE":-87.64053931486752},
{"STATE":"IL","ZIP":60617,"LATTITUDE":41.71252486738108,"ADDRESS":"10047 S AVENUE N   ","YEAR":2009,"DOING_BUSINESS_AS_NAME":"BEEKON-HOUSE","POP_AT_RISK":98635,"BUSINESS_TYPE":"Single Room Occupancy Class I","LEGAL_NAME":"MILDRED R. GARCIA","LONGITUDE":-87.53875663855442},
{"STATE":"IL","ZIP":60647,"LATTITUDE":41.91752471982619,"ADDRESS":"2001-2003 N CALIFORNIA AVE 1 - 3 ","YEAR":2009,"DOING_BUSINESS_AS_NAME":"ZAP MANAGEMENT, INC.","POP_AT_RISK":68110,"BUSINESS_TYPE":"Single Room Occupancy Class I","LEGAL_NAME":"ZAP MANAGEMENT, INC.","LONGITUDE":-87.69705468979755},
{"STATE":"IL","ZIP":60612,"LATTITUDE":41.8828067021833,"ADDRESS":"50 N HOYNE AVE  1ST F","YEAR":2009,"DOING_BUSINESS_AS_NAME":"ST. ANDREW'S COURT, L.P.","POP_AT_RISK":27752,"BUSINESS_TYPE":"Single Room Occupancy Class I","LEGAL_NAME":"ST. ANDREW'S COURT LP.","LONGITUDE":-87.6792681084205},
{"STATE":"IL","ZIP":60621,"LATTITUDE":41.78090936356471,"ADDRESS":"500 W ENGLEWOOD AVE  1","YEAR":2009,"DOING_BUSINESS_AS_NAME":"THRESHOLDS","POP_AT_RISK":169746,"BUSINESS_TYPE":"Single Room Occupancy Class I","LEGAL_NAME":"THRESHOLDS ROWAN TREES","LONGITUDE":-87.63761781700276},
{"STATE":"IL","ZIP":60639,"LATTITUDE":41.91247342941673,"ADDRESS":"4816 W ST PAUL AVE  1ST","YEAR":2009,"DOING_BUSINESS_AS_NAME":"4816 W ST PAUL BUILDING","POP_AT_RISK":288950,"BUSINESS_TYPE":"Single Room Occupancy Class I","LEGAL_NAME":"4816 W ST PAUL BUILDING","LONGITUDE":-87.74669389256017},
{"STATE":"IL","ZIP":60653,"LATTITUDE":41.82578264433403,"ADDRESS":"3757 S WABASH AVE  ","YEAR":2009,"DOING_BUSINESS_AS_NAME":"THE RENAISSANCE APARTMENTS","POP_AT_RISK":400470,"BUSINESS_TYPE":"Single Room Occupancy Class I","LEGAL_NAME":"RENAISSANCE PARTNERS, LP","LONGITUDE":-87.62470307811014},
{"STATE":"IL","ZIP":60649,"LATTITUDE":41.760500325918436,"ADDRESS":"7419 S EXCHANGE AVE  ","YEAR":2009,"DOING_BUSINESS_AS_NAME":"COLES SUPPORTIVE LIVING LLC","POP_AT_RISK":134410,"BUSINESS_TYPE":"Single Room Occupancy Class I","LEGAL_NAME":"COLES SUPPORTIVE LIVING LLC","LONGITUDE":-87.56113617707305},
{"STATE":"IL","ZIP":60626,"LATTITUDE":42.004298554451346,"ADDRESS":"6726 N GLENWOOD AVE  1","YEAR":2009,"DOING_BUSINESS_AS_NAME":"GLENWOOD BUILDING GROUP\/SRO","POP_AT_RISK":143382,"BUSINESS_TYPE":"Single Room Occupancy Class I","LEGAL_NAME":"GLENWOOD BUILDING GROUP\/SRO","LONGITUDE":-87.66584857379364},
{"STATE":"IL","ZIP":60624,"LATTITUDE":41.880967623605926,"ADDRESS":"6 N HAMLIN BLVD  ","YEAR":2009,"DOING_BUSINESS_AS_NAME":"MIDWEST LIMITED PARTNERSHIP","POP_AT_RISK":298792,"BUSINESS_TYPE":"Single Room Occupancy Class I","LEGAL_NAME":"MIDWEST LIMITED PARTNERSHIP","LONGITUDE":-87.72090693253215},
{"STATE":"IL","ZIP":60632,"LATTITUDE":41.79675457185308,"ADDRESS":"5300 S PULASKI RD  1","YEAR":2009,"DOING_BUSINESS_AS_NAME":"CROSSROADS HOTEL INC.","POP_AT_RISK":352674,"BUSINESS_TYPE":"Single Room Occupancy Class I","LEGAL_NAME":"CROSSROADS HOSPITALITY, INC.","LONGITUDE":-87.72340922029963},
{"STATE":"IL","ZIP":60628,"LATTITUDE":41.69899563800332,"ADDRESS":"240 W 107TH PL  ","YEAR":2009,"DOING_BUSINESS_AS_NAME":"ROSELAND LIMITED PARTNERSHIP","POP_AT_RISK":30084,"BUSINESS_TYPE":"Single Room Occupancy Class I","LEGAL_NAME":"ROSELAND LIMITED PARTNERSHIP","LONGITUDE":-87.62954345044196},
{"STATE":"IL","ZIP":60622,"LATTITUDE":41.90319824225925,"ADDRESS":"1659 W DIVISION ST  ","YEAR":2009,"DOING_BUSINESS_AS_NAME":"DIVISION BLDG","POP_AT_RISK":54709,"BUSINESS_TYPE":"Single Room Occupancy Class I","LEGAL_NAME":"MIKE LIACOPOULOS AND TOM LIAKOS","LONGITUDE":-87.66979533648627},
{"STATE":"IL","ZIP":60644,"LATTITUDE":41.886727420687684,"ADDRESS":"334 N MENARD AVE  1","YEAR":2009,"DOING_BUSINESS_AS_NAME":"THRESHOLDS AUSTIN APTS.","POP_AT_RISK":620940,"BUSINESS_TYPE":"Single Room Occupancy Class I","LEGAL_NAME":"M.APARTMENTS.CORP.\/N.EQUITY FUND","LONGITUDE":-87.7701332901046},
{"STATE":"IL","ZIP":60610,"LATTITUDE":41.896769734398916,"ADDRESS":"30 W CHICAGO AVE  ","YEAR":2009,"DOING_BUSINESS_AS_NAME":"LAWSON HOUSE YMCA","POP_AT_RISK":177458,"BUSINESS_TYPE":"Single Room Occupancy Class I","LEGAL_NAME":"YOUNG MEN'S CHRISTIAN ASSOCIATION OF CHICAGO","LONGITUDE":-87.62944835451378},
{"STATE":"IL","ZIP":60612,"LATTITUDE":41.877645479248834,"ADDRESS":"1810 W JACKSON BLVD  1","YEAR":2009,"DOING_BUSINESS_AS_NAME":"ROYALTON HOTEL","POP_AT_RISK":31993,"BUSINESS_TYPE":"Single Room Occupancy Class I","LEGAL_NAME":"METROPOLITAN PROPERTIES AND DEVELOPMENT, INC.","LONGITUDE":-87.67215509360692},
{"STATE":"IL","ZIP":60619,"LATTITUDE":41.75884821792363,"ADDRESS":"1440-1448 E 75TH ST 1-5 ","YEAR":2009,"DOING_BUSINESS_AS_NAME":"JACKSON PARK SUPPORTIVE LIVING FACILITY, LLC.","POP_AT_RISK":166108,"BUSINESS_TYPE":"Single Room Occupancy Class I","LEGAL_NAME":"JACKSON PARK SUPPORTIVE LIVING FACILITY, L.L.C.","LONGITUDE":-87.58918947319052},
{}]