[
{"STATE":"IL","ZIP":60657,"LATTITUDE":41.93586261644908,"ADDRESS":"2935 N CLARK ST 1ST ","YEAR":2008,"DOING_BUSINESS_AS_NAME":"SCRUB YOUR PUP","POP_AT_RISK":81987,"BUSINESS_TYPE":"Kennels and Catteries","LEGAL_NAME":"SHEINER INC","LONGITUDE":-87.64719566986746},
{"STATE":"IL","ZIP":60654,"LATTITUDE":41.89067865972561,"ADDRESS":"457 N UNION AVE 1ST ","YEAR":2008,"DOING_BUSINESS_AS_NAME":"GOOD DOG","POP_AT_RISK":233596,"BUSINESS_TYPE":"Kennels and Catteries","LEGAL_NAME":"H&M DOGS, INC.","LONGITUDE":-87.64567270626955},
{"STATE":"IL","ZIP":60659,"LATTITUDE":41.98327650698798,"ADDRESS":"2406 W BRYN MAWR AVE  ","YEAR":2008,"DOING_BUSINESS_AS_NAME":"4 PAW PALACE","POP_AT_RISK":344550,"BUSINESS_TYPE":"Kennels and Catteries","LEGAL_NAME":"CLAUDIA D. MEDE","LONGITUDE":-87.68976093525394},
{"STATE":"IL","ZIP":60657,"LATTITUDE":41.93975687261702,"ADDRESS":"1111 W BELMONT AVE  ","YEAR":2008,"DOING_BUSINESS_AS_NAME":"DOGGY DOOZ INC","POP_AT_RISK":83448,"BUSINESS_TYPE":"Kennels and Catteries","LEGAL_NAME":"DOGGY DOOZ, INC.","LONGITUDE":-87.65701551722556},
{"STATE":"IL","ZIP":60614,"LATTITUDE":41.922245035796124,"ADDRESS":"2228 N CLYBOURN AVE  ","YEAR":2008,"DOING_BUSINESS_AS_NAME":"POOCH CHICAGO","POP_AT_RISK":113310,"BUSINESS_TYPE":"Kennels and Catteries","LEGAL_NAME":"POOCH HOTEL,INC.","LONGITUDE":-87.66548643819107},
{"STATE":"IL","ZIP":60655,"LATTITUDE":41.69137086814189,"ADDRESS":"11104 S KEDZIE AVE  ","YEAR":2008,"DOING_BUSINESS_AS_NAME":"POSH PET DAY SPA","POP_AT_RISK":24012,"BUSINESS_TYPE":"Kennels and Catteries","LEGAL_NAME":"MELISSA A. HICKEY","LONGITUDE":-87.70096676099419},
{"STATE":"IL","ZIP":60655,"LATTITUDE":41.703470270354465,"ADDRESS":"10429 S KEDZIE AVE 1ST ","YEAR":2008,"DOING_BUSINESS_AS_NAME":"PARK PET SHOP INC","POP_AT_RISK":104644,"BUSINESS_TYPE":"Kennels and Catteries","LEGAL_NAME":"PARK PET SHOP INC.","LONGITUDE":-87.70110404556713},
{"STATE":"IL","ZIP":60659,"LATTITUDE":41.99037818039852,"ADDRESS":"2449 W PETERSON AVE  ","YEAR":2008,"DOING_BUSINESS_AS_NAME":"COMPANIONABILITY","POP_AT_RISK":235868,"BUSINESS_TYPE":"Kennels and Catteries","LEGAL_NAME":"COMPANIONABLITY LLC","LONGITUDE":-87.69164556774892},
{"STATE":"IL","ZIP":60614,"LATTITUDE":41.91799290816744,"ADDRESS":"1003 W ARMITAGE AVE  ","YEAR":2008,"DOING_BUSINESS_AS_NAME":"BARKER & MEOWSKY, INC.","POP_AT_RISK":61051,"BUSINESS_TYPE":"Kennels and Catteries","LEGAL_NAME":"BARKER & MEOWSKY, INC","LONGITUDE":-87.6535080391178},
{"STATE":"IL","ZIP":60618,"LATTITUDE":41.93503163276348,"ADDRESS":"2945 N ELSTON AVE  ","YEAR":2008,"DOING_BUSINESS_AS_NAME":"LUCKY DOG PET SERVICE","POP_AT_RISK":469502,"BUSINESS_TYPE":"Kennels and Catteries","LEGAL_NAME":"LUCKY DOG PET SERVICES","LONGITUDE":-87.69175414089078},
{"STATE":"IL","ZIP":60639,"LATTITUDE":41.91316403773453,"ADDRESS":"1760 N KILBOURN AVE  ","YEAR":2008,"DOING_BUSINESS_AS_NAME":"ALL FOR DOGGIES","POP_AT_RISK":691292,"BUSINESS_TYPE":"Kennels and Catteries","LEGAL_NAME":"BEST FRIENDS PET CARE INC","LONGITUDE":-87.73883770160896},
{"STATE":"IL","ZIP":60622,"LATTITUDE":41.91138058978088,"ADDRESS":"1628 N ELSTON AVE  ","YEAR":2008,"DOING_BUSINESS_AS_NAME":"WINDY CITY K-9 CLUB","POP_AT_RISK":204012,"BUSINESS_TYPE":"Kennels and Catteries","LEGAL_NAME":"BEST FRIENDS PET CARE INC","LONGITUDE":-87.66281673422567},
{"STATE":"IL","ZIP":60657,"LATTITUDE":41.94354549152354,"ADDRESS":"3404 N ASHLAND AVE  1","YEAR":2008,"DOING_BUSINESS_AS_NAME":"LET'S PET","POP_AT_RISK":323255,"BUSINESS_TYPE":"Kennels and Catteries","LEGAL_NAME":"MARY SOPIARZ & TARA ADLIN","LONGITUDE":-87.6689158099772},
{"STATE":"IL","ZIP":60610,"LATTITUDE":41.890341971280506,"ADDRESS":"440 N ORLEANS ST  ","YEAR":2008,"DOING_BUSINESS_AS_NAME":"PETCO #1965","POP_AT_RISK":329755,"BUSINESS_TYPE":"Kennels and Catteries","LEGAL_NAME":"PETCO ANIMAL SUPPLIES STORES, INC.","LONGITUDE":-87.63714472645873},
{}]