[
{"STATE":"IL","ZIP":60660,"LATTITUDE":41.99793660644868,"ADDRESS":"6379 N PAULINA ST  ","YEAR":2006,"DOING_BUSINESS_AS_NAME":"FELINES & CANINES","POP_AT_RISK":1454940,"BUSINESS_TYPE":"Humane Society","LEGAL_NAME":"FELINES, INC.","LONGITUDE":-87.67184080287412},
{"STATE":"IL","ZIP":60618,"LATTITUDE":41.95423756233605,"ADDRESS":"2046 W IRVING PARK RD  1","YEAR":2006,"DOING_BUSINESS_AS_NAME":"ANIMAL ADOPTION ASSOC","POP_AT_RISK":974814,"BUSINESS_TYPE":"Humane Society","LEGAL_NAME":"ANIMAL ADOPTION ASSOC","LONGITUDE":-87.68071469720977},
{"STATE":"IL","ZIP":60637,"LATTITUDE":41.7811377052545,"ADDRESS":"6224 S WABASH AVE  ","YEAR":2006,"DOING_BUSINESS_AS_NAME":"ANIMAL WELFARE LEAGUE","POP_AT_RISK":441519,"BUSINESS_TYPE":"Humane Society","LEGAL_NAME":"ANIMAL WELFARE LEAGUE","LONGITUDE":-87.62387647008038},
{"STATE":"IL","ZIP":60654,"LATTITUDE":41.89148516900918,"ADDRESS":"157 W GRAND AVE # 1","YEAR":2006,"DOING_BUSINESS_AS_NAME":"THE ANTI-CRUELTY SOCIETY","POP_AT_RISK":920855,"BUSINESS_TYPE":"Humane Society","LEGAL_NAME":"THE ANTI-CRUELTY SOCIETY","LONGITUDE":-87.63336728275898},
{"STATE":"IL","ZIP":60607,"LATTITUDE":41.885565275054724,"ADDRESS":"1328 W LAKE ST  ","YEAR":2006,"DOING_BUSINESS_AS_NAME":"LAKE SHORE ANIMAL SHELTER","POP_AT_RISK":336654,"BUSINESS_TYPE":"Humane Society","LEGAL_NAME":"LAKE SHORE ANIMAL SHELTER","LONGITUDE":-87.66004958966946},
{"STATE":"IL","ZIP":60640,"LATTITUDE":41.97472119607005,"ADDRESS":"1212 W CARMEN AVE 1ST ","YEAR":2006,"DOING_BUSINESS_AS_NAME":"TREE HOUSE ANIMAL FOUNDATION","POP_AT_RISK":1237753,"BUSINESS_TYPE":"Humane Society","LEGAL_NAME":"TREE HOUSE HUMANE SOCIETY","LONGITUDE":-87.66039292141231},
{"STATE":"IL","ZIP":60622,"LATTITUDE":41.911514593915015,"ADDRESS":"1629 N ASHLAND AVE  ","YEAR":2006,"DOING_BUSINESS_AS_NAME":"FURRY FRIENDS FOUNDATION","POP_AT_RISK":1048781,"BUSINESS_TYPE":"Humane Society","LEGAL_NAME":"FLORENCE FITZGERALD FOUNDATION","LONGITUDE":-87.66756803804198},
{"STATE":"IL","ZIP":60618,"LATTITUDE":41.95060124439892,"ADDRESS":"3809 N KEDZIE AVE  1ST","YEAR":2006,"DOING_BUSINESS_AS_NAME":"HARMONY HOUSE FOR CATS","POP_AT_RISK":846430,"BUSINESS_TYPE":"Humane Society","LEGAL_NAME":"THE ANIMAL PROTECTIVE ASSOCIATION","LONGITUDE":-87.70777873219271},
{}]