[
  {
    "BUSINESS_TYPE": "Outdoor Patio", 
    "LEGAL_NAME": "MOODY'S RESTAURANT, INC.", 
    "STATE": "IL", 
    "DOING_BUSINESS_AS_NAME": "MOODY'S RESTAURANT INC", 
    "POP_AT_RISK": 61771, 
    "ZIP": 60660, 
    "ADDRESS": "5908 N BROADWAY  1ST", 
    "YEAR": 2002, 
    "LONGITUDE": -87.660394613, 
    "LATTITUDE": 41.989333596
  }, 
  {
    "BUSINESS_TYPE": "Outdoor Patio", 
    "LEGAL_NAME": "LIQUID WIDGETS, L.L.C.", 
    "STATE": "IL", 
    "DOING_BUSINESS_AS_NAME": "RICKY G'S", 
    "POP_AT_RISK": 53737, 
    "ZIP": 60645, 
    "ADDRESS": "7121 N WESTERN AVE", 
    "YEAR": 2002, 
    "LONGITUDE": -87.690087864, 
    "LATTITUDE": 42.011655182
  }, 
  {
    "BUSINESS_TYPE": "Outdoor Patio", 
    "LEGAL_NAME": "MCKINNEY'S PUB, LTD.", 
    "STATE": "IL", 
    "DOING_BUSINESS_AS_NAME": "CHIEF O'NEILL'S PUB & RESTAURANT", 
    "POP_AT_RISK": 56736, 
    "ZIP": 60618, 
    "ADDRESS": "3471-3479 N ELSTON AVE 1ST", 
    "YEAR": 2002, 
    "LONGITUDE": -87.705254822, 
    "LATTITUDE": 41.944311954
  }, 
  {
    "BUSINESS_TYPE": "Outdoor Patio", 
    "LEGAL_NAME": "GIORDANOS ENTERPRISES INC", 
    "STATE": "IL", 
    "DOING_BUSINESS_AS_NAME": "GIORDANO'S RESTAURANT & PIZZER", 
    "POP_AT_RISK": 40702, 
    "ZIP": 60632, 
    "ADDRESS": "5159 S PULASKI RD", 
    "YEAR": 2002, 
    "LONGITUDE": -87.723174753, 
    "LATTITUDE": 41.798806895
  }, 
  {
    "BUSINESS_TYPE": "Outdoor Patio", 
    "LEGAL_NAME": "HYATT CORPORATION", 
    "STATE": "IL", 
    "DOING_BUSINESS_AS_NAME": "HYATT AT UNIVERSITY VILLAGE", 
    "POP_AT_RISK": 36487, 
    "ZIP": 60607, 
    "ADDRESS": "625 S ASHLAND AVE  1ST F", 
    "YEAR": 2002, 
    "LONGITUDE": -87.666433681, 
    "LATTITUDE": 41.873434566
  }, 
  {
    "BUSINESS_TYPE": "Outdoor Patio", 
    "LEGAL_NAME": "TOTONY'S INC", 
    "STATE": "IL", 
    "DOING_BUSINESS_AS_NAME": "GLASS DOME HICKORY PIT", 
    "POP_AT_RISK": 52550, 
    "ZIP": 60608, 
    "ADDRESS": "2801 S HALSTED ST", 
    "YEAR": 2002, 
    "LONGITUDE": -87.64626311, 
    "LATTITUDE": 41.843418079
  }, 
  {
    "BUSINESS_TYPE": "Outdoor Patio", 
    "LEGAL_NAME": "H.T.A. INC.", 
    "STATE": "IL", 
    "DOING_BUSINESS_AS_NAME": "HAM TREE INN", 
    "POP_AT_RISK": 33756, 
    "ZIP": 60630, 
    "ADDRESS": "5333 N MILWAUKEE AVE 1ST", 
    "YEAR": 2002, 
    "LONGITUDE": -87.769236631, 
    "LATTITUDE": 41.977503479
  }, 
  {
    "BUSINESS_TYPE": "Outdoor Patio", 
    "LEGAL_NAME": "LE MIDI INC", 
    "STATE": "IL", 
    "DOING_BUSINESS_AS_NAME": "MERITAGE", 
    "POP_AT_RISK": 51301, 
    "ZIP": 60647, 
    "ADDRESS": "2118 N DAMEN AVE 1ST", 
    "YEAR": 2002, 
    "LONGITUDE": -87.677852128, 
    "LATTITUDE": 41.920075743
  }, 
  {
    "BUSINESS_TYPE": "Outdoor Patio", 
    "LEGAL_NAME": "4911 DIVERSEY CORP", 
    "STATE": "IL", 
    "DOING_BUSINESS_AS_NAME": "4911 DIVERSEY CORP", 
    "POP_AT_RISK": 72221, 
    "ZIP": 60639, 
    "ADDRESS": "4911 W DIVERSEY AVE 1ST", 
    "YEAR": 2002, 
    "LONGITUDE": -87.749555903, 
    "LATTITUDE": 41.931383489
  }, 
  {
    "BUSINESS_TYPE": "Outdoor Patio", 
    "LEGAL_NAME": "HECTOR RODRIGUEZ", 
    "STATE": "IL", 
    "DOING_BUSINESS_AS_NAME": "EL TIPICO", 
    "POP_AT_RISK": 62125, 
    "ZIP": 60640, 
    "ADDRESS": "1834 W FOSTER AVE 1ST", 
    "YEAR": 2002, 
    "LONGITUDE": -87.676264907, 
    "LATTITUDE": 41.976187241
  }, 
  {
    "BUSINESS_TYPE": "Outdoor Patio", 
    "LEGAL_NAME": "HYATT CORPORATION", 
    "STATE": "IL", 
    "DOING_BUSINESS_AS_NAME": "HYATT REGENCY MCCORMICK PLACE HOTEL", 
    "POP_AT_RISK": 35622, 
    "ZIP": 60616, 
    "ADDRESS": "2233 S DR MARTIN LUTHER KING JR DR", 
    "YEAR": 2002, 
    "LONGITUDE": -87.618850804, 
    "LATTITUDE": 41.852075574
  }, 
  {
    "BUSINESS_TYPE": "Outdoor Patio", 
    "LEGAL_NAME": "CITY REFLECTIONS INC", 
    "STATE": "IL", 
    "DOING_BUSINESS_AS_NAME": "CITY REFLECTIONS INC", 
    "POP_AT_RISK": 46193, 
    "ZIP": 60632, 
    "ADDRESS": "4459 S KEDZIE AVE", 
    "YEAR": 2002, 
    "LONGITUDE": -87.703975055, 
    "LATTITUDE": 41.811853275
  }, 
  {
    "BUSINESS_TYPE": "Outdoor Patio", 
    "LEGAL_NAME": "BOGEY'S LIMITED", 
    "STATE": "IL", 
    "DOING_BUSINESS_AS_NAME": "BOGEY'S LTD", 
    "POP_AT_RISK": 2798, 
    "ZIP": 60633, 
    "ADDRESS": "2725 E 130TH ST", 
    "YEAR": 2002, 
    "LONGITUDE": -87.556992565, 
    "LATTITUDE": 41.659082836
  }, 
  {
    "BUSINESS_TYPE": "Outdoor Patio", 
    "LEGAL_NAME": "SLOW DOUGH RISER'S INC", 
    "STATE": "IL", 
    "DOING_BUSINESS_AS_NAME": "CORK & KERRY", 
    "POP_AT_RISK": 21523, 
    "ZIP": 60643, 
    "ADDRESS": "10614 S WESTERN AVE", 
    "YEAR": 2002, 
    "LONGITUDE": -87.681577299, 
    "LATTITUDE": 41.700415067
  }, 
  {
    "BUSINESS_TYPE": "Outdoor Patio", 
    "LEGAL_NAME": "LA FLOR DE ACAPULCO INC", 
    "STATE": "IL", 
    "DOING_BUSINESS_AS_NAME": "LA FLOR DE ACAPULCO INC", 
    "POP_AT_RISK": 43905, 
    "ZIP": 60639, 
    "ADDRESS": "6021 W GRAND AVE", 
    "YEAR": 2002, 
    "LONGITUDE": -87.776549215, 
    "LATTITUDE": 41.920619155
  }, 
  {
    "BUSINESS_TYPE": "Outdoor Patio", 
    "LEGAL_NAME": "CRISPA", 
    "STATE": "IL", 
    "DOING_BUSINESS_AS_NAME": "JOE BAILLY'S", 
    "POP_AT_RISK": 24821, 
    "ZIP": 60643, 
    "ADDRESS": "10854 S WESTERN AVE  1", 
    "YEAR": 2002, 
    "LONGITUDE": -87.681423145, 
    "LATTITUDE": 41.695603003
  }, 
  {
    "BUSINESS_TYPE": "Outdoor Patio", 
    "LEGAL_NAME": "P.B.C. INC.", 
    "STATE": "IL", 
    "DOING_BUSINESS_AS_NAME": "CASTO'S", 
    "POP_AT_RISK": 25020, 
    "ZIP": 60655, 
    "ADDRESS": "3636 W 111TH ST", 
    "YEAR": 2002, 
    "LONGITUDE": -87.712075163, 
    "LATTITUDE": 41.691500334
  }, 
  {
    "BUSINESS_TYPE": "Outdoor Patio", 
    "LEGAL_NAME": "BLEACHERS, INC.", 
    "STATE": "IL", 
    "DOING_BUSINESS_AS_NAME": "MURPHY'S BLEACHERS", 
    "POP_AT_RISK": 81656, 
    "ZIP": 60613, 
    "ADDRESS": "3655 N SHEFFIELD AVE  1", 
    "YEAR": 2002, 
    "LONGITUDE": -87.654230793, 
    "LATTITUDE": 41.948844297
  }, 
  {
    "BUSINESS_TYPE": "Outdoor Patio", 
    "LEGAL_NAME": "P J'S BREWERY INC", 
    "STATE": "IL", 
    "DOING_BUSINESS_AS_NAME": "P J'S BREWERY", 
    "POP_AT_RISK": 24739, 
    "ZIP": 60634, 
    "ADDRESS": "3848 N HARLEM AVE", 
    "YEAR": 2002, 
    "LONGITUDE": -87.807329446, 
    "LATTITUDE": 41.950347693
  }, 
  {
    "BUSINESS_TYPE": "Outdoor Patio", 
    "LEGAL_NAME": "BILL BABS, INC.", 
    "STATE": "IL", 
    "DOING_BUSINESS_AS_NAME": "KELLY'S TAVERN", 
    "POP_AT_RISK": 20203, 
    "ZIP": 60609, 
    "ADDRESS": "4403 S WALLACE ST 1ST", 
    "YEAR": 2002, 
    "LONGITUDE": -87.640668438, 
    "LATTITUDE": 41.814326117
  }, 
  {
    "BUSINESS_TYPE": "Outdoor Patio", 
    "LEGAL_NAME": "WORKINGMAN'S INC", 
    "STATE": "IL", 
    "DOING_BUSINESS_AS_NAME": "WORKINGMAN'S PALACE", 
    "POP_AT_RISK": 73464, 
    "ZIP": 60639, 
    "ADDRESS": "4400 W DIVERSEY AVE 1ST", 
    "YEAR": 2002, 
    "LONGITUDE": -87.736878103, 
    "LATTITUDE": 41.931770048
  }, 
  {
    "BUSINESS_TYPE": "Outdoor Patio", 
    "LEGAL_NAME": "O'CONNOR'S PUB, INC.", 
    "STATE": "IL", 
    "DOING_BUSINESS_AS_NAME": "MARTINI CLUB", 
    "POP_AT_RISK": 55125, 
    "ZIP": 60634, 
    "ADDRESS": "5737 W IRVING PARK RD", 
    "YEAR": 2002, 
    "LONGITUDE": -87.770968001, 
    "LATTITUDE": 41.953020309
  }, 
  {
    "BUSINESS_TYPE": "Outdoor Patio", 
    "LEGAL_NAME": "TALLY NORTH INC", 
    "STATE": "IL", 
    "DOING_BUSINESS_AS_NAME": "PIANO MAN", 
    "POP_AT_RISK": 82941, 
    "ZIP": 60613, 
    "ADDRESS": "3801 N CLARK ST 1ST", 
    "YEAR": 2002, 
    "LONGITUDE": -87.659541802, 
    "LATTITUDE": 41.951175556
  }, 
  {
    "BUSINESS_TYPE": "Outdoor Patio", 
    "LEGAL_NAME": "LEONA'S PIZZERIA, INC.", 
    "STATE": "IL", 
    "DOING_BUSINESS_AS_NAME": "LEONA'S PIZZERIA", 
    "POP_AT_RISK": 40177, 
    "ZIP": 60607, 
    "ADDRESS": "1419 W TAYLOR ST", 
    "YEAR": 2002, 
    "LONGITUDE": -87.662414815, 
    "LATTITUDE": 41.869218054
  }, 
  {
    "BUSINESS_TYPE": "Outdoor Patio", 
    "LEGAL_NAME": "W.N.R.W.ENTERPRISES,INC", 
    "STATE": "IL", 
    "DOING_BUSINESS_AS_NAME": "BOHICA BAR & GRILL", 
    "POP_AT_RISK": 26033, 
    "ZIP": 60638, 
    "ADDRESS": "5518 S ARCHER AVE", 
    "YEAR": 2002, 
    "LONGITUDE": -87.747416514, 
    "LATTITUDE": 41.798126625
  }, 
  {
    "BUSINESS_TYPE": "Outdoor Patio", 
    "LEGAL_NAME": "ROQUETA INC", 
    "STATE": "IL", 
    "DOING_BUSINESS_AS_NAME": "LA CONDESA", 
    "POP_AT_RISK": 68068, 
    "ZIP": 60629, 
    "ADDRESS": "2908 W 59TH ST", 
    "YEAR": 2002, 
    "LONGITUDE": -87.696463426, 
    "LATTITUDE": 41.786468511
  }, 
  {
    "BUSINESS_TYPE": "Outdoor Patio", 
    "LEGAL_NAME": "HUNGRY BRAIN,INC.", 
    "STATE": "IL", 
    "DOING_BUSINESS_AS_NAME": "HUNGRY BRAIN", 
    "POP_AT_RISK": 59815, 
    "ZIP": 60618, 
    "ADDRESS": "2319 W BELMONT AVE 1", 
    "YEAR": 2002, 
    "LONGITUDE": -87.686397637, 
    "LATTITUDE": 41.939364444
  }, 
  {
    "BUSINESS_TYPE": "Outdoor Patio", 
    "LEGAL_NAME": "KEFALOS, INC.", 
    "STATE": "IL", 
    "DOING_BUSINESS_AS_NAME": "HARD WATER BAR & GRILL", 
    "POP_AT_RISK": 42149, 
    "ZIP": 60626, 
    "ADDRESS": "7541-7545 N CLARK ST 1ST", 
    "YEAR": 2002, 
    "LONGITUDE": -87.675958148, 
    "LATTITUDE": 42.018903507
  }, 
  {
    "BUSINESS_TYPE": "Outdoor Patio", 
    "LEGAL_NAME": "A TAVOLA SERVICES CORP", 
    "STATE": "IL", 
    "DOING_BUSINESS_AS_NAME": "A TAVOLA", 
    "POP_AT_RISK": 57205, 
    "ZIP": 60622, 
    "ADDRESS": "2148 W CHICAGO AVE 1ST", 
    "YEAR": 2002, 
    "LONGITUDE": -87.681450044, 
    "LATTITUDE": 41.89594582
  }, 
  {
    "BUSINESS_TYPE": "Outdoor Patio", 
    "LEGAL_NAME": "MORETTI'S PIZZA PALACE & BBQ, INC.", 
    "STATE": "IL", 
    "DOING_BUSINESS_AS_NAME": "MORETTI'S", 
    "POP_AT_RISK": 18918, 
    "ZIP": 60631, 
    "ADDRESS": "6727 N OLMSTED AVE", 
    "YEAR": 2002, 
    "LONGITUDE": -87.817686554, 
    "LATTITUDE": 42.002731664
  }, 
  {
    "BUSINESS_TYPE": "Outdoor Patio", 
    "LEGAL_NAME": "CADEN'S IRISH HOUSE, INC.", 
    "STATE": "IL", 
    "DOING_BUSINESS_AS_NAME": "CADEN'S IRISH HOUSE, INC.", 
    "POP_AT_RISK": 81553, 
    "ZIP": 60618, 
    "ADDRESS": "3423 W MONTROSE AVE 1ST", 
    "YEAR": 2002, 
    "LONGITUDE": -87.714130215, 
    "LATTITUDE": 41.961006439
  }, 
  {
    "BUSINESS_TYPE": "Outdoor Patio", 
    "LEGAL_NAME": "PARK RESTAURANT, LLC", 
    "STATE": "IL", 
    "DOING_BUSINESS_AS_NAME": "JACKSON HARBOR GRILL", 
    "POP_AT_RISK": 24246, 
    "ZIP": 60649, 
    "ADDRESS": "6401 S COAST GUARD DR  1", 
    "YEAR": 2002, 
    "LONGITUDE": -87.575451405, 
    "LATTITUDE": 41.77863625
  }
]