[
{"STATE":"IL","ZIP":60647,"LATTITUDE":41.92786354046742,"ADDRESS":"3137-3139 W LOGAN BLVD  1","YEAR":2010,"DOING_BUSINESS_AS_NAME":"DUNLAYS ON THE SQUARE","POP_AT_RISK":979030,"BUSINESS_TYPE":"Retail Food Est.-Supplemental License for Dog-Friendly Areas","LEGAL_NAME":"BJT, INC.","LONGITUDE":-87.70641510084438},
{"STATE":"IL","ZIP":60616,"LATTITUDE":41.85783824203235,"ADDRESS":"1801 S INDIANA AVE  ","YEAR":2010,"DOING_BUSINESS_AS_NAME":"CAFE SOCIETY INC","POP_AT_RISK":98700,"BUSINESS_TYPE":"Retail Food Est.-Supplemental License for Dog-Friendly Areas","LEGAL_NAME":"CAFE SOCIETY INC","LONGITUDE":-87.62218405329706},
{"STATE":"IL","ZIP":60615,"LATTITUDE":41.79492106897254,"ADDRESS":"1055 E 55TH ST  ","YEAR":2010,"DOING_BUSINESS_AS_NAME":"SEVEN TEN","POP_AT_RISK":798360,"BUSINESS_TYPE":"Retail Food Est.-Supplemental License for Dog-Friendly Areas","LEGAL_NAME":"STRIKE TWO CORP.","LONGITUDE":-87.59985203106729},
{"STATE":"IL","ZIP":60614,"LATTITUDE":41.921770490640775,"ADDRESS":"1200-02 W WEBSTER AVE 1ST ","YEAR":2010,"DOING_BUSINESS_AS_NAME":"WHITE OAK TAVERN & INN","POP_AT_RISK":52483,"BUSINESS_TYPE":"Retail Food Est.-Supplemental License for Dog-Friendly Areas","LEGAL_NAME":"JM CONCEPTS, INC.","LONGITUDE":-87.65839820196524},
{"STATE":"IL","ZIP":60626,"LATTITUDE":42.01615704190619,"ADDRESS":"1500 W JARVIS AVE  ","YEAR":2010,"DOING_BUSINESS_AS_NAME":"CHARMERS CAFE\/THE DAGEL AND BELI SHOP","POP_AT_RISK":622960,"BUSINESS_TYPE":"Retail Food Est.-Supplemental License for Dog-Friendly Areas","LEGAL_NAME":"CHARMERS DAGEL LLC","LONGITUDE":-87.66825247379121},
{"STATE":"IL","ZIP":60640,"LATTITUDE":41.97332527471334,"ADDRESS":"5025 N CLARK ST  ","YEAR":2010,"DOING_BUSINESS_AS_NAME":"T's","POP_AT_RISK":65405,"BUSINESS_TYPE":"Retail Food Est.-Supplemental License for Dog-Friendly Areas","LEGAL_NAME":"T-Rex-  5025, LTD.","LONGITUDE":-87.66792167114302},
{"STATE":"IL","ZIP":60605,"LATTITUDE":41.872361365803386,"ADDRESS":"755 S CLARK ST  ","YEAR":2010,"DOING_BUSINESS_AS_NAME":"BLACKIE'S","POP_AT_RISK":31950,"BUSINESS_TYPE":"Retail Food Est.-Supplemental License for Dog-Friendly Areas","LEGAL_NAME":"THOMAS LIQUORS INC","LONGITUDE":-87.63046720465887},
{"STATE":"IL","ZIP":60618,"LATTITUDE":41.944311953934424,"ADDRESS":"3471 N ELSTON AVE 1ST ","YEAR":2010,"DOING_BUSINESS_AS_NAME":"CHIEF O'NEILL'S PUB & RESTAURANT","POP_AT_RISK":163329,"BUSINESS_TYPE":"Retail Food Est.-Supplemental License for Dog-Friendly Areas","LEGAL_NAME":"MCKINNEY'S PUB, LTD.","LONGITUDE":-87.7052548221551},
{"STATE":"IL","ZIP":60622,"LATTITUDE":41.8956733853015,"ADDRESS":"2301 W CHICAGO AVE 1ST ","YEAR":2010,"DOING_BUSINESS_AS_NAME":"MR. BROWN'S LOUNGE","POP_AT_RISK":164094,"BUSINESS_TYPE":"Retail Food Est.-Supplemental License for Dog-Friendly Areas","LEGAL_NAME":"UKRAINIAN VILLAGE INC","LONGITUDE":-87.68451553845719},
{"STATE":"IL","ZIP":60607,"LATTITUDE":41.88166707708318,"ADDRESS":"1326-1328 W MADISON ST 1 ","YEAR":2010,"DOING_BUSINESS_AS_NAME":"WESTEND BAR & GRILL","POP_AT_RISK":209045,"BUSINESS_TYPE":"Retail Food Est.-Supplemental License for Dog-Friendly Areas","LEGAL_NAME":"WEST LOOP TAP, L.L.C.","LONGITUDE":-87.66070751628168},
{"STATE":"IL","ZIP":60640,"LATTITUDE":41.978342059241015,"ADDRESS":"5308-5310 N CLARK ST  ","YEAR":2010,"DOING_BUSINESS_AS_NAME":"ACRE\/ OMBRA","POP_AT_RISK":61661,"BUSINESS_TYPE":"Retail Food Est.-Supplemental License for Dog-Friendly Areas","LEGAL_NAME":"OLD TOWN CHARLIES, INC.","LONGITUDE":-87.66848426596569},
{"STATE":"IL","ZIP":60622,"LATTITUDE":41.9091920590843,"ADDRESS":"1531 N DAMEN AVE  ","YEAR":2010,"DOING_BUSINESS_AS_NAME":"BIG STAR","POP_AT_RISK":203211,"BUSINESS_TYPE":"Retail Food Est.-Supplemental License for Dog-Friendly Areas","LEGAL_NAME":"PONTIAC PRODUCE COMPANY","LONGITUDE":-87.67728290727564},
{"STATE":"IL","ZIP":60660,"LATTITUDE":41.99520222185558,"ADDRESS":"6219 N SHERIDAN RD  ","YEAR":2010,"DOING_BUSINESS_AS_NAME":"THE WATERFRONT CAFE","POP_AT_RISK":439632,"BUSINESS_TYPE":"Retail Food Est.-Supplemental License for Dog-Friendly Areas","LEGAL_NAME":"THE WATERFRONT CAFE, LLC","LONGITUDE":-87.65539830565382},
{"STATE":"IL","ZIP":60625,"LATTITUDE":41.96580612741261,"ADDRESS":"4632 N ROCKWELL ST  1","YEAR":2010,"DOING_BUSINESS_AS_NAME":"ROCKWELL'S NEIGHBORHOOD GRILL","POP_AT_RISK":253104,"BUSINESS_TYPE":"Retail Food Est.-Supplemental License for Dog-Friendly Areas","LEGAL_NAME":"NEIGHBORHOOD RESTAURANTS, INC.","LONGITUDE":-87.6938674921247},
{"STATE":"IL","ZIP":60613,"LATTITUDE":41.94924954780584,"ADDRESS":"3701 N BROADWAY  1 ","YEAR":2010,"DOING_BUSINESS_AS_NAME":"FINLEY MAHONY'S","POP_AT_RISK":158378,"BUSINESS_TYPE":"Retail Food Est.-Supplemental License for Dog-Friendly Areas","LEGAL_NAME":"ANGLO GERMAN ENTERTAINMENT LTD.","LONGITUDE":-87.64825980109582},
{}]