[
{"STATE":"IL","ZIP":60616,"LATTITUDE":41.847215134956635,"ADDRESS":"53 E 25TH ST  1","YEAR":2010,"DOING_BUSINESS_AS_NAME":"ACE RESTAURANT EQUIPMENT","POP_AT_RISK":42370,"BUSINESS_TYPE":"Electronic Equipment Repair","LEGAL_NAME":"THOMAS JUE","LONGITUDE":-87.62486300142383},
{"STATE":"IL","ZIP":60617,"LATTITUDE":41.70770343525996,"ADDRESS":"10315 S COMMERCIAL AVE 1ST ","YEAR":2010,"DOING_BUSINESS_AS_NAME":"Commercial Printshop","POP_AT_RISK":66192,"BUSINESS_TYPE":"Electronic Equipment Repair","LEGAL_NAME":"Ramon Valles","LONGITUDE":-87.55325842415722},
{"STATE":"IL","ZIP":60609,"LATTITUDE":41.80867435711908,"ADDRESS":"1742 W 47TH ST 1ST ","YEAR":2010,"DOING_BUSINESS_AS_NAME":"ARTURO'S T V & VIDEO","POP_AT_RISK":215070,"BUSINESS_TYPE":"Electronic Equipment Repair","LEGAL_NAME":"ARTURO VARGAS","LONGITUDE":-87.66909460783324},
{"STATE":"IL","ZIP":60609,"LATTITUDE":41.81944142629576,"ADDRESS":"4100 S ASHLAND AVE  ","YEAR":2010,"DOING_BUSINESS_AS_NAME":"JUAN G. ALATRIZ","POP_AT_RISK":20340,"BUSINESS_TYPE":"Electronic Equipment Repair","LEGAL_NAME":"JUAN G ALATRIZ","LONGITUDE":-87.6653755449091},
{"STATE":"IL","ZIP":60632,"LATTITUDE":41.79927517730882,"ADDRESS":"5310 S ARCHER AVE  1ST","YEAR":2010,"DOING_BUSINESS_AS_NAME":"ARCHER ELECTRONIC INC","POP_AT_RISK":29168,"BUSINESS_TYPE":"Electronic Equipment Repair","LEGAL_NAME":"LESZEK RABCZAK","LONGITUDE":-87.73990095453236},
{"STATE":"IL","ZIP":60628,"LATTITUDE":41.69646826664951,"ADDRESS":"10846 S HALSTED ST  ","YEAR":2010,"DOING_BUSINESS_AS_NAME":"R & R COMPUTER SERVICES","POP_AT_RISK":50500,"BUSINESS_TYPE":"Electronic Equipment Repair","LEGAL_NAME":"ROCHELLE SMITH","LONGITUDE":-87.64265412117399},
{"STATE":"IL","ZIP":60628,"LATTITUDE":41.66248588927619,"ADDRESS":"12723 S HALSTED ST 1ST ","YEAR":2010,"DOING_BUSINESS_AS_NAME":"R & R COMPUTER SERVICES","POP_AT_RISK":95612,"BUSINESS_TYPE":"Electronic Equipment Repair","LEGAL_NAME":"ROCHELLE SMITH","LONGITUDE":-87.64124911070888},
{"STATE":"IL","ZIP":60624,"LATTITUDE":41.875688749340995,"ADDRESS":"346 S PULASKI RD  1","YEAR":2010,"DOING_BUSINESS_AS_NAME":"BILLS RADIO & TV REPAIR","POP_AT_RISK":338568,"BUSINESS_TYPE":"Electronic Equipment Repair","LEGAL_NAME":"WILLIAM HUNTER","LONGITUDE":-87.7256458606552},
{"STATE":"IL","ZIP":60653,"LATTITUDE":41.83071125551249,"ADDRESS":"3509 S DR MARTIN LUTHER KING JR DR 2ND ","YEAR":2010,"DOING_BUSINESS_AS_NAME":"COMPUTER SOLUTIONS","POP_AT_RISK":31255,"BUSINESS_TYPE":"Electronic Equipment Repair","LEGAL_NAME":"DEWITT WILLIAMS","LONGITUDE":-87.61680142035637},
{"STATE":"IL","ZIP":60652,"LATTITUDE":41.73862454427184,"ADDRESS":"8457 S PULASKI RD  ","YEAR":2010,"DOING_BUSINESS_AS_NAME":"HIGH POWER INC.","POP_AT_RISK":25233,"BUSINESS_TYPE":"Electronic Equipment Repair","LEGAL_NAME":"HIGH POWER INC.","LONGITUDE":-87.72141660738357},
{"STATE":"IL","ZIP":60707,"LATTITUDE":41.90905336260015,"ADDRESS":"7016 W NORTH AVE  1","YEAR":2010,"DOING_BUSINESS_AS_NAME":"SAV ELECTRONICS","POP_AT_RISK":41454,"BUSINESS_TYPE":"Electronic Equipment Repair","LEGAL_NAME":"SAV ELECTRONICS","LONGITUDE":-87.80104727544312},
{"STATE":"IL","ZIP":60623,"LATTITUDE":41.85918922054039,"ADDRESS":"3206 W 16TH ST  ","YEAR":2010,"DOING_BUSINESS_AS_NAME":"CELLULAR ZONE","POP_AT_RISK":109274,"BUSINESS_TYPE":"Electronic Equipment Repair","LEGAL_NAME":"CELLULAR ETC INC","LONGITUDE":-87.705793970407},
{"STATE":"IL","ZIP":60617,"LATTITUDE":41.736272292735656,"ADDRESS":"8737 S COMMERCIAL AVE 1ST ","YEAR":2010,"DOING_BUSINESS_AS_NAME":"CMK ELECTRONICS","POP_AT_RISK":50420,"BUSINESS_TYPE":"Electronic Equipment Repair","LEGAL_NAME":"MARISA SEPULVEDA","LONGITUDE":-87.55125849593779},
{"STATE":"IL","ZIP":60638,"LATTITUDE":41.79232419633276,"ADDRESS":"6646 W ARCHER AVE 1 ","YEAR":2010,"DOING_BUSINESS_AS_NAME":"Zs Computer Services","POP_AT_RISK":59230,"BUSINESS_TYPE":"Electronic Equipment Repair","LEGAL_NAME":"Paula M Zurawski","LONGITUDE":-87.7885687422822},
{"STATE":"IL","ZIP":60643,"LATTITUDE":41.69166723128615,"ADDRESS":"2355 W 111TH ST 1 1","YEAR":2010,"DOING_BUSINESS_AS_NAME":"E-Z COMPUTER INC.","POP_AT_RISK":86688,"BUSINESS_TYPE":"Electronic Equipment Repair","LEGAL_NAME":"E-Z COMPUTER INC.","LONGITUDE":-87.68090408274874},
{"STATE":"IL","ZIP":60646,"LATTITUDE":41.99255611745503,"ADDRESS":"6120 N PULASKI RD  ","YEAR":2010,"DOING_BUSINESS_AS_NAME":"PHUONG HOANG INC.","POP_AT_RISK":22844,"BUSINESS_TYPE":"Electronic Equipment Repair","LEGAL_NAME":"PHUONG HOANG INC.","LONGITUDE":-87.72902280433158},
{"STATE":"IL","ZIP":60612,"LATTITUDE":41.882165578261116,"ADDRESS":"2532 W WARREN BLVD  ","YEAR":2010,"DOING_BUSINESS_AS_NAME":"TELESERVICE CORP","POP_AT_RISK":284805,"BUSINESS_TYPE":"Electronic Equipment Repair","LEGAL_NAME":"TELESERVICES CORP","LONGITUDE":-87.68980000092242},
{"STATE":"IL","ZIP":60644,"LATTITUDE":41.88109449316272,"ADDRESS":"17 N CICERO AVE 1 ","YEAR":2010,"DOING_BUSINESS_AS_NAME":"BEST PRICES COMPUTERS","POP_AT_RISK":256326,"BUSINESS_TYPE":"Electronic Equipment Repair","LEGAL_NAME":"Clyde Payne Junior","LONGITUDE":-87.74515274797534},
{"STATE":"IL","ZIP":60636,"LATTITUDE":41.779806951166954,"ADDRESS":"6244 S DAMEN AVE 1ST ","YEAR":2010,"DOING_BUSINESS_AS_NAME":"REAL DEAL ELECTRONICS","POP_AT_RISK":193475,"BUSINESS_TYPE":"Electronic Equipment Repair","LEGAL_NAME":"BRANDEE A MCMASTERS","LONGITUDE":-87.67405919625807},
{"STATE":"IL","ZIP":60610,"LATTITUDE":41.90393760463335,"ADDRESS":"238 W DIVISION ST 1 ","YEAR":2010,"DOING_BUSINESS_AS_NAME":"SAMMY'S RED HOTS","POP_AT_RISK":79582,"BUSINESS_TYPE":"Electronic Equipment Repair","LEGAL_NAME":"DOG'S UNLIMITED LLC","LONGITUDE":-87.63621470016516},
{"STATE":"IL","ZIP":60632,"LATTITUDE":41.82134431810515,"ADDRESS":"3982 S ARCHER AVE 1 ","YEAR":2010,"DOING_BUSINESS_AS_NAME":"CYBERK COMPUTEK INC.","POP_AT_RISK":56648,"BUSINESS_TYPE":"Electronic Equipment Repair","LEGAL_NAME":"CYBERK COMPUTEK INC.","LONGITUDE":-87.69264968521705},
{"STATE":"IL","ZIP":60614,"LATTITUDE":41.93083301378749,"ADDRESS":"2650 N CLARK ST  ","YEAR":2010,"DOING_BUSINESS_AS_NAME":"BEST BUY","POP_AT_RISK":81141,"BUSINESS_TYPE":"Electronic Equipment Repair","LEGAL_NAME":"BEST BUY STORES, L.P.","LONGITUDE":-87.64413543645641},
{"STATE":"IL","ZIP":60628,"LATTITUDE":41.677737342300944,"ADDRESS":"11908 S MICHIGAN AVE 1ST ","YEAR":2010,"DOING_BUSINESS_AS_NAME":"Ed Fisher & Associates","POP_AT_RISK":23616,"BUSINESS_TYPE":"Electronic Equipment Repair","LEGAL_NAME":"Eddie L Fisher Senior","LONGITUDE":-87.62064804425044},
{"STATE":"IL","ZIP":60629,"LATTITUDE":41.778566567291335,"ADDRESS":"4702 W 63RD ST 1ST ","YEAR":2010,"DOING_BUSINESS_AS_NAME":"SMOOTH WIRELESS","POP_AT_RISK":25513,"BUSINESS_TYPE":"Electronic Equipment Repair","LEGAL_NAME":"SMOOTH WIRELESS, INC.","LONGITUDE":-87.73998283949524},
{"STATE":"IL","ZIP":60623,"LATTITUDE":41.844004597432054,"ADDRESS":"4379 W 26TH ST 1 ","YEAR":2010,"DOING_BUSINESS_AS_NAME":"CONECTA","POP_AT_RISK":45902,"BUSINESS_TYPE":"Electronic Equipment Repair","LEGAL_NAME":"YESENIA I MONTES INC.","LONGITUDE":-87.73413154858753},
{"STATE":"IL","ZIP":60645,"LATTITUDE":42.016053205008,"ADDRESS":"7409 N WESTERN AVE  ","YEAR":2010,"DOING_BUSINESS_AS_NAME":"COMPUTECH SERVICES INC","POP_AT_RISK":45582,"BUSINESS_TYPE":"Electronic Equipment Repair","LEGAL_NAME":"COMPUTECH SERVICES INC","LONGITUDE":-87.69006386649397},
{"STATE":"IL","ZIP":60636,"LATTITUDE":41.7676107590257,"ADDRESS":"6930 S ASHLAND AVE 1ST A","YEAR":2010,"DOING_BUSINESS_AS_NAME":"RADIO SHACK #","POP_AT_RISK":71672,"BUSINESS_TYPE":"Electronic Equipment Repair","LEGAL_NAME":"RADIOSHACK CORPORATION","LONGITUDE":-87.66401069778658},
{"STATE":"IL","ZIP":60638,"LATTITUDE":41.79554052343161,"ADDRESS":"5897 S ARCHER AVE  ","YEAR":2010,"DOING_BUSINESS_AS_NAME":"RADIO SHACK #6582","POP_AT_RISK":23175,"BUSINESS_TYPE":"Electronic Equipment Repair","LEGAL_NAME":"RADIOSHACK CORPORATION","LONGITUDE":-87.76276028417233},
{"STATE":"IL","ZIP":60018,"LATTITUDE":41.9736361061225,"ADDRESS":"5212 N SHAPLAND AVE  ","YEAR":2010,"DOING_BUSINESS_AS_NAME":"ROCKWELL COLLINS","POP_AT_RISK":16526,"BUSINESS_TYPE":"Electronic Equipment Repair","LEGAL_NAME":"ROCKWELL COLLINS, INC.","LONGITUDE":-87.87114301436868},
{"STATE":"IL","ZIP":60638,"LATTITUDE":41.77755770453549,"ADDRESS":"6415 W 63RD ST  ","YEAR":2010,"DOING_BUSINESS_AS_NAME":"MIDWAY COMPUTER SERVICE","POP_AT_RISK":82872,"BUSINESS_TYPE":"Electronic Equipment Repair","LEGAL_NAME":"MIDWAY COMPUTER SERVICE","LONGITUDE":-87.78187363648718},
{"STATE":"IL","ZIP":60631,"LATTITUDE":42.01803262230275,"ADDRESS":"7534 N MILWAUKEE AVE 1ST ","YEAR":2010,"DOING_BUSINESS_AS_NAME":"PC REPAIR & SALES","POP_AT_RISK":140395,"BUSINESS_TYPE":"Electronic Equipment Repair","LEGAL_NAME":"ELIZABETH & LARRY LIEGGI","LONGITUDE":-87.80693773851367},
{"STATE":"IL","ZIP":60608,"LATTITUDE":41.853857226621656,"ADDRESS":"2100 S PEORIA ST  ","YEAR":2010,"DOING_BUSINESS_AS_NAME":"CHICAGO COMMUNICATION LLC","POP_AT_RISK":41035,"BUSINESS_TYPE":"Electronic Equipment Repair","LEGAL_NAME":"CHICAGO COMMUNICATION LLC","LONGITUDE":-87.64831214729323},
{"STATE":"IL","ZIP":60634,"LATTITUDE":41.95270759569199,"ADDRESS":"6615 W IRVING PARK RD 201 #","YEAR":2010,"DOING_BUSINESS_AS_NAME":"PROCOM ENTERPRISES LTD","POP_AT_RISK":34740,"BUSINESS_TYPE":"Electronic Equipment Repair","LEGAL_NAME":"PROCOM ENTERPRISE LIMITED","LONGITUDE":-87.79210947400955},
{"STATE":"IL","ZIP":60607,"LATTITUDE":41.869175484822186,"ADDRESS":"1523 W TAYLOR ST 1 1","YEAR":2010,"DOING_BUSINESS_AS_NAME":"CAMPUS MARKET","POP_AT_RISK":39709,"BUSINESS_TYPE":"Electronic Equipment Repair","LEGAL_NAME":"WORLD COMPUTER CENTER, INC.","LONGITUDE":-87.66506632408525},
{"STATE":"IL","ZIP":60615,"LATTITUDE":41.795082096806134,"ADDRESS":"1521 E 55TH ST 1 ","YEAR":2010,"DOING_BUSINESS_AS_NAME":"CHICAGO COMPUTER CLUB","POP_AT_RISK":40389,"BUSINESS_TYPE":"Electronic Equipment Repair","LEGAL_NAME":"CHICAGO COMPUTER CLUB, CORP.","LONGITUDE":-87.58826812316532},
{"STATE":"IL","ZIP":60622,"LATTITUDE":41.90075033894735,"ADDRESS":"1047 N CALIFORNIA AVE 1ST ","YEAR":2010,"DOING_BUSINESS_AS_NAME":"ETHERSONIC","POP_AT_RISK":98266,"BUSINESS_TYPE":"Electronic Equipment Repair","LEGAL_NAME":"ETHERSONIC TECHNOLOGIES, LLC","LONGITUDE":-87.696680752457},
{"STATE":"IL","ZIP":60707,"LATTITUDE":41.9238131215879,"ADDRESS":"7140 W GRAND AVE 1ST ","YEAR":2010,"DOING_BUSINESS_AS_NAME":"CHICAGO COMPUTER CENTER, INC.","POP_AT_RISK":46315,"BUSINESS_TYPE":"Electronic Equipment Repair","LEGAL_NAME":"CHICAGO COMPUTER CENTER, INC.","LONGITUDE":-87.8042787366181},
{"STATE":"IL","ZIP":60620,"LATTITUDE":41.7359306245932,"ADDRESS":"857-859 W 87TH ST  ","YEAR":2010,"DOING_BUSINESS_AS_NAME":"EXCLUSIVE COMMUNICATIONS","POP_AT_RISK":37406,"BUSINESS_TYPE":"Electronic Equipment Repair","LEGAL_NAME":"EXCLUSIVE COMMUNICATIONS INC.","LONGITUDE":-87.64592269403622},
{"STATE":"IL","ZIP":60637,"LATTITUDE":41.776870543389926,"ADDRESS":"6459 S COTTAGE GROVE AVE 1ST ","YEAR":2010,"DOING_BUSINESS_AS_NAME":"TECHMARK MULTI-SERVICES, INC.","POP_AT_RISK":153756,"BUSINESS_TYPE":"Electronic Equipment Repair","LEGAL_NAME":"TECHMARK MULTI-SERVICES, INC.","LONGITUDE":-87.60570501770475},
{"STATE":"IL","ZIP":60646,"LATTITUDE":41.997926038054146,"ADDRESS":"6416 N CENTRAL AVE  ","YEAR":2010,"DOING_BUSINESS_AS_NAME":"EDGEBROOK","POP_AT_RISK":17956,"BUSINESS_TYPE":"Electronic Equipment Repair","LEGAL_NAME":"EDGEBROOK TELEVISION SALES INC","LONGITUDE":-87.76372671651097},
{"STATE":"IL","ZIP":60639,"LATTITUDE":41.909219664802585,"ADDRESS":"5725 W NORTH AVE 1ST ","YEAR":2010,"DOING_BUSINESS_AS_NAME":"NU LUUK COMPUTER SERVICES","POP_AT_RISK":54250,"BUSINESS_TYPE":"Electronic Equipment Repair","LEGAL_NAME":"NU LUUK COMPUTERS SERVICES, INC.","LONGITUDE":-87.7694214347033},
{"STATE":"IL","ZIP":60626,"LATTITUDE":42.01928855008811,"ADDRESS":"1763 W HOWARD ST  ","YEAR":2010,"DOING_BUSINESS_AS_NAME":"U S CELLULAR","POP_AT_RISK":62574,"BUSINESS_TYPE":"Electronic Equipment Repair","LEGAL_NAME":"UNITED STATES CELLULAR OPERATING COMPANY OF CHICAGO, LLC","LONGITUDE":-87.67505850938775},
{"STATE":"IL","ZIP":60643,"LATTITUDE":41.713013336357946,"ADDRESS":"9920 S WESTERN AVE  ","YEAR":2010,"DOING_BUSINESS_AS_NAME":"U S CELLULAR","POP_AT_RISK":18818,"BUSINESS_TYPE":"Electronic Equipment Repair","LEGAL_NAME":"UNITED STATES CELLULAR OPERATING COMPANY OF CHICAGO, LLC","LONGITUDE":-87.68196971044577},
{}]