[
{"STATE":"IL","ZIP":60628,"LATTITUDE":41.72179992030144,"ADDRESS":"100 W 95TH ST  ","YEAR":2014,"DOING_BUSINESS_AS_NAME":"C K  JEWELRY","POP_AT_RISK":116204,"BUSINESS_TYPE":"Secondhand Dealer (Includes Valuable Objects)","LEGAL_NAME":"JINO PARK","LONGITUDE":-87.6262986724053},
{"STATE":"IL","ZIP":60637,"LATTITUDE":41.78072554513874,"ADDRESS":"6250 S COTTAGE GROVE AVE 1ST ","YEAR":2014,"DOING_BUSINESS_AS_NAME":"COSMO JEWELRY","POP_AT_RISK":438477,"BUSINESS_TYPE":"Secondhand Dealer (Includes Valuable Objects)","LEGAL_NAME":"JINO PARK","LONGITUDE":-87.60608384712403},
{"STATE":"IL","ZIP":60615,"LATTITUDE":41.79943908295689,"ADDRESS":"1515 E 53RD ST  ","YEAR":2014,"DOING_BUSINESS_AS_NAME":"SUPREME JEWELER","POP_AT_RISK":155756,"BUSINESS_TYPE":"Secondhand Dealer (Includes Valuable Objects)","LEGAL_NAME":"RMF, INC.","LONGITUDE":-87.5884961930652},
{"STATE":"IL","ZIP":60617,"LATTITUDE":41.702938777167084,"ADDRESS":"10554 S EWING AVE 1 1","YEAR":2014,"DOING_BUSINESS_AS_NAME":"CASH FOR GOLD","POP_AT_RISK":104835,"BUSINESS_TYPE":"Secondhand Dealer (Includes Valuable Objects)","LEGAL_NAME":"SAMER ASHKAR","LONGITUDE":-87.53543056413862},
{"STATE":"IL","ZIP":60625,"LATTITUDE":41.968413864615215,"ADDRESS":"3740 W LAWRENCE AVE  1","YEAR":2014,"DOING_BUSINESS_AS_NAME":"THRIFT & RESALE","POP_AT_RISK":63780,"BUSINESS_TYPE":"Secondhand Dealer (Includes Valuable Objects)","LEGAL_NAME":"SUN WHA PARK","LONGITUDE":-87.72232036127772},
{"STATE":"IL","ZIP":60608,"LATTITUDE":41.84058423071815,"ADDRESS":"2963 S ARCHER AVE 1ST ","YEAR":2014,"DOING_BUSINESS_AS_NAME":"BRIDGEPORT ANTIQUES","POP_AT_RISK":31473,"BUSINESS_TYPE":"Secondhand Dealer (Includes Valuable Objects)","LEGAL_NAME":"CAM GORDENSKI","LONGITUDE":-87.65988587440462},
{"STATE":"IL","ZIP":60639,"LATTITUDE":41.90938084127726,"ADDRESS":"5936 W NORTH AVE  ","YEAR":2014,"DOING_BUSINESS_AS_NAME":"NORTH AVENUE GOLD & SILVER EXCHANGE","POP_AT_RISK":41044,"BUSINESS_TYPE":"Secondhand Dealer (Includes Valuable Objects)","LEGAL_NAME":"JOHN L. NOLEN","LONGITUDE":-87.7741816187019},
{"STATE":"IL","ZIP":60634,"LATTITUDE":41.95298420287931,"ADDRESS":"6500 W IRVING PARK RD 1ST ","YEAR":2014,"DOING_BUSINESS_AS_NAME":"JOSEPH'S JEWELERS","POP_AT_RISK":85578,"BUSINESS_TYPE":"Secondhand Dealer (Includes Valuable Objects)","LEGAL_NAME":"JOSEPH KENSKI","LONGITUDE":-87.78908383095457},
{"STATE":"IL","ZIP":60631,"LATTITUDE":42.012198711314255,"ADDRESS":"7214 N HARLEM AVE 1ST ","YEAR":2014,"DOING_BUSINESS_AS_NAME":"THE ANTIQUE & RESALE SHOPPE","POP_AT_RISK":53364,"BUSINESS_TYPE":"Secondhand Dealer (Includes Valuable Objects)","LEGAL_NAME":"SUZANNE LAZER","LONGITUDE":-87.80677987610609},
{"STATE":"IL","ZIP":60607,"LATTITUDE":41.86580802350966,"ADDRESS":"1252 S CANAL ST  ","YEAR":2014,"DOING_BUSINESS_AS_NAME":"GAMESTOP #476","POP_AT_RISK":62314,"BUSINESS_TYPE":"Secondhand Dealer (Includes Valuable Objects)","LEGAL_NAME":"GAMESTOP, INC.","LONGITUDE":-87.6393486005042},
{"STATE":"IL","ZIP":60652,"LATTITUDE":41.74819420327024,"ADDRESS":"7945 S CICERO AVE  ","YEAR":2014,"DOING_BUSINESS_AS_NAME":"GAMESTOP #573","POP_AT_RISK":53440,"BUSINESS_TYPE":"Secondhand Dealer (Includes Valuable Objects)","LEGAL_NAME":"GAMESTOP, INC.","LONGITUDE":-87.74115846516214},
{"STATE":"IL","ZIP":60626,"LATTITUDE":42.01928647961978,"ADDRESS":"1751E W HOWARD ST  ","YEAR":2014,"DOING_BUSINESS_AS_NAME":"GAMESTOP #1568","POP_AT_RISK":62574,"BUSINESS_TYPE":"Secondhand Dealer (Includes Valuable Objects)","LEGAL_NAME":"GAMESTOP, INC.","LONGITUDE":-87.67461054986008},
{"STATE":"IL","ZIP":60649,"LATTITUDE":41.765189524327816,"ADDRESS":"7131 S JEFFERY BLVD  ","YEAR":2014,"DOING_BUSINESS_AS_NAME":"GAMESTOP #1570","POP_AT_RISK":303359,"BUSINESS_TYPE":"Secondhand Dealer (Includes Valuable Objects)","LEGAL_NAME":"GAMESTOP, INC.","LONGITUDE":-87.57613310396634},
{"STATE":"IL","ZIP":60619,"LATTITUDE":41.73893048492633,"ADDRESS":"8546 S COTTAGE GROVE AVE  G3B","YEAR":2014,"DOING_BUSINESS_AS_NAME":"GAMESTOP #1685","POP_AT_RISK":38439,"BUSINESS_TYPE":"Secondhand Dealer (Includes Valuable Objects)","LEGAL_NAME":"GAMESTOP, INC.","LONGITUDE":-87.60503326630342},
{"STATE":"IL","ZIP":60636,"LATTITUDE":41.767328200940014,"ADDRESS":"6940 S ASHLAND AVE 1ST ","YEAR":2014,"DOING_BUSINESS_AS_NAME":"GAMESTOP #6098","POP_AT_RISK":290409,"BUSINESS_TYPE":"Secondhand Dealer (Includes Valuable Objects)","LEGAL_NAME":"GAMESTOP, INC.","LONGITUDE":-87.66400242735763},
{"STATE":"IL","ZIP":60643,"LATTITUDE":41.677591897397605,"ADDRESS":"1710 W 119TH ST 1ST ","YEAR":2014,"DOING_BUSINESS_AS_NAME":"GAMESTOP #6161","POP_AT_RISK":25454,"BUSINESS_TYPE":"Secondhand Dealer (Includes Valuable Objects)","LEGAL_NAME":"GAMESTOP, INC.","LONGITUDE":-87.66443188411463},
{"STATE":"IL","ZIP":60651,"LATTITUDE":41.89561531354531,"ADDRESS":"800 N KEDZIE AVE 1ST 112","YEAR":2014,"DOING_BUSINESS_AS_NAME":"GAMESTOP #6437","POP_AT_RISK":90630,"BUSINESS_TYPE":"Secondhand Dealer (Includes Valuable Objects)","LEGAL_NAME":"GAMESTOP, INC.","LONGITUDE":-87.70670532510552},
{"STATE":"IL","ZIP":60617,"LATTITUDE":41.72227962071084,"ADDRESS":"1725 E 95TH ST  ","YEAR":2014,"DOING_BUSINESS_AS_NAME":"Gamestop #2617","POP_AT_RISK":67578,"BUSINESS_TYPE":"Secondhand Dealer (Includes Valuable Objects)","LEGAL_NAME":"GAMESTOP, INC.","LONGITUDE":-87.58155143760337},
{"STATE":"IL","ZIP":60643,"LATTITUDE":41.721070913767896,"ADDRESS":"2320 W 95TH ST  ","YEAR":2014,"DOING_BUSINESS_AS_NAME":"Gamestop #5182","POP_AT_RISK":14129,"BUSINESS_TYPE":"Secondhand Dealer (Includes Valuable Objects)","LEGAL_NAME":"GAMESTOP, INC.","LONGITUDE":-87.68059550679698},
{"STATE":"IL","ZIP":60653,"LATTITUDE":41.80979548271692,"ADDRESS":"1400 E 47TH DR  B","YEAR":2014,"DOING_BUSINESS_AS_NAME":"GAMESTOP # 2674","POP_AT_RISK":70606,"BUSINESS_TYPE":"Secondhand Dealer (Includes Valuable Objects)","LEGAL_NAME":"GAMESTOP, INC.","LONGITUDE":-87.59237386663331},
{"STATE":"IL","ZIP":60628,"LATTITUDE":41.66248588927619,"ADDRESS":"12723 S HALSTED ST 1ST ","YEAR":2014,"DOING_BUSINESS_AS_NAME":"R & R COMPUTER SERVICES","POP_AT_RISK":47806,"BUSINESS_TYPE":"Secondhand Dealer (Includes Valuable Objects)","LEGAL_NAME":"ROCHELLE SMITH","LONGITUDE":-87.64124911070888},
{"STATE":"IL","ZIP":60630,"LATTITUDE":41.977073403723836,"ADDRESS":"5255 N CENTRAL AVE 1ST ","YEAR":2014,"DOING_BUSINESS_AS_NAME":"GET CASH","POP_AT_RISK":168780,"BUSINESS_TYPE":"Secondhand Dealer (Includes Valuable Objects)","LEGAL_NAME":"DMITRIY BOGOMAZ","LONGITUDE":-87.76830427063935},
{"STATE":"IL","ZIP":60645,"LATTITUDE":42.00628381418364,"ADDRESS":"6901 N WESTERN AVE  1ST","YEAR":2014,"DOING_BUSINESS_AS_NAME":"B J FURNITURE & ANTIQUES","POP_AT_RISK":73762,"BUSINESS_TYPE":"Secondhand Dealer (Includes Valuable Objects)","LEGAL_NAME":"ROCHELLE ISRAEL","LONGITUDE":-87.68995262954564},
{"STATE":"IL","ZIP":60623,"LATTITUDE":41.85918922054039,"ADDRESS":"3206 W 16TH ST  ","YEAR":2014,"DOING_BUSINESS_AS_NAME":"CELLULAR ZONE","POP_AT_RISK":273185,"BUSINESS_TYPE":"Secondhand Dealer (Includes Valuable Objects)","LEGAL_NAME":"CELLULAR ETC INC","LONGITUDE":-87.705793970407},
{"STATE":"IL","ZIP":60638,"LATTITUDE":41.77764117266972,"ADDRESS":"6223 W 63RD ST 1 ","YEAR":2014,"DOING_BUSINESS_AS_NAME":"CASH 4 GOLD","POP_AT_RISK":44926,"BUSINESS_TYPE":"Secondhand Dealer (Includes Valuable Objects)","LEGAL_NAME":"CASH 4 GOLD, INC.","LONGITUDE":-87.7773012320788},
{"STATE":"IL","ZIP":60643,"LATTITUDE":41.69166723128615,"ADDRESS":"2355 W 111TH ST 1 1","YEAR":2014,"DOING_BUSINESS_AS_NAME":"E-Z COMPUTER INC.","POP_AT_RISK":86688,"BUSINESS_TYPE":"Secondhand Dealer (Includes Valuable Objects)","LEGAL_NAME":"E-Z COMPUTER INC.","LONGITUDE":-87.68090408274874},
{"STATE":"IL","ZIP":60638,"LATTITUDE":41.79218916857037,"ADDRESS":"6455 W ARCHER AVE  ","YEAR":2014,"DOING_BUSINESS_AS_NAME":"CHICAGO COIN CO INC","POP_AT_RISK":61450,"BUSINESS_TYPE":"Secondhand Dealer (Includes Valuable Objects)","LEGAL_NAME":"CHICAGO COIN CO INC","LONGITUDE":-87.7840169671266},
{"STATE":"IL","ZIP":60659,"LATTITUDE":41.997822472574065,"ADDRESS":"2422 W DEVON AVE 1ST ","YEAR":2014,"DOING_BUSINESS_AS_NAME":"RITE DEALS","POP_AT_RISK":71909,"BUSINESS_TYPE":"Secondhand Dealer (Includes Valuable Objects)","LEGAL_NAME":"WILLIE M. MWACHANDE","LONGITUDE":-87.69087634357909},
{"STATE":"IL","ZIP":60646,"LATTITUDE":42.01189420932856,"ADDRESS":"6141 W TOUHY AVE 1ST A","YEAR":2014,"DOING_BUSINESS_AS_NAME":"ASAYA SOLUTIONS, INC.","POP_AT_RISK":10753,"BUSINESS_TYPE":"Secondhand Dealer (Includes Valuable Objects)","LEGAL_NAME":"ASAYA SOLUTIONS INC.","LONGITUDE":-87.78085546874075},
{"STATE":"IL","ZIP":60622,"LATTITUDE":41.89604998293137,"ADDRESS":"1914 W CHICAGO AVE  ","YEAR":2014,"DOING_BUSINESS_AS_NAME":"PERMANENT RECORDS LLC","POP_AT_RISK":110026,"BUSINESS_TYPE":"Secondhand Dealer (Includes Valuable Objects)","LEGAL_NAME":"PERMANENT RECORDS LLC","LONGITUDE":-87.67526671355324},
{"STATE":"IL","ZIP":60653,"LATTITUDE":41.80943497068632,"ADDRESS":"220 E 47TH ST 1ST ","YEAR":2014,"DOING_BUSINESS_AS_NAME":"GET CASH FOR GOLD","POP_AT_RISK":336360,"BUSINESS_TYPE":"Secondhand Dealer (Includes Valuable Objects)","LEGAL_NAME":"GET CASH FOR GOLD INC.","LONGITUDE":-87.62022410900799},
{"STATE":"IL","ZIP":60619,"LATTITUDE":41.751194338221865,"ADDRESS":"7900 S COTTAGE GROVE AVE 1ST ","YEAR":2014,"DOING_BUSINESS_AS_NAME":"GET CASH FOR GOLD","POP_AT_RISK":155072,"BUSINESS_TYPE":"Secondhand Dealer (Includes Valuable Objects)","LEGAL_NAME":"GET CASH FOR GOLD INC.","LONGITUDE":-87.60536732633038},
{"STATE":"IL","ZIP":60628,"LATTITUDE":41.66350259001352,"ADDRESS":"150 W 127TH ST 1 ","YEAR":2014,"DOING_BUSINESS_AS_NAME":"GET CASH FOR GOLD INC.,","POP_AT_RISK":15621,"BUSINESS_TYPE":"Secondhand Dealer (Includes Valuable Objects)","LEGAL_NAME":"GET CASH FOR GOLD INC.","LONGITUDE":-87.62650611188982},
{"STATE":"IL","ZIP":60649,"LATTITUDE":41.75149472725302,"ADDRESS":"1957 E 79TH ST 1 ","YEAR":2014,"DOING_BUSINESS_AS_NAME":"GET CASH FOR GOLD INC.,","POP_AT_RISK":132774,"BUSINESS_TYPE":"Secondhand Dealer (Includes Valuable Objects)","LEGAL_NAME":"GET CASH FOR GOLD INC.","LONGITUDE":-87.5761254017018},
{"STATE":"IL","ZIP":60629,"LATTITUDE":41.77249765904406,"ADDRESS":"6622 S PULASKI RD 1 1","YEAR":2014,"DOING_BUSINESS_AS_NAME":"CASH FOR YOUR GOLD","POP_AT_RISK":40605,"BUSINESS_TYPE":"Secondhand Dealer (Includes Valuable Objects)","LEGAL_NAME":"GOLD ON 66TH ST., INC.","LONGITUDE":-87.7227502345334},
{"STATE":"IL","ZIP":60621,"LATTITUDE":41.768949204090816,"ADDRESS":"766 W 69TH ST 1ST ","YEAR":2014,"DOING_BUSINESS_AS_NAME":"E Z CASH FOR GOLD","POP_AT_RISK":126316,"BUSINESS_TYPE":"Secondhand Dealer (Includes Valuable Objects)","LEGAL_NAME":"E Z CASH FOR GOLD INC.,","LONGITUDE":-87.64436818272317},
{"STATE":"IL","ZIP":60617,"LATTITUDE":41.732275009984576,"ADDRESS":"8948 S COMMERCIAL AVE 1ST B","YEAR":2014,"DOING_BUSINESS_AS_NAME":"GEMSTONE JEWELERS, INC.","POP_AT_RISK":123914,"BUSINESS_TYPE":"Secondhand Dealer (Includes Valuable Objects)","LEGAL_NAME":"GEMSTONE JEWELERS, INC.","LONGITUDE":-87.55145238038355},
{"STATE":"IL","ZIP":60608,"LATTITUDE":41.85833745847759,"ADDRESS":"1710 S ASHLAND AVE 1 ","YEAR":2014,"DOING_BUSINESS_AS_NAME":"AUSTIN CASH 4 GOLD","POP_AT_RISK":83888,"BUSINESS_TYPE":"Secondhand Dealer (Includes Valuable Objects)","LEGAL_NAME":"AUSTIN CASH 4 GOLD, INC.","LONGITUDE":-87.66630958870986},
{"STATE":"IL","ZIP":60646,"LATTITUDE":41.997218561842885,"ADDRESS":"5413-5417 W DEVON AVE 1ST ","YEAR":2014,"DOING_BUSINESS_AS_NAME":"MY SISTER'S CLOSET","POP_AT_RISK":17956,"BUSINESS_TYPE":"Secondhand Dealer (Includes Valuable Objects)","LEGAL_NAME":"MY SISTER'S CLOSET, LTD.","LONGITUDE":-87.7643229386157},
{"STATE":"IL","ZIP":60638,"LATTITUDE":41.80588964456255,"ADDRESS":"4758 S CICERO AVE 1ST ","YEAR":2014,"DOING_BUSINESS_AS_NAME":"OLYMPIC STORE FIXTURES INC","POP_AT_RISK":71886,"BUSINESS_TYPE":"Secondhand Dealer (Includes Valuable Objects)","LEGAL_NAME":"OLYMPIC STORE FIXTURES INC","LONGITUDE":-87.74325510064476},
{"STATE":"IL","ZIP":60614,"LATTITUDE":41.92740673874206,"ADDRESS":"2471 N CLARK ST  ","YEAR":2014,"DOING_BUSINESS_AS_NAME":"STEVE QUICK JEWELERS","POP_AT_RISK":65458,"BUSINESS_TYPE":"Secondhand Dealer (Includes Valuable Objects)","LEGAL_NAME":"STEVE QUICK JEWELERS, INC.","LONGITUDE":-87.6414081991043},
{"STATE":"IL","ZIP":60647,"LATTITUDE":41.92942970108446,"ADDRESS":"2626 N MILWAUKEE AVE 1 ","YEAR":2014,"DOING_BUSINESS_AS_NAME":"SANTA BARBARA JEWELRY","POP_AT_RISK":77925,"BUSINESS_TYPE":"Secondhand Dealer (Includes Valuable Objects)","LEGAL_NAME":"MIGUEL RAMIREZ JEWELRY INC.","LONGITUDE":-87.70821544374503},
{"STATE":"IL","ZIP":60624,"LATTITUDE":41.88078242154838,"ADDRESS":"4150 W MADISON ST 1ST ","YEAR":2014,"DOING_BUSINESS_AS_NAME":"WEST TOWN LIQUIDATORS INC","POP_AT_RISK":252096,"BUSINESS_TYPE":"Secondhand Dealer (Includes Valuable Objects)","LEGAL_NAME":"WEST TOWN LIQUIDATORS, INC.","LONGITUDE":-87.73008512020141},
{"STATE":"IL","ZIP":60609,"LATTITUDE":41.79782258812668,"ADDRESS":"5257 S ASHLAND AVE  ","YEAR":2014,"DOING_BUSINESS_AS_NAME":"SUPER CASH 4 GOLD","POP_AT_RISK":247824,"BUSINESS_TYPE":"Secondhand Dealer (Includes Valuable Objects)","LEGAL_NAME":"SUPER DOLLAR AND UP # 2 INC.","LONGITUDE":-87.66453687828134},
{"STATE":"IL","ZIP":60643,"LATTITUDE":41.72124063361716,"ADDRESS":"1824 W 95TH ST  ","YEAR":2014,"DOING_BUSINESS_AS_NAME":"C F A O TECHNICAL SERVICES, INC.","POP_AT_RISK":69858,"BUSINESS_TYPE":"Secondhand Dealer (Includes Valuable Objects)","LEGAL_NAME":"C F A O TECHNICAL SERVICES, INC.","LONGITUDE":-87.66847425891076},
{"STATE":"IL","ZIP":60644,"LATTITUDE":41.880495475126516,"ADDRESS":"5134 W MADISON ST  ","YEAR":2014,"DOING_BUSINESS_AS_NAME":"MADISON STREET GOLD EXCHANGE INC","POP_AT_RISK":96058,"BUSINESS_TYPE":"Secondhand Dealer (Includes Valuable Objects)","LEGAL_NAME":"MADISON STREET GOLD EXCHANGE, INC.","LONGITUDE":-87.75403138255727},
{}]