[
{"STATE":"IL","ZIP":60628,"LATTITUDE":41.71228426680393,"ADDRESS":"10001 S HALSTED ST 1ST ","YEAR":2006,"DOING_BUSINESS_AS_NAME":"JOY AUTO CORP","POP_AT_RISK":178024,"BUSINESS_TYPE":"Tire Facilty Class I (100 - 1,000 Tires)","LEGAL_NAME":"JOY INC","LONGITUDE":-87.64282331311932},
{"STATE":"IL","ZIP":60653,"LATTITUDE":41.82366049508601,"ADDRESS":"3904 S DR MARTIN LUTHER KING JR DR 1ST ","YEAR":2006,"DOING_BUSINESS_AS_NAME":"JOE'S TIRE REPAIR","POP_AT_RISK":514290,"BUSINESS_TYPE":"Tire Facilty Class I (100 - 1,000 Tires)","LEGAL_NAME":"JOE TRIBBLE","LONGITUDE":-87.61713912752951},
{"STATE":"IL","ZIP":60620,"LATTITUDE":41.73948850835696,"ADDRESS":"8501 S RACINE AVE  1ST","YEAR":2006,"DOING_BUSINESS_AS_NAME":"E & J TIRE SERVICE","POP_AT_RISK":362583,"BUSINESS_TYPE":"Tire Facilty Class I (100 - 1,000 Tires)","LEGAL_NAME":"JOHN WARREN","LONGITUDE":-87.65329105074261},
{"STATE":"IL","ZIP":60626,"LATTITUDE":41.999988014812224,"ADDRESS":"6501 N CLARK ST  ","YEAR":2006,"DOING_BUSINESS_AS_NAME":"CLARK TIRE SERVICE","POP_AT_RISK":243315,"BUSINESS_TYPE":"Tire Facilty Class I (100 - 1,000 Tires)","LEGAL_NAME":"JOSE CHACON","LONGITUDE":-87.67109448986507},
{"STATE":"IL","ZIP":60628,"LATTITUDE":41.694688042592915,"ADDRESS":"10952 S MICHIGAN AVE  1","YEAR":2006,"DOING_BUSINESS_AS_NAME":"4 ACES TIRES","POP_AT_RISK":155180,"BUSINESS_TYPE":"Tire Facilty Class I (100 - 1,000 Tires)","LEGAL_NAME":"JAMES GORDON","LONGITUDE":-87.62092998827042},
{"STATE":"IL","ZIP":60655,"LATTITUDE":41.68405564822949,"ADDRESS":"11460 S PULASKI RD 1ST ","YEAR":2006,"DOING_BUSINESS_AS_NAME":"MALLEY'S DISCOUNT TIRE & AUTO","POP_AT_RISK":19944,"BUSINESS_TYPE":"Tire Facilty Class I (100 - 1,000 Tires)","LEGAL_NAME":"MALLEYS AUTO","LONGITUDE":-87.72021417440187},
{"STATE":"IL","ZIP":60624,"LATTITUDE":41.8807669005056,"ADDRESS":"3515 W MADISON ST  ","YEAR":2006,"DOING_BUSINESS_AS_NAME":"JW TIRE REPAIR INC","POP_AT_RISK":156180,"BUSINESS_TYPE":"Tire Facilty Class I (100 - 1,000 Tires)","LEGAL_NAME":"WILLIE COBBS","LONGITUDE":-87.71422124392193},
{"STATE":"IL","ZIP":60608,"LATTITUDE":41.83358535998523,"ADDRESS":"3342 S HALSTED ST  ","YEAR":2006,"DOING_BUSINESS_AS_NAME":"QUINTANILLA TIRE CENTER","POP_AT_RISK":76228,"BUSINESS_TYPE":"Tire Facilty Class I (100 - 1,000 Tires)","LEGAL_NAME":"CARLOS ARAIZA","LONGITUDE":-87.64631950543792},
{"STATE":"IL","ZIP":60640,"LATTITUDE":41.96683643050501,"ADDRESS":"4653 N CLARK ST 1ST ","YEAR":2006,"DOING_BUSINESS_AS_NAME":"MEDINAS TIRE SHOP","POP_AT_RISK":362665,"BUSINESS_TYPE":"Tire Facilty Class I (100 - 1,000 Tires)","LEGAL_NAME":"JAVIER MEDINA","LONGITUDE":-87.66691800048767},
{"STATE":"IL","ZIP":60640,"LATTITUDE":41.98233782248874,"ADDRESS":"5521 N CLARK ST  1ST","YEAR":2006,"DOING_BUSINESS_AS_NAME":"OCANA TIRE SHOP #2","POP_AT_RISK":519071,"BUSINESS_TYPE":"Tire Facilty Class I (100 - 1,000 Tires)","LEGAL_NAME":"FELIX OCANA JR","LONGITUDE":-87.66837894306158},
{"STATE":"IL","ZIP":60643,"LATTITUDE":41.70993287163702,"ADDRESS":"10101 S WESTERN AVE  ","YEAR":2006,"DOING_BUSINESS_AS_NAME":"EXOTIC WHEEL BOUTIQUE","POP_AT_RISK":65901,"BUSINESS_TYPE":"Tire Facilty Class I (100 - 1,000 Tires)","LEGAL_NAME":"GERARD HARTMAN","LONGITUDE":-87.68158186704345},
{"STATE":"IL","ZIP":60628,"LATTITUDE":41.66035373956465,"ADDRESS":"12836 S HALSTED ST  ","YEAR":2006,"DOING_BUSINESS_AS_NAME":"J-Evans & Sons","POP_AT_RISK":65112,"BUSINESS_TYPE":"Tire Facilty Class I (100 - 1,000 Tires)","LEGAL_NAME":"J-Evans & Sons","LONGITUDE":-87.64147062649928},
{"STATE":"IL","ZIP":60649,"LATTITUDE":41.76842299198831,"ADDRESS":"6942 S STONY ISLAND AVE 1ST ","YEAR":2006,"DOING_BUSINESS_AS_NAME":"KING RICHARD'S TRADING POST","POP_AT_RISK":297576,"BUSINESS_TYPE":"Tire Facilty Class I (100 - 1,000 Tires)","LEGAL_NAME":"RICHARD GEORGE","LONGITUDE":-87.58653313011507},
{"STATE":"IL","ZIP":60617,"LATTITUDE":41.702862777708724,"ADDRESS":"3434 E 106TH ST # 1ST","YEAR":2006,"DOING_BUSINESS_AS_NAME":"TWINS AUTO SERVICE TWINS AUTO","POP_AT_RISK":24497,"BUSINESS_TYPE":"Tire Facilty Class I (100 - 1,000 Tires)","LEGAL_NAME":"ROSARIO GARCIA","LONGITUDE":-87.53995629211946},
{"STATE":"IL","ZIP":60643,"LATTITUDE":41.684971438520385,"ADDRESS":"1448 W 115TH ST  1","YEAR":2006,"DOING_BUSINESS_AS_NAME":"PEE WEES TIRE REPAIR","POP_AT_RISK":140922,"BUSINESS_TYPE":"Tire Facilty Class I (100 - 1,000 Tires)","LEGAL_NAME":"ANTHONY MADISON","LONGITUDE":-87.65862382673185},
{"STATE":"IL","ZIP":60628,"LATTITUDE":41.67803889572355,"ADDRESS":"336 W 119TH ST  1","YEAR":2006,"DOING_BUSINESS_AS_NAME":"BABY DO'S TIRE & REPAIR AUTOS","POP_AT_RISK":69387,"BUSINESS_TYPE":"Tire Facilty Class I (100 - 1,000 Tires)","LEGAL_NAME":"CHARLIE JACKSON","LONGITUDE":-87.63129803056498},
{"STATE":"IL","ZIP":60637,"LATTITUDE":41.770664388287855,"ADDRESS":"6820 S COTTAGE GROVE AVE  1ST","YEAR":2006,"DOING_BUSINESS_AS_NAME":"RAY'S GARAGE","POP_AT_RISK":204115,"BUSINESS_TYPE":"Tire Facilty Class I (100 - 1,000 Tires)","LEGAL_NAME":"OSCAR JORDAN JR","LONGITUDE":-87.60585888360833},
{"STATE":"IL","ZIP":60620,"LATTITUDE":41.75719823796646,"ADDRESS":"1640 W 75TH PL 1ST ","YEAR":2006,"DOING_BUSINESS_AS_NAME":"K & G AUTO REPAIR","POP_AT_RISK":37156,"BUSINESS_TYPE":"Tire Facilty Class I (100 - 1,000 Tires)","LEGAL_NAME":"KAREEM BROUGHTON","LONGITUDE":-87.66522312562839},
{"STATE":"IL","ZIP":60626,"LATTITUDE":42.01925553416983,"ADDRESS":"1535  -00037 W HOWARD ST 1ST ","YEAR":2006,"DOING_BUSINESS_AS_NAME":"HOWARD'S TIRE SHOP","POP_AT_RISK":108306,"BUSINESS_TYPE":"Tire Facilty Class I (100 - 1,000 Tires)","LEGAL_NAME":"RAFAEL RODRIGUEZ","LONGITUDE":-87.66970089991051},
{"STATE":"IL","ZIP":60639,"LATTITUDE":41.91963992911631,"ADDRESS":"5811 W GRAND AVE  ","YEAR":2006,"DOING_BUSINESS_AS_NAME":"ROMANS TIRE SHOP","POP_AT_RISK":47203,"BUSINESS_TYPE":"Tire Facilty Class I (100 - 1,000 Tires)","LEGAL_NAME":"ROMANS TIRE SHOP","LONGITUDE":-87.77122091712528},
{"STATE":"IL","ZIP":60632,"LATTITUDE":41.800358082137066,"ADDRESS":"5101 S KOLMAR AVE  ","YEAR":2006,"DOING_BUSINESS_AS_NAME":"PACHECO TIRE SHOP","POP_AT_RISK":63176,"BUSINESS_TYPE":"Tire Facilty Class I (100 - 1,000 Tires)","LEGAL_NAME":"SEFERINO PACHECO","LONGITUDE":-87.73670915443839},
{"STATE":"IL","ZIP":60607,"LATTITUDE":41.88476168481302,"ADDRESS":"160 N ELIZABETH ST  ","YEAR":2006,"DOING_BUSINESS_AS_NAME":"GATEWAY AUTO SERVICE","POP_AT_RISK":39684,"BUSINESS_TYPE":"Tire Facilty Class I (100 - 1,000 Tires)","LEGAL_NAME":"SHADI & SON, INC","LONGITUDE":-87.6589883360869},
{"STATE":"IL","ZIP":60655,"LATTITUDE":41.691582248132,"ADDRESS":"3424 W 111TH ST 1ST ","YEAR":2006,"DOING_BUSINESS_AS_NAME":"WHEEL WRIGHT INC","POP_AT_RISK":50040,"BUSINESS_TYPE":"Tire Facilty Class I (100 - 1,000 Tires)","LEGAL_NAME":"WHEEL WRIGHT INC","LONGITUDE":-87.70680199091622},
{"STATE":"IL","ZIP":60608,"LATTITUDE":41.85789530438478,"ADDRESS":"1802 S CARPENTER ST 1ST ","YEAR":2006,"DOING_BUSINESS_AS_NAME":"MIKE'S TIRE SHOP","POP_AT_RISK":38457,"BUSINESS_TYPE":"Tire Facilty Class I (100 - 1,000 Tires)","LEGAL_NAME":"ARMARDO RODRIGUEZ","LONGITUDE":-87.65335578975505},
{"STATE":"IL","ZIP":60624,"LATTITUDE":41.86633553946428,"ADDRESS":"3824 W ROOSEVELT RD  ","YEAR":2006,"DOING_BUSINESS_AS_NAME":"EXPRESS TIRES","POP_AT_RISK":45466,"BUSINESS_TYPE":"Tire Facilty Class I (100 - 1,000 Tires)","LEGAL_NAME":"EXPRESS TIRE INC.","LONGITUDE":-87.72119811607901},
{"STATE":"IL","ZIP":60629,"LATTITUDE":41.77905562837101,"ADDRESS":"3240 W 63RD ST  ","YEAR":2006,"DOING_BUSINESS_AS_NAME":"J & J ELECTRONIC","POP_AT_RISK":62644,"BUSINESS_TYPE":"Tire Facilty Class I (100 - 1,000 Tires)","LEGAL_NAME":"J & J ELECTRONICS","LONGITUDE":-87.70476487332088},
{"STATE":"IL","ZIP":60622,"LATTITUDE":41.89958863869595,"ADDRESS":"1011-13 N CALIFORNIA AVE # 1ST","YEAR":2006,"DOING_BUSINESS_AS_NAME":"LOUIE'S TIRE & WHEELS","POP_AT_RISK":50952,"BUSINESS_TYPE":"Tire Facilty Class I (100 - 1,000 Tires)","LEGAL_NAME":"LOUIS A FELICIANO","LONGITUDE":-87.69665110508214},
{"STATE":"IL","ZIP":60630,"LATTITUDE":41.96784347056907,"ADDRESS":"5027 W LAWRENCE AVE # 1","YEAR":2006,"DOING_BUSINESS_AS_NAME":"LAWRENCE KENNEDY BP","POP_AT_RISK":40189,"BUSINESS_TYPE":"Tire Facilty Class I (100 - 1,000 Tires)","LEGAL_NAME":"PANAGIOTIS FLOUDAS","LONGITUDE":-87.7537418202215},
{"STATE":"IL","ZIP":60619,"LATTITUDE":41.757133415130944,"ADDRESS":"7549-7557 S COTTAGE GROVE AVE  ","YEAR":2006,"DOING_BUSINESS_AS_NAME":"BAROMAN TIRE SHOP","POP_AT_RISK":31461,"BUSINESS_TYPE":"Tire Facilty Class I (100 - 1,000 Tires)","LEGAL_NAME":"BAROMAN CORPORATION","LONGITUDE":-87.60521070562744},
{"STATE":"IL","ZIP":60634,"LATTITUDE":41.93808446822169,"ADDRESS":"3200 N HARLEM AVE  ","YEAR":2006,"DOING_BUSINESS_AS_NAME":"OMEGA AUTOTECH, INC.","POP_AT_RISK":48366,"BUSINESS_TYPE":"Tire Facilty Class I (100 - 1,000 Tires)","LEGAL_NAME":"OMEGA AUTOTECH, INC.","LONGITUDE":-87.80689674887883},
{"STATE":"IL","ZIP":60623,"LATTITUDE":41.85128969157083,"ADDRESS":"4401 W CERMAK RD  ","YEAR":2006,"DOING_BUSINESS_AS_NAME":"TIRE WAREHOUSE","POP_AT_RISK":94418,"BUSINESS_TYPE":"Tire Facilty Class I (100 - 1,000 Tires)","LEGAL_NAME":"TIRE WAREHOUSE, INC.","LONGITUDE":-87.73455439428103},
{"STATE":"IL","ZIP":60652,"LATTITUDE":41.74605803682251,"ADDRESS":"8100 S KEDZIE AVE  ","YEAR":2006,"DOING_BUSINESS_AS_NAME":"J & JOE'S MECHANICAL SHOP","POP_AT_RISK":70275,"BUSINESS_TYPE":"Tire Facilty Class I (100 - 1,000 Tires)","LEGAL_NAME":"ASAD AUTO REPAIR INC.","LONGITUDE":-87.70243631933762},
{"STATE":"IL","ZIP":60657,"LATTITUDE":41.94622136231281,"ADDRESS":"3535 N ASHLAND AVE  ","YEAR":2006,"DOING_BUSINESS_AS_NAME":"BERT WEINMAN FORD INC","POP_AT_RISK":76596,"BUSINESS_TYPE":"Tire Facilty Class I (100 - 1,000 Tires)","LEGAL_NAME":"BERT WEINMAN FORD INC","LONGITUDE":-87.6686950146948},
{"STATE":"IL","ZIP":60651,"LATTITUDE":41.89590564576027,"ADDRESS":"831 N CICERO AVE  ","YEAR":2006,"DOING_BUSINESS_AS_NAME":"JC'S TIRE REPAIR INC.","POP_AT_RISK":86614,"BUSINESS_TYPE":"Tire Facilty Class I (100 - 1,000 Tires)","LEGAL_NAME":"JC'S TIRE REPAIR INC.","LONGITUDE":-87.74568284986438},
{"STATE":"IL","ZIP":60652,"LATTITUDE":41.74979595119637,"ADDRESS":"3706 W 79TH ST  ","YEAR":2006,"DOING_BUSINESS_AS_NAME":"PREMIER CAR SPA","POP_AT_RISK":28716,"BUSINESS_TYPE":"Tire Facilty Class I (100 - 1,000 Tires)","LEGAL_NAME":"PREMIER CAR SPA, INC.","LONGITUDE":-87.71446463091758},
{"STATE":"IL","ZIP":60629,"LATTITUDE":41.778522582113,"ADDRESS":"6301 S KOSTNER AVE  ","YEAR":2006,"DOING_BUSINESS_AS_NAME":"JACOBS AUTO REPAIR INC","POP_AT_RISK":126068,"BUSINESS_TYPE":"Tire Facilty Class I (100 - 1,000 Tires)","LEGAL_NAME":"JACOBS AUTO REPAIR INC","LONGITUDE":-87.73237905958007},
{"STATE":"IL","ZIP":60644,"LATTITUDE":41.88003666620055,"ADDRESS":"5829 W MADISON ST  ","YEAR":2006,"DOING_BUSINESS_AS_NAME":"ONE STOP TIRE SHOP, INC","POP_AT_RISK":546546,"BUSINESS_TYPE":"Tire Facilty Class I (100 - 1,000 Tires)","LEGAL_NAME":"ONE STOP TIRE SHOP, INC","LONGITUDE":-87.77098503103548},
{"STATE":"IL","ZIP":60609,"LATTITUDE":41.80911509826692,"ADDRESS":"452 W 47TH ST 1ST ","YEAR":2006,"DOING_BUSINESS_AS_NAME":"CITY TIRE INC","POP_AT_RISK":54336,"BUSINESS_TYPE":"Tire Facilty Class I (100 - 1,000 Tires)","LEGAL_NAME":"CITY TIRE & SUPPLY CORP.","LONGITUDE":-87.637968543859},
{"STATE":"IL","ZIP":60636,"LATTITUDE":41.75889485676011,"ADDRESS":"7421-23 S LOOMIS BLVD  ","YEAR":2006,"DOING_BUSINESS_AS_NAME":"SARABIA AUTO PARTS INC.","POP_AT_RISK":193484,"BUSINESS_TYPE":"Tire Facilty Class I (100 - 1,000 Tires)","LEGAL_NAME":"SARABIA AUTO PARTS, INC.","LONGITUDE":-87.6586616411056},
{"STATE":"IL","ZIP":60636,"LATTITUDE":41.78670876019214,"ADDRESS":"5845 S SEELEY AVE 1ST ","YEAR":2006,"DOING_BUSINESS_AS_NAME":"ROBBINS AUTO SALVAGE INC","POP_AT_RISK":165556,"BUSINESS_TYPE":"Tire Facilty Class I (100 - 1,000 Tires)","LEGAL_NAME":"ROBBINS AUTO SALVAGE INC.","LONGITUDE":-87.6751228172515},
{"STATE":"IL","ZIP":60617,"LATTITUDE":41.737107323161766,"ADDRESS":"1816-1824 E 87TH ST 1ST ","YEAR":2006,"DOING_BUSINESS_AS_NAME":"BROWN TIRE CORPORATION","POP_AT_RISK":151425,"BUSINESS_TYPE":"Tire Facilty Class I (100 - 1,000 Tires)","LEGAL_NAME":"THE BROWN TIRE CORPORATION","LONGITUDE":-87.5798440983714},
{"STATE":"IL","ZIP":60619,"LATTITUDE":41.739733475995614,"ADDRESS":"8517 S COTTAGE GROVE AVE 1ST ","YEAR":2006,"DOING_BUSINESS_AS_NAME":"BROWN TIRE CORPORATION","POP_AT_RISK":307512,"BUSINESS_TYPE":"Tire Facilty Class I (100 - 1,000 Tires)","LEGAL_NAME":"THE BROWN TIRE CORPORATION","LONGITUDE":-87.60476326467969},
{"STATE":"IL","ZIP":60623,"LATTITUDE":41.83853246592512,"ADDRESS":"3000 S KOSTNER AVE  ","YEAR":2006,"DOING_BUSINESS_AS_NAME":"A GOMEZ TIRES & WHEELS INC.","POP_AT_RISK":36282,"BUSINESS_TYPE":"Tire Facilty Class I (100 - 1,000 Tires)","LEGAL_NAME":"A GOMEZ TIRES & WHEELS INC.","LONGITUDE":-87.73426777215704},
{"STATE":"IL","ZIP":60622,"LATTITUDE":41.88976106624319,"ADDRESS":"1627 W HUBBARD ST  ","YEAR":2006,"DOING_BUSINESS_AS_NAME":"CARSON TIRE SERVICE, INC","POP_AT_RISK":47191,"BUSINESS_TYPE":"Tire Facilty Class I (100 - 1,000 Tires)","LEGAL_NAME":"CARSON'S TIRE SERVICE, INC.","LONGITUDE":-87.66819417636863},
{"STATE":"IL","ZIP":60646,"LATTITUDE":41.996166547688986,"ADDRESS":"6301 N CENTRAL AVE  ","YEAR":2006,"DOING_BUSINESS_AS_NAME":"CENTRAL AND CALDWELL SERVICE","POP_AT_RISK":53868,"BUSINESS_TYPE":"Tire Facilty Class I (100 - 1,000 Tires)","LEGAL_NAME":"CENTRAL AND CALDWELL SERVICE","LONGITUDE":-87.76404923745231},
{"STATE":"IL","ZIP":60661,"LATTITUDE":41.88656838866374,"ADDRESS":"225 N DESPLAINES ST 1ST ","YEAR":2006,"DOING_BUSINESS_AS_NAME":"FULTON DESPLAINES GARAGE","POP_AT_RISK":88466,"BUSINESS_TYPE":"Tire Facilty Class I (100 - 1,000 Tires)","LEGAL_NAME":"FULTON DESPLAINES GARAGE INC","LONGITUDE":-87.64412365235546},
{"STATE":"IL","ZIP":60616,"LATTITUDE":41.857263723099734,"ADDRESS":"1819 S STATE ST 1ST ","YEAR":2006,"DOING_BUSINESS_AS_NAME":"ELAR AUTO REBUILDERS ON STATE","POP_AT_RISK":72884,"BUSINESS_TYPE":"Tire Facilty Class I (100 - 1,000 Tires)","LEGAL_NAME":"ELAR AUTO REBUILDERS ON STATE","LONGITUDE":-87.62703426876189},
{"STATE":"IL","ZIP":60634,"LATTITUDE":41.94537335809189,"ADDRESS":"7200 W ADDISON ST  ","YEAR":2006,"DOING_BUSINESS_AS_NAME":"HARLEM-ADDISON TIRE & AUTO INC","POP_AT_RISK":75544,"BUSINESS_TYPE":"Tire Facilty Class I (100 - 1,000 Tires)","LEGAL_NAME":"HARLEM-ADDISON TIRE & AUTO INC","LONGITUDE":-87.80707032561135},
{"STATE":"IL","ZIP":60636,"LATTITUDE":41.76642349307935,"ADDRESS":"7000  -07018 S WESTERN AVE  1ST F","YEAR":2006,"DOING_BUSINESS_AS_NAME":"TOYOTA ON WESTERN, INC.","POP_AT_RISK":36218,"BUSINESS_TYPE":"Tire Facilty Class I (100 - 1,000 Tires)","LEGAL_NAME":"SOUTH WESTERN MOTOR SALES, INC.","LONGITUDE":-87.68343755851733},
{"STATE":"IL","ZIP":60622,"LATTITUDE":41.91075692820796,"ADDRESS":"909 W NORTH AVE  ","YEAR":2006,"DOING_BUSINESS_AS_NAME":"FIRESTONE","POP_AT_RISK":174608,"BUSINESS_TYPE":"Tire Facilty Class I (100 - 1,000 Tires)","LEGAL_NAME":"BRIDGESTONE RETAIL OPERATIONS, LLC","LONGITUDE":-87.6515025651013},
{"STATE":"IL","ZIP":60638,"LATTITUDE":41.795273277421956,"ADDRESS":"5945 S ARCHER AVE  ","YEAR":2006,"DOING_BUSINESS_AS_NAME":"FIRESTONE","POP_AT_RISK":79952,"BUSINESS_TYPE":"Tire Facilty Class I (100 - 1,000 Tires)","LEGAL_NAME":"BRIDGESTONE RETAIL OPERATIONS, LLC","LONGITUDE":-87.7645092888821},
{"STATE":"IL","ZIP":60643,"LATTITUDE":41.71948834302312,"ADDRESS":"9549 S WESTERN AVE  ","YEAR":2006,"DOING_BUSINESS_AS_NAME":"FIRESTONE","POP_AT_RISK":47066,"BUSINESS_TYPE":"Tire Facilty Class I (100 - 1,000 Tires)","LEGAL_NAME":"BRIDGESTONE RETAIL OPERATIONS, LLC","LONGITUDE":-87.68187257542179},
{"STATE":"IL","ZIP":60630,"LATTITUDE":41.97507133153229,"ADDRESS":"5215 N MILWAUKEE AVE  ","YEAR":2006,"DOING_BUSINESS_AS_NAME":"FIRESTONE","POP_AT_RISK":101268,"BUSINESS_TYPE":"Tire Facilty Class I (100 - 1,000 Tires)","LEGAL_NAME":"BRIDGESTONE RETAIL OPERATIONS, LLC","LONGITUDE":-87.76702884268},
{"STATE":"IL","ZIP":60632,"LATTITUDE":41.800040165244155,"ADDRESS":"5111 S PULASKI RD  GROUN","YEAR":2006,"DOING_BUSINESS_AS_NAME":"FIRESTONE","POP_AT_RISK":70678,"BUSINESS_TYPE":"Tire Facilty Class I (100 - 1,000 Tires)","LEGAL_NAME":"BRIDGESTONE RETAIL OPERATIONS, LLC","LONGITUDE":-87.7232117842451},
{"STATE":"IL","ZIP":60614,"LATTITUDE":41.93280849685226,"ADDRESS":"824 W DIVERSEY PKWY  ","YEAR":2006,"DOING_BUSINESS_AS_NAME":"WM J CASSIDY TIRE & AUTO","POP_AT_RISK":1194606,"BUSINESS_TYPE":"Tire Facilty Class I (100 - 1,000 Tires)","LEGAL_NAME":"WM. J. CASSIDY TIRE & AUTO SUPPLY CO.","LONGITUDE":-87.65000549071719},
{}]