[
  {
    "BUSINESS_TYPE": "Tavern", 
    "LEGAL_NAME": "MURRAY'S TAVERN, INC.", 
    "STATE": "IL", 
    "DOING_BUSINESS_AS_NAME": "MURRAY'S TAVERN", 
    "POP_AT_RISK": 28232, 
    "ZIP": 60630, 
    "ADDRESS": "5522 N ELSTON AVE  1ST", 
    "YEAR": 2001, 
    "LONGITUDE": -87.762219198, 
    "LATTITUDE": 41.981537587
  }, 
  {
    "BUSINESS_TYPE": "Tavern", 
    "LEGAL_NAME": "GUADIANA, INC.", 
    "STATE": "IL", 
    "DOING_BUSINESS_AS_NAME": "DURANGO INC", 
    "POP_AT_RISK": 35389, 
    "ZIP": 60623, 
    "ADDRESS": "2702 S KILDARE AVE 1ST", 
    "YEAR": 2001, 
    "LONGITUDE": -87.731936217, 
    "LATTITUDE": 41.842161183
  }, 
  {
    "BUSINESS_TYPE": "Tavern", 
    "LEGAL_NAME": "BALTAZAR CANDE", 
    "STATE": "IL", 
    "DOING_BUSINESS_AS_NAME": "RICHMOND TAVERN", 
    "POP_AT_RISK": 45280, 
    "ZIP": 60622, 
    "ADDRESS": "2944 W GRAND AVE 1ST", 
    "YEAR": 2001, 
    "LONGITUDE": -87.700748233, 
    "LATTITUDE": 41.896089171
  }, 
  {
    "BUSINESS_TYPE": "Tavern", 
    "LEGAL_NAME": "BELMONT'S HAPPY DAYS, INC.", 
    "STATE": "IL", 
    "DOING_BUSINESS_AS_NAME": "HAPPY DAYS", 
    "POP_AT_RISK": 64192, 
    "ZIP": 60618, 
    "ADDRESS": "3808 W BELMONT AVE 1ST", 
    "YEAR": 2001, 
    "LONGITUDE": -87.722696516, 
    "LATTITUDE": 41.939259217
  }, 
  {
    "BUSINESS_TYPE": "Tavern", 
    "LEGAL_NAME": "ROBERT E CONNER", 
    "STATE": "IL", 
    "DOING_BUSINESS_AS_NAME": "HEINZE LIQUORS", 
    "POP_AT_RISK": 77672, 
    "ZIP": 60613, 
    "ADDRESS": "1021 W MONTROSE AVE 1ST", 
    "YEAR": 2001, 
    "LONGITUDE": -87.655649945, 
    "LATTITUDE": 41.961655309
  }, 
  {
    "BUSINESS_TYPE": "Tavern", 
    "LEGAL_NAME": "VINCENNES LOUNGE & REST INC", 
    "STATE": "IL", 
    "DOING_BUSINESS_AS_NAME": "LOOK IT OVER LOUNGE", 
    "POP_AT_RISK": 33694, 
    "ZIP": 60619, 
    "ADDRESS": "7857 S WOODLAWN AVE", 
    "YEAR": 2001, 
    "LONGITUDE": -87.595348139, 
    "LATTITUDE": 41.7515355
  }, 
  {
    "BUSINESS_TYPE": "Tavern", 
    "LEGAL_NAME": "2944-59TH BLD CORP", 
    "STATE": "IL", 
    "DOING_BUSINESS_AS_NAME": "2944-59TH BLD. CORP.", 
    "POP_AT_RISK": 68068, 
    "ZIP": 60629, 
    "ADDRESS": "2944 W 59TH ST  1ST F", 
    "YEAR": 2001, 
    "LONGITUDE": -87.697823546, 
    "LATTITUDE": 41.786448488
  }, 
  {
    "BUSINESS_TYPE": "Tavern", 
    "LEGAL_NAME": "SPIDER JOHN'S SALOON INC", 
    "STATE": "IL", 
    "DOING_BUSINESS_AS_NAME": "SPIDER JOHN'S SALOON INC", 
    "POP_AT_RISK": 23425, 
    "ZIP": 60652, 
    "ADDRESS": "8138 S KEDZIE AVE 1ST", 
    "YEAR": 2001, 
    "LONGITUDE": -87.702407321, 
    "LATTITUDE": 41.744981035
  }, 
  {
    "BUSINESS_TYPE": "Tavern", 
    "LEGAL_NAME": "2916 West Irving Park Corporation", 
    "STATE": "IL", 
    "DOING_BUSINESS_AS_NAME": "MARINERO BAR AND GRILL", 
    "POP_AT_RISK": 66374, 
    "ZIP": 60618, 
    "ADDRESS": "2916 W IRVING PARK RD", 
    "YEAR": 2001, 
    "LONGITUDE": -87.701477829, 
    "LATTITUDE": 41.954068125
  }, 
  {
    "BUSINESS_TYPE": "Tavern", 
    "LEGAL_NAME": "MARK SCHNEIDER INC", 
    "STATE": "IL", 
    "DOING_BUSINESS_AS_NAME": "PINEWOOD INN", 
    "POP_AT_RISK": 47384, 
    "ZIP": 60645, 
    "ADDRESS": "2310 W TOUHY AVE", 
    "YEAR": 2001, 
    "LONGITUDE": -87.68804487, 
    "LATTITUDE": 42.01236899
  }, 
  {
    "BUSINESS_TYPE": "Tavern", 
    "LEGAL_NAME": "SMALL TIME INC", 
    "STATE": "IL", 
    "DOING_BUSINESS_AS_NAME": "JACARANDA SPORTS BAR", 
    "POP_AT_RISK": 62481, 
    "ZIP": 60623, 
    "ADDRESS": "3608 W 26TH ST", 
    "YEAR": 2001, 
    "LONGITUDE": -87.715217442, 
    "LATTITUDE": 41.844488413
  }, 
  {
    "BUSINESS_TYPE": "Tavern", 
    "LEGAL_NAME": "MAXINE THOMAS", 
    "STATE": "IL", 
    "DOING_BUSINESS_AS_NAME": "THE ROSE", 
    "POP_AT_RISK": 33942, 
    "ZIP": 60644, 
    "ADDRESS": "5671-5673 W MADISON ST", 
    "YEAR": 2001, 
    "LONGITUDE": -87.767631011, 
    "LATTITUDE": 41.880093218
  }, 
  {
    "BUSINESS_TYPE": "Tavern", 
    "LEGAL_NAME": "THREE BROTHERS LIQUOR AND LOUNGE INC.", 
    "STATE": "IL", 
    "DOING_BUSINESS_AS_NAME": "THREE BROTHERS LIQUOR & LOUNGE", 
    "POP_AT_RISK": 40828, 
    "ZIP": 60636, 
    "ADDRESS": "5608-5610 S ASHLAND AVE # 1ST", 
    "YEAR": 2001, 
    "LONGITUDE": -87.664677014, 
    "LATTITUDE": 41.791887834
  }, 
  {
    "BUSINESS_TYPE": "Tavern", 
    "LEGAL_NAME": "CHARLIE R CRENSHAW", 
    "STATE": "IL", 
    "DOING_BUSINESS_AS_NAME": "PIPERS FOR MUMMS", 
    "POP_AT_RISK": 53305, 
    "ZIP": 60651, 
    "ADDRESS": "5471 W DIVISION ST  1", 
    "YEAR": 2001, 
    "LONGITUDE": -87.763678998, 
    "LATTITUDE": 41.902055925
  }, 
  {
    "BUSINESS_TYPE": "Tavern", 
    "LEGAL_NAME": "GASPAR ARIAS, INC.", 
    "STATE": "IL", 
    "DOING_BUSINESS_AS_NAME": "THE BARREL", 
    "POP_AT_RISK": 47021, 
    "ZIP": 60608, 
    "ADDRESS": "2015 S DAMEN AVE", 
    "YEAR": 2001, 
    "LONGITUDE": -87.675759762, 
    "LATTITUDE": 41.854439155
  }, 
  {
    "BUSINESS_TYPE": "Tavern", 
    "LEGAL_NAME": "CHRIST'S TOWN & COUNTRY LIQUOR MART, INC.", 
    "STATE": "IL", 
    "DOING_BUSINESS_AS_NAME": "CARDINAL WINE & SPIRITS", 
    "POP_AT_RISK": 62273, 
    "ZIP": 60625, 
    "ADDRESS": "4905 N LINCOLN AVE 1ST", 
    "YEAR": 2001, 
    "LONGITUDE": -87.689905533, 
    "LATTITUDE": 41.971001717
  }, 
  {
    "BUSINESS_TYPE": "Tavern", 
    "LEGAL_NAME": "CAS-MAR, INC.", 
    "STATE": "IL", 
    "DOING_BUSINESS_AS_NAME": "PUB OK", 
    "POP_AT_RISK": 51477, 
    "ZIP": 60634, 
    "ADDRESS": "5659 W IRVING PARK RD 1ST", 
    "YEAR": 2001, 
    "LONGITUDE": -87.769380063, 
    "LATTITUDE": 41.953041777
  }, 
  {
    "BUSINESS_TYPE": "Tavern", 
    "LEGAL_NAME": "BERTUCCI'S CORNER ON 24TH/INC", 
    "STATE": "IL", 
    "DOING_BUSINESS_AS_NAME": "BERTUCCI'S", 
    "POP_AT_RISK": 29877, 
    "ZIP": 60616, 
    "ADDRESS": "300 W 24TH ST 1ST", 
    "YEAR": 2001, 
    "LONGITUDE": -87.634818293, 
    "LATTITUDE": 41.849227752
  }, 
  {
    "BUSINESS_TYPE": "Tavern", 
    "LEGAL_NAME": "CAPPAS BROTHERS INC", 
    "STATE": "IL", 
    "DOING_BUSINESS_AS_NAME": "CAPPAS BROS INC", 
    "POP_AT_RISK": 38083, 
    "ZIP": 60609, 
    "ADDRESS": "3712 S WESTERN AVE", 
    "YEAR": 2001, 
    "LONGITUDE": -87.685054544, 
    "LATTITUDE": 41.82607997
  }, 
  {
    "BUSINESS_TYPE": "Tavern", 
    "LEGAL_NAME": "MY COUSIN'S PLACE, INC.", 
    "STATE": "IL", 
    "DOING_BUSINESS_AS_NAME": "BACKDRAFTS", 
    "POP_AT_RISK": 20884, 
    "ZIP": 60652, 
    "ADDRESS": "8533-8535 S PULASKI RD # 1ST", 
    "YEAR": 2001, 
    "LONGITUDE": -87.72137826, 
    "LATTITUDE": 41.737504103
  }, 
  {
    "BUSINESS_TYPE": "Tavern", 
    "LEGAL_NAME": "KOTOBUKI INC", 
    "STATE": "IL", 
    "DOING_BUSINESS_AS_NAME": "KOTOBUKI INC", 
    "POP_AT_RISK": 72269, 
    "ZIP": 60640, 
    "ADDRESS": "5547 N CLARK ST", 
    "YEAR": 2001, 
    "LONGITUDE": -87.668523944, 
    "LATTITUDE": 41.983098811
  }, 
  {
    "BUSINESS_TYPE": "Tavern", 
    "LEGAL_NAME": "SHEEHY'S PUB, INC.", 
    "STATE": "IL", 
    "DOING_BUSINESS_AS_NAME": "LINDY'S/CHILI", 
    "POP_AT_RISK": 24262, 
    "ZIP": 60638, 
    "ADDRESS": "6544-6546 W ARCHER AVE # 1ST", 
    "YEAR": 2001, 
    "LONGITUDE": -87.786084323, 
    "LATTITUDE": 41.792370763
  }, 
  {
    "BUSINESS_TYPE": "Tavern", 
    "LEGAL_NAME": "HOWARD SMITH", 
    "STATE": "IL", 
    "DOING_BUSINESS_AS_NAME": "THE ODYSSEY 11 LOUNGE", 
    "POP_AT_RISK": 28189, 
    "ZIP": 60637, 
    "ADDRESS": "211 E 55TH ST 1ST", 
    "YEAR": 2001, 
    "LONGITUDE": -87.620347916, 
    "LATTITUDE": 41.7942922
  }, 
  {
    "BUSINESS_TYPE": "Tavern", 
    "LEGAL_NAME": "GLIGORIYE DRMANIC", 
    "STATE": "IL", 
    "DOING_BUSINESS_AS_NAME": "GLIGORIYE DRAMANIC", 
    "POP_AT_RISK": 15035, 
    "ZIP": 60617, 
    "ADDRESS": "9910 S COMMERCIAL AVE 1ST", 
    "YEAR": 2001, 
    "LONGITUDE": -87.551114693, 
    "LATTITUDE": 41.715072948
  }, 
  {
    "BUSINESS_TYPE": "Tavern", 
    "LEGAL_NAME": "MAO INC.", 
    "STATE": "IL", 
    "DOING_BUSINESS_AS_NAME": "WABASH TAP", 
    "POP_AT_RISK": 39491, 
    "ZIP": 60605, 
    "ADDRESS": "1233 S WABASH AVE 1ST", 
    "YEAR": 2001, 
    "LONGITUDE": -87.625663198, 
    "LATTITUDE": 41.866520396
  }, 
  {
    "BUSINESS_TYPE": "Tavern", 
    "LEGAL_NAME": "MALOID JONES", 
    "STATE": "IL", 
    "DOING_BUSINESS_AS_NAME": "NEW CHECKERBOARD LOUNGE #2", 
    "POP_AT_RISK": 35913, 
    "ZIP": 60636, 
    "ADDRESS": "1634 W 69TH ST 1ST", 
    "YEAR": 2001, 
    "LONGITUDE": -87.665274308, 
    "LATTITUDE": 41.768645056
  }, 
  {
    "BUSINESS_TYPE": "Tavern", 
    "LEGAL_NAME": "BRUDDER'S BAR & GRILL LLC", 
    "STATE": "IL", 
    "DOING_BUSINESS_AS_NAME": "BRUDDER'S", 
    "POP_AT_RISK": 56603, 
    "ZIP": 60641, 
    "ADDRESS": "3600 N PULASKI RD 1ST", 
    "YEAR": 2001, 
    "LONGITUDE": -87.727549491, 
    "LATTITUDE": 41.946415942
  }, 
  {
    "BUSINESS_TYPE": "Tavern", 
    "LEGAL_NAME": "THE LYONS TAP, INC.", 
    "STATE": "IL", 
    "DOING_BUSINESS_AS_NAME": "THE LYONS TAP", 
    "POP_AT_RISK": 62064, 
    "ZIP": 60629, 
    "ADDRESS": "3316 W 63RD ST  1", 
    "YEAR": 2001, 
    "LONGITUDE": -87.706286865, 
    "LATTITUDE": 41.779031842
  }, 
  {
    "BUSINESS_TYPE": "Tavern", 
    "LEGAL_NAME": "FRANKIE'S PLACE, INC.", 
    "STATE": "IL", 
    "DOING_BUSINESS_AS_NAME": "FRANKIE'S PLACE INC", 
    "POP_AT_RISK": 60121, 
    "ZIP": 60632, 
    "ADDRESS": "2607 W 47TH ST", 
    "YEAR": 2001, 
    "LONGITUDE": -87.689635534, 
    "LATTITUDE": 41.808244561
  }, 
  {
    "BUSINESS_TYPE": "Tavern", 
    "LEGAL_NAME": "VINCENT VUKELIC", 
    "STATE": "IL", 
    "DOING_BUSINESS_AS_NAME": "VINCE'S HIDEAWAY", 
    "POP_AT_RISK": 38707, 
    "ZIP": 60608, 
    "ADDRESS": "3346 S ABERDEEN ST 1ST", 
    "YEAR": 2001, 
    "LONGITUDE": -87.653605209, 
    "LATTITUDE": 41.833014439
  }, 
  {
    "BUSINESS_TYPE": "Tavern", 
    "LEGAL_NAME": "BRUNO KOPEC", 
    "STATE": "IL", 
    "DOING_BUSINESS_AS_NAME": "BRUNO KOPEC", 
    "POP_AT_RISK": 22894, 
    "ZIP": 60632, 
    "ADDRESS": "4058 W 47TH ST 1ST", 
    "YEAR": 2001, 
    "LONGITUDE": -87.725973256, 
    "LATTITUDE": 41.807951544
  }, 
  {
    "BUSINESS_TYPE": "Tavern", 
    "LEGAL_NAME": "RUBY THOMAS", 
    "STATE": "IL", 
    "DOING_BUSINESS_AS_NAME": "RUBY & THE JEWEL BOX LOUNGE", 
    "POP_AT_RISK": 29296, 
    "ZIP": 60620, 
    "ADDRESS": "9042 S ASHLAND AVE 1ST", 
    "YEAR": 2001, 
    "LONGITUDE": -87.663012575, 
    "LATTITUDE": 41.72902154
  }, 
  {
    "BUSINESS_TYPE": "Tavern", 
    "LEGAL_NAME": "WORKINGMAN'S INC", 
    "STATE": "IL", 
    "DOING_BUSINESS_AS_NAME": "WORKINGMAN'S PALACE", 
    "POP_AT_RISK": 73464, 
    "ZIP": 60639, 
    "ADDRESS": "4400 W DIVERSEY AVE 1ST", 
    "YEAR": 2001, 
    "LONGITUDE": -87.736878103, 
    "LATTITUDE": 41.931770048
  }, 
  {
    "BUSINESS_TYPE": "Tavern", 
    "LEGAL_NAME": "JAMES E BANKS", 
    "STATE": "IL", 
    "DOING_BUSINESS_AS_NAME": "THE TURNING POINT", 
    "POP_AT_RISK": 27915, 
    "ZIP": 60612, 
    "ADDRESS": "2312 W HARRISON ST 1ST #", 
    "YEAR": 2001, 
    "LONGITUDE": -87.684354113, 
    "LATTITUDE": 41.874027404
  }, 
  {
    "BUSINESS_TYPE": "Tavern", 
    "LEGAL_NAME": "1435 W. TAYLOR, INC.", 
    "STATE": "IL", 
    "DOING_BUSINESS_AS_NAME": "THE DRUM & MONKEY", 
    "POP_AT_RISK": 40177, 
    "ZIP": 60607, 
    "ADDRESS": "1435 W TAYLOR ST 1ST", 
    "YEAR": 2001, 
    "LONGITUDE": -87.66308737, 
    "LATTITUDE": 41.869206867
  }, 
  {
    "BUSINESS_TYPE": "Tavern", 
    "LEGAL_NAME": "HAMLIN CLUB INC", 
    "STATE": "IL", 
    "DOING_BUSINESS_AS_NAME": "HAMLIN CLUB INC", 
    "POP_AT_RISK": 61002, 
    "ZIP": 60629, 
    "ADDRESS": "3757 W 57TH ST 1ST", 
    "YEAR": 2001, 
    "LONGITUDE": -87.717957783, 
    "LATTITUDE": 41.789544432
  }, 
  {
    "BUSINESS_TYPE": "Tavern", 
    "LEGAL_NAME": "ALFONSO GARCIA", 
    "STATE": "IL", 
    "DOING_BUSINESS_AS_NAME": "LAS QUINCE LETRAS", 
    "POP_AT_RISK": 63905, 
    "ZIP": 60623, 
    "ADDRESS": "2880 W CERMAK RD 1ST", 
    "YEAR": 2001, 
    "LONGITUDE": -87.698829664, 
    "LATTITUDE": 41.851964029
  }, 
  {
    "BUSINESS_TYPE": "Tavern", 
    "LEGAL_NAME": "JOHN WARREN ENTERPRISES INC", 
    "STATE": "IL", 
    "DOING_BUSINESS_AS_NAME": "SEAN CHAI PUBLIC HOUSE", 
    "POP_AT_RISK": 59593, 
    "ZIP": 60618, 
    "ADDRESS": "2343-2347 W BELMONT AVE", 
    "YEAR": 2001, 
    "LONGITUDE": -87.687278663, 
    "LATTITUDE": 41.939354723
  }, 
  {
    "BUSINESS_TYPE": "Tavern", 
    "LEGAL_NAME": "TALLY NORTH INC", 
    "STATE": "IL", 
    "DOING_BUSINESS_AS_NAME": "PIANO MAN", 
    "POP_AT_RISK": 82941, 
    "ZIP": 60613, 
    "ADDRESS": "3801 N CLARK ST 1ST", 
    "YEAR": 2001, 
    "LONGITUDE": -87.659541802, 
    "LATTITUDE": 41.951175556
  }, 
  {
    "BUSINESS_TYPE": "Tavern", 
    "LEGAL_NAME": "CHARLESTON INC", 
    "STATE": "IL", 
    "DOING_BUSINESS_AS_NAME": "CHARLESTON", 
    "POP_AT_RISK": 54938, 
    "ZIP": 60647, 
    "ADDRESS": "2076 N HOYNE AVE", 
    "YEAR": 2001, 
    "LONGITUDE": -87.680318632, 
    "LATTITUDE": 41.919952357
  }, 
  {
    "BUSINESS_TYPE": "Tavern", 
    "LEGAL_NAME": "ARTIS KING LUDD", 
    "STATE": "IL", 
    "DOING_BUSINESS_AS_NAME": "ARTIS KING LUDD", 
    "POP_AT_RISK": 33658, 
    "ZIP": 60619, 
    "ADDRESS": "1249 E 87TH ST 1ST", 
    "YEAR": 2001, 
    "LONGITUDE": -87.5930218, 
    "LATTITUDE": 41.736705257
  }, 
  {
    "BUSINESS_TYPE": "Tavern", 
    "LEGAL_NAME": "MY OFFICE, INC.", 
    "STATE": "IL", 
    "DOING_BUSINESS_AS_NAME": "MY OFFICE, INC", 
    "POP_AT_RISK": 50255, 
    "ZIP": 60626, 
    "ADDRESS": "7356  -07358 N CLARK ST 1ST", 
    "YEAR": 2001, 
    "LONGITUDE": -87.67524427, 
    "LATTITUDE": 42.015380019
  }, 
  {
    "BUSINESS_TYPE": "Tavern", 
    "LEGAL_NAME": "EL FLANBOYAN CORP", 
    "STATE": "IL", 
    "DOING_BUSINESS_AS_NAME": "EL RIO PLATENSE LOUNGE", 
    "POP_AT_RISK": 60150, 
    "ZIP": 60651, 
    "ADDRESS": "1400  -01402 N HAMLIN AVE  NORTH", 
    "YEAR": 2001, 
    "LONGITUDE": -87.721697583, 
    "LATTITUDE": 41.906410759
  }, 
  {
    "BUSINESS_TYPE": "Tavern", 
    "LEGAL_NAME": "WHITESTOCK, INC.", 
    "STATE": "IL", 
    "DOING_BUSINESS_AS_NAME": "TWILIGHT LOUNGE", 
    "POP_AT_RISK": 43475, 
    "ZIP": 60630, 
    "ADDRESS": "4644 N CENTRAL AVE 1ST", 
    "YEAR": 2001, 
    "LONGITUDE": -87.767548994, 
    "LATTITUDE": 41.965416818
  }, 
  {
    "BUSINESS_TYPE": "Tavern", 
    "LEGAL_NAME": "C B N INC", 
    "STATE": "IL", 
    "DOING_BUSINESS_AS_NAME": "RODNEY'S COCKTAIL LOUNGE", 
    "POP_AT_RISK": 36243, 
    "ZIP": 60619, 
    "ADDRESS": "100-102 E 71ST ST 1ST", 
    "YEAR": 2001, 
    "LONGITUDE": -87.621615609, 
    "LATTITUDE": 41.765690875
  }
]