[
{"STATE":"IL","ZIP":60652,"LATTITUDE":41.74526448928806,"ADDRESS":"8128 S KEDZIE AVE  ","YEAR":2006,"DOING_BUSINESS_AS_NAME":"THE LEARNING TREE PRE-SCHOOL","POP_AT_RISK":23425,"BUSINESS_TYPE":"Night Care Privilege","LEGAL_NAME":"NIA LTD","LONGITUDE":-87.70241488959012},
{"STATE":"IL","ZIP":60613,"LATTITUDE":41.95880408212383,"ADDRESS":"4214  -4220 N BROADWAY  1ST ","YEAR":2006,"DOING_BUSINESS_AS_NAME":"A STEP AHEAD LEARNING CENTER","POP_AT_RISK":1002302,"BUSINESS_TYPE":"Night Care Privilege","LEGAL_NAME":"CARING HANDS, INC.","LONGITUDE":-87.65342019040853},
{"STATE":"IL","ZIP":60620,"LATTITUDE":41.72933663322672,"ADDRESS":"9040 S VINCENNES AVE  ","YEAR":2006,"DOING_BUSINESS_AS_NAME":"KIDS R FIRST DAYCARE","POP_AT_RISK":167465,"BUSINESS_TYPE":"Night Care Privilege","LEGAL_NAME":"PEYTYN D. WILLBORN","LONGITUDE":-87.64786961995537},
{"STATE":"IL","ZIP":60620,"LATTITUDE":41.756681702982,"ADDRESS":"7538 S HALSTED ST  ","YEAR":2006,"DOING_BUSINESS_AS_NAME":"KIDS R FIRST LEARNING CENTER","POP_AT_RISK":493844,"BUSINESS_TYPE":"Night Care Privilege","LEGAL_NAME":"PEYTYN D. WILLBORN","LONGITUDE":-87.64434492550367},
{"STATE":"IL","ZIP":60640,"LATTITUDE":41.97250505625872,"ADDRESS":"1333 W ARGYLE ST GROUND ","YEAR":2006,"DOING_BUSINESS_AS_NAME":"ST AUGUSTINE COLLEGE CANILLITA","POP_AT_RISK":910988,"BUSINESS_TYPE":"Night Care Privilege","LEGAL_NAME":"ST. AUGUSTINE COLLEGE","LONGITUDE":-87.66353663585565},
{"STATE":"IL","ZIP":60649,"LATTITUDE":41.75908547586528,"ADDRESS":"2334 E 75TH ST  ","YEAR":2006,"DOING_BUSINESS_AS_NAME":"KENYATTA'S DAYCARE","POP_AT_RISK":559429,"BUSINESS_TYPE":"Night Care Privilege","LEGAL_NAME":"KENYATTA DAYCARE CENTER","LONGITUDE":-87.56744784945764},
{"STATE":"IL","ZIP":60643,"LATTITUDE":41.721409457750035,"ADDRESS":"1318 W 95TH ST  ","YEAR":2006,"DOING_BUSINESS_AS_NAME":"THE KIDS PLACE II, INC","POP_AT_RISK":52888,"BUSINESS_TYPE":"Night Care Privilege","LEGAL_NAME":"THE KIDS PLACE II, INC.","LONGITUDE":-87.65620011485993},
{"STATE":"IL","ZIP":60639,"LATTITUDE":41.90932961007302,"ADDRESS":"5365 W NORTH AVE 1ST AND 2ND ","YEAR":2006,"DOING_BUSINESS_AS_NAME":"ANGEL WINGS DAYCARE INC.","POP_AT_RISK":687468,"BUSINESS_TYPE":"Night Care Privilege","LEGAL_NAME":"ANGEL WINGS DAYCARE INC.","LONGITUDE":-87.7605007866545},
{"STATE":"IL","ZIP":60628,"LATTITUDE":41.71235734507338,"ADDRESS":"708 E 100TH PL 1ST ","YEAR":2006,"DOING_BUSINESS_AS_NAME":"LONDON BRIDGES PRE-SCHOOL","POP_AT_RISK":90265,"BUSINESS_TYPE":"Night Care Privilege","LEGAL_NAME":"LONDON BRIDGES PRE-SCHOOL","LONGITUDE":-87.60476353346552},
{"STATE":"IL","ZIP":60707,"LATTITUDE":41.912443890238045,"ADDRESS":"1759 N HARLEM AVE  ","YEAR":2006,"DOING_BUSINESS_AS_NAME":"GOOD HANDS DAY CARE INCORPORATED","POP_AT_RISK":88820,"BUSINESS_TYPE":"Night Care Privilege","LEGAL_NAME":"GOOD HANDS DAY CARE INCORPORATED","LONGITUDE":-87.80574099458855},
{"STATE":"IL","ZIP":60619,"LATTITUDE":41.73185210877984,"ADDRESS":"8938-8940 S COTTAGE GROVE AVE  ","YEAR":2006,"DOING_BUSINESS_AS_NAME":"TOTS EXPRESS  LEARNING CENTER","POP_AT_RISK":228660,"BUSINESS_TYPE":"Night Care Privilege","LEGAL_NAME":"TOTS EXPRESS LEARNING CENTER NFP","LONGITUDE":-87.60485274319225},
{"STATE":"IL","ZIP":60652,"LATTITUDE":41.749914910076974,"ADDRESS":"3344 W 79TH ST 1 ","YEAR":2006,"DOING_BUSINESS_AS_NAME":"LORDANCHILD CHRISTIAN DAY CARE INC.","POP_AT_RISK":67080,"BUSINESS_TYPE":"Night Care Privilege","LEGAL_NAME":"LORDANCHILD CHRISTIAN DAY CARE INC.","LONGITUDE":-87.7066283407442},
{"STATE":"IL","ZIP":60623,"LATTITUDE":41.855378986280684,"ADDRESS":"2929 W 19TH ST  ","YEAR":2006,"DOING_BUSINESS_AS_NAME":"Carole Robertson Center for Learning","POP_AT_RISK":834649,"BUSINESS_TYPE":"Night Care Privilege","LEGAL_NAME":"CAROLE ROBERTSON CENTER FOR LEARNING","LONGITUDE":-87.70040521997677},
{"STATE":"IL","ZIP":60651,"LATTITUDE":41.902779671122865,"ADDRESS":"4000 W DIVISION ST  ","YEAR":2006,"DOING_BUSINESS_AS_NAME":"IT TAKES A VILLAGE CHILD","POP_AT_RISK":883830,"BUSINESS_TYPE":"Night Care Privilege","LEGAL_NAME":"IT TAKES A VILLAGE CHILD CARE SERVICES, INCORPORATED.","LONGITUDE":-87.72636902689327},
{}]