[
  {
    "BUSINESS_TYPE": "Auctioneer", 
    "LEGAL_NAME": "FRANK MORRONE", 
    "STATE": "IL", 
    "DOING_BUSINESS_AS_NAME": "Frank Morrone (URT United Road Towing Inc.)", 
    "POP_AT_RISK": 35448, 
    "ZIP": 60612, 
    "ADDRESS": "701 S SACRAMENTO BLVD 1ST FL", 
    "YEAR": 2008, 
    "LONGITUDE": -87.700836563, 
    "LATTITUDE": 41.87278552
  }, 
  {
    "BUSINESS_TYPE": "Auctioneer", 
    "LEGAL_NAME": "SURPLUSASSET MANAGEMENT, INC.", 
    "STATE": "AZ", 
    "DOING_BUSINESS_AS_NAME": "SURPLUS ASSET MANAGEMENT AUCTIONS", 
    "POP_AT_RISK": 72675, 
    "ZIP": 85019, 
    "ADDRESS": "4111 W CLARENDON AVE", 
    "YEAR": 2008, 
    "LONGITUDE": -87.649598784, 
    "LATTITUDE": 41.956088838
  }, 
  {
    "BUSINESS_TYPE": "Auctioneer", 
    "LEGAL_NAME": "CARL GOWANS", 
    "STATE": "IL", 
    "DOING_BUSINESS_AS_NAME": "CARL GOWANS", 
    "POP_AT_RISK": 9004, 
    "ZIP": 60617, 
    "ADDRESS": "10301 S DOTY AVE 1ST", 
    "YEAR": 2008, 
    "LONGITUDE": -87.580561313, 
    "LATTITUDE": 41.707847637
  }, 
  {
    "BUSINESS_TYPE": "Auctioneer", 
    "LEGAL_NAME": "JEFFREY BENDIX", 
    "STATE": "IL", 
    "DOING_BUSINESS_AS_NAME": "JEFFREY BENDIX", 
    "POP_AT_RISK": 64779, 
    "ZIP": 60640, 
    "ADDRESS": "5501 N CLARK ST  LOWER", 
    "YEAR": 2008, 
    "LONGITUDE": -87.668287655, 
    "LATTITUDE": 41.981723366
  }, 
  {
    "BUSINESS_TYPE": "Auctioneer", 
    "LEGAL_NAME": "SEAN SUSANIN", 
    "STATE": "IL", 
    "DOING_BUSINESS_AS_NAME": "SUSANIN'S", 
    "POP_AT_RISK": 34142, 
    "ZIP": 60607, 
    "ADDRESS": "900 S CLINTON ST", 
    "YEAR": 2008, 
    "LONGITUDE": -87.640974125, 
    "LATTITUDE": 41.870487423
  }, 
  {
    "BUSINESS_TYPE": "Auctioneer", 
    "LEGAL_NAME": "JOHN R. MODICA", 
    "STATE": "IL", 
    "DOING_BUSINESS_AS_NAME": "JOHN R. MODICA", 
    "POP_AT_RISK": 47384, 
    "ZIP": 60645, 
    "ADDRESS": "7232 N WESTERN AVE", 
    "YEAR": 2008, 
    "LONGITUDE": -87.690389587, 
    "LATTITUDE": 42.013193041
  }, 
  {
    "BUSINESS_TYPE": "Auctioneer", 
    "LEGAL_NAME": "RICHARD B. WRIGHT", 
    "STATE": "IL", 
    "DOING_BUSINESS_AS_NAME": "RICHARD B. WRIGHT", 
    "POP_AT_RISK": 39485, 
    "ZIP": 60642, 
    "ADDRESS": "1440-1444 W HUBBARD ST", 
    "YEAR": 2008, 
    "LONGITUDE": -87.663926439, 
    "LATTITUDE": 41.89004632
  }, 
  {
    "BUSINESS_TYPE": "Auctioneer", 
    "LEGAL_NAME": "CHARLES MC GARY", 
    "STATE": "IL", 
    "DOING_BUSINESS_AS_NAME": "LANDMARK LIQUIDATION", 
    "POP_AT_RISK": 17702, 
    "ZIP": 60617, 
    "ADDRESS": "8936 S COMMERCIAL AVE 1", 
    "YEAR": 2008, 
    "LONGITUDE": -87.551462432, 
    "LATTITUDE": 41.732615242
  }, 
  {
    "BUSINESS_TYPE": "Auctioneer", 
    "LEGAL_NAME": "TEIMOUR FAILY", 
    "STATE": "IL", 
    "DOING_BUSINESS_AS_NAME": "1ST FEDERAL AUTO AUCTION, INC", 
    "POP_AT_RISK": 34593, 
    "ZIP": 60637, 
    "ADDRESS": "35-75 E 63RD ST 1ST", 
    "YEAR": 2008, 
    "LONGITUDE": -87.624014875, 
    "LATTITUDE": 41.779904224
  }, 
  {
    "BUSINESS_TYPE": "Auctioneer", 
    "LEGAL_NAME": "THE CHICAGO ART AUCTION LLC", 
    "STATE": "IL", 
    "DOING_BUSINESS_AS_NAME": "THE CHICAGO ART AUCTION", 
    "POP_AT_RISK": 47371, 
    "ZIP": 60642, 
    "ADDRESS": "740 N OGDEN AVE 1", 
    "YEAR": 2008, 
    "LONGITUDE": -87.655424248, 
    "LATTITUDE": 41.895542602
  }, 
  {
    "BUSINESS_TYPE": "Auctioneer", 
    "LEGAL_NAME": "JEFFREY P. BROWN", 
    "STATE": "IL", 
    "DOING_BUSINESS_AS_NAME": "ACE AUCTIONEERS INC", 
    "POP_AT_RISK": 36938, 
    "ZIP": 60641, 
    "ADDRESS": "3825 N LOWELL AVE", 
    "YEAR": 2008, 
    "LONGITUDE": -87.736568774, 
    "LATTITUDE": 41.95068671
  }, 
  {
    "BUSINESS_TYPE": "Auctioneer", 
    "LEGAL_NAME": "JEFFREY P. BROWN", 
    "STATE": "IL", 
    "DOING_BUSINESS_AS_NAME": "ACE AUCTIONEERS INC", 
    "POP_AT_RISK": 25417, 
    "ZIP": 60659, 
    "ADDRESS": "3530 W PETERSON AVE  204", 
    "YEAR": 2008, 
    "LONGITUDE": -87.717705843, 
    "LATTITUDE": 41.990386896
  }, 
  {
    "BUSINESS_TYPE": "Auctioneer", 
    "LEGAL_NAME": "RICK LEVIN", 
    "STATE": "IL", 
    "DOING_BUSINESS_AS_NAME": "RICK LEVIN", 
    "POP_AT_RISK": 58720, 
    "ZIP": 60610, 
    "ADDRESS": "1347 N STATE PKWY 1", 
    "YEAR": 2008, 
    "LONGITUDE": -87.628632234, 
    "LATTITUDE": 41.907165907
  }, 
  {
    "BUSINESS_TYPE": "Auctioneer", 
    "LEGAL_NAME": "RPN SALES, INC.", 
    "STATE": "IL", 
    "DOING_BUSINESS_AS_NAME": "RPN SALES, INC.", 
    "POP_AT_RISK": 44522, 
    "ZIP": 60630, 
    "ADDRESS": "4451 N MILWAUKEE AVE", 
    "YEAR": 2008, 
    "LONGITUDE": -87.755469993, 
    "LATTITUDE": 41.961978116
  }, 
  {
    "BUSINESS_TYPE": "Auctioneer", 
    "LEGAL_NAME": "KENSINGTONS WINE AUCTIONEERS & BROKERS, INC.", 
    "STATE": "IL", 
    "DOING_BUSINESS_AS_NAME": "KENSINGTONS WINE AUCTIONEERS & BROKERS, INC.", 
    "POP_AT_RISK": 47208, 
    "ZIP": 60611, 
    "ADDRESS": "435 E ILLINOIS ST 1 160", 
    "YEAR": 2008, 
    "LONGITUDE": -87.616347728, 
    "LATTITUDE": 41.890965728
  }, 
  {
    "BUSINESS_TYPE": "Auctioneer", 
    "LEGAL_NAME": "RICHARD M STONE", 
    "STATE": "IL", 
    "DOING_BUSINESS_AS_NAME": "NATIONAL AUCTIONEERS, INC.", 
    "POP_AT_RISK": 43864, 
    "ZIP": 60604, 
    "ADDRESS": "343 S DEARBORN ST # 101", 
    "YEAR": 2008, 
    "LONGITUDE": -87.629121233, 
    "LATTITUDE": 41.877146786
  }, 
  {
    "BUSINESS_TYPE": "Auctioneer", 
    "LEGAL_NAME": "KARIM MOTLAGH", 
    "STATE": "IL", 
    "DOING_BUSINESS_AS_NAME": "KARIM MOTLAGH", 
    "POP_AT_RISK": 30549, 
    "ZIP": 60623, 
    "ADDRESS": "2135 S KILBOURN AVE 1ST", 
    "YEAR": 2008, 
    "LONGITUDE": -87.736828476, 
    "LATTITUDE": 41.852206572
  }, 
  {
    "BUSINESS_TYPE": "Auctioneer", 
    "LEGAL_NAME": "CHERE WALSH", 
    "STATE": "IL", 
    "DOING_BUSINESS_AS_NAME": "CHERE WALSH", 
    "POP_AT_RISK": 79757, 
    "ZIP": 60640, 
    "ADDRESS": "4430 N CLARK ST 1ST", 
    "YEAR": 2008, 
    "LONGITUDE": -87.666302194, 
    "LATTITUDE": 41.96255273
  }
]