[
{"STATE":"IL","ZIP":60642,"LATTITUDE":41.88898483165233,"ADDRESS":"1438 W KINZIE ST  ","YEAR":2006,"DOING_BUSINESS_AS_NAME":"REDMOON THEATER","POP_AT_RISK":513305,"BUSINESS_TYPE":"Performing Arts Venue","LEGAL_NAME":"REDMOON THEATER","LONGITUDE":-87.66381948691111},
{"STATE":"IL","ZIP":60645,"LATTITUDE":42.019309805091574,"ADDRESS":"7555 N RIDGE BLVD  ","YEAR":2006,"DOING_BUSINESS_AS_NAME":"TESFAYE M NEGATU","POP_AT_RISK":425784,"BUSINESS_TYPE":"Performing Arts Venue","LEGAL_NAME":"TESFAYE M NEGATU","LONGITUDE":-87.68448531525966},
{"STATE":"IL","ZIP":60626,"LATTITUDE":42.01594868902688,"ADDRESS":"1439-1441 W JARVIS AVE  ","YEAR":2006,"DOING_BUSINESS_AS_NAME":"THE SIDE PROJECT","POP_AT_RISK":124592,"BUSINESS_TYPE":"Performing Arts Venue","LEGAL_NAME":"THE SIDE PROJECT","LONGITUDE":-87.667679644296},
{"STATE":"IL","ZIP":60640,"LATTITUDE":41.9759351662295,"ADDRESS":"5153 N ASHLAND AVE  ","YEAR":2006,"DOING_BUSINESS_AS_NAME":"The Neo-Futurists","POP_AT_RISK":137812,"BUSINESS_TYPE":"Performing Arts Venue","LEGAL_NAME":"THE NEO-FUTURISTS","LONGITUDE":-87.66946268671114},
{"STATE":"IL","ZIP":60602,"LATTITUDE":41.883100539501605,"ADDRESS":"77 W WASHINGTON ST  LWR LVL","YEAR":2006,"DOING_BUSINESS_AS_NAME":"SILK ROAD RISING","POP_AT_RISK":305715,"BUSINESS_TYPE":"Performing Arts Venue","LEGAL_NAME":"Gilloury Institute","LONGITUDE":-87.63033121191829},
{"STATE":"IL","ZIP":60610,"LATTITUDE":41.91008024220972,"ADDRESS":"1531 N WELLS ST  ","YEAR":2006,"DOING_BUSINESS_AS_NAME":"A RED ORCHID THEATER","POP_AT_RISK":324445,"BUSINESS_TYPE":"Performing Arts Venue","LEGAL_NAME":"A RED ORCHID THEATER","LONGITUDE":-87.63452976939911},
{"STATE":"IL","ZIP":60651,"LATTITUDE":41.90136216797627,"ADDRESS":"1130-1140 N LAMON AVE  ","YEAR":2006,"DOING_BUSINESS_AS_NAME":"BETH ANNE LIFE CENTER","POP_AT_RISK":548292,"BUSINESS_TYPE":"Performing Arts Venue","LEGAL_NAME":"BETH-ANNE FOUNDATION","LONGITUDE":-87.74854583761227},
{"STATE":"IL","ZIP":60660,"LATTITUDE":41.99433043833787,"ADDRESS":"6157 N CLARK ST  ","YEAR":2006,"DOING_BUSINESS_AS_NAME":"RAVEN THEATRE COMPANY","POP_AT_RISK":436692,"BUSINESS_TYPE":"Performing Arts Venue","LEGAL_NAME":"RAVEN THEATRE COMPANY","LONGITUDE":-87.67000007450335},
{"STATE":"IL","ZIP":60618,"LATTITUDE":41.937980454137076,"ADDRESS":"3111 N WESTERN AVE # 1ST","YEAR":2006,"DOING_BUSINESS_AS_NAME":"VIADUCT THEATRE","POP_AT_RISK":428247,"BUSINESS_TYPE":"Performing Arts Venue","LEGAL_NAME":"VIADUCT ARTS COALITION","LONGITUDE":-87.68774498018773},
{"STATE":"IL","ZIP":60614,"LATTITUDE":41.92624084912177,"ADDRESS":"2433 N LINCOLN AVE  ","YEAR":2006,"DOING_BUSINESS_AS_NAME":"VICTORY GARDENS THEATER","POP_AT_RISK":142582,"BUSINESS_TYPE":"Performing Arts Venue","LEGAL_NAME":"VICTORY GARDENS THEATER","LONGITUDE":-87.64966264486391},
{"STATE":"IL","ZIP":60613,"LATTITUDE":41.952253491020734,"ADDRESS":"1909 W BYRON ST  1","YEAR":2006,"DOING_BUSINESS_AS_NAME":"AMERICAN THEATRE COMPANY","POP_AT_RISK":178284,"BUSINESS_TYPE":"Performing Arts Venue","LEGAL_NAME":"AMERICAN THEATRE COMPANY","LONGITUDE":-87.67667477531745},
{"STATE":"IL","ZIP":60660,"LATTITUDE":41.98380209579369,"ADDRESS":"1020 W BRYN MAWR AVE 2 ","YEAR":2006,"DOING_BUSINESS_AS_NAME":"CITY LIT THEATER","POP_AT_RISK":70325,"BUSINESS_TYPE":"Performing Arts Venue","LEGAL_NAME":"CITY LIT THEATRE COMPANY","LONGITUDE":-87.65613163038387},
{"STATE":"IL","ZIP":60630,"LATTITUDE":41.96789000575237,"ADDRESS":"4802 N MILWAUKEE AVE  ","YEAR":2006,"DOING_BUSINESS_AS_NAME":"THE GIFT THEATRE COMPANY","POP_AT_RISK":374598,"BUSINESS_TYPE":"Performing Arts Venue","LEGAL_NAME":"THE GIFT THEATRE COMPANY","LONGITUDE":-87.76093810809842},
{"STATE":"IL","ZIP":60647,"LATTITUDE":41.91640803246923,"ADDRESS":"1919 N MILWAUKEE AVE  1","YEAR":2006,"DOING_BUSINESS_AS_NAME":"GORILLA TANGO THEATRE","POP_AT_RISK":1666990,"BUSINESS_TYPE":"Performing Arts Venue","LEGAL_NAME":"GORILLA TANGO INCORPORATED","LONGITUDE":-87.6865471493126},
{"STATE":"IL","ZIP":60611,"LATTITUDE":41.897484072390675,"ADDRESS":"163 E PEARSON ST  ","YEAR":2006,"DOING_BUSINESS_AS_NAME":"LOOKINGGLASS THEATRE COMPANY","POP_AT_RISK":168824,"BUSINESS_TYPE":"Performing Arts Venue","LEGAL_NAME":"LOOKINGGLASS THEATRE COMPANY","LONGITUDE":-87.62337776811282},
{"STATE":"IL","ZIP":60657,"LATTITUDE":41.9342453931085,"ADDRESS":"2851 N HALSTED ST  ","YEAR":2006,"DOING_BUSINESS_AS_NAME":"Comedy Sportz of Chicago","POP_AT_RISK":89569,"BUSINESS_TYPE":"Performing Arts Venue","LEGAL_NAME":"Comedy Sportz of Chicago, Inc.","LONGITUDE":-87.64891971436136},
{"STATE":"IL","ZIP":60639,"LATTITUDE":41.92984029473928,"ADDRESS":"2707 N LARAMIE AVE  ","YEAR":2006,"DOING_BUSINESS_AS_NAME":"AGUIJON THEATER COMPANY","POP_AT_RISK":1172944,"BUSINESS_TYPE":"Performing Arts Venue","LEGAL_NAME":"AGUIJON THEATER COMPANY OF CHICAGO","LONGITUDE":-87.75621406151068},
{}]