[
  {
    "BUSINESS_TYPE": "Package Goods", 
    "LEGAL_NAME": "HOST INTERNATIONAL, INC.", 
    "STATE": "IL", 
    "DOING_BUSINESS_AS_NAME": "Corner Bakery- Round Building", 
    "POP_AT_RISK": 4956, 
    "ZIP": 60666, 
    "ADDRESS": "11601 W TOUHY AVE  518 R", 
    "YEAR": 2006, 
    "LONGITUDE": -87.914428439, 
    "LATTITUDE": 42.008536401
  }, 
  {
    "BUSINESS_TYPE": "Package Goods", 
    "LEGAL_NAME": "11112 SOUTH HALSTED STREET CORPORATION", 
    "STATE": "IL", 
    "DOING_BUSINESS_AS_NAME": "SHELDON LIQUORS", 
    "POP_AT_RISK": 34675, 
    "ZIP": 60628, 
    "ADDRESS": "11112 S HALSTED ST 1ST", 
    "YEAR": 2006, 
    "LONGITUDE": -87.642514376, 
    "LATTITUDE": 41.691924093
  }, 
  {
    "BUSINESS_TYPE": "Package Goods", 
    "LEGAL_NAME": "LA NACIONAL, INC.", 
    "STATE": "IL", 
    "DOING_BUSINESS_AS_NAME": "LA NACIONAL LIQUORS", 
    "POP_AT_RISK": 15008, 
    "ZIP": 60617, 
    "ADDRESS": "9901-9903 S EWING AVE", 
    "YEAR": 2006, 
    "LONGITUDE": -87.535129942, 
    "LATTITUDE": 41.71572435
  }, 
  {
    "BUSINESS_TYPE": "Package Goods", 
    "LEGAL_NAME": "QVAC, Inc.", 
    "STATE": "IL", 
    "DOING_BUSINESS_AS_NAME": "Baltimore Food & Liquor", 
    "POP_AT_RISK": 9426, 
    "ZIP": 60633, 
    "ADDRESS": "13322-13324 S BALTIMORE AVE", 
    "YEAR": 2006, 
    "LONGITUDE": -87.547298653, 
    "LATTITUDE": 41.652964612
  }, 
  {
    "BUSINESS_TYPE": "Package Goods", 
    "LEGAL_NAME": "J & B LIQUORS INC", 
    "STATE": "IL", 
    "DOING_BUSINESS_AS_NAME": "J & B LIQUORS INC", 
    "POP_AT_RISK": 26253, 
    "ZIP": 60628, 
    "ADDRESS": "12258 S MICHIGAN AVE 1ST #", 
    "YEAR": 2006, 
    "LONGITUDE": -87.620438255, 
    "LATTITUDE": 41.670806414
  }, 
  {
    "BUSINESS_TYPE": "Package Goods", 
    "LEGAL_NAME": "HAPPY FOODS, INC.", 
    "STATE": "IL", 
    "DOING_BUSINESS_AS_NAME": "HAPPY FOODS", 
    "POP_AT_RISK": 17956, 
    "ZIP": 60646, 
    "ADDRESS": "6415 N CENTRAL AVE", 
    "YEAR": 2006, 
    "LONGITUDE": -87.763445799, 
    "LATTITUDE": 41.997860014
  }, 
  {
    "BUSINESS_TYPE": "Package Goods", 
    "LEGAL_NAME": "BOBDOL, INC.", 
    "STATE": "IL", 
    "DOING_BUSINESS_AS_NAME": "MISKA LIQUOR", 
    "POP_AT_RISK": 27624, 
    "ZIP": 60638, 
    "ADDRESS": "6410 W 63RD ST 1ST", 
    "YEAR": 2006, 
    "LONGITUDE": -87.781786942, 
    "LATTITUDE": 41.777778359
  }, 
  {
    "BUSINESS_TYPE": "Package Goods", 
    "LEGAL_NAME": "ISLS INC.", 
    "STATE": "IL", 
    "DOING_BUSINESS_AS_NAME": "MISKA LIQUORS", 
    "POP_AT_RISK": 12734, 
    "ZIP": 60634, 
    "ADDRESS": "8227 W IRVING PARK RD", 
    "YEAR": 2006, 
    "LONGITUDE": -87.832959048, 
    "LATTITUDE": 41.952023715
  }
]