[
{"STATE":"IL","ZIP":60634,"LATTITUDE":41.945295393932916,"ADDRESS":"7340 W ADDISON ST  ","YEAR":2008,"DOING_BUSINESS_AS_NAME":"THE DOG ROOM","POP_AT_RISK":45916,"BUSINESS_TYPE":"Grooming Facility","LEGAL_NAME":"ANNE HALE","LONGITUDE":-87.81104071776409},
{"STATE":"IL","ZIP":60629,"LATTITUDE":41.77267338910465,"ADDRESS":"6616 S PULASKI RD  STREE","YEAR":2008,"DOING_BUSINESS_AS_NAME":"CLIP JOINT","POP_AT_RISK":203025,"BUSINESS_TYPE":"Grooming Facility","LEGAL_NAME":"BRITA JONES","LONGITUDE":-87.7227555337837},
{"STATE":"IL","ZIP":60630,"LATTITUDE":41.9679174064144,"ADDRESS":"5510 W LAWRENCE AVE  1","YEAR":2008,"DOING_BUSINESS_AS_NAME":"PINK POODLE DOG BOUTIQUE","POP_AT_RISK":273678,"BUSINESS_TYPE":"Grooming Facility","LEGAL_NAME":"DORIS GRGIN","LONGITUDE":-87.76548452271193},
{"STATE":"IL","ZIP":60617,"LATTITUDE":41.725362607953755,"ADDRESS":"9335 S ESCANABA AVE 1ST ","YEAR":2008,"DOING_BUSINESS_AS_NAME":"PET GROOMERS","POP_AT_RISK":129003,"BUSINESS_TYPE":"Grooming Facility","LEGAL_NAME":"FLORENDO WAIR","LONGITUDE":-87.55375842875418},
{"STATE":"IL","ZIP":60634,"LATTITUDE":41.938076444262066,"ADDRESS":"7500 W BELMONT AVE 1ST ","YEAR":2008,"DOING_BUSINESS_AS_NAME":"POM POM PALACE","POP_AT_RISK":84766,"BUSINESS_TYPE":"Grooming Facility","LEGAL_NAME":"JULIE HERBERT","LONGITUDE":-87.81413766781473},
{"STATE":"IL","ZIP":60619,"LATTITUDE":41.749340167099085,"ADDRESS":"749 E 80TH ST  ","YEAR":2008,"DOING_BUSINESS_AS_NAME":"THE MASTERS EDGE PET GROOMING SALON","POP_AT_RISK":348912,"BUSINESS_TYPE":"Grooming Facility","LEGAL_NAME":"SHEVIN T RUSS","LONGITUDE":-87.60566558065484},
{"STATE":"IL","ZIP":60611,"LATTITUDE":41.893341296312244,"ADDRESS":"401 E ONTARIO ST 1 ","YEAR":2008,"DOING_BUSINESS_AS_NAME":"STREETVILLE PET SPA & BOUTIQUE","POP_AT_RISK":173247,"BUSINESS_TYPE":"Grooming Facility","LEGAL_NAME":"HYDE PARK INC.","LONGITUDE":-87.61758915120579},
{"STATE":"IL","ZIP":60607,"LATTITUDE":41.86888971111206,"ADDRESS":"1101 S CANAL ST  ","YEAR":2008,"DOING_BUSINESS_AS_NAME":"PETSMART","POP_AT_RISK":32478,"BUSINESS_TYPE":"Grooming Facility","LEGAL_NAME":"PETSMART, INC.","LONGITUDE":-87.63909892808796},
{"STATE":"IL","ZIP":60609,"LATTITUDE":41.82727787410544,"ADDRESS":"556 W 37TH ST 1ST FL ","YEAR":2008,"DOING_BUSINESS_AS_NAME":"THREE PUPS IN A TUB","POP_AT_RISK":30979,"BUSINESS_TYPE":"Grooming Facility","LEGAL_NAME":"EDWARD SIDABRAS","LONGITUDE":-87.6409992314425},
{"STATE":"IL","ZIP":60647,"LATTITUDE":41.931955890810436,"ADDRESS":"2949 W DIVERSEY AVE  ","YEAR":2008,"DOING_BUSINESS_AS_NAME":"PET A CURE, INC","POP_AT_RISK":324714,"BUSINESS_TYPE":"Grooming Facility","LEGAL_NAME":"PET A CURE, INC","LONGITUDE":-87.70206625461185},
{"STATE":"IL","ZIP":60640,"LATTITUDE":41.967311213619794,"ADDRESS":"1148 W LELAND AVE  ","YEAR":2008,"DOING_BUSINESS_AS_NAME":"SOGGY  PAWS  INC","POP_AT_RISK":67069,"BUSINESS_TYPE":"Grooming Facility","LEGAL_NAME":"SOGGY PAWS, INC","LONGITUDE":-87.65948778391727},
{"STATE":"IL","ZIP":60647,"LATTITUDE":41.91765358245522,"ADDRESS":"2526 W ARMITAGE AVE 1 ","YEAR":2008,"DOING_BUSINESS_AS_NAME":"SOGGY PAWS, INC.","POP_AT_RISK":232224,"BUSINESS_TYPE":"Grooming Facility","LEGAL_NAME":"SOGGY PAWS, INC","LONGITUDE":-87.69103634902459},
{"STATE":"IL","ZIP":60641,"LATTITUDE":41.95343877036222,"ADDRESS":"4317 W IRVING PARK RD  ","YEAR":2008,"DOING_BUSINESS_AS_NAME":"SOGGY PAWS, INC.","POP_AT_RISK":160284,"BUSINESS_TYPE":"Grooming Facility","LEGAL_NAME":"SOGGY PAWS, INC","LONGITUDE":-87.73620378405265},
{"STATE":"IL","ZIP":60605,"LATTITUDE":41.86909622173524,"ADDRESS":"1103 S STATE ST 1ST ","YEAR":2008,"DOING_BUSINESS_AS_NAME":"KRISERS FEEDIN PETS FOR LIFE","POP_AT_RISK":87682,"BUSINESS_TYPE":"Grooming Facility","LEGAL_NAME":"STATE\/11TH, LLC","LONGITUDE":-87.62731806769206},
{"STATE":"IL","ZIP":60641,"LATTITUDE":41.953392106880344,"ADDRESS":"5232 W IRVING PARK RD  ","YEAR":2008,"DOING_BUSINESS_AS_NAME":"BARK OUT LOUD","POP_AT_RISK":47594,"BUSINESS_TYPE":"Grooming Facility","LEGAL_NAME":"ANNE MARIE ZWICK","LONGITUDE":-87.75849574816502},
{"STATE":"IL","ZIP":60622,"LATTITUDE":41.892086802610415,"ADDRESS":"535 N ASHLAND AVE 1 ","YEAR":2008,"DOING_BUSINESS_AS_NAME":"CLEANDOG","POP_AT_RISK":37500,"BUSINESS_TYPE":"Grooming Facility","LEGAL_NAME":"CLEANDOG, L.L.C.","LONGITUDE":-87.66702764356063},
{"STATE":"IL","ZIP":60707,"LATTITUDE":41.90909396170177,"ADDRESS":"6916 W NORTH AVE  ","YEAR":2008,"DOING_BUSINESS_AS_NAME":"LE POOCH SALON","POP_AT_RISK":72654,"BUSINESS_TYPE":"Grooming Facility","LEGAL_NAME":"SANDRA S PORRATA","LONGITUDE":-87.79796341179787},
{"STATE":"IL","ZIP":60637,"LATTITUDE":41.76921322872776,"ADDRESS":"361 E 69TH ST 1ST ","YEAR":2008,"DOING_BUSINESS_AS_NAME":"DOGS ONLY GROOMING SALON","POP_AT_RISK":402480,"BUSINESS_TYPE":"Grooming Facility","LEGAL_NAME":"ARLETTA M BENNETT","LONGITUDE":-87.61623688906927},
{"STATE":"IL","ZIP":60608,"LATTITUDE":41.83609692076121,"ADDRESS":"3203 S HALSTED ST 1ST ","YEAR":2008,"DOING_BUSINESS_AS_NAME":"BROOKLYN'S DOGGIE STYLES","POP_AT_RISK":38503,"BUSINESS_TYPE":"Grooming Facility","LEGAL_NAME":"KELLY L. MARUSARZ","LONGITUDE":-87.64608423691962},
{"STATE":"IL","ZIP":60643,"LATTITUDE":41.71080448383775,"ADDRESS":"10035 S WESTERN AVE  1","YEAR":2008,"DOING_BUSINESS_AS_NAME":"BEVERLY PET","POP_AT_RISK":75272,"BUSINESS_TYPE":"Grooming Facility","LEGAL_NAME":"AUDREY ANN FISCHER","LONGITUDE":-87.68160723017458},
{"STATE":"IL","ZIP":60629,"LATTITUDE":41.778569004502664,"ADDRESS":"4656 W 63RD ST  ","YEAR":2008,"DOING_BUSINESS_AS_NAME":"Tres Chic Dog Grooming","POP_AT_RISK":76539,"BUSINESS_TYPE":"Grooming Facility","LEGAL_NAME":"Gary E. Paczkowski","LONGITUDE":-87.73970151969735},
{"STATE":"IL","ZIP":60638,"LATTITUDE":41.79217695836636,"ADDRESS":"6511 W ARCHER AVE  ","YEAR":2008,"DOING_BUSINESS_AS_NAME":"DOG IN SUDS GROOMING","POP_AT_RISK":30725,"BUSINESS_TYPE":"Grooming Facility","LEGAL_NAME":"MELANIE J. BUNETTA","LONGITUDE":-87.78476485852374},
{"STATE":"IL","ZIP":60625,"LATTITUDE":41.97581394198703,"ADDRESS":"2305 W FOSTER AVE  1","YEAR":2008,"DOING_BUSINESS_AS_NAME":"CHICAGO DOG GROOMING","POP_AT_RISK":51635,"BUSINESS_TYPE":"Grooming Facility","LEGAL_NAME":"MICHELE A. GANDOLFO","LONGITUDE":-87.68697361906624},
{"STATE":"IL","ZIP":60645,"LATTITUDE":42.01194926894936,"ADDRESS":"2805 W TOUHY AVE  ","YEAR":2008,"DOING_BUSINESS_AS_NAME":"MICKEY'S PET SALON","POP_AT_RISK":116712,"BUSINESS_TYPE":"Grooming Facility","LEGAL_NAME":"MIGUEL A. MANJARREZ","LONGITUDE":-87.69998025125882},
{"STATE":"IL","ZIP":60656,"LATTITUDE":41.98051888929613,"ADDRESS":"7040 W HIGGINS AVE  ","YEAR":2008,"DOING_BUSINESS_AS_NAME":"CANINE CORRAL","POP_AT_RISK":118456,"BUSINESS_TYPE":"Grooming Facility","LEGAL_NAME":"NICOLE LYNN CARFORA","LONGITUDE":-87.8036948531878},
{"STATE":"IL","ZIP":60622,"LATTITUDE":41.89807336191457,"ADDRESS":"911 N DAMEN AVE  ","YEAR":2008,"DOING_BUSINESS_AS_NAME":"THE GROOMING GALLERY","POP_AT_RISK":65843,"BUSINESS_TYPE":"Grooming Facility","LEGAL_NAME":"THE GROOMING GALLERY","LONGITUDE":-87.67696729915475},
{"STATE":"IL","ZIP":60646,"LATTITUDE":41.986481135652845,"ADDRESS":"5759 N NAGLE AVE  60646","YEAR":2008,"DOING_BUSINESS_AS_NAME":"RUB -A - DUB DOG, INC","POP_AT_RISK":145256,"BUSINESS_TYPE":"Grooming Facility","LEGAL_NAME":"RUB - A- DUB DOG, UNC","LONGITUDE":-87.78752100299114},
{"STATE":"IL","ZIP":60638,"LATTITUDE":41.792120050968975,"ADDRESS":"6621 W ARCHER AVE 1 ","YEAR":2008,"DOING_BUSINESS_AS_NAME":"BARKIN' BEAUTIES","POP_AT_RISK":29615,"BUSINESS_TYPE":"Grooming Facility","LEGAL_NAME":"BARKIN' BEAUTIES, INC.","LONGITUDE":-87.78766374908565},
{"STATE":"IL","ZIP":60641,"LATTITUDE":41.94456913331175,"ADDRESS":"3464 N PULASKI RD 1ST ","YEAR":2008,"DOING_BUSINESS_AS_NAME":"LUV YOUR PUP DOG GROOMING & SPA","POP_AT_RISK":265265,"BUSINESS_TYPE":"Grooming Facility","LEGAL_NAME":"KALK ENTERPRISES, INC.","LONGITUDE":-87.72749197013754},
{"STATE":"IL","ZIP":60653,"LATTITUDE":41.81678524448048,"ADDRESS":"450 E 43RD ST 1 ","YEAR":2008,"DOING_BUSINESS_AS_NAME":"HEAVEN ON EARTH DOG DAY CARE & SPA","POP_AT_RISK":753654,"BUSINESS_TYPE":"Grooming Facility","LEGAL_NAME":"LEE LANEE INCORPORATED","LONGITUDE":-87.61447742711327},
{"STATE":"IL","ZIP":60643,"LATTITUDE":41.69493985416419,"ADDRESS":"10918 S WESTERN AVE  ","YEAR":2008,"DOING_BUSINESS_AS_NAME":"DAZZLE PET GROOMING","POP_AT_RISK":43344,"BUSINESS_TYPE":"Grooming Facility","LEGAL_NAME":"LORRAINE THERESE LYMAN","LONGITUDE":-87.68140343358414},
{"STATE":"IL","ZIP":60652,"LATTITUDE":41.74602291961784,"ADDRESS":"8057 S CICERO AVE  ","YEAR":2008,"DOING_BUSINESS_AS_NAME":"PET LUV PET CENTER INC","POP_AT_RISK":80444,"BUSINESS_TYPE":"Grooming Facility","LEGAL_NAME":"PET LUV PET CENTER INC","LONGITUDE":-87.7411015602688},
{"STATE":"IL","ZIP":60707,"LATTITUDE":41.92394480190854,"ADDRESS":"2411 N NEWLAND AVE 1 ","YEAR":2008,"DOING_BUSINESS_AS_NAME":"PRETTY PAW'S","POP_AT_RISK":200992,"BUSINESS_TYPE":"Grooming Facility","LEGAL_NAME":"PRETTY PAW'S CORPORATION","LONGITUDE":-87.79877077387005},
{"STATE":"IL","ZIP":60660,"LATTITUDE":41.99028553512525,"ADDRESS":"5943 N BROADWAY  1 1","YEAR":2008,"DOING_BUSINESS_AS_NAME":"BARK BARK CLUB PET SERVICES","POP_AT_RISK":198594,"BUSINESS_TYPE":"Grooming Facility","LEGAL_NAME":"THE BARK BARK CLUB, INC.","LONGITUDE":-87.66012791212042},
{"STATE":"IL","ZIP":60631,"LATTITUDE":42.011790966822375,"ADDRESS":"7236 W TOUHY AVE 1ST ","YEAR":2008,"DOING_BUSINESS_AS_NAME":"PAW & CLAW CAT GROOMING","POP_AT_RISK":95800,"BUSINESS_TYPE":"Grooming Facility","LEGAL_NAME":"CAROLE RINKO & DIANA DEMPSEY","LONGITUDE":-87.8080824261318},
{"STATE":"IL","ZIP":60618,"LATTITUDE":41.96125126209583,"ADDRESS":"3332 W MONTROSE AVE 1 ","YEAR":2008,"DOING_BUSINESS_AS_NAME":"CHICAGO GROOMING ACADEMY","POP_AT_RISK":694908,"BUSINESS_TYPE":"Grooming Facility","LEGAL_NAME":"CHICAGO GROOMING ACADEMY INC.","LONGITUDE":-87.7120521820261},
{"STATE":"IL","ZIP":60626,"LATTITUDE":42.01594338357489,"ADDRESS":"1447 W JARVIS AVE  ","YEAR":2008,"DOING_BUSINESS_AS_NAME":"ROGERS BARK PET SALON","POP_AT_RISK":436072,"BUSINESS_TYPE":"Grooming Facility","LEGAL_NAME":"ROGERS BARK PET SERVICES, INC.","LONGITUDE":-87.66796786700539},
{"STATE":"IL","ZIP":60652,"LATTITUDE":41.74989212589121,"ADDRESS":"3410 W 79TH ST 1ST ","YEAR":2008,"DOING_BUSINESS_AS_NAME":"DOGGONE RITE","POP_AT_RISK":201240,"BUSINESS_TYPE":"Grooming Facility","LEGAL_NAME":"DONALD CHRISTIE\/CONSTANCE BINION","LONGITUDE":-87.70776145105862},
{"STATE":"IL","ZIP":60607,"LATTITUDE":41.88035142248382,"ADDRESS":"843 W MONROE ST 1 1-A","YEAR":2008,"DOING_BUSINESS_AS_NAME":"MONROE ST GROOMING STUDIO","POP_AT_RISK":150740,"BUSINESS_TYPE":"Grooming Facility","LEGAL_NAME":"LOGAN SQUARE GROOMING STUDIO INC.","LONGITUDE":-87.64903114992849},
{"STATE":"IL","ZIP":60613,"LATTITUDE":41.95284795297084,"ADDRESS":"810 W SHERIDAN RD 1ST ","YEAR":2008,"DOING_BUSINESS_AS_NAME":"PARADISE PET SALON & SPA TOO! INC.","POP_AT_RISK":70645,"BUSINESS_TYPE":"Grooming Facility","LEGAL_NAME":"PARADISE PET SALON & SPA TOO! INC.","LONGITUDE":-87.65015180182598},
{}]