[
  {
    "BUSINESS_TYPE": "Massage Therapist", 
    "LEGAL_NAME": "JOANETTE CATINO", 
    "STATE": "IL", 
    "DOING_BUSINESS_AS_NAME": "JOANETTE CATINO", 
    "POP_AT_RISK": 18537, 
    "ZIP": 60609, 
    "ADDRESS": "4205 S LOWE AVE  1ST", 
    "YEAR": 2003, 
    "LONGITUDE": -87.641965786, 
    "LATTITUDE": 41.817426493
  }, 
  {
    "BUSINESS_TYPE": "Massage Therapist", 
    "LEGAL_NAME": "VAIDA WOLYNIEC", 
    "STATE": "IL", 
    "DOING_BUSINESS_AS_NAME": "VAIDA WOLYNIEC", 
    "POP_AT_RISK": 26354, 
    "ZIP": 60638, 
    "ADDRESS": "5711 S MEADE AVE", 
    "YEAR": 2003, 
    "LONGITUDE": -87.774198627, 
    "LATTITUDE": 41.788452274
  }, 
  {
    "BUSINESS_TYPE": "Massage Therapist", 
    "LEGAL_NAME": "BEATA BAK", 
    "STATE": "IL", 
    "DOING_BUSINESS_AS_NAME": "BEATA BAK", 
    "POP_AT_RISK": 29862, 
    "ZIP": 60632, 
    "ADDRESS": "4818 S KILDARE AVE", 
    "YEAR": 2003, 
    "LONGITUDE": -87.731005331, 
    "LATTITUDE": 41.805347057
  }, 
  {
    "BUSINESS_TYPE": "Massage Therapist", 
    "LEGAL_NAME": "MARIANNE LOPEZ", 
    "STATE": "IL", 
    "DOING_BUSINESS_AS_NAME": "MARIANNE LOPEZ", 
    "POP_AT_RISK": 36064, 
    "ZIP": 60632, 
    "ADDRESS": "4437 S HOMAN AVE", 
    "YEAR": 2003, 
    "LONGITUDE": -87.708905335, 
    "LATTITUDE": 41.812506912
  }, 
  {
    "BUSINESS_TYPE": "Massage Therapist", 
    "LEGAL_NAME": "REGINA M DAVIS", 
    "STATE": "IL", 
    "DOING_BUSINESS_AS_NAME": "REGINA M DAVIS", 
    "POP_AT_RISK": 21920, 
    "ZIP": 60643, 
    "ADDRESS": "1101 W 115TH ST", 
    "YEAR": 2003, 
    "LONGITUDE": -87.649504072, 
    "LATTITUDE": 41.684875077
  }, 
  {
    "BUSINESS_TYPE": "Massage Therapist", 
    "LEGAL_NAME": "DANGUOLE VILKIENE", 
    "STATE": "IL", 
    "DOING_BUSINESS_AS_NAME": "DANGUOLE VILKIENE", 
    "POP_AT_RISK": 28456, 
    "ZIP": 60559, 
    "ADDRESS": "604 W 65TH ST  1", 
    "YEAR": 2003, 
    "LONGITUDE": -87.63997959, 
    "LATTITUDE": 41.776281618
  }, 
  {
    "BUSINESS_TYPE": "Massage Therapist", 
    "LEGAL_NAME": "VALERIE JEAN DAVIS", 
    "STATE": "IL", 
    "DOING_BUSINESS_AS_NAME": "VALERIE DAVIS", 
    "POP_AT_RISK": 46033, 
    "ZIP": 60620, 
    "ADDRESS": "7738 S BISHOP ST  1ST", 
    "YEAR": 2003, 
    "LONGITUDE": -87.660408583, 
    "LATTITUDE": 41.752875547
  }, 
  {
    "BUSINESS_TYPE": "Massage Therapist", 
    "LEGAL_NAME": "JULIA M CHANDLER", 
    "STATE": "IL", 
    "DOING_BUSINESS_AS_NAME": "JULIA M CHANDLER", 
    "POP_AT_RISK": 6628, 
    "ZIP": 60633, 
    "ADDRESS": "13455 S BUFFALO AVE", 
    "YEAR": 2003, 
    "LONGITUDE": -87.543368023, 
    "LATTITUDE": 41.650227464
  }, 
  {
    "BUSINESS_TYPE": "Massage Therapist", 
    "LEGAL_NAME": "MARILYN G HENRY", 
    "STATE": "IL", 
    "DOING_BUSINESS_AS_NAME": "MARILYN G HENRY", 
    "POP_AT_RISK": 14869, 
    "ZIP": 60646, 
    "ADDRESS": "6338 N LENOX AVE 1ST", 
    "YEAR": 2003, 
    "LONGITUDE": -87.753023117, 
    "LATTITUDE": 41.996504621
  }, 
  {
    "BUSINESS_TYPE": "Massage Therapist", 
    "LEGAL_NAME": "NERISSA L. SMITH", 
    "STATE": "IL", 
    "DOING_BUSINESS_AS_NAME": "NERISSA L. SMITH", 
    "POP_AT_RISK": 45806, 
    "ZIP": 60651, 
    "ADDRESS": "1225 N MENARD AVE", 
    "YEAR": 2003, 
    "LONGITUDE": -87.770387337, 
    "LATTITUDE": 41.902839483
  }, 
  {
    "BUSINESS_TYPE": "Massage Therapist", 
    "LEGAL_NAME": "TAMMY LYNN SMITH", 
    "STATE": "IL", 
    "DOING_BUSINESS_AS_NAME": "TAMMY LYNN SMITH", 
    "POP_AT_RISK": 26262, 
    "ZIP": 60415, 
    "ADDRESS": "10500  FOREST LN", 
    "YEAR": 2003, 
    "LONGITUDE": -87.616249896, 
    "LATTITUDE": 41.703534753
  }, 
  {
    "BUSINESS_TYPE": "Massage Therapist", 
    "LEGAL_NAME": "RENATA ZALECKI", 
    "STATE": "IL", 
    "DOING_BUSINESS_AS_NAME": "RENATA ZALECKI", 
    "POP_AT_RISK": 24933, 
    "ZIP": 60656, 
    "ADDRESS": "8301 W BALMORAL AVE", 
    "YEAR": 2003, 
    "LONGITUDE": -87.834192237, 
    "LATTITUDE": 41.977969742
  }, 
  {
    "BUSINESS_TYPE": "Massage Therapist", 
    "LEGAL_NAME": "ANAI MEDINA LOERA", 
    "STATE": "IL", 
    "DOING_BUSINESS_AS_NAME": "ANAI MEDINA LOERA", 
    "POP_AT_RISK": 75374, 
    "ZIP": 60623, 
    "ADDRESS": "2233 S HOMAN AVE 1", 
    "YEAR": 2003, 
    "LONGITUDE": -87.709948261, 
    "LATTITUDE": 41.850716589
  }, 
  {
    "BUSINESS_TYPE": "Massage Therapist", 
    "LEGAL_NAME": "JURATE EINORIS", 
    "STATE": "IL", 
    "DOING_BUSINESS_AS_NAME": "JURATE  EINORIS", 
    "POP_AT_RISK": 60878, 
    "ZIP": 60632, 
    "ADDRESS": "5337 S FAIRFIELD AVE", 
    "YEAR": 2003, 
    "LONGITUDE": -87.692502354, 
    "LATTITUDE": 41.796253192
  }, 
  {
    "BUSINESS_TYPE": "Massage Therapist", 
    "LEGAL_NAME": "MARSHA B CAMPBELL", 
    "STATE": "IL", 
    "DOING_BUSINESS_AS_NAME": "MARSHA B CAMPBELL", 
    "POP_AT_RISK": 29177, 
    "ZIP": 60644, 
    "ADDRESS": "5223 W LEXINGTON ST", 
    "YEAR": 2003, 
    "LONGITUDE": -87.755688427, 
    "LATTITUDE": 41.870932612
  }, 
  {
    "BUSINESS_TYPE": "Massage Therapist", 
    "LEGAL_NAME": "KAROLINA S. KUZIEL", 
    "STATE": "IL", 
    "DOING_BUSINESS_AS_NAME": "KAROLINA S. KUZIEL", 
    "POP_AT_RISK": 35816, 
    "ZIP": 60629, 
    "ADDRESS": "6054 S KOLMAR AVE", 
    "YEAR": 2003, 
    "LONGITUDE": -87.736452825, 
    "LATTITUDE": 41.78235085
  }, 
  {
    "BUSINESS_TYPE": "Massage Therapist", 
    "LEGAL_NAME": "CYNTHIA C MACK", 
    "STATE": "IL", 
    "DOING_BUSINESS_AS_NAME": "CYNTHIA C MACK", 
    "POP_AT_RISK": 40261, 
    "ZIP": 60624, 
    "ADDRESS": "4437 W WEST END AVE  1ST", 
    "YEAR": 2003, 
    "LONGITUDE": -87.737083485, 
    "LATTITUDE": 41.883117269
  }, 
  {
    "BUSINESS_TYPE": "Massage Therapist", 
    "LEGAL_NAME": "MICHAEL E. PESICE", 
    "STATE": "IL", 
    "DOING_BUSINESS_AS_NAME": "MICHAEL E. PESICE", 
    "POP_AT_RISK": 14302, 
    "ZIP": 60638, 
    "ADDRESS": "5222 S MAYFIELD AVE", 
    "YEAR": 2003, 
    "LONGITUDE": -87.769911071, 
    "LATTITUDE": 41.797386788
  }, 
  {
    "BUSINESS_TYPE": "Massage Therapist", 
    "LEGAL_NAME": "AUGUSTUS WILSON JR", 
    "STATE": "IL", 
    "DOING_BUSINESS_AS_NAME": "AUGUSTUS WILSON JR", 
    "POP_AT_RISK": 23501, 
    "ZIP": 60652, 
    "ADDRESS": "4232 W 77TH ST  207", 
    "YEAR": 2003, 
    "LONGITUDE": -87.727995653, 
    "LATTITUDE": 41.753902522
  }, 
  {
    "BUSINESS_TYPE": "Massage Therapist", 
    "LEGAL_NAME": "WANDA BOLTON", 
    "STATE": "IL", 
    "DOING_BUSINESS_AS_NAME": "WANDA BOLTON", 
    "POP_AT_RISK": 27893, 
    "ZIP": 60615, 
    "ADDRESS": "114 E 50TH ST  2", 
    "YEAR": 2003, 
    "LONGITUDE": -87.621977903, 
    "LATTITUDE": 41.80394163
  }, 
  {
    "BUSINESS_TYPE": "Massage Therapist", 
    "LEGAL_NAME": "ELIZABETH JACKSON- DISMUKE", 
    "STATE": "IL", 
    "DOING_BUSINESS_AS_NAME": "ELIZABETH JACKSON- DISMUKE", 
    "POP_AT_RISK": 18730, 
    "ZIP": 60628, 
    "ADDRESS": "12630 S EDBROOKE AVE", 
    "YEAR": 2003, 
    "LONGITUDE": -87.618851763, 
    "LATTITUDE": 41.664098577
  }, 
  {
    "BUSINESS_TYPE": "Massage Therapist", 
    "LEGAL_NAME": "ALMEDA MC PHERSON", 
    "STATE": "IL", 
    "DOING_BUSINESS_AS_NAME": "ALMEDA MC PHERSON", 
    "POP_AT_RISK": 27094, 
    "ZIP": 60628, 
    "ADDRESS": "9833 S MICHIGAN AVE", 
    "YEAR": 2003, 
    "LONGITUDE": -87.620318852, 
    "LATTITUDE": 41.715330086
  }, 
  {
    "BUSINESS_TYPE": "Massage Therapist", 
    "LEGAL_NAME": "MARIBEL CASTRO", 
    "STATE": "IL", 
    "DOING_BUSINESS_AS_NAME": "MARIBEL CASTRO", 
    "POP_AT_RISK": 37657, 
    "ZIP": 60623, 
    "ADDRESS": "4353 W 25TH PL", 
    "YEAR": 2003, 
    "LONGITUDE": -87.733107285, 
    "LATTITUDE": 41.84493664
  }, 
  {
    "BUSINESS_TYPE": "Massage Therapist", 
    "LEGAL_NAME": "BERNADETTE PENNY", 
    "STATE": "IL", 
    "DOING_BUSINESS_AS_NAME": "BERNADETTE PENNY", 
    "POP_AT_RISK": 42005, 
    "ZIP": 60629, 
    "ADDRESS": "7336 S ARTESIAN AVE", 
    "YEAR": 2003, 
    "LONGITUDE": -87.684482591, 
    "LATTITUDE": 41.759919452
  }, 
  {
    "BUSINESS_TYPE": "Massage Therapist", 
    "LEGAL_NAME": "MARY SABATINO", 
    "STATE": "IL", 
    "DOING_BUSINESS_AS_NAME": "MARY  SABATINO", 
    "POP_AT_RISK": 30396, 
    "ZIP": 60609, 
    "ADDRESS": "1951 W 38TH ST", 
    "YEAR": 2003, 
    "LONGITUDE": -87.674733748, 
    "LATTITUDE": 41.824813117
  }, 
  {
    "BUSINESS_TYPE": "Massage Therapist", 
    "LEGAL_NAME": "DENNIS M. GRANNAN", 
    "STATE": "IL", 
    "DOING_BUSINESS_AS_NAME": "DENNIS M. GRANNAN", 
    "POP_AT_RISK": 41499, 
    "ZIP": 60201, 
    "ADDRESS": "3437 W HARRISON", 
    "YEAR": 2003, 
    "LONGITUDE": -87.71226467, 
    "LATTITUDE": 41.873500872
  }
]