[
  {
    "BUSINESS_TYPE": "Tavern", 
    "LEGAL_NAME": "EXCALIBUR CLUB, INC.", 
    "STATE": "IL", 
    "DOING_BUSINESS_AS_NAME": "EXCALIBUR CLUB", 
    "POP_AT_RISK": 26093, 
    "ZIP": 60628, 
    "ADDRESS": "451 E 111TH ST", 
    "YEAR": 2018, 
    "LONGITUDE": -87.611377369, 
    "LATTITUDE": 41.692648793
  }, 
  {
    "BUSINESS_TYPE": "Tavern", 
    "LEGAL_NAME": "SMALL TIME INC", 
    "STATE": "IL", 
    "DOING_BUSINESS_AS_NAME": "JACARANDA SPORTS BAR", 
    "POP_AT_RISK": 62481, 
    "ZIP": 60623, 
    "ADDRESS": "3608 W 26TH ST", 
    "YEAR": 2018, 
    "LONGITUDE": -87.715217442, 
    "LATTITUDE": 41.844488413
  }, 
  {
    "BUSINESS_TYPE": "Tavern", 
    "LEGAL_NAME": "HOWARD SMITH", 
    "STATE": "IL", 
    "DOING_BUSINESS_AS_NAME": "THE ODYSSEY 11 LOUNGE", 
    "POP_AT_RISK": 28189, 
    "ZIP": 60637, 
    "ADDRESS": "211 E 55TH ST 1ST", 
    "YEAR": 2018, 
    "LONGITUDE": -87.620347916, 
    "LATTITUDE": 41.7942922
  }, 
  {
    "BUSINESS_TYPE": "Tavern", 
    "LEGAL_NAME": "FAMILY LOUNGE, INC.", 
    "STATE": "IL", 
    "DOING_BUSINESS_AS_NAME": "FAMILY LOUNGE", 
    "POP_AT_RISK": 42099, 
    "ZIP": 60636, 
    "ADDRESS": "6946 S RACINE AVE", 
    "YEAR": 2018, 
    "LONGITUDE": -87.654320685, 
    "LATTITUDE": 41.767300033
  }, 
  {
    "BUSINESS_TYPE": "Tavern", 
    "LEGAL_NAME": "R & T CHICO, INC.", 
    "STATE": "IL", 
    "DOING_BUSINESS_AS_NAME": "LONCARS", 
    "POP_AT_RISK": 17702, 
    "ZIP": 60617, 
    "ADDRESS": "3201 E 92ND ST", 
    "YEAR": 2018, 
    "LONGITUDE": -87.546817851, 
    "LATTITUDE": 41.728189267
  }, 
  {
    "BUSINESS_TYPE": "Tavern", 
    "LEGAL_NAME": "THE NEW SOME PLACE ELSE, INC.", 
    "STATE": "IL", 
    "DOING_BUSINESS_AS_NAME": "THE NEW SOME PLACE ELSE LOUNGE", 
    "POP_AT_RISK": 26744, 
    "ZIP": 60643, 
    "ADDRESS": "11043 S ASHLAND AVE 1ST", 
    "YEAR": 2018, 
    "LONGITUDE": -87.661711113, 
    "LATTITUDE": 41.692637091
  }, 
  {
    "BUSINESS_TYPE": "Tavern", 
    "LEGAL_NAME": "ANNIE MCKINNON", 
    "STATE": "IL", 
    "DOING_BUSINESS_AS_NAME": "MS ANN'S PAD", 
    "POP_AT_RISK": 38204, 
    "ZIP": 60644, 
    "ADDRESS": "4701 W HARRISON ST  1", 
    "YEAR": 2018, 
    "LONGITUDE": -87.742682672, 
    "LATTITUDE": 41.873089763
  }, 
  {
    "BUSINESS_TYPE": "Tavern", 
    "LEGAL_NAME": "G H W INCORPORATED", 
    "STATE": "IL", 
    "DOING_BUSINESS_AS_NAME": "SKYBOX SPORTS BAR", 
    "POP_AT_RISK": 45153, 
    "ZIP": 60624, 
    "ADDRESS": "3601 W HARRISON ST 1ST", 
    "YEAR": 2018, 
    "LONGITUDE": -87.715777617, 
    "LATTITUDE": 41.873456801
  }, 
  {
    "BUSINESS_TYPE": "Tavern", 
    "LEGAL_NAME": "THE 9705 CORPORATION", 
    "STATE": "IL", 
    "DOING_BUSINESS_AS_NAME": "9705 CORP", 
    "POP_AT_RISK": 25334, 
    "ZIP": 60628, 
    "ADDRESS": "9705 S HALSTED ST  1", 
    "YEAR": 2018, 
    "LONGITUDE": -87.642958666, 
    "LATTITUDE": 41.717541962
  }, 
  {
    "BUSINESS_TYPE": "Tavern", 
    "LEGAL_NAME": "SUPERIOR CLUB, INC.", 
    "STATE": "IL", 
    "DOING_BUSINESS_AS_NAME": "AMBITION", 
    "POP_AT_RISK": 24839, 
    "ZIP": 60628, 
    "ADDRESS": "12001-12003 S HALSTED ST 1", 
    "YEAR": 2018, 
    "LONGITUDE": -87.641698046, 
    "LATTITUDE": 41.675902066
  }, 
  {
    "BUSINESS_TYPE": "Tavern", 
    "LEGAL_NAME": "NEW CELEBRITY LOUNGE INC", 
    "STATE": "IL", 
    "DOING_BUSINESS_AS_NAME": "NEW CELEBRITY LOUNGE INC", 
    "POP_AT_RISK": 37082, 
    "ZIP": 60617, 
    "ADDRESS": "2020-2022 E 83RD ST 1ST", 
    "YEAR": 2018, 
    "LONGITUDE": -87.574910022, 
    "LATTITUDE": 41.744456862
  }, 
  {
    "BUSINESS_TYPE": "Tavern", 
    "LEGAL_NAME": "KENNY & HELEN ROBINSON", 
    "STATE": "IL", 
    "DOING_BUSINESS_AS_NAME": "HIDIRI", 
    "POP_AT_RISK": 18513, 
    "ZIP": 60619, 
    "ADDRESS": "1008 E 93RD ST 1ST", 
    "YEAR": 2018, 
    "LONGITUDE": -87.599297643, 
    "LATTITUDE": 41.72589432
  }, 
  {
    "BUSINESS_TYPE": "Tavern", 
    "LEGAL_NAME": "SUAVE, INC.", 
    "STATE": "IL", 
    "DOING_BUSINESS_AS_NAME": "INFINITI BAR AND GRILL", 
    "POP_AT_RISK": 14637, 
    "ZIP": 60628, 
    "ADDRESS": "12717 S HALSTED ST", 
    "YEAR": 2018, 
    "LONGITUDE": -87.641255514, 
    "LATTITUDE": 41.662677267
  }, 
  {
    "BUSINESS_TYPE": "Tavern", 
    "LEGAL_NAME": "MARINO'S SOUTHTOWN TAP, INC.", 
    "STATE": "IL", 
    "DOING_BUSINESS_AS_NAME": "MARINO'S SOUTHTOWN TAP, INC.", 
    "POP_AT_RISK": 19727, 
    "ZIP": 60617, 
    "ADDRESS": "10200 S AVENUE M  1ST", 
    "YEAR": 2018, 
    "LONGITUDE": -87.537843863, 
    "LATTITUDE": 41.709949428
  }, 
  {
    "BUSINESS_TYPE": "Tavern", 
    "LEGAL_NAME": "ANDREA STEWART INC.", 
    "STATE": "IL", 
    "DOING_BUSINESS_AS_NAME": "GOOD TIMES SPORTS BAR", 
    "POP_AT_RISK": 36225, 
    "ZIP": 60616, 
    "ADDRESS": "200-210 E 35TH ST 2ND", 
    "YEAR": 2018, 
    "LONGITUDE": -87.621705209, 
    "LATTITUDE": 41.831169482
  }, 
  {
    "BUSINESS_TYPE": "Tavern", 
    "LEGAL_NAME": "MEE MAH, INC.", 
    "STATE": "IL", 
    "DOING_BUSINESS_AS_NAME": "MEE MAH", 
    "POP_AT_RISK": 17974, 
    "ZIP": 60646, 
    "ADDRESS": "4032 W PETERSON AVE # 1ST", 
    "YEAR": 2018, 
    "LONGITUDE": -87.729923616, 
    "LATTITUDE": 41.990229356
  }, 
  {
    "BUSINESS_TYPE": "Tavern", 
    "LEGAL_NAME": "THE EAGLE II, INC.", 
    "STATE": "IL", 
    "DOING_BUSINESS_AS_NAME": "THE FALCON", 
    "POP_AT_RISK": 36005, 
    "ZIP": 60615, 
    "ADDRESS": "1603 -1605 E 53RD ST", 
    "YEAR": 2018, 
    "LONGITUDE": -87.586330988, 
    "LATTITUDE": 41.799469658
  }
]