[
{"STATE":"IL","ZIP":60608,"LATTITUDE":41.853544076186786,"ADDRESS":"2119 S HALSTED ST  ","YEAR":2014,"DOING_BUSINESS_AS_NAME":"Octopus Inc.\/dba APVS\/ NIGHTWOOD","POP_AT_RISK":134523,"BUSINESS_TYPE":"Valet Parking Operator","LEGAL_NAME":"Octopus Inc.","LONGITUDE":-87.64637168866875},
{"STATE":"IL","ZIP":60640,"LATTITUDE":41.96685955069908,"ADDRESS":"4646 N MARINE DR  ","YEAR":2014,"DOING_BUSINESS_AS_NAME":"Towne Park, Ltd - Weiss Hospital","POP_AT_RISK":64775,"BUSINESS_TYPE":"Valet Parking Operator","LEGAL_NAME":"TOWNE PARK, LTD","LONGITUDE":-87.64913504207084},
{"STATE":"IL","ZIP":60613,"LATTITUDE":41.950185267797025,"ADDRESS":"3745 N SOUTHPORT AVE  ","YEAR":2014,"DOING_BUSINESS_AS_NAME":"BLK & WHT VALET LLC\/ MERCURY THEATER","POP_AT_RISK":66898,"BUSINESS_TYPE":"Valet Parking Operator","LEGAL_NAME":"BLK & WHT VALET LLC","LONGITUDE":-87.6639564423979},
{"STATE":"IL","ZIP":60618,"LATTITUDE":41.93827781968115,"ADDRESS":"3123 N CLYBOURN AVE  ","YEAR":2014,"DOING_BUSINESS_AS_NAME":"MIDWEST VALET, INC - CHICAGO VETERINARY EMERG. & SPECIALTY","POP_AT_RISK":347578,"BUSINESS_TYPE":"Valet Parking Operator","LEGAL_NAME":"MIDWEST VALET, INC.","LONGITUDE":-87.68620447166843},
{"STATE":"IL","ZIP":60616,"LATTITUDE":41.84671695664648,"ADDRESS":"2525 S MICHIGAN AVE  ","YEAR":2014,"DOING_BUSINESS_AS_NAME":"Standard Parking\/Mercy Hospital","POP_AT_RISK":127110,"BUSINESS_TYPE":"Valet Parking Operator","LEGAL_NAME":"SP PLUS CORPORATION","LONGITUDE":-87.62336972761213},
{"STATE":"IL","ZIP":60612,"LATTITUDE":41.88743405025222,"ADDRESS":"324 N LEAVITT ST  ","YEAR":2014,"DOING_BUSINESS_AS_NAME":"FIVE STAR VALET CORP\/ CITY VIEW LOFT","POP_AT_RISK":37092,"BUSINESS_TYPE":"Valet Parking Operator","LEGAL_NAME":"FIVE STAR VALET CORP","LONGITUDE":-87.68184949426895},
{"STATE":"IL","ZIP":60625,"LATTITUDE":41.968359543198794,"ADDRESS":"3940 W LAWRENCE AVE 1ST ","YEAR":2014,"DOING_BUSINESS_AS_NAME":"ADMIRAL THEATRE","POP_AT_RISK":336955,"BUSINESS_TYPE":"Valet Parking Operator","LEGAL_NAME":"ADMIRAL THEATRE, INC.","LONGITUDE":-87.72726653660831},
{"STATE":"IL","ZIP":60617,"LATTITUDE":41.726329231442904,"ADDRESS":"2320 E 93RD ST  ","YEAR":2014,"DOING_BUSINESS_AS_NAME":"FIRST CALSS VALET, INC\/ ADVOCATE TRINITY HOSPITAL","POP_AT_RISK":123864,"BUSINESS_TYPE":"Valet Parking Operator","LEGAL_NAME":"FIRST CLASS VALET, INC.","LONGITUDE":-87.56727090823563},
{"STATE":"IL","ZIP":60626,"LATTITUDE":42.008035998971195,"ADDRESS":"1330 W MORSE AVE  ","YEAR":2014,"DOING_BUSINESS_AS_NAME":"V.I.P. VALET SERVICES INC.- ACT ONE PUB CAFE","POP_AT_RISK":768492,"BUSINESS_TYPE":"Valet Parking Operator","LEGAL_NAME":"VIP VALET SERVICES INC.","LONGITUDE":-87.66497392358298},
{"STATE":"IL","ZIP":60615,"LATTITUDE":41.79992568399863,"ADDRESS":"5235 S HARPER AVE 1-4 ","YEAR":2014,"DOING_BUSINESS_AS_NAME":"LAZ PARKING LLC\/","POP_AT_RISK":661963,"BUSINESS_TYPE":"Valet Parking Operator","LEGAL_NAME":"LAZ PARKING CHICAGO, LLC","LONGITUDE":-87.58895403811928},
{"STATE":"IL","ZIP":60630,"LATTITUDE":41.968723055464324,"ADDRESS":"5415 W HIGGINS AVE  ","YEAR":2014,"DOING_BUSINESS_AS_NAME":"LAZ PARKING CHICAGO, LLC\/ ED PASCHKE ART CENTER-","POP_AT_RISK":377685,"BUSINESS_TYPE":"Valet Parking Operator","LEGAL_NAME":"LAZ PARKING CHICAGO, LLC","LONGITUDE":-87.76207535736165},
{"STATE":"IL","ZIP":60660,"LATTITUDE":41.98357123084218,"ADDRESS":"1039 W BRYN MAWR AVE  ","YEAR":2014,"DOING_BUSINESS_AS_NAME":"USA PARKING SERVICES, LLC.\/ FRANCESCA BRYN MAWR","POP_AT_RISK":562600,"BUSINESS_TYPE":"Valet Parking Operator","LEGAL_NAME":"USA PARKING SERVICES, LLC.","LONGITUDE":-87.6567539303426},
{"STATE":"IL","ZIP":60643,"LATTITUDE":41.714554470686906,"ADDRESS":"9831 S WESTERN AVE  ","YEAR":2014,"DOING_BUSINESS_AS_NAME":"ADVANTAGE VALET PARKING INC\/ ADVOCATE HEALTH CENTER","POP_AT_RISK":154826,"BUSINESS_TYPE":"Valet Parking Operator","LEGAL_NAME":"ADVANTAGE VALET PARKING INC","LONGITUDE":-87.68172059648889},
{"STATE":"IL","ZIP":60647,"LATTITUDE":41.92648028782631,"ADDRESS":"2456 N CALIFORNIA AVE  ","YEAR":2014,"DOING_BUSINESS_AS_NAME":"Four Season Parking Valet Inc\/ LETIZIA'S FIORE","POP_AT_RISK":197592,"BUSINESS_TYPE":"Valet Parking Operator","LEGAL_NAME":"FOUR SEASONS PARKING VALET INC","LONGITUDE":-87.69760792778989},
{"STATE":"IL","ZIP":60622,"LATTITUDE":41.90322675560009,"ADDRESS":"2144 W DIVISION ST  ","YEAR":2014,"DOING_BUSINESS_AS_NAME":"PRESTIGE PARKING SERVICES OF CHICAGO INC\/ SORANO INC\/ dba LETIZIA'S NATURAL BAKERY\/ENOTECA ROMA","POP_AT_RISK":70268,"BUSINESS_TYPE":"Valet Parking Operator","LEGAL_NAME":"PRESTIGE PARKING SERVICES OF CHICAGO INC.,","LONGITUDE":-87.68149122224041},
{}]