[
{"STATE":"IL","ZIP":60657,"LATTITUDE":41.93493391637681,"ADDRESS":"2914 N SHEFFIELD AVE  1N","YEAR":2012,"DOING_BUSINESS_AS_NAME":"TWOFOLD","POP_AT_RISK":489312,"BUSINESS_TYPE":"Food - Shared Kitchen Long-Term User","LEGAL_NAME":"TWOFOLD LLC","LONGITUDE":-87.65408408805763},
{"STATE":"IL","ZIP":60609,"LATTITUDE":41.803315206288666,"ADDRESS":"4953 S WINCHESTER AVE  ","YEAR":2012,"DOING_BUSINESS_AS_NAME":"COOKIES BY ESSY","POP_AT_RISK":592488,"BUSINESS_TYPE":"Food - Shared Kitchen Long-Term User","LEGAL_NAME":"RANDALL HUNT","LONGITUDE":-87.67319855525028},
{"STATE":"IL","ZIP":60634,"LATTITUDE":41.933138117186225,"ADDRESS":"2900 N MANGO AVE 1ST S","YEAR":2012,"DOING_BUSINESS_AS_NAME":"MY KIDS MEALS","POP_AT_RISK":679932,"BUSINESS_TYPE":"Food - Shared Kitchen Long-Term User","LEGAL_NAME":"STOP N GO LLC","LONGITUDE":-87.7701033096946},
{"STATE":"IL","ZIP":60620,"LATTITUDE":41.724655320467036,"ADDRESS":"219 W 93RD PL  ","YEAR":2012,"DOING_BUSINESS_AS_NAME":"VEELICIOUS","POP_AT_RISK":56318,"BUSINESS_TYPE":"Food - Shared Kitchen Long-Term User","LEGAL_NAME":"VALENCY WHITE","LONGITUDE":-87.62998175774008},
{"STATE":"IL","ZIP":60618,"LATTITUDE":41.93861326206522,"ADDRESS":"2452 W FLETCHER ST 1ST ","YEAR":2012,"DOING_BUSINESS_AS_NAME":"LATITUDE20 LLC","POP_AT_RISK":44102,"BUSINESS_TYPE":"Food - Shared Kitchen Long-Term User","LEGAL_NAME":"LATITUDE20 LLC","LONGITUDE":-87.68988510684065},
{"STATE":"IL","ZIP":60634,"LATTITUDE":41.94847708713959,"ADDRESS":"3763 N OCTAVIA AVE  ","YEAR":2012,"DOING_BUSINESS_AS_NAME":"ANAGRA CAFE LLC","POP_AT_RISK":252928,"BUSINESS_TYPE":"Food - Shared Kitchen Long-Term User","LEGAL_NAME":"ANAGRA CAFE LLC","LONGITUDE":-87.8093906383394},
{"STATE":"IL","ZIP":60643,"LATTITUDE":41.72373205360916,"ADDRESS":"9327 S CLAREMONT AVE  ","YEAR":2012,"DOING_BUSINESS_AS_NAME":"JOHNETTA'S","POP_AT_RISK":11739,"BUSINESS_TYPE":"Food - Shared Kitchen Long-Term User","LEGAL_NAME":"JOHNETTA REEVES","LONGITUDE":-87.68077232384961},
{"STATE":"IL","ZIP":60620,"LATTITUDE":41.7539508775714,"ADDRESS":"7658 S SEELEY AVE  ","YEAR":2012,"DOING_BUSINESS_AS_NAME":"JMJ CHOICE","POP_AT_RISK":72230,"BUSINESS_TYPE":"Food - Shared Kitchen Long-Term User","LEGAL_NAME":"MARY E. SHERROD","LONGITUDE":-87.67460160326002},
{"STATE":"IL","ZIP":60657,"LATTITUDE":41.94040919825139,"ADDRESS":"1845 W MELROSE ST 1ST 1","YEAR":2012,"DOING_BUSINESS_AS_NAME":"FRANCES JEAN LLC","POP_AT_RISK":126122,"BUSINESS_TYPE":"Food - Shared Kitchen Long-Term User","LEGAL_NAME":"FRANCES JEAN LLC","LONGITUDE":-87.67570009612598},
{"STATE":"IL","ZIP":60649,"LATTITUDE":41.762291779989866,"ADDRESS":"7309 S OGLESBY AVE 2 2","YEAR":2012,"DOING_BUSINESS_AS_NAME":"J 'S GOURMET","POP_AT_RISK":114363,"BUSINESS_TYPE":"Food - Shared Kitchen Long-Term User","LEGAL_NAME":"JUBA A. WILLIAMS","LONGITUDE":-87.56751216998889},
{"STATE":"IL","ZIP":60609,"LATTITUDE":41.812469697954114,"ADDRESS":"4500 S UNION AVE  ","YEAR":2012,"DOING_BUSINESS_AS_NAME":"THE DESSERT KART","POP_AT_RISK":61136,"BUSINESS_TYPE":"Food - Shared Kitchen Long-Term User","LEGAL_NAME":"DANIELLE P FIELDS","LONGITUDE":-87.6433588329472},
{"STATE":"IL","ZIP":60406,"LATTITUDE":41.67712859277384,"ADDRESS":"2323 W 119TH ST  ","YEAR":2012,"DOING_BUSINESS_AS_NAME":"HUMBLE BEGINNINGS","POP_AT_RISK":38986,"BUSINESS_TYPE":"Food - Shared Kitchen Long-Term User","LEGAL_NAME":"HUMBLE BEGINNINGS","LONGITUDE":-87.67993313309341},
{"STATE":"IL","ZIP":60629,"LATTITUDE":41.781162680919024,"ADDRESS":"6132 S KILBOURN AVE  ","YEAR":2012,"DOING_BUSINESS_AS_NAME":"LATIN FUSION","POP_AT_RISK":242711,"BUSINESS_TYPE":"Food - Shared Kitchen Long-Term User","LEGAL_NAME":"PAPO'S TACOS INC.","LONGITUDE":-87.73519388924433},
{"STATE":"IL","ZIP":60622,"LATTITUDE":41.89765821989595,"ADDRESS":"2426 W IOWA ST 1ST 1E","YEAR":2012,"DOING_BUSINESS_AS_NAME":"DOKKAEBI TACOS","POP_AT_RISK":54163,"BUSINESS_TYPE":"Food - Shared Kitchen Long-Term User","LEGAL_NAME":"DOKKAEBI TACOS LLC","LONGITUDE":-87.68800716644613},
{"STATE":"IL","ZIP":60649,"LATTITUDE":41.75423781207263,"ADDRESS":"7735 S MERRILL AVE 1 1","YEAR":2012,"DOING_BUSINESS_AS_NAME":"SOUL VEGAN","POP_AT_RISK":174804,"BUSINESS_TYPE":"Food - Shared Kitchen Long-Term User","LEGAL_NAME":"STABLE FOODS, INC.","LONGITUDE":-87.57223040473296},
{"STATE":"IL","ZIP":60607,"LATTITUDE":41.87924663645916,"ADDRESS":"1000 W ADAMS ST  817","YEAR":2012,"DOING_BUSINESS_AS_NAME":"GETTA POLPETTA","POP_AT_RISK":36038,"BUSINESS_TYPE":"Food - Shared Kitchen Long-Term User","LEGAL_NAME":"WHEELS2FREEDOM, LLC","LONGITUDE":-87.65208561253912},
{"STATE":"IL","ZIP":60637,"LATTITUDE":41.78191463770133,"ADDRESS":"6213 S WOODLAWN AVE  A","YEAR":2012,"DOING_BUSINESS_AS_NAME":"CUPCAKE GANGSTERS","POP_AT_RISK":30274,"BUSINESS_TYPE":"Food - Shared Kitchen Long-Term User","LEGAL_NAME":"24 KARAT CAKES, INC.","LONGITUDE":-87.59609020627626},
{"STATE":"IL","ZIP":60608,"LATTITUDE":41.857093115732106,"ADDRESS":"1334 W 18TH PL 1R ","YEAR":2012,"DOING_BUSINESS_AS_NAME":"SWEET PEA CATERING SERVICES","POP_AT_RISK":182200,"BUSINESS_TYPE":"Food - Shared Kitchen Long-Term User","LEGAL_NAME":"CAFE MARMALADE, LTD.","LONGITUDE":-87.66026362761906},
{"STATE":"IL","ZIP":60647,"LATTITUDE":41.91921925882106,"ADDRESS":"3606 W DICKENS AVE  G","YEAR":2012,"DOING_BUSINESS_AS_NAME":"CONFECTIONS ELSE LLC","POP_AT_RISK":231984,"BUSINESS_TYPE":"Food - Shared Kitchen Long-Term User","LEGAL_NAME":"CONFECTIONS ELSE LLC","LONGITUDE":-87.71718057691162},
{"STATE":"IL","ZIP":60619,"LATTITUDE":41.72421980523569,"ADDRESS":"9342 S FOREST AVE  ","YEAR":2012,"DOING_BUSINESS_AS_NAME":"NEAL'S CUISINES","POP_AT_RISK":90280,"BUSINESS_TYPE":"Food - Shared Kitchen Long-Term User","LEGAL_NAME":"O'NEAL HENRY WILBURN","LONGITUDE":-87.61677043131718},
{"STATE":"IL","ZIP":60631,"LATTITUDE":41.99725454680958,"ADDRESS":"6979 W DEVON AVE  ","YEAR":2012,"DOING_BUSINESS_AS_NAME":"THE BACON LADY, INC.","POP_AT_RISK":119640,"BUSINESS_TYPE":"Food - Shared Kitchen Long-Term User","LEGAL_NAME":"THE BACON LADY, INC.","LONGITUDE":-87.80236220476488},
{"STATE":"IL","ZIP":60653,"LATTITUDE":41.81715344092467,"ADDRESS":"4245 S DR MARTIN LUTHER KING JR DR  ","YEAR":2012,"DOING_BUSINESS_AS_NAME":"URBAN VEGETARIAN LLC","POP_AT_RISK":105708,"BUSINESS_TYPE":"Food - Shared Kitchen Long-Term User","LEGAL_NAME":"URBAN VEGETARIAN LLC","LONGITUDE":-87.6166605591497},
{"STATE":"IL","ZIP":60651,"LATTITUDE":41.90745488535499,"ADDRESS":"3304 W BEACH AVE  3","YEAR":2012,"DOING_BUSINESS_AS_NAME":"CHEAP TART BAKERY LLC","POP_AT_RISK":189681,"BUSINESS_TYPE":"Food - Shared Kitchen Long-Term User","LEGAL_NAME":"CHEAP TART BAKERY LLC","LONGITUDE":-87.70965592618334},
{"STATE":"IL","ZIP":60643,"LATTITUDE":41.70918641451879,"ADDRESS":"10142 S MORGAN ST  ","YEAR":2012,"DOING_BUSINESS_AS_NAME":"EAT UP CATERING","POP_AT_RISK":29673,"BUSINESS_TYPE":"Food - Shared Kitchen Long-Term User","LEGAL_NAME":"KIMBERLY DAWN CAMBRIC","LONGITUDE":-87.64790362127555},
{"STATE":"IL","ZIP":60647,"LATTITUDE":41.92693682488171,"ADDRESS":"2510 N KEDZIE BLVD 1ST 1S","YEAR":2012,"DOING_BUSINESS_AS_NAME":"THE BAKED ESCAPE","POP_AT_RISK":75310,"BUSINESS_TYPE":"Food - Shared Kitchen Long-Term User","LEGAL_NAME":"THE BAKED ESCAPE, LLC","LONGITUDE":-87.70742975869817},
{"STATE":"IL","ZIP":60608,"LATTITUDE":41.855002324837784,"ADDRESS":"2100 W CULLERTON ST 1ST 1 M","YEAR":2012,"DOING_BUSINESS_AS_NAME":"THE JIBARITO STOP LLC","POP_AT_RISK":85178,"BUSINESS_TYPE":"Food - Shared Kitchen Long-Term User","LEGAL_NAME":"THE JIBARITO STOP LLC","LONGITUDE":-87.67849030197326},
{"STATE":"IL","ZIP":60660,"LATTITUDE":41.99169545921701,"ADDRESS":"1235 W NORWOOD ST 1ST ","YEAR":2012,"DOING_BUSINESS_AS_NAME":"VERUCA CHOCOLATES CO.","POP_AT_RISK":71203,"BUSINESS_TYPE":"Food - Shared Kitchen Long-Term User","LEGAL_NAME":"VERUCA CHOCOLATES CO.","LONGITUDE":-87.661680442188},
{"STATE":"IL","ZIP":60660,"LATTITUDE":41.989817774419656,"ADDRESS":"1515 W THORNDALE AVE  ","YEAR":2012,"DOING_BUSINESS_AS_NAME":"MADDIEBIRD BAKERY","POP_AT_RISK":73709,"BUSINESS_TYPE":"Food - Shared Kitchen Long-Term User","LEGAL_NAME":"MADDIEBIRD BAKERY, LLC","LONGITUDE":-87.6688465027659},
{"STATE":"IL","ZIP":60619,"LATTITUDE":41.7633521919857,"ADDRESS":"7220 S LANGLEY AVE  ","YEAR":2012,"DOING_BUSINESS_AS_NAME":"THE PEACE OF PIE, INC.","POP_AT_RISK":315930,"BUSINESS_TYPE":"Food - Shared Kitchen Long-Term User","LEGAL_NAME":"THE PEACE OF PIE, INC.","LONGITUDE":-87.6080988985211},
{"STATE":"IL","ZIP":60620,"LATTITUDE":41.736683009811365,"ADDRESS":"8634 S ELIZABETH ST  ","YEAR":2012,"DOING_BUSINESS_AS_NAME":"WINDY CITY CHEFS, L.P.","POP_AT_RISK":124359,"BUSINESS_TYPE":"Food - Shared Kitchen Long-Term User","LEGAL_NAME":"WINDY CITY CHEFS, L.P.","LONGITUDE":-87.65472322598944},
{"STATE":"IL","ZIP":60625,"LATTITUDE":41.97121553988136,"ADDRESS":"4915 N WASHTENAW AVE 2ND 2","YEAR":2012,"DOING_BUSINESS_AS_NAME":"CELESTIAL KITCHENS INC.","POP_AT_RISK":116848,"BUSINESS_TYPE":"Food - Shared Kitchen Long-Term User","LEGAL_NAME":"CELESTIAL KITCHENS INC.","LONGITUDE":-87.69618664193518},
{"STATE":"IL","ZIP":60615,"LATTITUDE":41.808029980166026,"ADDRESS":"4752 S ELLIS AVE  ","YEAR":2012,"DOING_BUSINESS_AS_NAME":"COCO COOKS","POP_AT_RISK":79210,"BUSINESS_TYPE":"Food - Shared Kitchen Long-Term User","LEGAL_NAME":"COURTNEY  NGOZI NZERIBE","LONGITUDE":-87.60181505452654},
{"STATE":"IL","ZIP":60618,"LATTITUDE":41.95737003813514,"ADDRESS":"4151 N CLAREMONT AVE  ","YEAR":2012,"DOING_BUSINESS_AS_NAME":"LUCILA' S HOMEMADE","POP_AT_RISK":59577,"BUSINESS_TYPE":"Food - Shared Kitchen Long-Term User","LEGAL_NAME":"LUCILA' S HOMEMADE, LLC","LONGITUDE":-87.68720590229292},
{"STATE":"IL","ZIP":60624,"LATTITUDE":41.86728850077515,"ADDRESS":"3644 W GRENSHAW ST 3RD ","YEAR":2012,"DOING_BUSINESS_AS_NAME":"JAZZY BONES CATERING","POP_AT_RISK":137157,"BUSINESS_TYPE":"Food - Shared Kitchen Long-Term User","LEGAL_NAME":"CHARMAINE BURTON-JOHNSON","LONGITUDE":-87.71718970587207},
{"STATE":"IL","ZIP":60609,"LATTITUDE":41.83034199353285,"ADDRESS":"1743 W 35TH ST 2ND 2","YEAR":2012,"DOING_BUSINESS_AS_NAME":"MESS HALL","POP_AT_RISK":78546,"BUSINESS_TYPE":"Food - Shared Kitchen Long-Term User","LEGAL_NAME":"MARIANNE ILENE SUNDQUIST","LONGITUDE":-87.66965762507351},
{"STATE":"IL","ZIP":60637,"LATTITUDE":41.791946935907305,"ADDRESS":"5632 S PRAIRIE AVE 1ST 1N","YEAR":2012,"DOING_BUSINESS_AS_NAME":"MS PATTI SWEET CAKES LLC","POP_AT_RISK":140530,"BUSINESS_TYPE":"Food - Shared Kitchen Long-Term User","LEGAL_NAME":"MS PATTI SWEET CAKES LLC","LONGITUDE":-87.61929863127808},
{"STATE":"IL","ZIP":60616,"LATTITUDE":41.840490132738466,"ADDRESS":"2920 S WENTWORTH AVE  2","YEAR":2012,"DOING_BUSINESS_AS_NAME":"E'CLAT TAPAS","POP_AT_RISK":479635,"BUSINESS_TYPE":"Food - Shared Kitchen Long-Term User","LEGAL_NAME":"OLUSHOLA ABIDEMI JOHNSON","LONGITUDE":-87.6318672485051},
{"STATE":"IL","ZIP":60643,"LATTITUDE":41.70105478559264,"ADDRESS":"10601 S PROSPECT AVE  ","YEAR":2012,"DOING_BUSINESS_AS_NAME":"A CHEF'S CHRONICLES, INC.","POP_AT_RISK":51842,"BUSINESS_TYPE":"Food - Shared Kitchen Long-Term User","LEGAL_NAME":"A CHEF'S CHRONICLES, INC.","LONGITUDE":-87.66169906293537},
{"STATE":"IL","ZIP":60655,"LATTITUDE":41.68883740851201,"ADDRESS":"11235 S FAIRFIELD AVE  ","YEAR":2012,"DOING_BUSINESS_AS_NAME":"JJ PASTRIES BY DESIGN LLC","POP_AT_RISK":67848,"BUSINESS_TYPE":"Food - Shared Kitchen Long-Term User","LEGAL_NAME":"JJ PASTRIES BY DESIGN LLC","LONGITUDE":-87.68951613710205},
{"STATE":"IL","ZIP":60623,"LATTITUDE":41.84651802854504,"ADDRESS":"2452 S HOMAN AVE 3RD 3F","YEAR":2012,"DOING_BUSINESS_AS_NAME":"THE TRADITIONALS","POP_AT_RISK":439320,"BUSINESS_TYPE":"Food - Shared Kitchen Long-Term User","LEGAL_NAME":"LETICIA DOMINGUEZ-GONZALEZ","LONGITUDE":-87.71011618088858},
{"STATE":"IL","ZIP":60618,"LATTITUDE":41.9603950818129,"ADDRESS":"4341 N AVERS AVE  ","YEAR":2012,"DOING_BUSINESS_AS_NAME":"MARY'S CATERING SERVICE, INC.","POP_AT_RISK":126354,"BUSINESS_TYPE":"Food - Shared Kitchen Long-Term User","LEGAL_NAME":"MARY'S CATERING SERVICE, INC.","LONGITUDE":-87.72399475521425},
{"STATE":"IL","ZIP":60620,"LATTITUDE":41.748411232014085,"ADDRESS":"1621 W 80TH ST 3RD 3","YEAR":2012,"DOING_BUSINESS_AS_NAME":"SWEET SPOT BY C. BAKESHOP","POP_AT_RISK":83022,"BUSINESS_TYPE":"Food - Shared Kitchen Long-Term User","LEGAL_NAME":"SWEET SPOT BY C. BAKESHOP LLC","LONGITUDE":-87.66428957256923},
{"STATE":"IL","ZIP":60639,"LATTITUDE":41.914528881670854,"ADDRESS":"5406 W CORTLAND ST  1","YEAR":2012,"DOING_BUSINESS_AS_NAME":"REVOLUTION SNACKS","POP_AT_RISK":512980,"BUSINESS_TYPE":"Food - Shared Kitchen Long-Term User","LEGAL_NAME":"50PERCENTFUNDRAISING.COM, INC.","LONGITUDE":-87.76103650927953},
{"STATE":"IL","ZIP":60612,"LATTITUDE":41.87163438026416,"ADDRESS":"738 S KEDZIE AVE  3","YEAR":2012,"DOING_BUSINESS_AS_NAME":"THE BAKEHOUSE","POP_AT_RISK":39237,"BUSINESS_TYPE":"Food - Shared Kitchen Long-Term User","LEGAL_NAME":"BAYLOR WATSON ENTERPRISES INC.","LONGITUDE":-87.70598837949326},
{"STATE":"IL","ZIP":60611,"LATTITUDE":41.896790572038725,"ADDRESS":"800 N MICHIGAN AVE 36 3603","YEAR":2012,"DOING_BUSINESS_AS_NAME":"SMITH & DONOVAN CONFECTIONS, INC.","POP_AT_RISK":168824,"BUSINESS_TYPE":"Food - Shared Kitchen Long-Term User","LEGAL_NAME":"SMITH & DONOVAN CONFECTIONS, INC.","LONGITUDE":-87.62438065544357},
{"STATE":"IL","ZIP":60629,"LATTITUDE":41.76256199328627,"ADDRESS":"3500 W 72ND ST 1ST ","YEAR":2012,"DOING_BUSINESS_AS_NAME":" SWEET SUGAH  CATERING BOUTIQUE","POP_AT_RISK":224586,"BUSINESS_TYPE":"Food - Shared Kitchen Long-Term User","LEGAL_NAME":" SWEET SUGAH  CATERING BOUTIQUE, INC.","LONGITUDE":-87.71020791068852},
{}]