[
{"STATE":"IL","ZIP":60656,"LATTITUDE":41.97459136247804,"ADDRESS":"7260 W FOSTER AVE  ","YEAR":2007,"DOING_BUSINESS_AS_NAME":"CLEAN CITY CLEANERS","POP_AT_RISK":50176,"BUSINESS_TYPE":"Hazardous Materials","LEGAL_NAME":"DINN PATEL","LONGITUDE":-87.8094625690819},
{"STATE":"IL","ZIP":60656,"LATTITUDE":41.97653222846417,"ADDRESS":"5330 N CUMBERLAND AVE 1ST ","YEAR":2007,"DOING_BUSINESS_AS_NAME":"MYSTIC CRAFT CLEANERS","POP_AT_RISK":24933,"BUSINESS_TYPE":"Hazardous Materials","LEGAL_NAME":"JOONG K CHOI","LONGITUDE":-87.83676373254707},
{"STATE":"IL","ZIP":60827,"LATTITUDE":41.64471651864612,"ADDRESS":"612 E 138TH ST  ","YEAR":2007,"DOING_BUSINESS_AS_NAME":"INNOPHOS INC.","POP_AT_RISK":13381,"BUSINESS_TYPE":"Hazardous Materials","LEGAL_NAME":"INNOPHOS INC.","LONGITUDE":-87.60679330792205},
{"STATE":"IL","ZIP":60652,"LATTITUDE":41.73782499970384,"ADDRESS":"8522 S PULASKI RD  ","YEAR":2007,"DOING_BUSINESS_AS_NAME":"CHICAGO EQUIPMENT RENTAL","POP_AT_RISK":50466,"BUSINESS_TYPE":"Hazardous Materials","LEGAL_NAME":"RENTALMAX LCC.","LONGITUDE":-87.721682387685},
{"STATE":"IL","ZIP":60646,"LATTITUDE":41.9900130594801,"ADDRESS":"4742 W PETERSON AVE 1ST ","YEAR":2007,"DOING_BUSINESS_AS_NAME":"EDENS DRY CLEANERS","POP_AT_RISK":19796,"BUSINESS_TYPE":"Hazardous Materials","LEGAL_NAME":"SEUNG KWAN YIM","LONGITUDE":-87.74767681867502},
{"STATE":"IL","ZIP":60653,"LATTITUDE":41.815820960921016,"ADDRESS":"4333 S COTTAGE GROVE AVE  ","YEAR":2007,"DOING_BUSINESS_AS_NAME":"FEWER BOILER INC","POP_AT_RISK":120348,"BUSINESS_TYPE":"Hazardous Materials","LEGAL_NAME":"FEWER BOILER INC","LONGITUDE":-87.60654326348008},
{"STATE":"IL","ZIP":60707,"LATTITUDE":41.90893638688864,"ADDRESS":"1601 N HARLEM AVE  OFFIC","YEAR":2007,"DOING_BUSINESS_AS_NAME":"SEARS ROEBUCK & CO 1090","POP_AT_RISK":92283,"BUSINESS_TYPE":"Hazardous Materials","LEGAL_NAME":"SEARS,ROEBUCK & CO.","LONGITUDE":-87.8056027454349},
{"STATE":"IL","ZIP":60707,"LATTITUDE":41.90920116163611,"ADDRESS":"6600 W NORTH AVE 1 ","YEAR":2007,"DOING_BUSINESS_AS_NAME":"CD ONE PRICE CLEANERS #9","POP_AT_RISK":30815,"BUSINESS_TYPE":"Hazardous Materials","LEGAL_NAME":"TIMOTHY P. DARVILLE","LONGITUDE":-87.78991462625102},
{"STATE":"IL","ZIP":60666,"LATTITUDE":42.008536400868735,"ADDRESS":"11601 W TOUHY AVE  ","YEAR":2007,"DOING_BUSINESS_AS_NAME":"DOLLAR RENT-A-CAR","POP_AT_RISK":4956,"BUSINESS_TYPE":"Hazardous Materials","LEGAL_NAME":"DTG OPERATIONS,  INC","LONGITUDE":-87.91442843927047},
{"STATE":"IL","ZIP":60631,"LATTITUDE":42.01798908038859,"ADDRESS":"7532 N MILWAUKEE AVE  ","YEAR":2007,"DOING_BUSINESS_AS_NAME":"KRYSTYNA CLEANERS CO","POP_AT_RISK":56158,"BUSINESS_TYPE":"Hazardous Materials","LEGAL_NAME":"KRYSTYNA  CLEANERS CO","LONGITUDE":-87.80689743812405},
{"STATE":"IL","ZIP":60621,"LATTITUDE":41.766416293908975,"ADDRESS":"7018 S HALSTED ST 1 ","YEAR":2007,"DOING_BUSINESS_AS_NAME":"LION II CLEANERS","POP_AT_RISK":39281,"BUSINESS_TYPE":"Hazardous Materials","LEGAL_NAME":"LION II CLEANERS, INC.","LONGITUDE":-87.64459089465835},
{"STATE":"IL","ZIP":60634,"LATTITUDE":41.95240876647756,"ADDRESS":"7615 W IRVING PARK RD  ","YEAR":2007,"DOING_BUSINESS_AS_NAME":"HENRY & PATRICK HUBERTY","POP_AT_RISK":51528,"BUSINESS_TYPE":"Hazardous Materials","LEGAL_NAME":"HENRY & PATRICK HUBERTY","LONGITUDE":-87.81772378445088},
{"STATE":"IL","ZIP":60615,"LATTITUDE":41.79736200767711,"ADDRESS":"5422 S LAKE PARK AVE  UNIT C","YEAR":2007,"DOING_BUSINESS_AS_NAME":"HYDE PARK CLEANERS, LTD.","POP_AT_RISK":138948,"BUSINESS_TYPE":"Hazardous Materials","LEGAL_NAME":"HYDE PARK CLEANERS, LTD.","LONGITUDE":-87.58740539704812},
{"STATE":"IL","ZIP":60655,"LATTITUDE":41.70576966137161,"ADDRESS":"3951 W 103RD ST  ","YEAR":2007,"DOING_BUSINESS_AS_NAME":"CLEANERS DEPOT # 15","POP_AT_RISK":45604,"BUSINESS_TYPE":"Hazardous Materials","LEGAL_NAME":"3951 W. 103RD STREET, LLC","LONGITUDE":-87.72053293739903},
{"STATE":"IL","ZIP":60617,"LATTITUDE":41.74945060417943,"ADDRESS":"8012 S CRANDON AVE 1ST ","YEAR":2007,"DOING_BUSINESS_AS_NAME":"SOUTH SHORE HOSPITAL","POP_AT_RISK":37812,"BUSINESS_TYPE":"Hazardous Materials","LEGAL_NAME":"SOUTH SHORE HOSPITAL CORP","LONGITUDE":-87.5687786244394},
{"STATE":"IL","ZIP":60616,"LATTITUDE":41.83139043521576,"ADDRESS":"3450 S GILES AVE  ","YEAR":2007,"DOING_BUSINESS_AS_NAME":"SHIN'S PRIDE CLEANERS, INC","POP_AT_RISK":34354,"BUSINESS_TYPE":"Hazardous Materials","LEGAL_NAME":"SHIN'S PRIDE CLEANERS,INC.","LONGITUDE":-87.61947770709344},
{"STATE":"IL","ZIP":60631,"LATTITUDE":41.9867885856625,"ADDRESS":"8535 W HIGGINS RD FUEL #","YEAR":2007,"DOING_BUSINESS_AS_NAME":"CHICAGO O'HARE MARRIOTT HOTEL","POP_AT_RISK":17648,"BUSINESS_TYPE":"Hazardous Materials","LEGAL_NAME":"MARRIOTT INTERNATIONAL, INC.","LONGITUDE":-87.84012417346162},
{"STATE":"IL","ZIP":60629,"LATTITUDE":41.75872799769038,"ADDRESS":"7401 S CICERO AVE  ","YEAR":2007,"DOING_BUSINESS_AS_NAME":"TOOTSIE ROLL INDUSTRIES, LLC","POP_AT_RISK":16047,"BUSINESS_TYPE":"Hazardous Materials","LEGAL_NAME":"TOOTSIE ROLL INDUSTRIES, LLC","LONGITUDE":-87.74153566231715},
{"STATE":"IL","ZIP":60649,"LATTITUDE":41.76627354780889,"ADDRESS":"1650 E 71ST ST  1","YEAR":2007,"DOING_BUSINESS_AS_NAME":"U-HAUL SOUTH SHORE MOVING CTR","POP_AT_RISK":74394,"BUSINESS_TYPE":"Hazardous Materials","LEGAL_NAME":"U-HAUL CO. OF ILLINOIS, INC.","LONGITUDE":-87.58397348056488},
{"STATE":"IL","ZIP":60634,"LATTITUDE":41.93808243704794,"ADDRESS":"7442 W BELMONT AVE  ","YEAR":2007,"DOING_BUSINESS_AS_NAME":"BELMONT HEIGHTS AUTO BODY INC","POP_AT_RISK":42383,"BUSINESS_TYPE":"Hazardous Materials","LEGAL_NAME":"BELMONT HEIGHTS AUTO BODY INC","LONGITUDE":-87.81300014866554},
{"STATE":"IL","ZIP":60645,"LATTITUDE":42.01939856821077,"ADDRESS":"2255 W HOWARD ST  ","YEAR":2007,"DOING_BUSINESS_AS_NAME":"HOWARD AUTO","POP_AT_RISK":59585,"BUSINESS_TYPE":"Hazardous Materials","LEGAL_NAME":"HOWARD AUTOBODY & REPAIR, INC.","LONGITUDE":-87.686729344614},
{"STATE":"IL","ZIP":60644,"LATTITUDE":41.86987378788772,"ADDRESS":"905 S MENARD AVE  1","YEAR":2007,"DOING_BUSINESS_AS_NAME":"REFURBISHED OFFICE ENVIRONMENT","POP_AT_RISK":51625,"BUSINESS_TYPE":"Hazardous Materials","LEGAL_NAME":"REFURBISHED OFFICE ENVIRONMENT","LONGITUDE":-87.76922947460767},
{"STATE":"IL","ZIP":60629,"LATTITUDE":41.77889237134726,"ADDRESS":"6249 S KILBOURN AVE  ","YEAR":2007,"DOING_BUSINESS_AS_NAME":"AMERITECH","POP_AT_RISK":34673,"BUSINESS_TYPE":"Hazardous Materials","LEGAL_NAME":"ILLINOIS BELL TELEPHONE COMPANY","LONGITUDE":-87.73483022588016},
{"STATE":"IL","ZIP":60633,"LATTITUDE":41.64479806975451,"ADDRESS":"13707 S JEFFERY AVE  ","YEAR":2007,"DOING_BUSINESS_AS_NAME":"CID RECYCLING AND DISPOSAL FACILITY","POP_AT_RISK":6348,"BUSINESS_TYPE":"Hazardous Materials","LEGAL_NAME":"WASTE MANAGEMENT OF ILLINOIS INC.","LONGITUDE":-87.57463364482439},
{"STATE":"IL","ZIP":60628,"LATTITUDE":41.70565792193346,"ADDRESS":"10351 S MICHIGAN AVE  ","YEAR":2007,"DOING_BUSINESS_AS_NAME":"AMERICAN IDEAL CLEANERS","POP_AT_RISK":29634,"BUSINESS_TYPE":"Hazardous Materials","LEGAL_NAME":"AMERICAN IDEAL CLEANING COMPANY INC","LONGITUDE":-87.62030814697043},
{"STATE":"IL","ZIP":60655,"LATTITUDE":41.691031666973096,"ADDRESS":"4401 W 111TH ST GROUND ","YEAR":2007,"DOING_BUSINESS_AS_NAME":"ST. CASIMIR CEMETERY","POP_AT_RISK":16265,"BUSINESS_TYPE":"Hazardous Materials","LEGAL_NAME":"CATHOLIC CHURCH ARCHDIOCESE OF CHICAGO","LONGITUDE":-87.73010297363676},
{"STATE":"IL","ZIP":60651,"LATTITUDE":41.90195464888438,"ADDRESS":"5809 W DIVISION ST  ","YEAR":2007,"DOING_BUSINESS_AS_NAME":"SUPERIOR CUSTOM FURNITURE RESTORATION INC.","POP_AT_RISK":51253,"BUSINESS_TYPE":"Hazardous Materials","LEGAL_NAME":"SUPERIOR CUSTOM FURNITURE RESTORATION INC.","LONGITUDE":-87.7709308341909},
{}]