[
{"STATE":"IL","ZIP":60618,"LATTITUDE":41.961116939451195,"ADDRESS":"2933 W MONTROSE AVE 1 #","YEAR":2012,"DOING_BUSINESS_AS_NAME":"MONTROSE SALOON","POP_AT_RISK":153802,"BUSINESS_TYPE":"Outdoor Patio","LEGAL_NAME":"ERRO INC","LONGITUDE":-87.70227415826348},
{"STATE":"IL","ZIP":60647,"LATTITUDE":41.91725149573076,"ADDRESS":"3281 W ARMITAGE AVE 1 ","YEAR":2012,"DOING_BUSINESS_AS_NAME":"MARBLE","POP_AT_RISK":448032,"BUSINESS_TYPE":"Outdoor Patio","LEGAL_NAME":"SABU, INC.","LONGITUDE":-87.71020612797271},
{"STATE":"IL","ZIP":60634,"LATTITUDE":41.94000063078428,"ADDRESS":"3246 N CENTRAL AVE  ","YEAR":2012,"DOING_BUSINESS_AS_NAME":"RETRO CAFE RESTAURANT","POP_AT_RISK":254544,"BUSINESS_TYPE":"Outdoor Patio","LEGAL_NAME":"CASPER INC.","LONGITUDE":-87.76669660556573},
{"STATE":"IL","ZIP":60630,"LATTITUDE":41.9775034792202,"ADDRESS":"5333 N MILWAUKEE AVE 1ST ","YEAR":2012,"DOING_BUSINESS_AS_NAME":"HAM TREE INN","POP_AT_RISK":135024,"BUSINESS_TYPE":"Outdoor Patio","LEGAL_NAME":"H.T.A. INC.","LONGITUDE":-87.76923663085236},
{"STATE":"IL","ZIP":60638,"LATTITUDE":41.79812662454975,"ADDRESS":"5518 S ARCHER AVE  D","YEAR":2012,"DOING_BUSINESS_AS_NAME":"BOHICA RESTAURANT","POP_AT_RISK":182152,"BUSINESS_TYPE":"Outdoor Patio","LEGAL_NAME":"BOHICA, INC.","LONGITUDE":-87.74741651396842},
{"STATE":"IL","ZIP":60626,"LATTITUDE":42.01890350707934,"ADDRESS":"7541-7545 N CLARK ST 1ST ","YEAR":2012,"DOING_BUSINESS_AS_NAME":"HARD WATER BAR & GRILL","POP_AT_RISK":125148,"BUSINESS_TYPE":"Outdoor Patio","LEGAL_NAME":"KEFALOS, INC.","LONGITUDE":-87.67595814790334},
{"STATE":"IL","ZIP":60641,"LATTITUDE":41.95340285737685,"ADDRESS":"4441-4443 W IRVING PARK RD  ","YEAR":2012,"DOING_BUSINESS_AS_NAME":"SABATINOS INC","POP_AT_RISK":101284,"BUSINESS_TYPE":"Outdoor Patio","LEGAL_NAME":"SABATINOS INC","LONGITUDE":-87.73960222580374},
{"STATE":"IL","ZIP":60612,"LATTITUDE":41.86910773759604,"ADDRESS":"2322-2324 W TAYLOR ST  ","YEAR":2012,"DOING_BUSINESS_AS_NAME":"DAMENZO'S INC","POP_AT_RISK":255663,"BUSINESS_TYPE":"Outdoor Patio","LEGAL_NAME":"DAMENZO'S, INC.","LONGITUDE":-87.6845837581009},
{"STATE":"IL","ZIP":60652,"LATTITUDE":41.74056837192125,"ADDRESS":"8352 S PULASKI RD  ","YEAR":2012,"DOING_BUSINESS_AS_NAME":"ANGIE'S","POP_AT_RISK":191052,"BUSINESS_TYPE":"Outdoor Patio","LEGAL_NAME":"EAT-N-PIE, INC.","LONGITUDE":-87.7217734812376},
{"STATE":"IL","ZIP":60707,"LATTITUDE":41.931339545227914,"ADDRESS":"2817 N HARLEM AVE 1ST ","YEAR":2012,"DOING_BUSINESS_AS_NAME":"RISTORANTE AGOSTINO","POP_AT_RISK":177536,"BUSINESS_TYPE":"Outdoor Patio","LEGAL_NAME":"TRATTORIA, INC.","LONGITUDE":-87.80636676313536},
{"STATE":"IL","ZIP":60625,"LATTITUDE":41.96775365745214,"ADDRESS":"4746-4750 N LINCOLN AVE 1-2 ","YEAR":2012,"DOING_BUSINESS_AS_NAME":"GENES SAUSAGE SHOP AT DELI MEYER","POP_AT_RISK":66824,"BUSINESS_TYPE":"Outdoor Patio","LEGAL_NAME":"AYGD MEATS, INC.","LONGITUDE":-87.68817171608093},
{"STATE":"IL","ZIP":60615,"LATTITUDE":41.79492106897254,"ADDRESS":"1055 E 55TH ST  ","YEAR":2012,"DOING_BUSINESS_AS_NAME":"SEVEN TEN","POP_AT_RISK":558852,"BUSINESS_TYPE":"Outdoor Patio","LEGAL_NAME":"STRIKE TWO CORP.","LONGITUDE":-87.59985203106729},
{"STATE":"IL","ZIP":60634,"LATTITUDE":41.95034769269968,"ADDRESS":"3848 N HARLEM AVE  ","YEAR":2012,"DOING_BUSINESS_AS_NAME":"P J'S BREWERY","POP_AT_RISK":149515,"BUSINESS_TYPE":"Outdoor Patio","LEGAL_NAME":"P J'S BREWERY INC","LONGITUDE":-87.80732944580947},
{"STATE":"IL","ZIP":60618,"LATTITUDE":41.95384696561587,"ADDRESS":"3732-3734 W IRVING PARK RD 1 ","YEAR":2012,"DOING_BUSINESS_AS_NAME":"BREAD & WINE","POP_AT_RISK":60474,"BUSINESS_TYPE":"Outdoor Patio","LEGAL_NAME":"SALTY SAILOR, LLC","LONGITUDE":-87.72162849006564},
{"STATE":"IL","ZIP":60622,"LATTITUDE":41.895543708081156,"ADDRESS":"2801 W CHICAGO AVE 1&2 ","YEAR":2012,"DOING_BUSINESS_AS_NAME":"THE CONTINENTAL LOUNGE","POP_AT_RISK":127392,"BUSINESS_TYPE":"Outdoor Patio","LEGAL_NAME":"WESTSIDE RAIL, INC.","LONGITUDE":-87.69676464023073},
{"STATE":"IL","ZIP":60659,"LATTITUDE":41.99057771185899,"ADDRESS":"2610-2612 W PETERSON AVE  ","YEAR":2012,"DOING_BUSINESS_AS_NAME":"PICCOLO","POP_AT_RISK":64031,"BUSINESS_TYPE":"Outdoor Patio","LEGAL_NAME":"2610 RESTAURANT INC.","LONGITUDE":-87.69505159486957},
{"STATE":"IL","ZIP":60632,"LATTITUDE":41.81185327457733,"ADDRESS":"4459 S KEDZIE AVE  ","YEAR":2012,"DOING_BUSINESS_AS_NAME":"CITY REFLECTIONS INC","POP_AT_RISK":590256,"BUSINESS_TYPE":"Outdoor Patio","LEGAL_NAME":"CITY REFLECTIONS INC","LONGITUDE":-87.70397505463012},
{"STATE":"IL","ZIP":60608,"LATTITUDE":41.85262494622832,"ADDRESS":"1146 W CERMAK RD 1ST ","YEAR":2012,"DOING_BUSINESS_AS_NAME":"MAY STREET CAFE","POP_AT_RISK":36121,"BUSINESS_TYPE":"Outdoor Patio","LEGAL_NAME":"MAY ST. CAFE 1, INC.","LONGITUDE":-87.65491858465299},
{"STATE":"IL","ZIP":60634,"LATTITUDE":41.95302030864294,"ADDRESS":"5737 W IRVING PARK RD  ","YEAR":2012,"DOING_BUSINESS_AS_NAME":"MARTINI CLUB","POP_AT_RISK":55125,"BUSINESS_TYPE":"Outdoor Patio","LEGAL_NAME":"O'CONNOR'S PUB, INC.","LONGITUDE":-87.77096800058055},
{"STATE":"IL","ZIP":60646,"LATTITUDE":41.9935432170097,"ADDRESS":"6154 N MILWAUKEE AVE 1-2 ","YEAR":2012,"DOING_BUSINESS_AS_NAME":"THE GARAGE BAR & SANDWICHES","POP_AT_RISK":21514,"BUSINESS_TYPE":"Outdoor Patio","LEGAL_NAME":"6154 RESTAURANT, INC.","LONGITUDE":-87.78443474169619},
{"STATE":"IL","ZIP":60659,"LATTITUDE":41.99547887896528,"ADDRESS":"6251 N MCCORMICK RD  ","YEAR":2012,"DOING_BUSINESS_AS_NAME":"PURE CAFE","POP_AT_RISK":84062,"BUSINESS_TYPE":"Outdoor Patio","LEGAL_NAME":"6251 N. MCCORMICK, LLC","LONGITUDE":-87.71287526525123},
{"STATE":"IL","ZIP":60631,"LATTITUDE":41.99148225930689,"ADDRESS":"6064-6070 N NORTHWEST HWY 1 ","YEAR":2012,"DOING_BUSINESS_AS_NAME":"MO DAILEY'S PUB & GRILLE","POP_AT_RISK":46142,"BUSINESS_TYPE":"Outdoor Patio","LEGAL_NAME":"CREAMER & DAILEY, INC.","LONGITUDE":-87.7978116394828},
{"STATE":"IL","ZIP":60645,"LATTITUDE":42.01165518184236,"ADDRESS":"7121 N WESTERN AVE  ","YEAR":2012,"DOING_BUSINESS_AS_NAME":"RICKY G'S","POP_AT_RISK":130260,"BUSINESS_TYPE":"Outdoor Patio","LEGAL_NAME":"LIQUID WIDGETS, L.L.C.","LONGITUDE":-87.69008786406833},
{"STATE":"IL","ZIP":60655,"LATTITUDE":41.70582355306317,"ADDRESS":"3901 W 103RD ST  ","YEAR":2012,"DOING_BUSINESS_AS_NAME":"GILHOOLEY'S GRANDE SALOON","POP_AT_RISK":45604,"BUSINESS_TYPE":"Outdoor Patio","LEGAL_NAME":"COMPASS GROUP USA, INC.","LONGITUDE":-87.71853994620498},
{"STATE":"IL","ZIP":60628,"LATTITUDE":41.69074200662608,"ADDRESS":"11203 S CORLISS AVE 1 ","YEAR":2012,"DOING_BUSINESS_AS_NAME":"111TH STREET OTB","POP_AT_RISK":42012,"BUSINESS_TYPE":"Outdoor Patio","LEGAL_NAME":"POST TIME CATERING, INC.","LONGITUDE":-87.60067790215122},
{"STATE":"IL","ZIP":60638,"LATTITUDE":41.792013747165264,"ADDRESS":"6843 W ARCHER AVE  ","YEAR":2012,"DOING_BUSINESS_AS_NAME":"BOBBY G'S","POP_AT_RISK":75188,"BUSINESS_TYPE":"Outdoor Patio","LEGAL_NAME":"GRANAT'S FIRST COUNT, INC.","LONGITUDE":-87.79327642871685},
{"STATE":"IL","ZIP":60639,"LATTITUDE":41.928562731071594,"ADDRESS":"2640 N NARRAGANSETT AVE  ","YEAR":2012,"DOING_BUSINESS_AS_NAME":"Chipotle Mexican Grill","POP_AT_RISK":155466,"BUSINESS_TYPE":"Outdoor Patio","LEGAL_NAME":"CHIPOTLE MEXICAN GRILL, INC.","LONGITUDE":-87.7857711640629},
{"STATE":"IL","ZIP":60637,"LATTITUDE":41.79518501605705,"ADDRESS":"5500 S SHORE DR 1ST ","YEAR":2012,"DOING_BUSINESS_AS_NAME":"BAR LOUIE","POP_AT_RISK":136700,"BUSINESS_TYPE":"Outdoor Patio","LEGAL_NAME":"BL RESTAURANT OPERATIONS, LLC","LONGITUDE":-87.58059777168157},
{"STATE":"IL","ZIP":60643,"LATTITUDE":41.70047177429385,"ADDRESS":"10612-10614 S WESTERN AVE 1 ","YEAR":2012,"DOING_BUSINESS_AS_NAME":"Cork And Kerry","POP_AT_RISK":107615,"BUSINESS_TYPE":"Outdoor Patio","LEGAL_NAME":"Chicago Pizza Department Corp.","LONGITUDE":-87.6815792920862},
{"STATE":"IL","ZIP":60631,"LATTITUDE":41.98740959681793,"ADDRESS":"8725 W HIGGINS RD  ","YEAR":2012,"DOING_BUSINESS_AS_NAME":"THE ORIGINAL GINO'S EAST","POP_AT_RISK":52944,"BUSINESS_TYPE":"Outdoor Patio","LEGAL_NAME":"PORT SILVER LIMITED PARTNERSHIP","LONGITUDE":-87.84438866503623},
{"STATE":"IL","ZIP":60656,"LATTITUDE":41.96645317297049,"ADDRESS":"8443-8445 W LAWRENCE AVE 1ST ","YEAR":2012,"DOING_BUSINESS_AS_NAME":"CAFE IL CORTILE","POP_AT_RISK":51246,"BUSINESS_TYPE":"Outdoor Patio","LEGAL_NAME":"S.R.D. CAFE IL CORTILE ENTERPRISES, INC.","LONGITUDE":-87.83838525840713},
{"STATE":"IL","ZIP":60616,"LATTITUDE":41.83100808816173,"ADDRESS":"320 W 35TH ST 1 & 2 ","YEAR":2012,"DOING_BUSINESS_AS_NAME":"CHISOX BAR & GRILL","POP_AT_RISK":143472,"BUSINESS_TYPE":"Outdoor Patio","LEGAL_NAME":"GRG-US CELLULAR FIELD MANAGEMENT COMPANY, LLC","LONGITUDE":-87.63493248572952},
{}]