[
{"STATE":"IL","ZIP":60612,"LATTITUDE":41.8777381893736,"ADDRESS":"2122 W JACKSON BLVD  ","YEAR":2005,"DOING_BUSINESS_AS_NAME":"HOMER CARTER","POP_AT_RISK":267924,"BUSINESS_TYPE":"Peddler, non-food, special","LEGAL_NAME":"HOMER CARTER","LONGITUDE":-87.67999701360351},
{"STATE":"IL","ZIP":60625,"LATTITUDE":41.97097232089371,"ADDRESS":"4927 N LAWNDALE AVE  ","YEAR":2005,"DOING_BUSINESS_AS_NAME":"TIMOTEO DIAZ","POP_AT_RISK":859698,"BUSINESS_TYPE":"Peddler, non-food, special","LEGAL_NAME":"TIMOTEO DIAZ","LONGITUDE":-87.72062226457366},
{"STATE":"IL","ZIP":60608,"LATTITUDE":41.849488237651684,"ADDRESS":"2316 S CALIFORNIA AVE  1","YEAR":2005,"DOING_BUSINESS_AS_NAME":"JOSE   ROMAN SR.","POP_AT_RISK":858975,"BUSINESS_TYPE":"Peddler, non-food, special","LEGAL_NAME":"JOSE ROMAN SR.","LONGITUDE":-87.69552610358805},
{"STATE":"IL","ZIP":60621,"LATTITUDE":41.79175165764122,"ADDRESS":"5633 S PERRY AVE  ","YEAR":2005,"DOING_BUSINESS_AS_NAME":"ANTONIO G ROYAL","POP_AT_RISK":291468,"BUSINESS_TYPE":"Peddler, non-food, special","LEGAL_NAME":"ANTONIO G ROYAL","LONGITUDE":-87.62758921127899},
{"STATE":"IL","ZIP":60626,"LATTITUDE":42.02124554045569,"ADDRESS":"1502 W JONQUIL TER  ","YEAR":2005,"DOING_BUSINESS_AS_NAME":"LIFE D GRIFFITH","POP_AT_RISK":308637,"BUSINESS_TYPE":"Peddler, non-food, special","LEGAL_NAME":"LIFE D GRIFFITH","LONGITUDE":-87.66837703893462},
{"STATE":"IL","ZIP":60628,"LATTITUDE":41.70316141009785,"ADDRESS":"10523 S CORLISS AVE  ","YEAR":2005,"DOING_BUSINESS_AS_NAME":"RICARDO JOHNSON","POP_AT_RISK":20309,"BUSINESS_TYPE":"Peddler, non-food, special","LEGAL_NAME":"RICARDO JOHNSON","LONGITUDE":-87.60374030855061},
{"STATE":"IL","ZIP":60652,"LATTITUDE":41.74273665860294,"ADDRESS":"4137 W 82ND PL  ","YEAR":2005,"DOING_BUSINESS_AS_NAME":"YOUSEF MUHYEDDN","POP_AT_RISK":63684,"BUSINESS_TYPE":"Peddler, non-food, special","LEGAL_NAME":"YOUSEF MUHYEDDN","LONGITUDE":-87.7255517132813},
{"STATE":"IL","ZIP":60628,"LATTITUDE":41.70215776128916,"ADDRESS":"10551 S DR MARTIN LUTHER KING JR DR  ","YEAR":2005,"DOING_BUSINESS_AS_NAME":"HARRY B.CRAYTON","POP_AT_RISK":55856,"BUSINESS_TYPE":"Peddler, non-food, special","LEGAL_NAME":"HARRY B. CRAYTON","LONGITUDE":-87.61348213514285},
{"STATE":"IL","ZIP":60645,"LATTITUDE":42.018841739940505,"ADDRESS":"7537 N MAPLEWOOD AVE  C","YEAR":2005,"DOING_BUSINESS_AS_NAME":"STEVEN M KRASLEN","POP_AT_RISK":302071,"BUSINESS_TYPE":"Peddler, non-food, special","LEGAL_NAME":"STEVEN M KRASLEN","LONGITUDE":-87.69314315695335},
{"STATE":"IL","ZIP":60619,"LATTITUDE":41.738422745342135,"ADDRESS":"949 E 86TH ST  ","YEAR":2005,"DOING_BUSINESS_AS_NAME":"DELORIS WHITFIELD","POP_AT_RISK":363770,"BUSINESS_TYPE":"Peddler, non-food, special","LEGAL_NAME":"DELORIS WHITFIELD","LONGITUDE":-87.60056507214014},
{}]