[
{"STATE":"IL","ZIP":60625,"LATTITUDE":41.97142422784017,"ADDRESS":"4943 N LAWNDALE AVE 1 ","YEAR":2011,"DOING_BUSINESS_AS_NAME":"ANGEL TROYA","POP_AT_RISK":122814,"BUSINESS_TYPE":"Junk Peddler","LEGAL_NAME":"ANGEL TROYA","LONGITUDE":-87.72063620381286},
{"STATE":"IL","ZIP":60647,"LATTITUDE":41.915626655152835,"ADDRESS":"2509 W CORTLAND ST  ","YEAR":2011,"DOING_BUSINESS_AS_NAME":"FELIPE FINO","POP_AT_RISK":827940,"BUSINESS_TYPE":"Junk Peddler","LEGAL_NAME":"FELIPE FINO","LONGITUDE":-87.69023164602436},
{"STATE":"IL","ZIP":60651,"LATTITUDE":41.89829414018907,"ADDRESS":"935 N HAMLIN AVE 2ND ","YEAR":2011,"DOING_BUSINESS_AS_NAME":"JAMES BRYANT","POP_AT_RISK":151605,"BUSINESS_TYPE":"Junk Peddler","LEGAL_NAME":"JAMES BRYANT","LONGITUDE":-87.72113839631236},
{"STATE":"IL","ZIP":60637,"LATTITUDE":41.79045758492938,"ADDRESS":"5718 S WABASH AVE  ","YEAR":2011,"DOING_BUSINESS_AS_NAME":"JOE W. BRUCE","POP_AT_RISK":276936,"BUSINESS_TYPE":"Junk Peddler","LEGAL_NAME":"JOE W. BRUCE","LONGITUDE":-87.6241287046382},
{"STATE":"IL","ZIP":60623,"LATTITUDE":41.839627102212916,"ADDRESS":"2838 S HOMAN AVE  ","YEAR":2011,"DOING_BUSINESS_AS_NAME":"NICOLAS PENA","POP_AT_RISK":710070,"BUSINESS_TYPE":"Junk Peddler","LEGAL_NAME":"NICOLAS PENA","LONGITUDE":-87.709924303915},
{"STATE":"IL","ZIP":60638,"LATTITUDE":41.79599837440535,"ADDRESS":"5310 S MASSASOIT AVE  ","YEAR":2011,"DOING_BUSINESS_AS_NAME":"ANNA DZIEDZIC","POP_AT_RISK":71712,"BUSINESS_TYPE":"Junk Peddler","LEGAL_NAME":"ANNA DZIEDZIC","LONGITUDE":-87.76620864797918},
{"STATE":"IL","ZIP":60619,"LATTITUDE":41.76496296939758,"ADDRESS":"7125 S VERNON AVE  ","YEAR":2011,"DOING_BUSINESS_AS_NAME":"ERNEST SMILEY","POP_AT_RISK":475917,"BUSINESS_TYPE":"Junk Peddler","LEGAL_NAME":"ENREST SMILEY","LONGITUDE":-87.6138934673396},
{"STATE":"IL","ZIP":60651,"LATTITUDE":41.903961135415635,"ADDRESS":"5143 W POTOMAC AVE 1 ","YEAR":2011,"DOING_BUSINESS_AS_NAME":"MARCELINO ROA","POP_AT_RISK":223575,"BUSINESS_TYPE":"Junk Peddler","LEGAL_NAME":"MARCELINO ROA","LONGITUDE":-87.75508276822472},
{"STATE":"IL","ZIP":60608,"LATTITUDE":41.85954545901588,"ADDRESS":"1449 W 16TH ST 1 1","YEAR":2011,"DOING_BUSINESS_AS_NAME":"TIMOTEO ROJAS","POP_AT_RISK":545440,"BUSINESS_TYPE":"Junk Peddler","LEGAL_NAME":"TIMOTEO ROJAS","LONGITUDE":-87.66330501552738},
{"STATE":"IL","ZIP":60659,"LATTITUDE":41.99451036080161,"ADDRESS":"6211 N OAKLEY AVE  ","YEAR":2011,"DOING_BUSINESS_AS_NAME":"AGUSTIN CORREA","POP_AT_RISK":936558,"BUSINESS_TYPE":"Junk Peddler","LEGAL_NAME":"AGUSTIN CORREA","LONGITUDE":-87.68717842971802},
{"STATE":"IL","ZIP":60633,"LATTITUDE":41.66379051346345,"ADDRESS":"12728 S MARQUETTE AVE  ","YEAR":2011,"DOING_BUSINESS_AS_NAME":"GABRIEL SERRANO","POP_AT_RISK":2798,"BUSINESS_TYPE":"Junk Peddler","LEGAL_NAME":"GABRIEL SERRANO","LONGITUDE":-87.55698702915133},
{"STATE":"IL","ZIP":60617,"LATTITUDE":41.72036463387103,"ADDRESS":"9617 S ESCANABA AVE  ","YEAR":2011,"DOING_BUSINESS_AS_NAME":"MACRINO DE LEON","POP_AT_RISK":17749,"BUSINESS_TYPE":"Junk Peddler","LEGAL_NAME":"MACRINO DE LEON","LONGITUDE":-87.55366029763196},
{"STATE":"IL","ZIP":60707,"LATTITUDE":41.92771744983967,"ADDRESS":"2615 N NEWCASTLE AVE 1ST ","YEAR":2011,"DOING_BUSINESS_AS_NAME":"MARIA ZACATENCO","POP_AT_RISK":212632,"BUSINESS_TYPE":"Junk Peddler","LEGAL_NAME":"MARIA ZACATENCO","LONGITUDE":-87.79644644789033},
{"STATE":"IL","ZIP":60618,"LATTITUDE":41.94266410545965,"ADDRESS":"2907 W ROSCOE ST BSMT B","YEAR":2011,"DOING_BUSINESS_AS_NAME":"ALFREDO GONZALEZ","POP_AT_RISK":99954,"BUSINESS_TYPE":"Junk Peddler","LEGAL_NAME":"ALFREDO GONZALEZ","LONGITUDE":-87.70085757222925},
{"STATE":"IL","ZIP":60609,"LATTITUDE":41.80405921137489,"ADDRESS":"1221 W 49TH PL 1 ","YEAR":2011,"DOING_BUSINESS_AS_NAME":"GILBERTO R. RUIZ","POP_AT_RISK":292216,"BUSINESS_TYPE":"Junk Peddler","LEGAL_NAME":"GILBERTO R. RUIZ","LONGITUDE":-87.65600313002997},
{"STATE":"IL","ZIP":60617,"LATTITUDE":41.74980155803406,"ADDRESS":"8010 S BRANDON AVE  ","YEAR":2011,"DOING_BUSINESS_AS_NAME":"IGNACIO GONZALEZ","POP_AT_RISK":59958,"BUSINESS_TYPE":"Junk Peddler","LEGAL_NAME":"IGNACIO GONZALEZ","LONGITUDE":-87.54694540203373},
{"STATE":"IL","ZIP":60608,"LATTITUDE":41.85020041499793,"ADDRESS":"2742 W 23RD ST 1 1","YEAR":2011,"DOING_BUSINESS_AS_NAME":"MACARIO ARREDONDO","POP_AT_RISK":458120,"BUSINESS_TYPE":"Junk Peddler","LEGAL_NAME":"MACARIO ARREDONDO","LONGITUDE":-87.69466940618771},
{"STATE":"IL","ZIP":60618,"LATTITUDE":41.96056897920127,"ADDRESS":"4338 N FRANCISCO AVE 1 ","YEAR":2011,"DOING_BUSINESS_AS_NAME":"FERNANDO R. FLORIAN","POP_AT_RISK":295752,"BUSINESS_TYPE":"Junk Peddler","LEGAL_NAME":"FERNANDO R FLORIAN","LONGITUDE":-87.70103857813962},
{"STATE":"IL","ZIP":60641,"LATTITUDE":41.94954851031778,"ADDRESS":"5135 W GRACE ST 1 ","YEAR":2011,"DOING_BUSINESS_AS_NAME":"LIDER FELIPE OLEAS","POP_AT_RISK":53339,"BUSINESS_TYPE":"Junk Peddler","LEGAL_NAME":"LIDER FELIPE OLEAS","LONGITUDE":-87.75599950248375},
{"STATE":"IL","ZIP":60609,"LATTITUDE":41.82765151170781,"ADDRESS":"3628 S HOYNE AVE  ","YEAR":2011,"DOING_BUSINESS_AS_NAME":"WE COLLECT SCRAP METAL","POP_AT_RISK":212772,"BUSINESS_TYPE":"Junk Peddler","LEGAL_NAME":"ARISTEO NAVARRETE SR.","LONGITUDE":-87.67779563231754},
{"STATE":"IL","ZIP":60609,"LATTITUDE":41.80348257418681,"ADDRESS":"4947 S WINCHESTER AVE 2 ","YEAR":2011,"DOING_BUSINESS_AS_NAME":"CRISTOBAL B. GONZALEZ","POP_AT_RISK":319032,"BUSINESS_TYPE":"Junk Peddler","LEGAL_NAME":"CRISTOBAL B. GONZALEZ","LONGITUDE":-87.67320350469062},
{"STATE":"IL","ZIP":60651,"LATTITUDE":41.89904048680634,"ADDRESS":"4208 W AUGUSTA BLVD 1ST 1","YEAR":2011,"DOING_BUSINESS_AS_NAME":"TRANQUILINO RAMOS JR.","POP_AT_RISK":42123,"BUSINESS_TYPE":"Junk Peddler","LEGAL_NAME":"TRANQUILINO RAMOS JR.","LONGITUDE":-87.73154766549443},
{"STATE":"IL","ZIP":60617,"LATTITUDE":41.72210520666138,"ADDRESS":"9526 S AVENUE N  1ST ","YEAR":2011,"DOING_BUSINESS_AS_NAME":"MIGUEL M. ORTEGA-GUTIERREZ","POP_AT_RISK":13632,"BUSINESS_TYPE":"Junk Peddler","LEGAL_NAME":"MIGUEL M. ORTEGA-GUTIERREZ","LONGITUDE":-87.53906558389222},
{}]