[
  {
    "BUSINESS_TYPE": "Junk Peddler", 
    "LEGAL_NAME": "GILBERTO MARTINEZ", 
    "STATE": "IL", 
    "DOING_BUSINESS_AS_NAME": "GILBERTO MARTINEZ", 
    "POP_AT_RISK": 60925, 
    "ZIP": 60618, 
    "ADDRESS": "3018 W FLETCHER ST 1", 
    "YEAR": 2014, 
    "LONGITUDE": -87.70349972, 
    "LATTITUDE": 41.938556476
  }, 
  {
    "BUSINESS_TYPE": "Junk Peddler", 
    "LEGAL_NAME": "EDGAR RIVAS", 
    "STATE": "IL", 
    "DOING_BUSINESS_AS_NAME": "EDGAR RIVAS", 
    "POP_AT_RISK": 45452, 
    "ZIP": 60629, 
    "ADDRESS": "6530 S MOZART ST", 
    "YEAR": 2014, 
    "LONGITUDE": -87.694642516, 
    "LATTITUDE": 41.774509443
  }, 
  {
    "BUSINESS_TYPE": "Junk Peddler", 
    "LEGAL_NAME": "TERRANCE DARTEL COLE", 
    "STATE": "IL", 
    "DOING_BUSINESS_AS_NAME": "TERRANCE DARTEL COLE", 
    "POP_AT_RISK": 48587, 
    "ZIP": 60623, 
    "ADDRESS": "1221 S INDEPENDENCE BLVD  2A", 
    "YEAR": 2014, 
    "LONGITUDE": -87.719358476, 
    "LATTITUDE": 41.865569837
  }, 
  {
    "BUSINESS_TYPE": "Junk Peddler", 
    "LEGAL_NAME": "GABINO PENA", 
    "STATE": "IL", 
    "DOING_BUSINESS_AS_NAME": "GABINO PENA", 
    "POP_AT_RISK": 40844, 
    "ZIP": 60651, 
    "ADDRESS": "925 N ST LOUIS AVE", 
    "YEAR": 2014, 
    "LONGITUDE": -87.71381343, 
    "LATTITUDE": 41.898079422
  }, 
  {
    "BUSINESS_TYPE": "Junk Peddler", 
    "LEGAL_NAME": "MIGUEL A. PEREZ", 
    "STATE": "IL", 
    "DOING_BUSINESS_AS_NAME": "MIGUEL A. PEREZ", 
    "POP_AT_RISK": 17749, 
    "ZIP": 60617, 
    "ADDRESS": "9807 S EXCHANGE AVE", 
    "YEAR": 2014, 
    "LONGITUDE": -87.552234817, 
    "LATTITUDE": 41.71704058
  }, 
  {
    "BUSINESS_TYPE": "Junk Peddler", 
    "LEGAL_NAME": "JOSE A AGUIRRE", 
    "STATE": "IL", 
    "DOING_BUSINESS_AS_NAME": "JOSE A AGUIRRE", 
    "POP_AT_RISK": 39587, 
    "ZIP": 60608, 
    "ADDRESS": "2236 W 21ST PL", 
    "YEAR": 2014, 
    "LONGITUDE": -87.682261532, 
    "LATTITUDE": 41.853097891
  }, 
  {
    "BUSINESS_TYPE": "Junk Peddler", 
    "LEGAL_NAME": "ALBINO GONZALEZ-AGUILAR", 
    "STATE": "IL", 
    "DOING_BUSINESS_AS_NAME": "ALBINO GONZALEZ-AGUILAR", 
    "POP_AT_RISK": 30744, 
    "ZIP": 60609, 
    "ADDRESS": "913 W 50TH ST 1ST", 
    "YEAR": 2014, 
    "LONGITUDE": -87.648391311, 
    "LATTITUDE": 41.803254133
  }, 
  {
    "BUSINESS_TYPE": "Junk Peddler", 
    "LEGAL_NAME": "DOROTEO CASTILLO", 
    "STATE": "IL", 
    "DOING_BUSINESS_AS_NAME": "DOROTEO CASTILLO", 
    "POP_AT_RISK": 75545, 
    "ZIP": 60613, 
    "ADDRESS": "834 W CUYLER AVE", 
    "YEAR": 2014, 
    "LONGITUDE": -87.651077008, 
    "LATTITUDE": 41.955794253
  }, 
  {
    "BUSINESS_TYPE": "Junk Peddler", 
    "LEGAL_NAME": "BENITO LOPEZ", 
    "STATE": "IL", 
    "DOING_BUSINESS_AS_NAME": "BENITO LOPEZ", 
    "POP_AT_RISK": 80297, 
    "ZIP": 60625, 
    "ADDRESS": "4921 N KEDZIE AVE", 
    "YEAR": 2014, 
    "LONGITUDE": -87.708398012, 
    "LATTITUDE": 41.970928695
  }, 
  {
    "BUSINESS_TYPE": "Junk Peddler", 
    "LEGAL_NAME": "DOSSARY AMOR REYES", 
    "STATE": "IL", 
    "DOING_BUSINESS_AS_NAME": "DOSSARY AMOR REYES", 
    "POP_AT_RISK": 51268, 
    "ZIP": 60634, 
    "ADDRESS": "4061 N MEADE AVE", 
    "YEAR": 2014, 
    "LONGITUDE": -87.779132864, 
    "LATTITUDE": 41.954719932
  }, 
  {
    "BUSINESS_TYPE": "Junk Peddler", 
    "LEGAL_NAME": "SANTIAGO DIAZ", 
    "STATE": "IL", 
    "DOING_BUSINESS_AS_NAME": "SANTIAGO DIAZ", 
    "POP_AT_RISK": 74020, 
    "ZIP": 60623, 
    "ADDRESS": "2353 S HOMAN AVE", 
    "YEAR": 2014, 
    "LONGITUDE": -87.709878634, 
    "LATTITUDE": 41.848339026
  }, 
  {
    "BUSINESS_TYPE": "Junk Peddler", 
    "LEGAL_NAME": "RAMON  CORNEJO", 
    "STATE": "IL", 
    "DOING_BUSINESS_AS_NAME": "RAMON CORNEJO", 
    "POP_AT_RISK": 69037, 
    "ZIP": 60623, 
    "ADDRESS": "2659 S DRAKE AVE", 
    "YEAR": 2014, 
    "LONGITUDE": -87.713374636, 
    "LATTITUDE": 41.842660602
  }, 
  {
    "BUSINESS_TYPE": "Junk Peddler", 
    "LEGAL_NAME": "LORENZO COSTILLA", 
    "STATE": "IL", 
    "DOING_BUSINESS_AS_NAME": "LORENZO COSTILLA", 
    "POP_AT_RISK": 45266, 
    "ZIP": 60639, 
    "ADDRESS": "2176 N MELVINA AVE 1 1", 
    "YEAR": 2014, 
    "LONGITUDE": -87.780601297, 
    "LATTITUDE": 41.919921208
  }, 
  {
    "BUSINESS_TYPE": "Junk Peddler", 
    "LEGAL_NAME": "JAMES CONWELL", 
    "STATE": "IL", 
    "DOING_BUSINESS_AS_NAME": "JAMES CONWELL", 
    "POP_AT_RISK": 57681, 
    "ZIP": 60629, 
    "ADDRESS": "3221 W 66TH ST", 
    "YEAR": 2014, 
    "LONGITUDE": -87.703878308, 
    "LATTITUDE": 41.773387575
  }, 
  {
    "BUSINESS_TYPE": "Junk Peddler", 
    "LEGAL_NAME": "CARL WORTHY", 
    "STATE": "IL", 
    "DOING_BUSINESS_AS_NAME": "CARL WORTHY", 
    "POP_AT_RISK": 33493, 
    "ZIP": 60620, 
    "ADDRESS": "9007 S MORGAN ST 1ST", 
    "YEAR": 2014, 
    "LONGITUDE": -87.648181096, 
    "LATTITUDE": 41.7302713
  }, 
  {
    "BUSINESS_TYPE": "Junk Peddler", 
    "LEGAL_NAME": "ARTURO GAMEZ MEZA", 
    "STATE": "IL", 
    "DOING_BUSINESS_AS_NAME": "ARTURO GAMEZ MEZA", 
    "POP_AT_RISK": 18213, 
    "ZIP": 60628, 
    "ADDRESS": "339 E 117TH ST 1 1", 
    "YEAR": 2014, 
    "LONGITUDE": -87.615101543, 
    "LATTITUDE": 41.681284033
  }, 
  {
    "BUSINESS_TYPE": "Junk Peddler", 
    "LEGAL_NAME": "PEDRO NOE HERNANDEZ-ESTRADA", 
    "STATE": "IL", 
    "DOING_BUSINESS_AS_NAME": "PEDRO NOE HERNANDEZ-ESTRADA", 
    "POP_AT_RISK": 39405, 
    "ZIP": 60608, 
    "ADDRESS": "1832 W 21ST ST BAS", 
    "YEAR": 2014, 
    "LONGITUDE": -87.672335014, 
    "LATTITUDE": 41.854169278
  }, 
  {
    "BUSINESS_TYPE": "Junk Peddler", 
    "LEGAL_NAME": "ARISTEO NAVARRETE SR.", 
    "STATE": "IL", 
    "DOING_BUSINESS_AS_NAME": "WE COLLECT SCRAP METAL", 
    "POP_AT_RISK": 30396, 
    "ZIP": 60609, 
    "ADDRESS": "3628 S HOYNE AVE", 
    "YEAR": 2014, 
    "LONGITUDE": -87.677795632, 
    "LATTITUDE": 41.827651512
  }, 
  {
    "BUSINESS_TYPE": "Junk Peddler", 
    "LEGAL_NAME": "SERGIO P SANDOVAL", 
    "STATE": "IL", 
    "DOING_BUSINESS_AS_NAME": "SERGIO P SANDOVAL", 
    "POP_AT_RISK": 41174, 
    "ZIP": 60609, 
    "ADDRESS": "4940 S PAULINA ST 1", 
    "YEAR": 2014, 
    "LONGITUDE": -87.667419383, 
    "LATTITUDE": 41.803699423
  }, 
  {
    "BUSINESS_TYPE": "Junk Peddler", 
    "LEGAL_NAME": "ROSARIO MALDONADO", 
    "STATE": "IL", 
    "DOING_BUSINESS_AS_NAME": "ROSARIO MALDONADO", 
    "POP_AT_RISK": 41022, 
    "ZIP": 60651, 
    "ADDRESS": "1329 N WALLER AVE", 
    "YEAR": 2014, 
    "LONGITUDE": -87.768027582, 
    "LATTITUDE": 41.904796968
  }, 
  {
    "BUSINESS_TYPE": "Junk Peddler", 
    "LEGAL_NAME": "VICTOR ZAMORA", 
    "STATE": "IL", 
    "DOING_BUSINESS_AS_NAME": "VICTOR ZAMORA", 
    "POP_AT_RISK": 51247, 
    "ZIP": 60651, 
    "ADDRESS": "3425 W EVERGREEN AVE 2ND", 
    "YEAR": 2014, 
    "LONGITUDE": -87.712794819, 
    "LATTITUDE": 41.905399881
  }, 
  {
    "BUSINESS_TYPE": "Junk Peddler", 
    "LEGAL_NAME": "CASIMIRO MIRON", 
    "STATE": "IL", 
    "DOING_BUSINESS_AS_NAME": "CASIMIRO MIRON", 
    "POP_AT_RISK": 27493, 
    "ZIP": 60652, 
    "ADDRESS": "4021 W 82ND PL", 
    "YEAR": 2014, 
    "LONGITUDE": -87.722861439, 
    "LATTITUDE": 41.742807258
  }, 
  {
    "BUSINESS_TYPE": "Junk Peddler", 
    "LEGAL_NAME": "WILLIE JOHNSON JR", 
    "STATE": "IL", 
    "DOING_BUSINESS_AS_NAME": "WILLIE JOHNSON JR", 
    "POP_AT_RISK": 33153, 
    "ZIP": 60620, 
    "ADDRESS": "7728 S CARPENTER ST  BSM", 
    "YEAR": 2014, 
    "LONGITUDE": -87.650323044, 
    "LATTITUDE": 41.753308535
  }, 
  {
    "BUSINESS_TYPE": "Junk Peddler", 
    "LEGAL_NAME": "JOSE MADRIZ", 
    "STATE": "IL", 
    "DOING_BUSINESS_AS_NAME": "JOSE MADRIZ", 
    "POP_AT_RISK": 21953, 
    "ZIP": 60617, 
    "ADDRESS": "10410 S EWING AVE", 
    "YEAR": 2014, 
    "LONGITUDE": -87.535433019, 
    "LATTITUDE": 41.706016783
  }, 
  {
    "BUSINESS_TYPE": "Junk Peddler", 
    "LEGAL_NAME": "IGNACIO GONZALEZ", 
    "STATE": "IL", 
    "DOING_BUSINESS_AS_NAME": "IGNACIO GONZALEZ", 
    "POP_AT_RISK": 29979, 
    "ZIP": 60617, 
    "ADDRESS": "8010 S BRANDON AVE", 
    "YEAR": 2014, 
    "LONGITUDE": -87.546945402, 
    "LATTITUDE": 41.749801558
  }, 
  {
    "BUSINESS_TYPE": "Junk Peddler", 
    "LEGAL_NAME": "ISIDRO NUNEZ", 
    "STATE": "IL", 
    "DOING_BUSINESS_AS_NAME": "ISIDRO NUNEZ", 
    "POP_AT_RISK": 48278, 
    "ZIP": 60630, 
    "ADDRESS": "4534 N KASSON AVE 1ST", 
    "YEAR": 2014, 
    "LONGITUDE": -87.732243769, 
    "LATTITUDE": 41.963743277
  }, 
  {
    "BUSINESS_TYPE": "Junk Peddler", 
    "LEGAL_NAME": "MARCOS GARIBAY", 
    "STATE": "IL", 
    "DOING_BUSINESS_AS_NAME": "MARCOS GARIBAY", 
    "POP_AT_RISK": 10918, 
    "ZIP": 60617, 
    "ADDRESS": "9731 S AVENUE H", 
    "YEAR": 2014, 
    "LONGITUDE": -87.532719642, 
    "LATTITUDE": 41.71865037
  }, 
  {
    "BUSINESS_TYPE": "Junk Peddler", 
    "LEGAL_NAME": "MAXIMINO I GARCIA", 
    "STATE": "IL", 
    "DOING_BUSINESS_AS_NAME": "MAXIMINO I GARCIA", 
    "POP_AT_RISK": 34058, 
    "ZIP": 60632, 
    "ADDRESS": "4320 S CHRISTIANA AVE", 
    "YEAR": 2014, 
    "LONGITUDE": -87.708058502, 
    "LATTITUDE": 41.814734623
  }, 
  {
    "BUSINESS_TYPE": "Junk Peddler", 
    "LEGAL_NAME": "JAMES BRYANT", 
    "STATE": "IL", 
    "DOING_BUSINESS_AS_NAME": "JAMES BRYANT", 
    "POP_AT_RISK": 49726, 
    "ZIP": 60651, 
    "ADDRESS": "935 N HAMLIN AVE 2ND", 
    "YEAR": 2014, 
    "LONGITUDE": -87.721138396, 
    "LATTITUDE": 41.89829414
  }, 
  {
    "BUSINESS_TYPE": "Junk Peddler", 
    "LEGAL_NAME": "JESUS LOPEZ", 
    "STATE": "IL", 
    "DOING_BUSINESS_AS_NAME": "JESUS LOPEZ", 
    "POP_AT_RISK": 72493, 
    "ZIP": 60623, 
    "ADDRESS": "2348 S RIDGEWAY AVE", 
    "YEAR": 2014, 
    "LONGITUDE": -87.718710164, 
    "LATTITUDE": 41.848359982
  }, 
  {
    "BUSINESS_TYPE": "Junk Peddler", 
    "LEGAL_NAME": "ANGEL ARROYO", 
    "STATE": "IL", 
    "DOING_BUSINESS_AS_NAME": "ANGEL ARROYO", 
    "POP_AT_RISK": 44704, 
    "ZIP": 60608, 
    "ADDRESS": "2961 S THROOP ST 1 1", 
    "YEAR": 2014, 
    "LONGITUDE": -87.650978008, 
    "LATTITUDE": 41.840031741
  }
]