[
  {
    "BUSINESS_TYPE": "Street Performer", 
    "LEGAL_NAME": "BRET A KOONTZ", 
    "STATE": "IL", 
    "DOING_BUSINESS_AS_NAME": "BRET A KOONTZ", 
    "POP_AT_RISK": 35927, 
    "ZIP": 60609, 
    "ADDRESS": "3659 S HOYNE AVE  1F", 
    "YEAR": 2007, 
    "LONGITUDE": -87.677477595, 
    "LATTITUDE": 41.8268086
  }, 
  {
    "BUSINESS_TYPE": "Street Performer", 
    "LEGAL_NAME": "JEANNA JOHNSON", 
    "STATE": "IL", 
    "DOING_BUSINESS_AS_NAME": "JEANNA JOHNSON", 
    "POP_AT_RISK": 35004, 
    "ZIP": 60632, 
    "ADDRESS": "4929 S KOSTNER AVE 1 1", 
    "YEAR": 2007, 
    "LONGITUDE": -87.733099415, 
    "LATTITUDE": 41.803210427
  }, 
  {
    "BUSINESS_TYPE": "Street Performer", 
    "LEGAL_NAME": "ADRIAN SANTIAGO", 
    "STATE": "IL", 
    "DOING_BUSINESS_AS_NAME": "ADRIAN SANTIAGO", 
    "POP_AT_RISK": 60173, 
    "ZIP": 60632, 
    "ADDRESS": "3018 W 54TH ST", 
    "YEAR": 2007, 
    "LONGITUDE": -87.699537574, 
    "LATTITUDE": 41.79552297
  }, 
  {
    "BUSINESS_TYPE": "Street Performer", 
    "LEGAL_NAME": "RONNIE SELLERS JR.", 
    "STATE": "IL", 
    "DOING_BUSINESS_AS_NAME": "RONNIE SELLERS JR.", 
    "POP_AT_RISK": 28592, 
    "ZIP": 60628, 
    "ADDRESS": "10909 S EDBROOKE AVE", 
    "YEAR": 2007, 
    "LONGITUDE": -87.619419266, 
    "LATTITUDE": 41.695954775
  }, 
  {
    "BUSINESS_TYPE": "Street Performer", 
    "LEGAL_NAME": "JOSEPH L. ALCALA", 
    "STATE": "IL", 
    "DOING_BUSINESS_AS_NAME": "JOSEPH L. ALCALA", 
    "POP_AT_RISK": 61356, 
    "ZIP": 60634, 
    "ADDRESS": "2842 N MENARD AVE", 
    "YEAR": 2007, 
    "LONGITUDE": -87.771295751, 
    "LATTITUDE": 41.93248494
  }, 
  {
    "BUSINESS_TYPE": "Street Performer", 
    "LEGAL_NAME": "LORITA ANN METLOW", 
    "STATE": "IL", 
    "DOING_BUSINESS_AS_NAME": "LORITA ANN METLOW", 
    "POP_AT_RISK": 22813, 
    "ZIP": 60638, 
    "ADDRESS": "5814 S ARCHER AVE", 
    "YEAR": 2007, 
    "LONGITUDE": -87.759168332, 
    "LATTITUDE": 41.796324314
  }, 
  {
    "BUSINESS_TYPE": "Street Performer", 
    "LEGAL_NAME": "JABOWEN  S DIXON", 
    "STATE": "IL", 
    "DOING_BUSINESS_AS_NAME": "JABOWEN S DIXON", 
    "POP_AT_RISK": 35344, 
    "ZIP": 60621, 
    "ADDRESS": "6340 S ABERDEEN ST  `", 
    "YEAR": 2007, 
    "LONGITUDE": -87.652186365, 
    "LATTITUDE": 41.778423309
  }, 
  {
    "BUSINESS_TYPE": "Street Performer", 
    "LEGAL_NAME": "RICHARD LAMONT CEASAR", 
    "STATE": "IL", 
    "DOING_BUSINESS_AS_NAME": "RICHARD LAMONT CEASAR", 
    "POP_AT_RISK": 58167, 
    "ZIP": 60623, 
    "ADDRESS": "1662 S TROY ST", 
    "YEAR": 2007, 
    "LONGITUDE": -87.704347627, 
    "LATTITUDE": 41.857358831
  }, 
  {
    "BUSINESS_TYPE": "Street Performer", 
    "LEGAL_NAME": "AMANDA MERDITH COHEN", 
    "STATE": "IL", 
    "DOING_BUSINESS_AS_NAME": "AMANDA COHEN", 
    "POP_AT_RISK": 56081, 
    "ZIP": 60659, 
    "ADDRESS": "5621 N CHRISTIANA AVE 3", 
    "YEAR": 2007, 
    "LONGITUDE": -87.712405688, 
    "LATTITUDE": 41.983679712
  }, 
  {
    "BUSINESS_TYPE": "Street Performer", 
    "LEGAL_NAME": "LISA L. JANOSCHKA", 
    "STATE": "IL", 
    "DOING_BUSINESS_AS_NAME": "LISA L. JANOSCHKA", 
    "POP_AT_RISK": 27547, 
    "ZIP": 60630, 
    "ADDRESS": "5481 N NORTHWEST HWY 2ND 2", 
    "YEAR": 2007, 
    "LONGITUDE": -87.777476599, 
    "LATTITUDE": 41.980383565
  }, 
  {
    "BUSINESS_TYPE": "Street Performer", 
    "LEGAL_NAME": "RACHID GRIYECH", 
    "STATE": "IL", 
    "DOING_BUSINESS_AS_NAME": "RACHID GRIYECH", 
    "POP_AT_RISK": 45660, 
    "ZIP": 60616, 
    "ADDRESS": "2562 S PRAIRIE AVE 1", 
    "YEAR": 2007, 
    "LONGITUDE": -87.620630539, 
    "LATTITUDE": 41.845773678
  }, 
  {
    "BUSINESS_TYPE": "Street Performer", 
    "LEGAL_NAME": "RAY ALVAREZ", 
    "STATE": "IL", 
    "DOING_BUSINESS_AS_NAME": "MISSION CRISTIAN ELIM CHURCH", 
    "POP_AT_RISK": 21759, 
    "ZIP": 60634, 
    "ADDRESS": "3833 N NOTTINGHAM AVE", 
    "YEAR": 2007, 
    "LONGITUDE": -87.804576771, 
    "LATTITUDE": 41.949949366
  }, 
  {
    "BUSINESS_TYPE": "Street Performer", 
    "LEGAL_NAME": "GREGORY D PIERRE", 
    "STATE": "IL", 
    "DOING_BUSINESS_AS_NAME": "GREGORY D PIERRE", 
    "POP_AT_RISK": 36503, 
    "ZIP": 60624, 
    "ADDRESS": "4221 W JACKSON BLVD", 
    "YEAR": 2007, 
    "LONGITUDE": -87.731329367, 
    "LATTITUDE": 41.876906123
  }, 
  {
    "BUSINESS_TYPE": "Street Performer", 
    "LEGAL_NAME": "GILBERT R. CORONEL", 
    "STATE": "IL", 
    "DOING_BUSINESS_AS_NAME": "GILBERT R. CORONEL", 
    "POP_AT_RISK": 55277, 
    "ZIP": 60623, 
    "ADDRESS": "2715 S TROY ST BASEMENT", 
    "YEAR": 2007, 
    "LONGITUDE": -87.703598771, 
    "LATTITUDE": 41.842230639
  }, 
  {
    "BUSINESS_TYPE": "Street Performer", 
    "LEGAL_NAME": "CARLTON MAGELLAN WATTS JR.", 
    "STATE": "IL", 
    "DOING_BUSINESS_AS_NAME": "CARLTON MAGELLAN WATTS JR.", 
    "POP_AT_RISK": 26487, 
    "ZIP": 60643, 
    "ADDRESS": "9932 S SANGAMON ST 1", 
    "YEAR": 2007, 
    "LONGITUDE": -87.646789026, 
    "LATTITUDE": 41.713160427
  }, 
  {
    "BUSINESS_TYPE": "Street Performer", 
    "LEGAL_NAME": "LARRY LEE STEWART", 
    "STATE": "IL", 
    "DOING_BUSINESS_AS_NAME": "LARRY LEE STEWART", 
    "POP_AT_RISK": 20309, 
    "ZIP": 60628, 
    "ADDRESS": "739 E 105TH ST", 
    "YEAR": 2007, 
    "LONGITUDE": -87.604741925, 
    "LATTITUDE": 41.703684474
  }, 
  {
    "BUSINESS_TYPE": "Street Performer", 
    "LEGAL_NAME": "RONALD L MILLER", 
    "STATE": "IL", 
    "DOING_BUSINESS_AS_NAME": "RONALD L MILLER", 
    "POP_AT_RISK": 51620, 
    "ZIP": 60632, 
    "ADDRESS": "5023 S FAIRFIELD  BSMT", 
    "YEAR": 2007, 
    "LONGITUDE": -87.692662055, 
    "LATTITUDE": 41.802121125
  }, 
  {
    "BUSINESS_TYPE": "Street Performer", 
    "LEGAL_NAME": "CAROL EPHRAIM", 
    "STATE": "IL", 
    "DOING_BUSINESS_AS_NAME": "CAROL EPHRAIM", 
    "POP_AT_RISK": 32143, 
    "ZIP": 60652, 
    "ADDRESS": "3643 W 79TH ST", 
    "YEAR": 2007, 
    "LONGITUDE": -87.713778115, 
    "LATTITUDE": 41.749455613
  }, 
  {
    "BUSINESS_TYPE": "Street Performer", 
    "LEGAL_NAME": "THOMAS M SEXTON", 
    "STATE": "IL", 
    "DOING_BUSINESS_AS_NAME": "THOMAS M SEXTON", 
    "POP_AT_RISK": 12033, 
    "ZIP": 60656, 
    "ADDRESS": "8615 W SUNNYSIDE AVE 1ST", 
    "YEAR": 2007, 
    "LONGITUDE": -87.842301739, 
    "LATTITUDE": 41.961202595
  }, 
  {
    "BUSINESS_TYPE": "Street Performer", 
    "LEGAL_NAME": "JANE MARIE WRIGHT", 
    "STATE": "IL", 
    "DOING_BUSINESS_AS_NAME": "JANE WRIGHT", 
    "POP_AT_RISK": 20929, 
    "ZIP": 60617, 
    "ADDRESS": "9525 S CLYDE AVE 1", 
    "YEAR": 2007, 
    "LONGITUDE": -87.571553103, 
    "LATTITUDE": 41.721739712
  }, 
  {
    "BUSINESS_TYPE": "Street Performer", 
    "LEGAL_NAME": "LAURENCE A JONES", 
    "STATE": "IL", 
    "DOING_BUSINESS_AS_NAME": "LAURENCE A JONES", 
    "POP_AT_RISK": 31661, 
    "ZIP": 60620, 
    "ADDRESS": "9428 S LAFAYETTE AVE 3RD", 
    "YEAR": 2007, 
    "LONGITUDE": -87.625217064, 
    "LATTITUDE": 41.722579734
  }, 
  {
    "BUSINESS_TYPE": "Street Performer", 
    "LEGAL_NAME": "AVRAHAM B KAPLAN", 
    "STATE": "IL", 
    "DOING_BUSINESS_AS_NAME": "AVRAHAM B KAPLAN", 
    "POP_AT_RISK": 42417, 
    "ZIP": 60645, 
    "ADDRESS": "2940 W MORSE AVE", 
    "YEAR": 2007, 
    "LONGITUDE": -87.703784396, 
    "LATTITUDE": 42.006680759
  }, 
  {
    "BUSINESS_TYPE": "Street Performer", 
    "LEGAL_NAME": "ANDREW ODOM", 
    "STATE": "IL", 
    "DOING_BUSINESS_AS_NAME": "ANDREW ODOM", 
    "POP_AT_RISK": 32995, 
    "ZIP": 60649, 
    "ADDRESS": "6900 S CRANDON AVE  413", 
    "YEAR": 2007, 
    "LONGITUDE": -87.570015301, 
    "LATTITUDE": 41.769778545
  }, 
  {
    "BUSINESS_TYPE": "Street Performer", 
    "LEGAL_NAME": "Ozzie L. Stanford", 
    "STATE": "IL", 
    "DOING_BUSINESS_AS_NAME": "OZZIE L. STANFORD", 
    "POP_AT_RISK": 42471, 
    "ZIP": 60651, 
    "ADDRESS": "4943 W KAMERLING AVE 2ND", 
    "YEAR": 2007, 
    "LONGITUDE": -87.750200148, 
    "LATTITUDE": 41.904923206
  }, 
  {
    "BUSINESS_TYPE": "Street Performer", 
    "LEGAL_NAME": "JASON M. NEWMAN", 
    "STATE": "IL", 
    "DOING_BUSINESS_AS_NAME": "JASON M. NEWMAN", 
    "POP_AT_RISK": 23487, 
    "ZIP": 60643, 
    "ADDRESS": "1510 W 114TH PL", 
    "YEAR": 2007, 
    "LONGITUDE": -87.660495012, 
    "LATTITUDE": 41.685851732
  }, 
  {
    "BUSINESS_TYPE": "Street Performer", 
    "LEGAL_NAME": "LEONEL LOEZA JR.", 
    "STATE": "IL", 
    "DOING_BUSINESS_AS_NAME": "LEONEL LOEZA JR.", 
    "POP_AT_RISK": 26799, 
    "ZIP": 60629, 
    "ADDRESS": "6437 S KILPATRICK AVE", 
    "YEAR": 2007, 
    "LONGITUDE": -87.739611156, 
    "LATTITUDE": 41.775533098
  }, 
  {
    "BUSINESS_TYPE": "Street Performer", 
    "LEGAL_NAME": "ETHAN M. CRAVEN", 
    "STATE": "IL", 
    "DOING_BUSINESS_AS_NAME": "ETHAN M. CRAVEN", 
    "POP_AT_RISK": 19961, 
    "ZIP": 60643, 
    "ADDRESS": "10243 S SEELEY AVE", 
    "YEAR": 2007, 
    "LONGITUDE": -87.672257115, 
    "LATTITUDE": 41.707172324
  }, 
  {
    "BUSINESS_TYPE": "Street Performer", 
    "LEGAL_NAME": "VICTOR M WALKER JR", 
    "STATE": "IL", 
    "DOING_BUSINESS_AS_NAME": "VICTOR M WALKER JR", 
    "POP_AT_RISK": 38801, 
    "ZIP": 60620, 
    "ADDRESS": "8720 S ASHLAND AVE 3 3B", 
    "YEAR": 2007, 
    "LONGITUDE": -87.663194557, 
    "LATTITUDE": 41.735112313
  }
]