[
{"STATE":"IL","ZIP":60640,"LATTITUDE":41.968781265045,"ADDRESS":"1509 - 1511 W LAWRENCE AVE 1ST ","YEAR":2012,"DOING_BUSINESS_AS_NAME":"ICE CUBED LLC","POP_AT_RISK":137146,"BUSINESS_TYPE":"Mobile Food Dispenser","LEGAL_NAME":"ICE CUBED LLC","LONGITUDE":-87.66790927751248},
{"STATE":"IL","ZIP":60634,"LATTITUDE":41.941242141901604,"ADDRESS":"3350 N HARLEM AVE  ","YEAR":2012,"DOING_BUSINESS_AS_NAME":"CAPONIES CAFE & PIZZA","POP_AT_RISK":369864,"BUSINESS_TYPE":"Mobile Food Dispenser","LEGAL_NAME":"CAPONIES, INC.","LONGITUDE":-87.80700925680553},
{"STATE":"IL","ZIP":60636,"LATTITUDE":41.77952128488156,"ADDRESS":"1708 W 63RD ST 1 1","YEAR":2012,"DOING_BUSINESS_AS_NAME":"D'S HOUSE","POP_AT_RISK":652770,"BUSINESS_TYPE":"Mobile Food Dispenser","LEGAL_NAME":"D'S HOUSE INC.","LONGITUDE":-87.6670936713993},
{"STATE":"IL","ZIP":60611,"LATTITUDE":41.89341476719058,"ADDRESS":"54 E ONTARIO ST  ","YEAR":2012,"DOING_BUSINESS_AS_NAME":"ELEAVEN FOOD COMPANY","POP_AT_RISK":81160,"BUSINESS_TYPE":"Mobile Food Dispenser","LEGAL_NAME":"EFC RUSH IL, LLC","LONGITUDE":-87.62600661616062},
{"STATE":"IL","ZIP":60608,"LATTITUDE":41.84467072147077,"ADDRESS":"2637 S THROOP ST 1 1","YEAR":2012,"DOING_BUSINESS_AS_NAME":"CULTURE","POP_AT_RISK":46719,"BUSINESS_TYPE":"Mobile Food Dispenser","LEGAL_NAME":"FFK CULTURE, LLC","LONGITUDE":-87.6549622241458},
{"STATE":"IL","ZIP":60614,"LATTITUDE":41.91820856763485,"ADDRESS":"1008 W ARMITAGE AVE  ","YEAR":2012,"DOING_BUSINESS_AS_NAME":"JA' GRILL","POP_AT_RISK":122102,"BUSINESS_TYPE":"Mobile Food Dispenser","LEGAL_NAME":"BUSTER CRAB, INC.","LONGITUDE":-87.65375768752133},
{"STATE":"IL","ZIP":60640,"LATTITUDE":41.964970720425164,"ADDRESS":"4548 N MAGNOLIA AVE 1ST ","YEAR":2012,"DOING_BUSINESS_AS_NAME":"PALACE GATE AFRICA RESTAURANT","POP_AT_RISK":68009,"BUSINESS_TYPE":"Mobile Food Dispenser","LEGAL_NAME":"SETH KWASI NYARKO","LONGITUDE":-87.66115880976733},
{"STATE":"IL","ZIP":60611,"LATTITUDE":41.8990309819517,"ADDRESS":"1 E DELAWARE PL  ","YEAR":2012,"DOING_BUSINESS_AS_NAME":"MORE CUPCAKES","POP_AT_RISK":143304,"BUSINESS_TYPE":"Mobile Food Dispenser","LEGAL_NAME":"MORE CUPCAKES, LLC","LONGITUDE":-87.62819227491326},
{"STATE":"IL","ZIP":60607,"LATTITUDE":41.86959706650426,"ADDRESS":"1030 W TAYLOR ST  ","YEAR":2012,"DOING_BUSINESS_AS_NAME":"FLIRTY CUPCAKES","POP_AT_RISK":152184,"BUSINESS_TYPE":"Mobile Food Dispenser","LEGAL_NAME":"FLIRTY CUPCAKES LLC","LONGITUDE":-87.6523490175014},
{"STATE":"IL","ZIP":60604,"LATTITUDE":41.878014487249544,"ADDRESS":"175 W JACKSON BLVD 1 ","YEAR":2012,"DOING_BUSINESS_AS_NAME":"WOW BAO","POP_AT_RISK":50511,"BUSINESS_TYPE":"Mobile Food Dispenser","LEGAL_NAME":"WOW BAO JACKSON LLC","LONGITUDE":-87.63318903001444},
{"STATE":"IL","ZIP":60608,"LATTITUDE":41.83361886880686,"ADDRESS":"3322 S MORGAN ST 1 ","YEAR":2012,"DOING_BUSINESS_AS_NAME":"BRIDGEPORT PASTY LLC","POP_AT_RISK":39947,"BUSINESS_TYPE":"Mobile Food Dispenser","LEGAL_NAME":"BRIDGEPORT PASTY LLC","LONGITUDE":-87.65118268844637},
{"STATE":"IL","ZIP":60659,"LATTITUDE":41.996281829828234,"ADDRESS":"6310 N WESTERN AVE 1ST ","YEAR":2012,"DOING_BUSINESS_AS_NAME":"ENEMY KITCHEN","POP_AT_RISK":344315,"BUSINESS_TYPE":"Mobile Food Dispenser","LEGAL_NAME":"MILO'S PITA PLACE LTD.","LONGITUDE":-87.68998284906789},
{"STATE":"IL","ZIP":60649,"LATTITUDE":41.75868882324165,"ADDRESS":"1713 E 75TH ST 1ST ","YEAR":2012,"DOING_BUSINESS_AS_NAME":"RAY'S ISLAND GRILL LLC","POP_AT_RISK":661626,"BUSINESS_TYPE":"Mobile Food Dispenser","LEGAL_NAME":"RAY'S ISLAND GRILL LLC","LONGITUDE":-87.58295045587245},
{"STATE":"IL","ZIP":60608,"LATTITUDE":41.86287332132199,"ADDRESS":"2419 W 14TH ST 1ST ","YEAR":2012,"DOING_BUSINESS_AS_NAME":"FOSS FOOD TRUCKS","POP_AT_RISK":94845,"BUSINESS_TYPE":"Mobile Food Dispenser","LEGAL_NAME":"THE PICKLED TONGUE, LLC","LONGITUDE":-87.68663463890556},
{"STATE":"IL","ZIP":60657,"LATTITUDE":41.93727241797709,"ADDRESS":"3056 N LINCOLN AVE 1 ","YEAR":2012,"DOING_BUSINESS_AS_NAME":"CHIZAKAYA","POP_AT_RISK":289896,"BUSINESS_TYPE":"Mobile Food Dispenser","LEGAL_NAME":"HAROLD'S RESTAURANT, LLC","LONGITUDE":-87.66552486724433},
{"STATE":"IL","ZIP":60623,"LATTITUDE":41.84442752357007,"ADDRESS":"3117 W 26TH ST  ","YEAR":2012,"DOING_BUSINESS_AS_NAME":"TRAVELING BURRITO","POP_AT_RISK":896168,"BUSINESS_TYPE":"Mobile Food Dispenser","LEGAL_NAME":" TRAVELING BURRITO CORP. ","LONGITUDE":-87.7033218206729},
{"STATE":"IL","ZIP":60659,"LATTITUDE":41.997465599281334,"ADDRESS":"2739 W DEVON AVE 1ST ","YEAR":2012,"DOING_BUSINESS_AS_NAME":"BIRYANI' S","POP_AT_RISK":52847,"BUSINESS_TYPE":"Mobile Food Dispenser","LEGAL_NAME":"KHURRAM ZAIDI CORPORATION","LONGITUDE":-87.69870592240922},
{"STATE":"IL","ZIP":60618,"LATTITUDE":41.95483275387562,"ADDRESS":"4019 N DAMEN AVE 1 ","YEAR":2012,"DOING_BUSINESS_AS_NAME":"BROWN BAG LUNCH TRUCK, LLC","POP_AT_RISK":242260,"BUSINESS_TYPE":"Mobile Food Dispenser","LEGAL_NAME":"BROWN BAG LUNCH TRUCK, LLC","LONGITUDE":-87.67862617510166},
{"STATE":"IL","ZIP":60622,"LATTITUDE":41.8957195700408,"ADDRESS":"2159 W CHICAGO AVE 1 ","YEAR":2012,"DOING_BUSINESS_AS_NAME":"VALENTINA FOOD TRUCKS, LLC","POP_AT_RISK":57205,"BUSINESS_TYPE":"Mobile Food Dispenser","LEGAL_NAME":"VALENTINA FOOD TRUCKS, LLC","LONGITUDE":-87.68182311956286},
{"STATE":"IL","ZIP":60657,"LATTITUDE":41.945742521799225,"ADDRESS":"3506 N CLARK ST 1ST ","YEAR":2012,"DOING_BUSINESS_AS_NAME":"DUCK N' ROLL","POP_AT_RISK":497442,"BUSINESS_TYPE":"Mobile Food Dispenser","LEGAL_NAME":"ASB INVESTMENT COMPANY, LLC","LONGITUDE":-87.65551181178837},
{"STATE":"IL","ZIP":60646,"LATTITUDE":41.985762969681936,"ADDRESS":"5740 N MILWAUKEE AVE 1 1","YEAR":2012,"DOING_BUSINESS_AS_NAME":"SWEET SPOT MACARONS","POP_AT_RISK":165282,"BUSINESS_TYPE":"Mobile Food Dispenser","LEGAL_NAME":"NEXT STEP COMMUNICATIONS, INC.","LONGITUDE":-87.77712906969982},
{}]