[
{"STATE":"IL","ZIP":60612,"LATTITUDE":41.88678335894974,"ADDRESS":"301 N HOYNE AVE  ","YEAR":2013,"DOING_BUSINESS_AS_NAME":"TOP STORE","POP_AT_RISK":382020,"BUSINESS_TYPE":"Tire Facility Class II (1,001 - 5,000 Tires)","LEGAL_NAME":"TOP STORE","LONGITUDE":-87.6790900422296},
{"STATE":"IL","ZIP":60636,"LATTITUDE":41.78675314130303,"ADDRESS":"1241-1247 W 59TH ST 1ST ","YEAR":2013,"DOING_BUSINESS_AS_NAME":"ALAMO'S TIRE SHOP & REPAIR","POP_AT_RISK":243691,"BUSINESS_TYPE":"Tire Facility Class II (1,001 - 5,000 Tires)","LEGAL_NAME":"ANA L. ALAMO","LONGITUDE":-87.65629414237921},
{"STATE":"IL","ZIP":60639,"LATTITUDE":41.92443929099319,"ADDRESS":"4510-4512 W FULLERTON AVE  ","YEAR":2013,"DOING_BUSINESS_AS_NAME":"CHICAGO TIRE","POP_AT_RISK":694690,"BUSINESS_TYPE":"Tire Facility Class II (1,001 - 5,000 Tires)","LEGAL_NAME":"HANNA T VITELA","LONGITUDE":-87.73949062103195},
{"STATE":"IL","ZIP":60608,"LATTITUDE":41.844897032915085,"ADDRESS":"2510 W 26TH ST  ","YEAR":2013,"DOING_BUSINESS_AS_NAME":"SOTO TIRES INC","POP_AT_RISK":377703,"BUSINESS_TYPE":"Tire Facility Class II (1,001 - 5,000 Tires)","LEGAL_NAME":"SOTO TIRES INC","LONGITUDE":-87.68813335165316},
{"STATE":"IL","ZIP":60620,"LATTITUDE":41.73046148998573,"ADDRESS":"9010-9018 S HALSTED ST 1 ","YEAR":2013,"DOING_BUSINESS_AS_NAME":"BEN'S TIRE SERVICE","POP_AT_RISK":323270,"BUSINESS_TYPE":"Tire Facility Class II (1,001 - 5,000 Tires)","LEGAL_NAME":"BENNIE BROWNLEE","LONGITUDE":-87.64360593172941},
{"STATE":"IL","ZIP":60609,"LATTITUDE":41.82368445199922,"ADDRESS":"426 W PERSHING RD  1ST","YEAR":2013,"DOING_BUSINESS_AS_NAME":"TRUCK TIRE SALES, INC","POP_AT_RISK":431382,"BUSINESS_TYPE":"Tire Facility Class II (1,001 - 5,000 Tires)","LEGAL_NAME":"TRUCK TIRE SALES INC","LONGITUDE":-87.63719418165383},
{"STATE":"IL","ZIP":60618,"LATTITUDE":41.94501207220803,"ADDRESS":"3501 N WESTERN AVE  ","YEAR":2013,"DOING_BUSINESS_AS_NAME":"LUCAS TIRES","POP_AT_RISK":660595,"BUSINESS_TYPE":"Tire Facility Class II (1,001 - 5,000 Tires)","LEGAL_NAME":"VEHICLE ALIGN & BRAKE","LONGITUDE":-87.68806222000072},
{"STATE":"IL","ZIP":60609,"LATTITUDE":41.79536064707432,"ADDRESS":"5414 S ASHLAND AVE 1 ","YEAR":2013,"DOING_BUSINESS_AS_NAME":"JC AUTO & TIRE SHOP","POP_AT_RISK":88240,"BUSINESS_TYPE":"Tire Facility Class II (1,001 - 5,000 Tires)","LEGAL_NAME":"JC AUTO & TIRE SHOP, INC.","LONGITUDE":-87.66476747111768},
{"STATE":"IL","ZIP":60609,"LATTITUDE":41.80859263241939,"ADDRESS":"1253-1257 W 47TH ST 1ST ","YEAR":2013,"DOING_BUSINESS_AS_NAME":"THROOP AUTO REPAIRS CORP.","POP_AT_RISK":90480,"BUSINESS_TYPE":"Tire Facility Class II (1,001 - 5,000 Tires)","LEGAL_NAME":"THROOP AUTO REPAIRS CORP.","LONGITUDE":-87.65733492955451},
{"STATE":"IL","ZIP":60642,"LATTITUDE":41.89428863851654,"ADDRESS":"1005-1009 W HURON ST  ","YEAR":2013,"DOING_BUSINESS_AS_NAME":"CARSON'S TIRE SERVICE, INC.","POP_AT_RISK":154000,"BUSINESS_TYPE":"Tire Facility Class II (1,001 - 5,000 Tires)","LEGAL_NAME":"CARSON'S TIRE SERVICE, INC.","LONGITUDE":-87.65277046269584},
{"STATE":"IL","ZIP":60642,"LATTITUDE":41.903615728351234,"ADDRESS":"1201 - 1301 N ELSTON AVE 1ST ","YEAR":2013,"DOING_BUSINESS_AS_NAME":"MCGRATH ACURA OF DOWNTOWN CHICAGO","POP_AT_RISK":418264,"BUSINESS_TYPE":"Tire Facility Class II (1,001 - 5,000 Tires)","LEGAL_NAME":"MCGRATH DOWNTOWN AUTO, INC.","LONGITUDE":-87.65830285929677},
{"STATE":"IL","ZIP":60639,"LATTITUDE":41.909544842437064,"ADDRESS":"4655 W NORTH AVE  ","YEAR":2013,"DOING_BUSINESS_AS_NAME":"BIONIC AUTO PARTS & SALE INC","POP_AT_RISK":168372,"BUSINESS_TYPE":"Tire Facility Class II (1,001 - 5,000 Tires)","LEGAL_NAME":"BIONIC AUTO PARTS & SALE INC","LONGITUDE":-87.7433839232007},
{"STATE":"IL","ZIP":60707,"LATTITUDE":41.92365396933332,"ADDRESS":"7034 W GRAND AVE  1","YEAR":2013,"DOING_BUSINESS_AS_NAME":"GRAND TIRE & AUTO SERV INC","POP_AT_RISK":84038,"BUSINESS_TYPE":"Tire Facility Class II (1,001 - 5,000 Tires)","LEGAL_NAME":"GRAND TIRE & AUTO SERVICE INC","LONGITUDE":-87.80223515670508},
{"STATE":"IL","ZIP":60617,"LATTITUDE":41.719862723302185,"ADDRESS":"9651 S EWING AVE 1ST ","YEAR":2013,"DOING_BUSINESS_AS_NAME":"ARANDAS TIRE & RIMS-EWING","POP_AT_RISK":68160,"BUSINESS_TYPE":"Tire Facility Class II (1,001 - 5,000 Tires)","LEGAL_NAME":"ARANDAS TIRE & RIMS-EWING, INC.","LONGITUDE":-87.53514226733395},
{"STATE":"IL","ZIP":60639,"LATTITUDE":41.910981054661534,"ADDRESS":"4505-4511 W GRAND AVE 1ST ","YEAR":2013,"DOING_BUSINESS_AS_NAME":"ARANDAS TIRE & RIMS-GRAND","POP_AT_RISK":104362,"BUSINESS_TYPE":"Tire Facility Class II (1,001 - 5,000 Tires)","LEGAL_NAME":"ARANDAS TIRE & RIMS-GRAND, INC.","LONGITUDE":-87.73888242262089},
{"STATE":"IL","ZIP":60652,"LATTITUDE":41.73638928135282,"ADDRESS":"3949 W COLUMBUS AVE 1ST ","YEAR":2013,"DOING_BUSINESS_AS_NAME":"WILLIAM J CASSIDY TIRE SUPPLY","POP_AT_RISK":126165,"BUSINESS_TYPE":"Tire Facility Class II (1,001 - 5,000 Tires)","LEGAL_NAME":"WM. J. CASSIDY TIRE & AUTO SUPPLY CO.","LONGITUDE":-87.72026580406488},
{"STATE":"IL","ZIP":60707,"LATTITUDE":41.92348507066099,"ADDRESS":"6811 W GRAND AVE  ","YEAR":2013,"DOING_BUSINESS_AS_NAME":"THE PEP BOYS-MANNY,MOE & JACK","POP_AT_RISK":92660,"BUSINESS_TYPE":"Tire Facility Class II (1,001 - 5,000 Tires)","LEGAL_NAME":"THE PEP BOYS MANNY MOE & JACK OF CALIFORNIA (INC.)","LONGITUDE":-87.79569188276241},
{"STATE":"IL","ZIP":60641,"LATTITUDE":41.95666820403549,"ADDRESS":"4158-4168 N MILWAUKEE AVE  ","YEAR":2013,"DOING_BUSINESS_AS_NAME":"THE PEP BOYS MANNY, MOE & JACK","POP_AT_RISK":275920,"BUSINESS_TYPE":"Tire Facility Class II (1,001 - 5,000 Tires)","LEGAL_NAME":"THE PEP BOYS MANNY MOE & JACK OF CALIFORNIA (INC.)","LONGITUDE":-87.7512203636479},
{"STATE":"IL","ZIP":60647,"LATTITUDE":41.9289464428911,"ADDRESS":"2604 N ELSTON AVE  1","YEAR":2013,"DOING_BUSINESS_AS_NAME":"THE PEP BOYS-MANNY, MOE & JACK","POP_AT_RISK":543612,"BUSINESS_TYPE":"Tire Facility Class II (1,001 - 5,000 Tires)","LEGAL_NAME":"THE PEP BOYS MANNY MOE & JACK OF CALIFORNIA (INC.)","LONGITUDE":-87.68333099511413},
{"STATE":"IL","ZIP":60636,"LATTITUDE":41.784878332307144,"ADDRESS":"5959 S WESTERN AVE 1 ","YEAR":2013,"DOING_BUSINESS_AS_NAME":"THE PEP BOYS-MANNY,MOE & JACK STORE #990","POP_AT_RISK":680328,"BUSINESS_TYPE":"Tire Facility Class II (1,001 - 5,000 Tires)","LEGAL_NAME":"THE PEP BOYS MANNY MOE & JACK OF CALIFORNIA (INC.)","LONGITUDE":-87.68364769591146},
{}]