[
{"STATE":"IL","ZIP":60649,"LATTITUDE":41.760094191655675,"ADDRESS":"2706-08 E 75TH ST  ","YEAR":2005,"DOING_BUSINESS_AS_NAME":"KIDS COUNT TOO BABYLAND","POP_AT_RISK":266499,"BUSINESS_TYPE":"Day Care Center Under 2 Years","LEGAL_NAME":"VERONICA CLARK","LONGITUDE":-87.55842186343085},
{"STATE":"IL","ZIP":60619,"LATTITUDE":41.73826152379797,"ADDRESS":"8605-8607 S COTTAGE GROVE AVE 1ST ","YEAR":2005,"DOING_BUSINESS_AS_NAME":"THE BABY ACADEMY","POP_AT_RISK":461268,"BUSINESS_TYPE":"Day Care Center Under 2 Years","LEGAL_NAME":"THE BABY ACADEMY","LONGITUDE":-87.60472307634768},
{"STATE":"IL","ZIP":60624,"LATTITUDE":41.89444827833687,"ADDRESS":"730 N PULASKI RD  ","YEAR":2005,"DOING_BUSINESS_AS_NAME":"ORR INFANT & FAMILY DEVELOPMENT","POP_AT_RISK":563628,"BUSINESS_TYPE":"Day Care Center Under 2 Years","LEGAL_NAME":"HULL HOUSE  ASSOCIATION","LONGITUDE":-87.72620304790371},
{"STATE":"IL","ZIP":60628,"LATTITUDE":41.700693276783454,"ADDRESS":"10625 S HALSTED ST  ","YEAR":2005,"DOING_BUSINESS_AS_NAME":"BUSY BUMBLE BEE DAYCARE","POP_AT_RISK":60732,"BUSINESS_TYPE":"Day Care Center Under 2 Years","LEGAL_NAME":"RAYMOND DEMOND CURINGTON","LONGITUDE":-87.6424937176189},
{"STATE":"IL","ZIP":60632,"LATTITUDE":41.79875025743268,"ADDRESS":"5160 S PULASKI RD  1","YEAR":2005,"DOING_BUSINESS_AS_NAME":"TEDDY BEAR SERVICES CORP","POP_AT_RISK":407020,"BUSINESS_TYPE":"Day Care Center Under 2 Years","LEGAL_NAME":"TEDDY BEAR SERVICES CORP","LONGITUDE":-87.72346641018879},
{"STATE":"IL","ZIP":60616,"LATTITUDE":41.8554319990211,"ADDRESS":"2001 S MICHIGAN AVE  1ST","YEAR":2005,"DOING_BUSINESS_AS_NAME":"LOOP LEARNING CENTER, INC","POP_AT_RISK":126312,"BUSINESS_TYPE":"Day Care Center Under 2 Years","LEGAL_NAME":"LOOP LEARNING CENTER, INC","LONGITUDE":-87.62372821557055},
{"STATE":"IL","ZIP":60637,"LATTITUDE":41.77683643087399,"ADDRESS":"1447 E 65TH ST  ","YEAR":2005,"DOING_BUSINESS_AS_NAME":"T W O INFANT DAY CARE","POP_AT_RISK":519190,"BUSINESS_TYPE":"Day Care Center Under 2 Years","LEGAL_NAME":"THE WOODLAWN ORGANIZATION","LONGITUDE":-87.58901290826303},
{"STATE":"IL","ZIP":60636,"LATTITUDE":41.76877482214449,"ADDRESS":"1248 W 69TH ST  ","YEAR":2005,"DOING_BUSINESS_AS_NAME":"CHICAGO URBAN DAY SCHOOL INC","POP_AT_RISK":672576,"BUSINESS_TYPE":"Day Care Center Under 2 Years","LEGAL_NAME":"CHICAGO URBAN DAY SCHOOL INC","LONGITUDE":-87.65616134708598},
{"STATE":"IL","ZIP":60653,"LATTITUDE":41.81369470514084,"ADDRESS":"4445 S DREXEL BLVD 1TH ","YEAR":2005,"DOING_BUSINESS_AS_NAME":"CENTERS FOR NEW HORIZONS, INC.","POP_AT_RISK":686584,"BUSINESS_TYPE":"Day Care Center Under 2 Years","LEGAL_NAME":"CENTERS FOR NEW HORIZONS, INC.","LONGITUDE":-87.60383761063724},
{"STATE":"IL","ZIP":60628,"LATTITUDE":41.67044238066196,"ADDRESS":"725 W 123RD ST  1","YEAR":2005,"DOING_BUSINESS_AS_NAME":"POWER DAY CARE CENTER","POP_AT_RISK":154935,"BUSINESS_TYPE":"Day Care Center Under 2 Years","LEGAL_NAME":"POWER & LIGHT EVANGELISTIC CHU","LONGITUDE":-87.64040311382024},
{"STATE":"IL","ZIP":60607,"LATTITUDE":41.873209637371914,"ADDRESS":"630 S ASHLAND AVE  ","YEAR":2005,"DOING_BUSINESS_AS_NAME":"LAURENCE ARMOUR DAY SCHOOL","POP_AT_RISK":434954,"BUSINESS_TYPE":"Day Care Center Under 2 Years","LEGAL_NAME":"RUSH UNIVERSITY MEDICAL CENTER","LONGITUDE":-87.66672317705279},
{"STATE":"IL","ZIP":60607,"LATTITUDE":41.87340849289789,"ADDRESS":"657 S WELLS ST  ","YEAR":2005,"DOING_BUSINESS_AS_NAME":"Blocks Infant Toddler Childcare Center","POP_AT_RISK":73644,"BUSINESS_TYPE":"Day Care Center Under 2 Years","LEGAL_NAME":"BLOCKS 24 HR CHILDCARE CENTER, INC.","LONGITUDE":-87.63345761352204},
{"STATE":"IL","ZIP":60647,"LATTITUDE":41.9103196662774,"ADDRESS":"2818-20 W NORTH AVE  ","YEAR":2005,"DOING_BUSINESS_AS_NAME":"COZY CORNER CHILDCARE","POP_AT_RISK":1925127,"BUSINESS_TYPE":"Day Care Center Under 2 Years","LEGAL_NAME":"COZY CORNER CHILDCARE FACILITY, INC.","LONGITUDE":-87.69787842774888},
{"STATE":"IL","ZIP":60641,"LATTITUDE":41.946064744956374,"ADDRESS":"5332 - 5334 W ADDISON ST  ","YEAR":2005,"DOING_BUSINESS_AS_NAME":"PORTAGE PARK DAY NURSERY","POP_AT_RISK":646140,"BUSINESS_TYPE":"Day Care Center Under 2 Years","LEGAL_NAME":"MOSAIC EARLY CHILDHOOD ACADEMY, INC.","LONGITUDE":-87.76072227616888},
{"STATE":"IL","ZIP":60611,"LATTITUDE":41.89848890902573,"ADDRESS":"126 E CHESTNUT ST  1ST F","YEAR":2005,"DOING_BUSINESS_AS_NAME":"FOURTH CHURCH DAY SCHOOL","POP_AT_RISK":422060,"BUSINESS_TYPE":"Day Care Center Under 2 Years","LEGAL_NAME":"FOURTH PRESBYTERIAN CHURCH OF CHICAGO","LONGITUDE":-87.62455288409814},
{"STATE":"IL","ZIP":60628,"LATTITUDE":41.69262847127151,"ADDRESS":"401 E 111TH ST 1ST ","YEAR":2005,"DOING_BUSINESS_AS_NAME":"HAPPY HOLIDAY NURSERY & KINDERGARTEN","POP_AT_RISK":156558,"BUSINESS_TYPE":"Day Care Center Under 2 Years","LEGAL_NAME":"HAPPY HOLIDAY NURSERY & KINDERGARTEN, INC.","LONGITUDE":-87.6133140522167},
{"STATE":"IL","ZIP":60620,"LATTITUDE":41.74845026012511,"ADDRESS":"7954-7958 S WESTERN AVE  ","YEAR":2005,"DOING_BUSINESS_AS_NAME":"THE CHILDREN'S CENTER","POP_AT_RISK":171065,"BUSINESS_TYPE":"Day Care Center Under 2 Years","LEGAL_NAME":"CHILDREN'S CENTER FOR CREATIVE LEARNING INC","LONGITUDE":-87.68295412470142},
{"STATE":"IL","ZIP":60652,"LATTITUDE":41.749873806501896,"ADDRESS":"3450 - 3454 W 79TH ST  ","YEAR":2005,"DOING_BUSINESS_AS_NAME":"PATHWAYS TO LEARNING CHILD CARE CENTER","POP_AT_RISK":26415,"BUSINESS_TYPE":"Day Care Center Under 2 Years","LEGAL_NAME":"PATHWAYS TO LEARNING CHILD CARE CENTER INCORPORATED","LONGITUDE":-87.70931571203879},
{"STATE":"IL","ZIP":60623,"LATTITUDE":41.861003270876026,"ADDRESS":"1449 S KEELER AVE  ","YEAR":2005,"DOING_BUSINESS_AS_NAME":"OUR LADY OF LOURDES","POP_AT_RISK":494091,"BUSINESS_TYPE":"Day Care Center Under 2 Years","LEGAL_NAME":"THE CATHOLIC CHARITIES OF THE ARCHDIOCESE OF CHICAGO","LONGITUDE":-87.72976247742804},
{}]