[
{"STATE":"IL","ZIP":60805,"LATTITUDE":41.72268185847987,"ADDRESS":"9400 S WESTERN AVE  ","YEAR":2015,"DOING_BUSINESS_AS_NAME":"SAM'S CLUB # 6349","POP_AT_RISK":77250,"BUSINESS_TYPE":"Tobacco Dealer Wholesale","LEGAL_NAME":"SAM'S WEST, INC.","LONGITUDE":-87.68226541715002},
{"STATE":"IL","ZIP":60164,"LATTITUDE":41.91105247505761,"ADDRESS":"141 W NORTH AVE  ","YEAR":2015,"DOING_BUSINESS_AS_NAME":"SAM'S CLUB # 6358","POP_AT_RISK":1168002,"BUSINESS_TYPE":"Tobacco Dealer Wholesale","LEGAL_NAME":"SAM'S WEST, INC.","LONGITUDE":-87.63322876847005},
{"STATE":"IL","ZIP":60618,"LATTITUDE":41.94993755652151,"ADDRESS":"3761 N ELSTON AVE  ","YEAR":2015,"DOING_BUSINESS_AS_NAME":"ELSTON SELF SERVICE","POP_AT_RISK":831740,"BUSINESS_TYPE":"Tobacco Dealer Wholesale","LEGAL_NAME":"ELSTON SELF SERVICE","LONGITUDE":-87.7134548280642},
{"STATE":"WI","ZIP":53545,"LATTITUDE":42.007667271543255,"ADDRESS":"1733  MORSE ST  ","YEAR":2015,"DOING_BUSINESS_AS_NAME":"CHAMBERS & OWEN, INC.","POP_AT_RISK":1231136,"BUSINESS_TYPE":"Tobacco Dealer Wholesale","LEGAL_NAME":"CHAMBERS & OWEN, INC.","LONGITUDE":-87.67360153961387},
{"STATE":"IL","ZIP":60624,"LATTITUDE":41.880460999176385,"ADDRESS":"4525 W MADISON ST  ","YEAR":2015,"DOING_BUSINESS_AS_NAME":"DEARBORN WHOLESALE GROCERS","POP_AT_RISK":398970,"BUSINESS_TYPE":"Tobacco Dealer Wholesale","LEGAL_NAME":"DEARBORN WHOLESALE LLC","LONGITUDE":-87.73889657725695},
{"STATE":"IL","ZIP":60620,"LATTITUDE":41.750165222683236,"ADDRESS":"1835-1845 W 79TH ST  ","YEAR":2015,"DOING_BUSINESS_AS_NAME":"DEARBORN WHOLESALE GROCERS","POP_AT_RISK":347510,"BUSINESS_TYPE":"Tobacco Dealer Wholesale","LEGAL_NAME":"DEARBORN WHOLESALE LLC","LONGITUDE":-87.66963679219731},
{"STATE":"IL","ZIP":60659,"LATTITUDE":41.985078176592246,"ADDRESS":"5700 N WESTERN AVE 1ST ","YEAR":2015,"DOING_BUSINESS_AS_NAME":"FRIENDS WHOLE SALE INC.","POP_AT_RISK":499290,"BUSINESS_TYPE":"Tobacco Dealer Wholesale","LEGAL_NAME":"FRIENDS WHOLE SALE INC.","LONGITUDE":-87.68964167477249},
{"STATE":"IL","ZIP":60608,"LATTITUDE":41.84699099769368,"ADDRESS":"2455 S DAMEN AVE 1ST 100","YEAR":2015,"DOING_BUSINESS_AS_NAME":"DEARBORN MARKETPLACE INC.","POP_AT_RISK":67438,"BUSINESS_TYPE":"Tobacco Dealer Wholesale","LEGAL_NAME":"DEARBORN MARKETPLACE INC.","LONGITUDE":-87.67555861123635},
{"STATE":"IL","ZIP":60620,"LATTITUDE":41.74169192075343,"ADDRESS":"101 W 84TH ST 1ST ","YEAR":2015,"DOING_BUSINESS_AS_NAME":"BEST VALUE DISTRIBUTORS INC.","POP_AT_RISK":159320,"BUSINESS_TYPE":"Tobacco Dealer Wholesale","LEGAL_NAME":"BEST VALUE DISTRIBUTORS INC.","LONGITUDE":-87.62684750615163},
{"STATE":"IL","ZIP":60521,"LATTITUDE":41.85209967532158,"ADDRESS":"1901 W 22ND ST  1ST","YEAR":2015,"DOING_BUSINESS_AS_NAME":"COSTCO WHOLESALE","POP_AT_RISK":113271,"BUSINESS_TYPE":"Tobacco Dealer Wholesale","LEGAL_NAME":"COSTCO WHOLESALE CORPORATION","LONGITUDE":-87.67351036046561},
{"STATE":"IL","ZIP":60629,"LATTITUDE":41.76037749872514,"ADDRESS":"7300 S CICERO AVE  381","YEAR":2015,"DOING_BUSINESS_AS_NAME":"COSTCO WHOLESALE # 381","POP_AT_RISK":18876,"BUSINESS_TYPE":"Tobacco Dealer Wholesale","LEGAL_NAME":"COSTCO WHOLESALE CORPORATION","LONGITUDE":-87.74192003165926},
{"STATE":"IL","ZIP":60614,"LATTITUDE":41.93102100579779,"ADDRESS":"2746 N CLYBOURN AVE  ","YEAR":2015,"DOING_BUSINESS_AS_NAME":"Costco Wholesale # 380","POP_AT_RISK":1266541,"BUSINESS_TYPE":"Tobacco Dealer Wholesale","LEGAL_NAME":"COSTCO WHOLESALE CORPORATION","LONGITUDE":-87.6768640181342},
{"STATE":"IL","ZIP":60619,"LATTITUDE":41.75371285104864,"ADDRESS":"7729 S STATE ST 1ST 1NORTH","YEAR":2015,"DOING_BUSINESS_AS_NAME":"EXPRESS WHOLESALE GROCERS INC","POP_AT_RISK":219096,"BUSINESS_TYPE":"Tobacco Dealer Wholesale","LEGAL_NAME":"EXPRESS WHOLESALE GROCERS INC","LONGITUDE":-87.62447915530512},
{}]