[
{"STATE":"IL","ZIP":60616,"LATTITUDE":41.8308879918971,"ADDRESS":"702 W 35TH ST  ","YEAR":2006,"DOING_BUSINESS_AS_NAME":"YELLOW ROSE","POP_AT_RISK":35824,"BUSINESS_TYPE":"Massage Establishment","LEGAL_NAME":"YAN LIU","LONGITUDE":-87.64382257879583},
{"STATE":"IL","ZIP":60634,"LATTITUDE":41.94027309260876,"ADDRESS":"3314 N HARLEM AVE  ","YEAR":2006,"DOING_BUSINESS_AS_NAME":"EXLUSIVE STEPHANIE NAILS","POP_AT_RISK":82192,"BUSINESS_TYPE":"Massage Establishment","LEGAL_NAME":"LIDIA TOBYS","LONGITUDE":-87.80697418064285},
{"STATE":"IL","ZIP":60631,"LATTITUDE":41.98384692202371,"ADDRESS":"7622 W HIGGINS AVE 1ST ","YEAR":2006,"DOING_BUSINESS_AS_NAME":"SOYDA HOUSE OF BEAUTY","POP_AT_RISK":25306,"BUSINESS_TYPE":"Massage Establishment","LEGAL_NAME":"TERESA SOJDA","LONGITUDE":-87.8177797238041},
{"STATE":"IL","ZIP":60655,"LATTITUDE":41.69163646612976,"ADDRESS":"2557 W 111TH ST  ","YEAR":2006,"DOING_BUSINESS_AS_NAME":"TROPICAL SUNSATION","POP_AT_RISK":21672,"BUSINESS_TYPE":"Massage Establishment","LEGAL_NAME":"BOPPERS, INC.","LONGITUDE":-87.68570803207707},
{"STATE":"IL","ZIP":60641,"LATTITUDE":41.93608209790628,"ADDRESS":"3022 N PULASKI RD  ","YEAR":2006,"DOING_BUSINESS_AS_NAME":"ARIES MASSAGE","POP_AT_RISK":341150,"BUSINESS_TYPE":"Massage Establishment","LEGAL_NAME":"CARMEN Y WONG","LONGITUDE":-87.72724452413887},
{"STATE":"IL","ZIP":60608,"LATTITUDE":41.83734220361735,"ADDRESS":"3113 S ARCHER AVE  ","YEAR":2006,"DOING_BUSINESS_AS_NAME":"A J","POP_AT_RISK":60056,"BUSINESS_TYPE":"Massage Establishment","LEGAL_NAME":"JESUS AGUIRRE","LONGITUDE":-87.66607401895595},
{"STATE":"IL","ZIP":60618,"LATTITUDE":41.93637933112725,"ADDRESS":"3020 N KIMBALL AVE  ","YEAR":2006,"DOING_BUSINESS_AS_NAME":"GARRETT HYPNOSIS AND WELLNESS","POP_AT_RISK":63858,"BUSINESS_TYPE":"Massage Establishment","LEGAL_NAME":"LARRY GARRETT","LONGITUDE":-87.71254866327882},
{"STATE":"IL","ZIP":60616,"LATTITUDE":41.84225679712007,"ADDRESS":"2810 S WENTWORTH AVE 1 ","YEAR":2006,"DOING_BUSINESS_AS_NAME":"ALICE BEAUTY SALON","POP_AT_RISK":34296,"BUSINESS_TYPE":"Massage Establishment","LEGAL_NAME":"ALICE K. SZETO","LONGITUDE":-87.63193222658106},
{"STATE":"IL","ZIP":60632,"LATTITUDE":41.79850767912813,"ADDRESS":"5215 S KEDZIE AVE 1ST ","YEAR":2006,"DOING_BUSINESS_AS_NAME":"ALOE PLUS CORP","POP_AT_RISK":415752,"BUSINESS_TYPE":"Massage Establishment","LEGAL_NAME":"ALOE PLUS CORP","LONGITUDE":-87.70355219322796},
{"STATE":"IL","ZIP":60643,"LATTITUDE":41.68999960527153,"ADDRESS":"1701 W MONTEREY AVE  ","YEAR":2006,"DOING_BUSINESS_AS_NAME":"HAIKU SPA INC.","POP_AT_RISK":48826,"BUSINESS_TYPE":"Massage Establishment","LEGAL_NAME":"HAIKU SPA, INC.","LONGITUDE":-87.66478114253208},
{"STATE":"IL","ZIP":60620,"LATTITUDE":41.722287512571036,"ADDRESS":"9415 S WESTERN AVE  ","YEAR":2006,"DOING_BUSINESS_AS_NAME":"MASSAGE THERAPY","POP_AT_RISK":15450,"BUSINESS_TYPE":"Massage Establishment","LEGAL_NAME":"MASSAGE THERAPY","LONGITUDE":-87.68195995910473},
{"STATE":"IL","ZIP":60638,"LATTITUDE":41.79500378609395,"ADDRESS":"5995 S ARCHER AVE  ","YEAR":2006,"DOING_BUSINESS_AS_NAME":"THE HAIR CHANGERS","POP_AT_RISK":121955,"BUSINESS_TYPE":"Massage Establishment","LEGAL_NAME":"THERESA WOJCIAK","LONGITUDE":-87.76627532301852},
{"STATE":"IL","ZIP":60617,"LATTITUDE":41.72803591373235,"ADDRESS":"9204 S COMMERCIAL AVE  306","YEAR":2006,"DOING_BUSINESS_AS_NAME":"CREATIONS TOUCH","POP_AT_RISK":123914,"BUSINESS_TYPE":"Massage Establishment","LEGAL_NAME":"BARBARA A GODINA","LONGITUDE":-87.55135785246874},
{"STATE":"IL","ZIP":60639,"LATTITUDE":41.920541201538164,"ADDRESS":"6011 W GRAND AVE 1 ","YEAR":2006,"DOING_BUSINESS_AS_NAME":"DIVINE SPA","POP_AT_RISK":234300,"BUSINESS_TYPE":"Massage Establishment","LEGAL_NAME":"ROSA IDA MIRANDA","LONGITUDE":-87.77612463165815},
{"STATE":"IL","ZIP":60615,"LATTITUDE":41.79935282572433,"ADDRESS":"5305 S HARPER AVE 2ND ","YEAR":2006,"DOING_BUSINESS_AS_NAME":"THE MASSAGE THERAPY CENTER","POP_AT_RISK":38939,"BUSINESS_TYPE":"Massage Establishment","LEGAL_NAME":"ALMEDA MC PHERSON","LONGITUDE":-87.58894005149136},
{"STATE":"IL","ZIP":60656,"LATTITUDE":41.97268170360855,"ADDRESS":"5027 N HARLEM AVE  ","YEAR":2006,"DOING_BUSINESS_AS_NAME":"ORIENTAL BEAUTY SPA","POP_AT_RISK":30252,"BUSINESS_TYPE":"Massage Establishment","LEGAL_NAME":"BEAUTY BEST, INC.","LONGITUDE":-87.806929420057},
{"STATE":"IL","ZIP":60615,"LATTITUDE":41.807254392728545,"ADDRESS":"4800 S CHICAGO BEACH DR LOBBY 1000","YEAR":2006,"DOING_BUSINESS_AS_NAME":"WALTONS URBAN RETREAT","POP_AT_RISK":35334,"BUSINESS_TYPE":"Massage Establishment","LEGAL_NAME":"PATRICIA A WALTON","LONGITUDE":-87.5866743553796},
{"STATE":"IL","ZIP":60622,"LATTITUDE":41.90308051942857,"ADDRESS":"2556 W DIVISION ST  ","YEAR":2006,"DOING_BUSINESS_AS_NAME":"KM DAY SPA","POP_AT_RISK":67040,"BUSINESS_TYPE":"Massage Establishment","LEGAL_NAME":"PATRICIA A. TONEY","LONGITUDE":-87.69172244477599},
{"STATE":"IL","ZIP":60652,"LATTITUDE":41.75466012439374,"ADDRESS":"7601 S CICERO AVE  5581","YEAR":2006,"DOING_BUSINESS_AS_NAME":"RELAX CENTER","POP_AT_RISK":129110,"BUSINESS_TYPE":"Massage Establishment","LEGAL_NAME":"RELAX CENTER, INC.","LONGITUDE":-87.74138475860521},
{"STATE":"IL","ZIP":60634,"LATTITUDE":41.93665854813391,"ADDRESS":"3062 N CENTRAL AVE  ","YEAR":2006,"DOING_BUSINESS_AS_NAME":"AUM-V, INCORPORATED","POP_AT_RISK":141842,"BUSINESS_TYPE":"Massage Establishment","LEGAL_NAME":"AUM-V, INCORPORATED","LONGITUDE":-87.76657876692771},
{"STATE":"IL","ZIP":60629,"LATTITUDE":41.77861837124476,"ADDRESS":"3809 W 63RD ST  ","YEAR":2006,"DOING_BUSINESS_AS_NAME":"RENOVACIONES VALLEJO","POP_AT_RISK":459104,"BUSINESS_TYPE":"Massage Establishment","LEGAL_NAME":"RENOVACIONES VALLEJO","LONGITUDE":-87.71827863897089},
{"STATE":"IL","ZIP":60647,"LATTITUDE":41.918157529161064,"ADDRESS":"2017 N WESTERN AVE  ","YEAR":2006,"DOING_BUSINESS_AS_NAME":"JOY OF MASSAGE","POP_AT_RISK":115922,"BUSINESS_TYPE":"Massage Establishment","LEGAL_NAME":"ANTONIO MEDINA GARCIA","LONGITUDE":-87.68728145627222},
{"STATE":"IL","ZIP":60656,"LATTITUDE":41.978307146086195,"ADDRESS":"5441 N EAST RIVER RD  ","YEAR":2006,"DOING_BUSINESS_AS_NAME":"PAVILION SALON & SPA","POP_AT_RISK":63276,"BUSINESS_TYPE":"Massage Establishment","LEGAL_NAME":"ESCAPE TO BEAUTY, INC.","LONGITUDE":-87.84631557802447},
{"STATE":"IL","ZIP":60631,"LATTITUDE":42.017286150770815,"ADDRESS":"7504 N HARLEM AVE  ","YEAR":2006,"DOING_BUSINESS_AS_NAME":"NEW LOOK THERAPY, INC","POP_AT_RISK":56158,"BUSINESS_TYPE":"Massage Establishment","LEGAL_NAME":"NEW LOOK THERAPY, INC.","LONGITUDE":-87.80671760193259},
{"STATE":"IL","ZIP":60653,"LATTITUDE":41.809567038345826,"ADDRESS":"4655 S DR MARTIN LUTHER KING JR DR 1 105","YEAR":2006,"DOING_BUSINESS_AS_NAME":"HERBAL CONNECTION INC","POP_AT_RISK":591504,"BUSINESS_TYPE":"Massage Establishment","LEGAL_NAME":"HERBAL CONNECTION, INC.","LONGITUDE":-87.6164467757287},
{"STATE":"IL","ZIP":60622,"LATTITUDE":41.89557413519898,"ADDRESS":"2623 W CHICAGO AVE  1","YEAR":2006,"DOING_BUSINESS_AS_NAME":"LILIAN SALON & SPA, INC.","POP_AT_RISK":97834,"BUSINESS_TYPE":"Massage Establishment","LEGAL_NAME":"LILIAN SALON & SPA, INC.","LONGITUDE":-87.69273516064196},
{"STATE":"IL","ZIP":60659,"LATTITUDE":41.997531904503475,"ADDRESS":"3110 W DEVON AVE  ","YEAR":2006,"DOING_BUSINESS_AS_NAME":"EUROSPA","POP_AT_RISK":56479,"BUSINESS_TYPE":"Massage Establishment","LEGAL_NAME":"EURO MASSAGE CENTER, INC.","LONGITUDE":-87.70742852530599},
{"STATE":"IL","ZIP":60631,"LATTITUDE":42.01154951910313,"ADDRESS":"7257 W TOUHY AVE 103 ","YEAR":2006,"DOING_BUSINESS_AS_NAME":"EUROSPA","POP_AT_RISK":19160,"BUSINESS_TYPE":"Massage Establishment","LEGAL_NAME":"EURO MASSAGE CENTER, INC.","LONGITUDE":-87.8088829387666},
{"STATE":"IL","ZIP":60638,"LATTITUDE":41.79223321698213,"ADDRESS":"6842 W ARCHER AVE  ","YEAR":2006,"DOING_BUSINESS_AS_NAME":"THE BLOOMING LOTUS, CORP","POP_AT_RISK":75188,"BUSINESS_TYPE":"Massage Establishment","LEGAL_NAME":"THE BLOOMING LOTUS, CORP.","LONGITUDE":-87.7932838035596},
{"STATE":"IL","ZIP":60616,"LATTITUDE":41.85142090582133,"ADDRESS":"2251 S MICHIGAN AVE # 220","YEAR":2006,"DOING_BUSINESS_AS_NAME":"LILLIE ANN'S","POP_AT_RISK":35264,"BUSINESS_TYPE":"Massage Establishment","LEGAL_NAME":"LILLIE ANN'S, INCORPORATED","LONGITUDE":-87.62361901049307},
{"STATE":"IL","ZIP":60607,"LATTITUDE":41.86525703886182,"ADDRESS":"1304 S HALSTED ST  ","YEAR":2006,"DOING_BUSINESS_AS_NAME":"SEAN PATRICK'S SALON AND SPA","POP_AT_RISK":45304,"BUSINESS_TYPE":"Massage Establishment","LEGAL_NAME":"SEAN PATRICK'S CHICAGO, LLC","LONGITUDE":-87.64700825021443},
{"STATE":"IL","ZIP":60649,"LATTITUDE":41.766717593094455,"ADDRESS":"7040 S STONY ISLAND AVE  ","YEAR":2006,"DOING_BUSINESS_AS_NAME":"EPIPHANY SALON & SPA","POP_AT_RISK":201984,"BUSINESS_TYPE":"Massage Establishment","LEGAL_NAME":"EPIPHANY SALON AND SPA, P.C.","LONGITUDE":-87.586492428718},
{"STATE":"IL","ZIP":60646,"LATTITUDE":41.98861899750839,"ADDRESS":"5900 N MILWAUKEE AVE 1ST ","YEAR":2006,"DOING_BUSINESS_AS_NAME":"NORWOOD CLINIC MASSAGE THERAPY","POP_AT_RISK":29503,"BUSINESS_TYPE":"Massage Establishment","LEGAL_NAME":"NORWOOD MASSAGE & SKIN CARE IN","LONGITUDE":-87.77976965101413},
{"STATE":"IL","ZIP":60659,"LATTITUDE":41.99043308571075,"ADDRESS":"3360 W PETERSON AVE  C-D","YEAR":2006,"DOING_BUSINESS_AS_NAME":"SANELA  B SALON & DAY SPA.","POP_AT_RISK":31770,"BUSINESS_TYPE":"Massage Establishment","LEGAL_NAME":"SANELA B. SALON & DAY SPA LTD.","LONGITUDE":-87.7139256633381},
{"STATE":"IL","ZIP":60620,"LATTITUDE":41.72814388801822,"ADDRESS":"9101 S WESTERN AVE  1 & 2","YEAR":2006,"DOING_BUSINESS_AS_NAME":"Serenity Spa and Wellness, Inc.","POP_AT_RISK":27042,"BUSINESS_TYPE":"Massage Establishment","LEGAL_NAME":"SERENITY SPA AND WELLNESS, INC.","LONGITUDE":-87.6821399005298},
{"STATE":"IL","ZIP":60649,"LATTITUDE":41.76282399113583,"ADDRESS":"2522 E 73RD ST  ","YEAR":2006,"DOING_BUSINESS_AS_NAME":"A NATURAL TOUCH SPALON","POP_AT_RISK":142485,"BUSINESS_TYPE":"Massage Establishment","LEGAL_NAME":"DIONDA SHANTE JOHNSON - PUMPHREY","LONGITUDE":-87.56331583956722},
{"STATE":"IL","ZIP":60626,"LATTITUDE":42.01594471000577,"ADDRESS":"1445 W JARVIS AVE  ","YEAR":2006,"DOING_BUSINESS_AS_NAME":"LUMBAR LOUNGE","POP_AT_RISK":186888,"BUSINESS_TYPE":"Massage Establishment","LEGAL_NAME":"SUZEN COOK  MASSAGE THERAPY, INC.","LONGITUDE":-87.66789581133165},
{"STATE":"IL","ZIP":60619,"LATTITUDE":41.73894775730201,"ADDRESS":"8545 S COTTAGE GROVE AVE  ","YEAR":2006,"DOING_BUSINESS_AS_NAME":"SOUTH CENTRAL COMMUNITY SERVICES","POP_AT_RISK":461268,"BUSINESS_TYPE":"Massage Establishment","LEGAL_NAME":"SOUTH CENTRAL COMMUNITY SERVICES, INC.","LONGITUDE":-87.60474054067679},
{}]