[
{"STATE":"IL","ZIP":60622,"LATTITUDE":41.90472502386159,"ADDRESS":"1249 N ASHLAND AVE  ","YEAR":2005,"DOING_BUSINESS_AS_NAME":"BEAU BARRY","POP_AT_RISK":470680,"BUSINESS_TYPE":"Street Performer","LEGAL_NAME":"BEAU BARRY","LONGITUDE":-87.66738591230545},
{"STATE":"IL","ZIP":60612,"LATTITUDE":41.89021332206793,"ADDRESS":"3048 W FRANKLIN BLVD  1ST","YEAR":2005,"DOING_BUSINESS_AS_NAME":"FRANK NAVA","POP_AT_RISK":427500,"BUSINESS_TYPE":"Street Performer","LEGAL_NAME":"FRANK NAVA","LONGITUDE":-87.70356448815613},
{"STATE":"IL","ZIP":60707,"LATTITUDE":41.937658383143194,"ADDRESS":"7927 W BELMONT AVE  ","YEAR":2005,"DOING_BUSINESS_AS_NAME":"LISA YONKO","POP_AT_RISK":292560,"BUSINESS_TYPE":"Street Performer","LEGAL_NAME":"LISA YONKO","LONGITUDE":-87.8250073751887},
{"STATE":"IL","ZIP":60629,"LATTITUDE":41.77362427055366,"ADDRESS":"6559 S ALBANY AVE 2 ","YEAR":2005,"DOING_BUSINESS_AS_NAME":"KAREN OJEDA","POP_AT_RISK":108532,"BUSINESS_TYPE":"Street Performer","LEGAL_NAME":"KAREN OJEDA","LONGITUDE":-87.7004279891114},
{"STATE":"IL","ZIP":60634,"LATTITUDE":41.96023479739523,"ADDRESS":"6013 W MONTROSE AVE  ","YEAR":2005,"DOING_BUSINESS_AS_NAME":"NANCY MARLO","POP_AT_RISK":127818,"BUSINESS_TYPE":"Street Performer","LEGAL_NAME":"NANCY MARLO","LONGITUDE":-87.77754966192698},
{"STATE":"IL","ZIP":60634,"LATTITUDE":41.9499493662751,"ADDRESS":"3833 N NOTTINGHAM AVE  ","YEAR":2005,"DOING_BUSINESS_AS_NAME":"MISSION CRISTIAN ELIM CHURCH","POP_AT_RISK":80769,"BUSINESS_TYPE":"Street Performer","LEGAL_NAME":"RAY ALVAREZ","LONGITUDE":-87.80457677131378},
{"STATE":"IL","ZIP":60625,"LATTITUDE":41.96495402735299,"ADDRESS":"2436 W WILSON AVE  ","YEAR":2005,"DOING_BUSINESS_AS_NAME":"ROB MENDELL","POP_AT_RISK":104630,"BUSINESS_TYPE":"Street Performer","LEGAL_NAME":"ROB MENDELL","LONGITUDE":-87.69031045260894},
{"STATE":"IL","ZIP":60641,"LATTITUDE":41.944066684993416,"ADDRESS":"3445 N PULASKI RD  ","YEAR":2005,"DOING_BUSINESS_AS_NAME":"NINA M YONKO","POP_AT_RISK":636636,"BUSINESS_TYPE":"Street Performer","LEGAL_NAME":"NINA M YONKO","LONGITUDE":-87.72718224220021},
{"STATE":"IL","ZIP":60616,"LATTITUDE":41.841607168931134,"ADDRESS":"2900 S EMERALD AVE  ","YEAR":2005,"DOING_BUSINESS_AS_NAME":"ZEBANG LIANG","POP_AT_RISK":570780,"BUSINESS_TYPE":"Street Performer","LEGAL_NAME":"ZEBANG LIANG","LONGITUDE":-87.64529767818685},
{"STATE":"IL","ZIP":60619,"LATTITUDE":41.73586181447489,"ADDRESS":"826 E 87TH PL  ","YEAR":2005,"DOING_BUSINESS_AS_NAME":"ANTHONY BAITY","POP_AT_RISK":450626,"BUSINESS_TYPE":"Street Performer","LEGAL_NAME":"ANTHONY BAITY","LONGITUDE":-87.60365946719276},
{"STATE":"IL","ZIP":60643,"LATTITUDE":41.69854731597229,"ADDRESS":"10718 S SEELEY AVE  ","YEAR":2005,"DOING_BUSINESS_AS_NAME":"CHARMANE WARD","POP_AT_RISK":112584,"BUSINESS_TYPE":"Street Performer","LEGAL_NAME":"CHARMANE WARD","LONGITUDE":-87.67312325817672},
{"STATE":"IL","ZIP":60619,"LATTITUDE":41.75710062592496,"ADDRESS":"7539 S WABASH AVE  ","YEAR":2005,"DOING_BUSINESS_AS_NAME":"CORDERO CLARK","POP_AT_RISK":38469,"BUSINESS_TYPE":"Street Performer","LEGAL_NAME":"CORDERO CLARK","LONGITUDE":-87.62297842596577},
{"STATE":"IL","ZIP":60613,"LATTITUDE":41.96127188863186,"ADDRESS":"4350 N ASHLAND AVE  2","YEAR":2005,"DOING_BUSINESS_AS_NAME":"THOMAS FINLEY","POP_AT_RISK":1168256,"BUSINESS_TYPE":"Street Performer","LEGAL_NAME":"THOMAS FINLEY","LONGITUDE":-87.66939384592402},
{"STATE":"IL","ZIP":60642,"LATTITUDE":41.89533038605937,"ADDRESS":"1416 W SUPERIOR ST  ","YEAR":2005,"DOING_BUSINESS_AS_NAME":"GEORGE E. HEAD","POP_AT_RISK":50908,"BUSINESS_TYPE":"Street Performer","LEGAL_NAME":"GEORGE E. HEAD","LONGITUDE":-87.66311544589612},
{"STATE":"IL","ZIP":60628,"LATTITUDE":41.71465105763829,"ADDRESS":"9858 S DR MARTIN LUTHER KING JR DR  ","YEAR":2005,"DOING_BUSINESS_AS_NAME":"MILTON R. WARE","POP_AT_RISK":136308,"BUSINESS_TYPE":"Street Performer","LEGAL_NAME":"MILTON R. WARE","LONGITUDE":-87.61412056635395},
{"STATE":"IL","ZIP":60626,"LATTITUDE":42.00247608795565,"ADDRESS":"1721 W WALLEN AVE  ","YEAR":2005,"DOING_BUSINESS_AS_NAME":"BRAD E.STANLEY","POP_AT_RISK":164796,"BUSINESS_TYPE":"Street Performer","LEGAL_NAME":"BRAD E. STANLEY","LONGITUDE":-87.67359316163771},
{"STATE":"IL","ZIP":60629,"LATTITUDE":41.791633484132014,"ADDRESS":"3628 W 56TH ST  ","YEAR":2005,"DOING_BUSINESS_AS_NAME":"YESENIA MIRANDA","POP_AT_RISK":500166,"BUSINESS_TYPE":"Street Performer","LEGAL_NAME":"YESENIA MIRANDA","LONGITUDE":-87.71472373284583},
{"STATE":"IL","ZIP":60621,"LATTITUDE":41.77842330898274,"ADDRESS":"6340 S ABERDEEN ST  `","YEAR":2005,"DOING_BUSINESS_AS_NAME":"JABOWEN S DIXON","POP_AT_RISK":600848,"BUSINESS_TYPE":"Street Performer","LEGAL_NAME":"JABOWEN  S DIXON","LONGITUDE":-87.65218636472981},
{"STATE":"IL","ZIP":60629,"LATTITUDE":41.7755330983029,"ADDRESS":"6437 S KILPATRICK AVE  ","YEAR":2005,"DOING_BUSINESS_AS_NAME":"LEONEL LOEZA JR.","POP_AT_RISK":141210,"BUSINESS_TYPE":"Street Performer","LEGAL_NAME":"LEONEL LOEZA JR.","LONGITUDE":-87.73961115561566},
{"STATE":"IL","ZIP":60645,"LATTITUDE":42.015513753247824,"ADDRESS":"2927 W JARVIS AVE  ","YEAR":2005,"DOING_BUSINESS_AS_NAME":"ELIZABETH A. LAND","POP_AT_RISK":96172,"BUSINESS_TYPE":"Street Performer","LEGAL_NAME":"ELIZABETH A. LAND","LONGITUDE":-87.7030787692355},
{"STATE":"IL","ZIP":60601,"LATTITUDE":41.8877901722575,"ADDRESS":"233 E WACKER DR 25 2511","YEAR":2005,"DOING_BUSINESS_AS_NAME":"Wayne J. Mayfield","POP_AT_RISK":792246,"BUSINESS_TYPE":"Street Performer","LEGAL_NAME":"Wayne J. Mayfield","LONGITUDE":-87.62127871291348},
{"STATE":"IL","ZIP":60660,"LATTITUDE":41.99418019313973,"ADDRESS":"6165 N WINTHROP AVE  502","YEAR":2005,"DOING_BUSINESS_AS_NAME":"ANDREA L. PAKIESER","POP_AT_RISK":642730,"BUSINESS_TYPE":"Street Performer","LEGAL_NAME":"ANDREA L. PAKIESER","LONGITUDE":-87.65819415408602},
{"STATE":"IL","ZIP":60641,"LATTITUDE":41.948710076806506,"ADDRESS":"4919 W WARWICK AVE  ","YEAR":2005,"DOING_BUSINESS_AS_NAME":"RAUL FERNANDO VEGA CONEJO","POP_AT_RISK":489220,"BUSINESS_TYPE":"Street Performer","LEGAL_NAME":"RAUL FERNANDO VEGA","LONGITUDE":-87.75050952720694},
{"STATE":"IL","ZIP":60628,"LATTITUDE":41.695954775488296,"ADDRESS":"10909 S EDBROOKE AVE  ","YEAR":2005,"DOING_BUSINESS_AS_NAME":"RONNIE SELLERS JR.","POP_AT_RISK":200144,"BUSINESS_TYPE":"Street Performer","LEGAL_NAME":"RONNIE SELLERS JR.","LONGITUDE":-87.61941926564319},
{"STATE":"IL","ZIP":60619,"LATTITUDE":41.759855357141355,"ADDRESS":"7408 S PRAIRIE AVE 2ND ","YEAR":2005,"DOING_BUSINESS_AS_NAME":"RASHAWN  D   TRIPLETT","POP_AT_RISK":68172,"BUSINESS_TYPE":"Street Performer","LEGAL_NAME":"RASHAWN  D TRIPLETT","LONGITUDE":-87.6184899501148},
{"STATE":"IL","ZIP":60623,"LATTITUDE":41.864253236300215,"ADDRESS":"1309 S KEDZIE AVE  ","YEAR":2005,"DOING_BUSINESS_AS_NAME":"JOE EARL JACKSON JR","POP_AT_RISK":722790,"BUSINESS_TYPE":"Street Performer","LEGAL_NAME":"JOE EARL JACKSON JR.","LONGITUDE":-87.70545891080064},
{"STATE":"IL","ZIP":60607,"LATTITUDE":41.88657609813147,"ADDRESS":"1133 W FULTON MARKET   ","YEAR":2005,"DOING_BUSINESS_AS_NAME":"JOHN THOMAS WHEATLEY","POP_AT_RISK":175820,"BUSINESS_TYPE":"Street Performer","LEGAL_NAME":"JOHN THOMAS WHEATLEY","LONGITUDE":-87.65573469258315},
{"STATE":"IL","ZIP":60634,"LATTITUDE":41.95394396298941,"ADDRESS":"4029 N MELVINA AVE  ","YEAR":2005,"DOING_BUSINESS_AS_NAME":"OLEKSANDER TOKARENKO","POP_AT_RISK":78924,"BUSINESS_TYPE":"Street Performer","LEGAL_NAME":"OLEKSANDER TOKARENKO","LONGITUDE":-87.78155174388517},
{"STATE":"IL","ZIP":60625,"LATTITUDE":41.97056347118107,"ADDRESS":"4907 N WHIPPLE ST  ","YEAR":2005,"DOING_BUSINESS_AS_NAME":"VASIL PAVLOV NEICHEV","POP_AT_RISK":765370,"BUSINESS_TYPE":"Street Performer","LEGAL_NAME":"VASIL PAVLOV NEICHEV","LONGITUDE":-87.70472321075255},
{}]