[
{"STATE":"IL","ZIP":60616,"LATTITUDE":41.84671695664648,"ADDRESS":"2525 S MICHIGAN AVE  ","YEAR":2013,"DOING_BUSINESS_AS_NAME":"Standard Parking\/Mercy Hospital","POP_AT_RISK":169480,"BUSINESS_TYPE":"Valet Parking Operator","LEGAL_NAME":"SP PLUS CORPORATION","LONGITUDE":-87.62336972761213},
{"STATE":"IL","ZIP":60625,"LATTITUDE":41.968359543198794,"ADDRESS":"3940 W LAWRENCE AVE 1ST ","YEAR":2013,"DOING_BUSINESS_AS_NAME":"ADMIRAL THEATRE","POP_AT_RISK":336955,"BUSINESS_TYPE":"Valet Parking Operator","LEGAL_NAME":"ADMIRAL THEATRE, INC.","LONGITUDE":-87.72726653660831},
{"STATE":"IL","ZIP":60617,"LATTITUDE":41.726329231442904,"ADDRESS":"2320 E 93RD ST  ","YEAR":2013,"DOING_BUSINESS_AS_NAME":"FIRST CALSS VALET, INC\/ ADVOCATE TRINITY HOSPITAL","POP_AT_RISK":123864,"BUSINESS_TYPE":"Valet Parking Operator","LEGAL_NAME":"FIRST CLASS VALET, INC.","LONGITUDE":-87.56727090823563},
{"STATE":"IL","ZIP":60626,"LATTITUDE":42.008035998971195,"ADDRESS":"1330 W MORSE AVE  ","YEAR":2013,"DOING_BUSINESS_AS_NAME":"V.I.P. VALET SERVICES INC.- ACT ONE PUB CAFE","POP_AT_RISK":768492,"BUSINESS_TYPE":"Valet Parking Operator","LEGAL_NAME":"VIP VALET SERVICES INC.","LONGITUDE":-87.66497392358298},
{"STATE":"IL","ZIP":60660,"LATTITUDE":41.98357123084218,"ADDRESS":"1039 W BRYN MAWR AVE  ","YEAR":2013,"DOING_BUSINESS_AS_NAME":"USA PARKING SERVICES, LLC.\/ FRANCESCA BRYN MAWR","POP_AT_RISK":562600,"BUSINESS_TYPE":"Valet Parking Operator","LEGAL_NAME":"USA PARKING SERVICES, LLC.","LONGITUDE":-87.6567539303426},
{"STATE":"IL","ZIP":60631,"LATTITUDE":41.988741561740234,"ADDRESS":"7447 W TALCOTT AVE  ","YEAR":2013,"DOING_BUSINESS_AS_NAME":"ADVANTAGE VALET INC\/ RESURRECTION HOSPITAL","POP_AT_RISK":65232,"BUSINESS_TYPE":"Valet Parking Operator","LEGAL_NAME":"ADVANTAGE VALET PARKING INC","LONGITUDE":-87.81330905109448},
{"STATE":"IL","ZIP":60643,"LATTITUDE":41.714554470686906,"ADDRESS":"9831 S WESTERN AVE  ","YEAR":2013,"DOING_BUSINESS_AS_NAME":"ADVANTAGE VALET PARKING INC\/ ADVOCATE HEALTH CENTER","POP_AT_RISK":154826,"BUSINESS_TYPE":"Valet Parking Operator","LEGAL_NAME":"ADVANTAGE VALET PARKING INC","LONGITUDE":-87.68172059648889},
{"STATE":"IL","ZIP":60652,"LATTITUDE":41.75466012439374,"ADDRESS":"7601 S CICERO AVE  ","YEAR":2013,"DOING_BUSINESS_AS_NAME":"VALET PARKING AUTHORITY, LTD.\/ FORD CITY MALL","POP_AT_RISK":129110,"BUSINESS_TYPE":"Valet Parking Operator","LEGAL_NAME":"VALET PARKING AUTHORITY, LTD.","LONGITUDE":-87.74138475860521},
{"STATE":"IL","ZIP":60625,"LATTITUDE":41.96427235567267,"ADDRESS":"4539 N LINCOLN AVE  ","YEAR":2013,"DOING_BUSINESS_AS_NAME":"VALET PARKING AUTHORITY, LTD.\/ CAFE' 4539 dba GATHER CHICAGO","POP_AT_RISK":758772,"BUSINESS_TYPE":"Valet Parking Operator","LEGAL_NAME":"VALET PARKING AUTHORITY, LTD.","LONGITUDE":-87.68554256570745},
{"STATE":"IL","ZIP":60615,"LATTITUDE":41.80018633323197,"ADDRESS":"5225 S HARPER AVE  ","YEAR":2013,"DOING_BUSINESS_AS_NAME":"LAZ PARKING CHICAGO VALET, LLC\/ 5225 S. HARPER AVENUE","POP_AT_RISK":661963,"BUSINESS_TYPE":"Valet Parking Operator","LEGAL_NAME":"LAZ PARKING CHICAGO VALET, LLC","LONGITUDE":-87.5889182840831},
{"STATE":"IL","ZIP":60623,"LATTITUDE":41.845451414064215,"ADDRESS":"2528 S KEDZIE AVE  ","YEAR":2013,"DOING_BUSINESS_AS_NAME":"LAKE SHORE PARKING VALET SERVICES INC.\/MI TIERRA","POP_AT_RISK":809208,"BUSINESS_TYPE":"Valet Parking Operator","LEGAL_NAME":"LAKE SHORE PARKING VALET SERVICES INC.","LONGITUDE":-87.70521428516844},
{"STATE":"IL","ZIP":60647,"LATTITUDE":41.927613867517806,"ADDRESS":"2535 N CALIFORNIA AVE  ","YEAR":2013,"DOING_BUSINESS_AS_NAME":"LAKE SHORE PARKING VALET SERVICES INC.\/BUONA TERRA","POP_AT_RISK":280745,"BUSINESS_TYPE":"Valet Parking Operator","LEGAL_NAME":"LAKE SHORE PARKING VALET SERVICES INC.","LONGITUDE":-87.69734659725884},
{}]