[
{"STATE":"IL","ZIP":60613,"LATTITUDE":41.94878847107489,"ADDRESS":"3653-3655 N SHEFFIELD AVE  ","YEAR":2015,"DOING_BUSINESS_AS_NAME":"Murphy's Bleachers","POP_AT_RISK":81656,"BUSINESS_TYPE":"Caterer's Liquor License","LEGAL_NAME":"BLEACHERS, INC.","LONGITUDE":-87.65422911685373},
{"STATE":"IL","ZIP":60639,"LATTITUDE":41.91482042670598,"ADDRESS":"1900 N AUSTIN AVE 1 14E","YEAR":2015,"DOING_BUSINESS_AS_NAME":"COCINA FUSION","POP_AT_RISK":200148,"BUSINESS_TYPE":"Caterer's Liquor License","LEGAL_NAME":"COSMOSABOR INC.","LONGITUDE":-87.77555966968384},
{"STATE":"IL","ZIP":60607,"LATTITUDE":41.864681242184645,"ADDRESS":"733 W MAXWELL ST  ","YEAR":2015,"DOING_BUSINESS_AS_NAME":"LALO'S MEXICAN RESTAURANT","POP_AT_RISK":38248,"BUSINESS_TYPE":"Caterer's Liquor License","LEGAL_NAME":"GABI CABRERA, INC.","LONGITUDE":-87.64636585589753},
{"STATE":"IL","ZIP":60617,"LATTITUDE":41.74541895614782,"ADDRESS":"8218 S STONY ISLAND AVE # 1ST","YEAR":2015,"DOING_BUSINESS_AS_NAME":"CLARK CATERING, INC.","POP_AT_RISK":296847,"BUSINESS_TYPE":"Caterer's Liquor License","LEGAL_NAME":"CLARK CATERING, INC.","LONGITUDE":-87.58598341010826},
{"STATE":"IL","ZIP":60616,"LATTITUDE":41.849379215218015,"ADDRESS":"2373 S ARCHER AVE 1ST ","YEAR":2015,"DOING_BUSINESS_AS_NAME":"CONNIE'S PIZZA","POP_AT_RISK":71664,"BUSINESS_TYPE":"Caterer's Liquor License","LEGAL_NAME":"CONNIE'S PIZZA, INC.","LONGITUDE":-87.64105840223819},
{"STATE":"IL","ZIP":60657,"LATTITUDE":41.94619141735405,"ADDRESS":"3524 N CLARK ST 1 & 2 ","YEAR":2015,"DOING_BUSINESS_AS_NAME":"JOHN BARLEYCORN MEMORIAL PUB","POP_AT_RISK":165814,"BUSINESS_TYPE":"Caterer's Liquor License","LEGAL_NAME":"J. B. AT CLARK, INC.","LONGITUDE":-87.65587430311608},
{"STATE":"IL","ZIP":60659,"LATTITUDE":41.98660480263769,"ADDRESS":"5754 N WESTERN AVE 1ST ","YEAR":2015,"DOING_BUSINESS_AS_NAME":"CATERING BY MAX","POP_AT_RISK":468370,"BUSINESS_TYPE":"Caterer's Liquor License","LEGAL_NAME":"CATERING BY MAX'S, INC.","LONGITUDE":-87.68968911677794},
{"STATE":"IL","ZIP":60614,"LATTITUDE":41.92323686568482,"ADDRESS":"2250 N SHEFFIELD AVE  ","YEAR":2015,"DOING_BUSINESS_AS_NAME":"CHARTWELL'S DINING","POP_AT_RISK":509176,"BUSINESS_TYPE":"Caterer's Liquor License","LEGAL_NAME":"COMPASS GROUP USA, INC.","LONGITUDE":-87.65368542924351},
{"STATE":"IL","ZIP":60655,"LATTITUDE":41.70582355306317,"ADDRESS":"3901 W 103RD ST  ","YEAR":2015,"DOING_BUSINESS_AS_NAME":"GILHOOLEY'S GRANDE SALOON","POP_AT_RISK":114010,"BUSINESS_TYPE":"Caterer's Liquor License","LEGAL_NAME":"COMPASS GROUP USA, INC.","LONGITUDE":-87.71853994620498},
{"STATE":"IL","ZIP":60618,"LATTITUDE":41.94966455107424,"ADDRESS":"3737 N WESTERN AVE  ","YEAR":2015,"DOING_BUSINESS_AS_NAME":"PETE'S PIZZA","POP_AT_RISK":604920,"BUSINESS_TYPE":"Caterer's Liquor License","LEGAL_NAME":"SUPAROSSA ON WESTERN INC.","LONGITUDE":-87.68819214082336},
{"STATE":"IL","ZIP":60640,"LATTITUDE":41.966977535662984,"ADDRESS":"1463-1465 W LELAND AVE 1 ","YEAR":2015,"DOING_BUSINESS_AS_NAME":"BRIX CATERINIG & CONSULTING","POP_AT_RISK":1087995,"BUSINESS_TYPE":"Caterer's Liquor License","LEGAL_NAME":"BRIX CATERING & CONSULTING","LONGITUDE":-87.66663109705499},
{"STATE":"IL","ZIP":60639,"LATTITUDE":41.93098195995931,"ADDRESS":"6121 W DIVERSEY AVE # 1ST","YEAR":2015,"DOING_BUSINESS_AS_NAME":"LAGO BANQUETS","POP_AT_RISK":391286,"BUSINESS_TYPE":"Caterer's Liquor License","LEGAL_NAME":"LAGO VENTURES INCORPORATED","LONGITUDE":-87.77923471427376},
{"STATE":"IL","ZIP":60653,"LATTITUDE":41.81676172087383,"ADDRESS":"1001-1003 E 43RD ST 1ST ","YEAR":2015,"DOING_BUSINESS_AS_NAME":"NORMAN'S","POP_AT_RISK":292122,"BUSINESS_TYPE":"Caterer's Liquor License","LEGAL_NAME":"NORFLO HOLDING CORPORATION","LONGITUDE":-87.60178731861693},
{"STATE":"IL","ZIP":60639,"LATTITUDE":41.91706036515776,"ADDRESS":"4720 - 4726 W ARMITAGE AVE 1 ","YEAR":2015,"DOING_BUSINESS_AS_NAME":"GARDEN MANOR","POP_AT_RISK":905856,"BUSINESS_TYPE":"Caterer's Liquor License","LEGAL_NAME":"SARANECKI BROS. CATERING, INC.","LONGITUDE":-87.74456825581792},
{"STATE":"IL","ZIP":60634,"LATTITUDE":41.95304195595626,"ADDRESS":"6328-30 W IRVING PARK RD 1 ","YEAR":2015,"DOING_BUSINESS_AS_NAME":"GARDEN TERRACE","POP_AT_RISK":385101,"BUSINESS_TYPE":"Caterer's Liquor License","LEGAL_NAME":"SARANECKI BROS. CATERING, INC.","LONGITUDE":-87.7853004907991},
{"STATE":"IL","ZIP":60616,"LATTITUDE":41.83468535402639,"ADDRESS":"238 W 33RD ST 1ST & 2ND ","YEAR":2015,"DOING_BUSINESS_AS_NAME":"TURTLES","POP_AT_RISK":75322,"BUSINESS_TYPE":"Caterer's Liquor License","LEGAL_NAME":"3258 S. WELLS ST. RESTAURANT LLC","LONGITUDE":-87.63309454134783},
{"STATE":"IL","ZIP":60619,"LATTITUDE":41.72215178539514,"ADDRESS":"742 E 95TH ST  ","YEAR":2015,"DOING_BUSINESS_AS_NAME":"FANFARES CATERING","POP_AT_RISK":196704,"BUSINESS_TYPE":"Caterer's Liquor License","LEGAL_NAME":"FANFARES CATERING SERVICES, INC.","LONGITUDE":-87.60520403707496},
{"STATE":"IL","ZIP":60637,"LATTITUDE":41.78579095767523,"ADDRESS":"915 E 60TH ST 1ST ","YEAR":2015,"DOING_BUSINESS_AS_NAME":"ARAMARK","POP_AT_RISK":343719,"BUSINESS_TYPE":"Caterer's Liquor License","LEGAL_NAME":"ARAMARK EDUCATIONAL SERVICES, LLC","LONGITUDE":-87.60374468613567},
{"STATE":"IL","ZIP":60626,"LATTITUDE":42.00143763753833,"ADDRESS":"1125 W LOYOLA AVE  ","YEAR":2015,"DOING_BUSINESS_AS_NAME":"ARAMARK","POP_AT_RISK":786492,"BUSINESS_TYPE":"Caterer's Liquor License","LEGAL_NAME":"ARAMARK EDUCATIONAL SERVICES, LLC","LONGITUDE":-87.6596224593094},
{"STATE":"IL","ZIP":60618,"LATTITUDE":41.951897553868875,"ADDRESS":"3877 N ELSTON AVE  ","YEAR":2015,"DOING_BUSINESS_AS_NAME":"LEONA'S PIZZERIA","POP_AT_RISK":722755,"BUSINESS_TYPE":"Caterer's Liquor License","LEGAL_NAME":"ORIGINAL PIZZA, LLC SERIES ELSTON","LONGITUDE":-87.71631400456782},
{"STATE":"IL","ZIP":60612,"LATTITUDE":41.88743405025222,"ADDRESS":"324 N LEAVITT ST 1 ","YEAR":2015,"DOING_BUSINESS_AS_NAME":"FIREFLY EVENTS AND CATERING","POP_AT_RISK":37092,"BUSINESS_TYPE":"Caterer's Liquor License","LEGAL_NAME":"FIREFLY EVENTS AND CATERING, L.L.C.","LONGITUDE":-87.68184949426895},
{"STATE":"IL","ZIP":60649,"LATTITUDE":41.76660302216941,"ADDRESS":"7059 S SOUTH SHORE DR  ","YEAR":2015,"DOING_BUSINESS_AS_NAME":"THE PARROT CAGE","POP_AT_RISK":364947,"BUSINESS_TYPE":"Caterer's Liquor License","LEGAL_NAME":"FRIENDS OF WASHBURNE CULINARY INSTITUTE","LONGITUDE":-87.56632372273566},
{"STATE":"IL","ZIP":60612,"LATTITUDE":41.881241456803345,"ADDRESS":"1901 W MADISON ST 1-8 ","YEAR":2015,"DOING_BUSINESS_AS_NAME":"LEVY RESTAURANTS AT UNITED CENTER","POP_AT_RISK":77304,"BUSINESS_TYPE":"Caterer's Liquor License","LEGAL_NAME":"LEVY PREMIUM FOODSERVICE LIMITED PARTNERSHIP","LONGITUDE":-87.67428253395332},
{}]