[
  {
    "BUSINESS_TYPE": "Tobacco", 
    "LEGAL_NAME": "SANDRA ZAVALA", 
    "STATE": "IL", 
    "DOING_BUSINESS_AS_NAME": "LA FLOR DEL BARRIO PRODUCT", 
    "POP_AT_RISK": 35589, 
    "ZIP": 60632, 
    "ADDRESS": "3801 S KEDZIE AVE  1", 
    "YEAR": 2001, 
    "LONGITUDE": -87.704300216, 
    "LATTITUDE": 41.824360974
  }, 
  {
    "BUSINESS_TYPE": "Tobacco", 
    "LEGAL_NAME": "DOLLAR & UP,INC.", 
    "STATE": "IL", 
    "DOING_BUSINESS_AS_NAME": "DOLLAR AND UP", 
    "POP_AT_RISK": 71374, 
    "ZIP": 60629, 
    "ADDRESS": "5841  -5843 S KEDZIE AVE  1ST", 
    "YEAR": 2001, 
    "LONGITUDE": -87.703216713, 
    "LATTITUDE": 41.786848365
  }, 
  {
    "BUSINESS_TYPE": "Tobacco", 
    "LEGAL_NAME": "BEVERLY CIGAR COMPANY", 
    "STATE": "IL", 
    "DOING_BUSINESS_AS_NAME": "BEVERLY CIGAR CO", 
    "POP_AT_RISK": 21523, 
    "ZIP": 60643, 
    "ADDRESS": "10513 S WESTERN AVE 1ST", 
    "YEAR": 2001, 
    "LONGITUDE": -87.681343073, 
    "LATTITUDE": 41.702303526
  }, 
  {
    "BUSINESS_TYPE": "Tobacco", 
    "LEGAL_NAME": "D & H DOLLAR PLUS INC", 
    "STATE": "IL", 
    "DOING_BUSINESS_AS_NAME": "D & H DOLLAR PLUS", 
    "POP_AT_RISK": 55296, 
    "ZIP": 60629, 
    "ADDRESS": "5849 S PULASKI RD 1ST", 
    "YEAR": 2001, 
    "LONGITUDE": -87.722826528, 
    "LATTITUDE": 41.786299253
  }, 
  {
    "BUSINESS_TYPE": "Tobacco", 
    "LEGAL_NAME": "LAURA'S GROCERY INC", 
    "STATE": "IL", 
    "DOING_BUSINESS_AS_NAME": "LAURA'S GROCERY", 
    "POP_AT_RISK": 33524, 
    "ZIP": 60609, 
    "ADDRESS": "4758 S THROOP ST # 1", 
    "YEAR": 2001, 
    "LONGITUDE": -87.657776482, 
    "LATTITUDE": 41.806967233
  }, 
  {
    "BUSINESS_TYPE": "Tobacco", 
    "LEGAL_NAME": "LORRAINE STEPIEN", 
    "STATE": "IL", 
    "DOING_BUSINESS_AS_NAME": "LORRAINE STEPIEN", 
    "POP_AT_RISK": 54810, 
    "ZIP": 60622, 
    "ADDRESS": "1415 N WOOD ST 1ST", 
    "YEAR": 2001, 
    "LONGITUDE": -87.672348411, 
    "LATTITUDE": 41.907583209
  }, 
  {
    "BUSINESS_TYPE": "Tobacco", 
    "LEGAL_NAME": "SHREE RIDDHI DOLLAR BUY PLUS I", 
    "STATE": "IL", 
    "DOING_BUSINESS_AS_NAME": "K & S FOOD MART", 
    "POP_AT_RISK": 73733, 
    "ZIP": 60639, 
    "ADDRESS": "1854 N PULASKI RD 1ST", 
    "YEAR": 2001, 
    "LONGITUDE": -87.72664923, 
    "LATTITUDE": 41.915197345
  }, 
  {
    "BUSINESS_TYPE": "Tobacco", 
    "LEGAL_NAME": "D K & G INC", 
    "STATE": "IL", 
    "DOING_BUSINESS_AS_NAME": "J J PEPPERS", 
    "POP_AT_RISK": 88868, 
    "ZIP": 60657, 
    "ADDRESS": "1001 W BELMONT AVE 1ST", 
    "YEAR": 2001, 
    "LONGITUDE": -87.654161086, 
    "LATTITUDE": 41.939800984
  }, 
  {
    "BUSINESS_TYPE": "Tobacco", 
    "LEGAL_NAME": "MAL-NAJ CORPORATION", 
    "STATE": "IL", 
    "DOING_BUSINESS_AS_NAME": "WESTERN GAS MART", 
    "POP_AT_RISK": 55817, 
    "ZIP": 60609, 
    "ADDRESS": "2340 W 52ND ST 1ST", 
    "YEAR": 2001, 
    "LONGITUDE": -87.683516382, 
    "LATTITUDE": 41.798937536
  }, 
  {
    "BUSINESS_TYPE": "Tobacco", 
    "LEGAL_NAME": "7 DAY FOOD MART INC.", 
    "STATE": "IL", 
    "DOING_BUSINESS_AS_NAME": "7 DAY FOOD MART INC", 
    "POP_AT_RISK": 30366, 
    "ZIP": 60628, 
    "ADDRESS": "10634 S HALSTED ST", 
    "YEAR": 2001, 
    "LONGITUDE": -87.642777508, 
    "LATTITUDE": 41.700405992
  }, 
  {
    "BUSINESS_TYPE": "Tobacco", 
    "LEGAL_NAME": "SHOP N SAVE LIMITED", 
    "STATE": "IL", 
    "DOING_BUSINESS_AS_NAME": "SHOP N SAVE LTD", 
    "POP_AT_RISK": 27624, 
    "ZIP": 60638, 
    "ADDRESS": "6422 W 63RD ST  1", 
    "YEAR": 2001, 
    "LONGITUDE": -87.782336895, 
    "LATTITUDE": 41.777768668
  }, 
  {
    "BUSINESS_TYPE": "Tobacco", 
    "LEGAL_NAME": "ACCUTECH INC", 
    "STATE": "IL", 
    "DOING_BUSINESS_AS_NAME": "CLARK GAS STATION 1", 
    "POP_AT_RISK": 44092, 
    "ZIP": 60616, 
    "ADDRESS": "444 W 26TH ST 1ST", 
    "YEAR": 2001, 
    "LONGITUDE": -87.63841937, 
    "LATTITUDE": 41.845545172
  }, 
  {
    "BUSINESS_TYPE": "Tobacco", 
    "LEGAL_NAME": "CARNICERIA Y SUPERMERCADO LA", 
    "STATE": "IL", 
    "DOING_BUSINESS_AS_NAME": "CARNICERIA Y SUPERMERCADO LA", 
    "POP_AT_RISK": 21953, 
    "ZIP": 60617, 
    "ADDRESS": "10532 S EWING AVE", 
    "YEAR": 2001, 
    "LONGITUDE": -87.535431896, 
    "LATTITUDE": 41.70356407
  }, 
  {
    "BUSINESS_TYPE": "Tobacco", 
    "LEGAL_NAME": "ITEHAD INCORPORATED", 
    "STATE": "IL", 
    "DOING_BUSINESS_AS_NAME": "J&B SUBMAR1NE", 
    "POP_AT_RISK": 34909, 
    "ZIP": 60637, 
    "ADDRESS": "6315 S COTTAGE GROVE AVE 1", 
    "YEAR": 2001, 
    "LONGITUDE": -87.605772938, 
    "LATTITUDE": 41.779926504
  }, 
  {
    "BUSINESS_TYPE": "Tobacco", 
    "LEGAL_NAME": "MULTI-BUSINESS INC", 
    "STATE": "IL", 
    "DOING_BUSINESS_AS_NAME": "MULTI-BUSINESS INC", 
    "POP_AT_RISK": 29122, 
    "ZIP": 60619, 
    "ADDRESS": "9417 S STATE ST", 
    "YEAR": 2001, 
    "LONGITUDE": -87.623636973, 
    "LATTITUDE": 41.723005924
  }, 
  {
    "BUSINESS_TYPE": "Tobacco", 
    "LEGAL_NAME": "A & D QUICK STOP INC", 
    "STATE": "IL", 
    "DOING_BUSINESS_AS_NAME": "A & D QUICK STOP", 
    "POP_AT_RISK": 63142, 
    "ZIP": 60657, 
    "ADDRESS": "3130 N LAKE SHORE DR", 
    "YEAR": 2001, 
    "LONGITUDE": -87.637903131, 
    "LATTITUDE": 41.938579324
  }, 
  {
    "BUSINESS_TYPE": "Tobacco", 
    "LEGAL_NAME": "ZENON CASTRO", 
    "STATE": "IL", 
    "DOING_BUSINESS_AS_NAME": "LOS PANCHOS", 
    "POP_AT_RISK": 38184, 
    "ZIP": 60608, 
    "ADDRESS": "1314 W 31ST ST", 
    "YEAR": 2001, 
    "LONGITUDE": -87.659139366, 
    "LATTITUDE": 41.837978928
  }, 
  {
    "BUSINESS_TYPE": "Tobacco", 
    "LEGAL_NAME": "BARBARAWI BROTHERS INC", 
    "STATE": "IL", 
    "DOING_BUSINESS_AS_NAME": "MAY ST FOOD SHOP", 
    "POP_AT_RISK": 41548, 
    "ZIP": 60608, 
    "ADDRESS": "1843 S MAY ST 1ST", 
    "YEAR": 2001, 
    "LONGITUDE": -87.654666759, 
    "LATTITUDE": 41.856650727
  }, 
  {
    "BUSINESS_TYPE": "Tobacco", 
    "LEGAL_NAME": "REOLA CHARLESTON", 
    "STATE": "IL", 
    "DOING_BUSINESS_AS_NAME": "REOLA CHARLESTON", 
    "POP_AT_RISK": 18513, 
    "ZIP": 60619, 
    "ADDRESS": "1024 E 93RD ST", 
    "YEAR": 2001, 
    "LONGITUDE": -87.598570443, 
    "LATTITUDE": 41.725904541
  }, 
  {
    "BUSINESS_TYPE": "Tobacco", 
    "LEGAL_NAME": "AYMAN J AZAR", 
    "STATE": "IL", 
    "DOING_BUSINESS_AS_NAME": "BURLEY FOODS", 
    "POP_AT_RISK": 30331, 
    "ZIP": 60617, 
    "ADDRESS": "8361 S BURLEY AVE", 
    "YEAR": 2001, 
    "LONGITUDE": -87.545293615, 
    "LATTITUDE": 41.743008816
  }, 
  {
    "BUSINESS_TYPE": "Tobacco", 
    "LEGAL_NAME": "ALEXANDER J. AVAKIAN", 
    "STATE": "IL", 
    "DOING_BUSINESS_AS_NAME": "DOLLAR DAY'S PLUS", 
    "POP_AT_RISK": 69548, 
    "ZIP": 60639, 
    "ADDRESS": "4830 W DIVERSEY AVE 1ST", 
    "YEAR": 2001, 
    "LONGITUDE": -87.747866306, 
    "LATTITUDE": 41.931626891
  }, 
  {
    "BUSINESS_TYPE": "Tobacco", 
    "LEGAL_NAME": "KAYED YASIN", 
    "STATE": "IL", 
    "DOING_BUSINESS_AS_NAME": "THE STOGIE SHOPPE", 
    "POP_AT_RISK": 16758, 
    "ZIP": 60652, 
    "ADDRESS": "7601 S CICERO AVE", 
    "YEAR": 2001, 
    "LONGITUDE": -87.741384759, 
    "LATTITUDE": 41.754660124
  }, 
  {
    "BUSINESS_TYPE": "Tobacco", 
    "LEGAL_NAME": "FAROQ WAZWAZ", 
    "STATE": "IL", 
    "DOING_BUSINESS_AS_NAME": "HANI FOOD STORE", 
    "POP_AT_RISK": 29055, 
    "ZIP": 60620, 
    "ADDRESS": "9401 S ASHLAND AVE", 
    "YEAR": 2001, 
    "LONGITUDE": -87.662569845, 
    "LATTITUDE": 41.722943435
  }, 
  {
    "BUSINESS_TYPE": "Tobacco", 
    "LEGAL_NAME": "TOP DOLLAR PLUS, INC.", 
    "STATE": "IL", 
    "DOING_BUSINESS_AS_NAME": "TOP DOLLAR PLUS", 
    "POP_AT_RISK": 22258, 
    "ZIP": 60609, 
    "ADDRESS": "5401 S WENTWORTH AVE 1ST", 
    "YEAR": 2001, 
    "LONGITUDE": -87.630404924, 
    "LATTITUDE": 41.796234875
  }, 
  {
    "BUSINESS_TYPE": "Tobacco", 
    "LEGAL_NAME": "MOHAMMAD ZAHIR", 
    "STATE": "IL", 
    "DOING_BUSINESS_AS_NAME": "WOOD LAWN AMOCO", 
    "POP_AT_RISK": 45423, 
    "ZIP": 60653, 
    "ADDRESS": "1158 E 47TH ST 1ST", 
    "YEAR": 2001, 
    "LONGITUDE": -87.596955553, 
    "LATTITUDE": 41.809750334
  }, 
  {
    "BUSINESS_TYPE": "Tobacco", 
    "LEGAL_NAME": "BOCKWINKEL FOOD MARKETS, INC.", 
    "STATE": "IL", 
    "DOING_BUSINESS_AS_NAME": "BOCKWINKEL'S FOOD MARKET", 
    "POP_AT_RISK": 64861, 
    "ZIP": 60610, 
    "ADDRESS": "1313 N RITCHIE CT  1ST", 
    "YEAR": 2001, 
    "LONGITUDE": -87.626459679, 
    "LATTITUDE": 41.906293549
  }, 
  {
    "BUSINESS_TYPE": "Tobacco", 
    "LEGAL_NAME": "SORAT INC", 
    "STATE": "IL", 
    "DOING_BUSINESS_AS_NAME": "JOZO'S", 
    "POP_AT_RISK": 22378, 
    "ZIP": 60638, 
    "ADDRESS": "6400 S CICERO AVE 1ST", 
    "YEAR": 2001, 
    "LONGITUDE": -87.742372341, 
    "LATTITUDE": 41.776511601
  }, 
  {
    "BUSINESS_TYPE": "Tobacco", 
    "LEGAL_NAME": "CARNICERIA SANTIAGO PAPASQUIAR", 
    "STATE": "IL", 
    "DOING_BUSINESS_AS_NAME": "CARNICERIA SANTIAGO PAPASQUIAR", 
    "POP_AT_RISK": 49523, 
    "ZIP": 60639, 
    "ADDRESS": "6309 W GRAND AVE", 
    "YEAR": 2001, 
    "LONGITUDE": -87.78339752, 
    "LATTITUDE": 41.92189423
  }, 
  {
    "BUSINESS_TYPE": "Tobacco", 
    "LEGAL_NAME": "KIRT SUMMERVILLE", 
    "STATE": "IL", 
    "DOING_BUSINESS_AS_NAME": "SUMMERVILLE & SON LIQ", 
    "POP_AT_RISK": 27725, 
    "ZIP": 60628, 
    "ADDRESS": "635 -641 W 119TH ST 1ST", 
    "YEAR": 2001, 
    "LONGITUDE": -87.638438439, 
    "LATTITUDE": 41.677743266
  }, 
  {
    "BUSINESS_TYPE": "Tobacco", 
    "LEGAL_NAME": "CZERWONE JABLUSZKO REST INC", 
    "STATE": "IL", 
    "DOING_BUSINESS_AS_NAME": "CZERWONE JABLUSZKO RESTAURANT", 
    "POP_AT_RISK": 20191, 
    "ZIP": 60631, 
    "ADDRESS": "6474 N MILWAUKEE AVE", 
    "YEAR": 2001, 
    "LONGITUDE": -87.789541951, 
    "LATTITUDE": 41.998984373
  }, 
  {
    "BUSINESS_TYPE": "Tobacco", 
    "LEGAL_NAME": "E & J BEAUTY SUPPLY INC", 
    "STATE": "IL", 
    "DOING_BUSINESS_AS_NAME": "E & J BEAUTY SUPPLY INC", 
    "POP_AT_RISK": 39054, 
    "ZIP": 60644, 
    "ADDRESS": "5612 W MADISON ST  1ST", 
    "YEAR": 2001, 
    "LONGITUDE": -87.76543793, 
    "LATTITUDE": 41.880347429
  }, 
  {
    "BUSINESS_TYPE": "Tobacco", 
    "LEGAL_NAME": "BILLY H RICKS", 
    "STATE": "IL", 
    "DOING_BUSINESS_AS_NAME": "RICK'S", 
    "POP_AT_RISK": 33540, 
    "ZIP": 60652, 
    "ADDRESS": "3400 W 79TH ST", 
    "YEAR": 2001, 
    "LONGITUDE": -87.707348392, 
    "LATTITUDE": 41.749903242
  }, 
  {
    "BUSINESS_TYPE": "Tobacco", 
    "LEGAL_NAME": "6415 N CENTRAL SUPERMARKET INC", 
    "STATE": "IL", 
    "DOING_BUSINESS_AS_NAME": "HAPPY FOODS", 
    "POP_AT_RISK": 17956, 
    "ZIP": 60646, 
    "ADDRESS": "6415 N CENTRAL AVE", 
    "YEAR": 2001, 
    "LONGITUDE": -87.763445799, 
    "LATTITUDE": 41.997860014
  }, 
  {
    "BUSINESS_TYPE": "Tobacco", 
    "LEGAL_NAME": "KOP ENTERPRISES, INC", 
    "STATE": "IL", 
    "DOING_BUSINESS_AS_NAME": "LAREDO LANES", 
    "POP_AT_RISK": 20884, 
    "ZIP": 60652, 
    "ADDRESS": "3900 W COLUMBUS AVE", 
    "YEAR": 2001, 
    "LONGITUDE": -87.719167593, 
    "LATTITUDE": 41.737561017
  }, 
  {
    "BUSINESS_TYPE": "Tobacco", 
    "LEGAL_NAME": "OKE - DOKE INC", 
    "STATE": "IL", 
    "DOING_BUSINESS_AS_NAME": "OKE - DOKE INC", 
    "POP_AT_RISK": 39983, 
    "ZIP": 60609, 
    "ADDRESS": "1525 W 51ST ST 1ST", 
    "YEAR": 2001, 
    "LONGITUDE": -87.663497071, 
    "LATTITUDE": 41.801224245
  }, 
  {
    "BUSINESS_TYPE": "Tobacco", 
    "LEGAL_NAME": "S R T INC", 
    "STATE": "IL", 
    "DOING_BUSINESS_AS_NAME": "JACKSON FINER FOODS", 
    "POP_AT_RISK": 29459, 
    "ZIP": 60612, 
    "ADDRESS": "2458 W JACKSON BLVD 1ST", 
    "YEAR": 2001, 
    "LONGITUDE": -87.688641085, 
    "LATTITUDE": 41.877633287
  }, 
  {
    "BUSINESS_TYPE": "Tobacco", 
    "LEGAL_NAME": "J.M.PEREZ/R.CORONADO", 
    "STATE": "IL", 
    "DOING_BUSINESS_AS_NAME": "CARNICERIA&FRUTERIA EL MITOTE", 
    "POP_AT_RISK": 61496, 
    "ZIP": 60641, 
    "ADDRESS": "4459 W BELMONT AVE  1", 
    "YEAR": 2001, 
    "LONGITUDE": -87.739433803, 
    "LATTITUDE": 41.938819515
  }, 
  {
    "BUSINESS_TYPE": "Tobacco", 
    "LEGAL_NAME": "PARADISE SUPERMARKET INC", 
    "STATE": "IL", 
    "DOING_BUSINESS_AS_NAME": "PARADISE SUPERMARKET INC", 
    "POP_AT_RISK": 35793, 
    "ZIP": 60619, 
    "ADDRESS": "8101 S COTTAGE GROVE AVE", 
    "YEAR": 2001, 
    "LONGITUDE": -87.604985731, 
    "LATTITUDE": 41.747538448
  }, 
  {
    "BUSINESS_TYPE": "Tobacco", 
    "LEGAL_NAME": "NSRJH INC", 
    "STATE": "IL", 
    "DOING_BUSINESS_AS_NAME": "CITGO FOOD MART & GAS STATION", 
    "POP_AT_RISK": 9754, 
    "ZIP": 60634, 
    "ADDRESS": "8353 W IRVING PARK RD", 
    "YEAR": 2001, 
    "LONGITUDE": -87.836359197, 
    "LATTITUDE": 41.951939466
  }, 
  {
    "BUSINESS_TYPE": "Tobacco", 
    "LEGAL_NAME": "WARREN ROBINSON", 
    "STATE": "IL", 
    "DOING_BUSINESS_AS_NAME": "ROB'S", 
    "POP_AT_RISK": 41078, 
    "ZIP": 60619, 
    "ADDRESS": "7158 S WOODLAWN AVE 1ST", 
    "YEAR": 2001, 
    "LONGITUDE": -87.595952971, 
    "LATTITUDE": 41.764203476
  }, 
  {
    "BUSINESS_TYPE": "Tobacco", 
    "LEGAL_NAME": "95TH ST DOLLAR STORE INC", 
    "STATE": "IL", 
    "DOING_BUSINESS_AS_NAME": "95TH ST DOLLAR STORE INC", 
    "POP_AT_RISK": 20929, 
    "ZIP": 60617, 
    "ADDRESS": "2022 E 95TH ST 1ST", 
    "YEAR": 2001, 
    "LONGITUDE": -87.574374485, 
    "LATTITUDE": 41.722590368
  }, 
  {
    "BUSINESS_TYPE": "Tobacco", 
    "LEGAL_NAME": "JOZEF RUDZINSKI, INCORPORATED", 
    "STATE": "IL", 
    "DOING_BUSINESS_AS_NAME": "J & J EUROPEAN DELI", 
    "POP_AT_RISK": 39285, 
    "ZIP": 60630, 
    "ADDRESS": "5960 W LAWRENCE AVE # MAIN", 
    "YEAR": 2001, 
    "LONGITUDE": -87.777020204, 
    "LATTITUDE": 41.9677648
  }, 
  {
    "BUSINESS_TYPE": "Tobacco", 
    "LEGAL_NAME": "HYDE PARK CAR WASH INC", 
    "STATE": "IL", 
    "DOING_BUSINESS_AS_NAME": "HYDE PARK MOBIL", 
    "POP_AT_RISK": 40277, 
    "ZIP": 60615, 
    "ADDRESS": "1330 E 53RD ST", 
    "YEAR": 2001, 
    "LONGITUDE": -87.593761037, 
    "LATTITUDE": 41.799597869
  }, 
  {
    "BUSINESS_TYPE": "Tobacco", 
    "LEGAL_NAME": "SHREE SAI FOOD INC", 
    "STATE": "IL", 
    "DOING_BUSINESS_AS_NAME": "PORTAGE PARK MINI MART", 
    "POP_AT_RISK": 46139, 
    "ZIP": 60634, 
    "ADDRESS": "6001 W IRVING PARK RD 1ST", 
    "YEAR": 2001, 
    "LONGITUDE": -87.776829542, 
    "LATTITUDE": 41.952944455
  }
]