[
{"STATE":"IL","ZIP":60639,"LATTITUDE":41.93066028021275,"ADDRESS":"2723 N PULASKI RD  ","YEAR":2014,"DOING_BUSINESS_AS_NAME":"CANO AUTO ELECTRIC","POP_AT_RISK":238242,"BUSINESS_TYPE":"Hazardous Materials","LEGAL_NAME":"ONAC, INC.","LONGITUDE":-87.72680032541047},
{"STATE":"IL","ZIP":60615,"LATTITUDE":41.80209465985241,"ADDRESS":"60 E 51ST ST  ","YEAR":2014,"DOING_BUSINESS_AS_NAME":"ERIE VEHICLE CO","POP_AT_RISK":128448,"BUSINESS_TYPE":"Hazardous Materials","LEGAL_NAME":"ERIE VEHICLE CO","LONGITUDE":-87.62355599411882},
{"STATE":"IL","ZIP":60653,"LATTITUDE":41.815820960921016,"ADDRESS":"4333 S COTTAGE GROVE AVE  ","YEAR":2014,"DOING_BUSINESS_AS_NAME":"FEWER BOILER INC","POP_AT_RISK":561624,"BUSINESS_TYPE":"Hazardous Materials","LEGAL_NAME":"FEWER BOILER INC","LONGITUDE":-87.60654326348008},
{"STATE":"IL","ZIP":60639,"LATTITUDE":41.930727309734344,"ADDRESS":"4111 W PARKER AVE  ","YEAR":2014,"DOING_BUSINESS_AS_NAME":"PRIMROSE CANDY CO","POP_AT_RISK":68864,"BUSINESS_TYPE":"Hazardous Materials","LEGAL_NAME":"PRIMROSE CANDY CO","LONGITUDE":-87.72985278609235},
{"STATE":"IL","ZIP":60655,"LATTITUDE":41.70201325293075,"ADDRESS":"10522 S CALIFORNIA AVE  ","YEAR":2014,"DOING_BUSINESS_AS_NAME":"RIDGE COUNTRY CLUB","POP_AT_RISK":99942,"BUSINESS_TYPE":"Hazardous Materials","LEGAL_NAME":"RIDGE COUNTRY CLUB","LONGITUDE":-87.69152350224961},
{"STATE":"IL","ZIP":60639,"LATTITUDE":41.916094738445665,"ADDRESS":"1950 N NARRAGANSETT AVE  1ST","YEAR":2014,"DOING_BUSINESS_AS_NAME":"BONE ROOFING SUPPLY INC","POP_AT_RISK":193008,"BUSINESS_TYPE":"Hazardous Materials","LEGAL_NAME":"BONE ROOFING SUPPLY INC","LONGITUDE":-87.7853711510009},
{"STATE":"IL","ZIP":60644,"LATTITUDE":41.87300708305799,"ADDRESS":"4815-4835 W HARRISON ST 1ST ","YEAR":2014,"DOING_BUSINESS_AS_NAME":"FLOOD BROS DISPOSAL CO.","POP_AT_RISK":572988,"BUSINESS_TYPE":"Hazardous Materials","LEGAL_NAME":"FLOOD BROS DISPOSAL CO.","LONGITUDE":-87.74561870901451},
{"STATE":"IL","ZIP":60609,"LATTITUDE":41.823484063651094,"ADDRESS":"1036 - 1100 W PERSHING RD  ","YEAR":2014,"DOING_BUSINESS_AS_NAME":"RYDER TRUCK RENTAL, INC.","POP_AT_RISK":173341,"BUSINESS_TYPE":"Hazardous Materials","LEGAL_NAME":"RYDER TRUCK RENTAL, INC.","LONGITUDE":-87.65218244995259},
{"STATE":"IL","ZIP":60655,"LATTITUDE":41.70516058285971,"ADDRESS":"10323 S PULASKI RD 1ST ","YEAR":2014,"DOING_BUSINESS_AS_NAME":"C D ONE PRICE CLEANERS","POP_AT_RISK":91208,"BUSINESS_TYPE":"Hazardous Materials","LEGAL_NAME":"3951 W. 103RD STREET, LLC","LONGITUDE":-87.7207437519005},
{"STATE":"IL","ZIP":60639,"LATTITUDE":41.909544842437064,"ADDRESS":"4655 W NORTH AVE  ","YEAR":2014,"DOING_BUSINESS_AS_NAME":"BIONIC AUTO PARTS & SALE INC","POP_AT_RISK":168372,"BUSINESS_TYPE":"Hazardous Materials","LEGAL_NAME":"BIONIC AUTO PARTS & SALE INC","LONGITUDE":-87.7433839232007},
{"STATE":"IL","ZIP":60642,"LATTITUDE":41.89723528909123,"ADDRESS":"1071 W FRY ST 1ST ","YEAR":2014,"DOING_BUSINESS_AS_NAME":"CENTRAL BUILDING & PRESERVATION L.P.","POP_AT_RISK":625324,"BUSINESS_TYPE":"Hazardous Materials","LEGAL_NAME":"CENTRAL BUILDING & PRESERVATION L.P.","LONGITUDE":-87.65457997023785},
{"STATE":"IL","ZIP":60655,"LATTITUDE":41.691031666973096,"ADDRESS":"4401 W 111TH ST GROUND ","YEAR":2014,"DOING_BUSINESS_AS_NAME":"ST. CASIMIR CEMETERY","POP_AT_RISK":48795,"BUSINESS_TYPE":"Hazardous Materials","LEGAL_NAME":"CATHOLIC CHURCH ARCHDIOCESE OF CHICAGO","LONGITUDE":-87.73010297363676},
{}]