[
{"STATE":"IL","ZIP":60633,"LATTITUDE":41.64968175814829,"ADDRESS":"13511 S BRANDON AVE 1ST ","YEAR":2015,"DOING_BUSINESS_AS_NAME":"RIGHT WAY SEWER","POP_AT_RISK":4206,"BUSINESS_TYPE":"Regulated Business License","LEGAL_NAME":"ERIC M LIVAK","LONGITUDE":-87.54578298947494},
{"STATE":"IL","ZIP":60666,"LATTITUDE":42.008536400868735,"ADDRESS":"11601 W TOUHY AVE  ","YEAR":2015,"DOING_BUSINESS_AS_NAME":"HILTON O'HARE","POP_AT_RISK":4956,"BUSINESS_TYPE":"Regulated Business License","LEGAL_NAME":"HLT O'HARE LLC","LONGITUDE":-87.91442843927047},
{"STATE":"IL","ZIP":60827,"LATTITUDE":41.64904034702786,"ADDRESS":"222 E 135TH PL 1 1","YEAR":2015,"DOING_BUSINESS_AS_NAME":"RESOURCE CTR-RIVERFRONT RECYCLE","POP_AT_RISK":8913,"BUSINESS_TYPE":"Regulated Business License","LEGAL_NAME":"RESOURCE CENTER","LONGITUDE":-87.61633793613352},
{"STATE":"IL","ZIP":60643,"LATTITUDE":41.661546932468255,"ADDRESS":"858 W VERMONT ST  ","YEAR":2015,"DOING_BUSINESS_AS_NAME":"KENTECH HEATING AND COOLING","POP_AT_RISK":16834,"BUSINESS_TYPE":"Regulated Business License","LEGAL_NAME":"KENNETH EARL JONES","LONGITUDE":-87.64371119366193},
{"STATE":"IL","ZIP":60652,"LATTITUDE":41.73468934477875,"ADDRESS":"4608 W 87TH ST 1 ","YEAR":2015,"DOING_BUSINESS_AS_NAME":"Toman Consulting Inc.","POP_AT_RISK":56674,"BUSINESS_TYPE":"Regulated Business License","LEGAL_NAME":"Toman Consulting Inc.","LONGITUDE":-87.73642242275852},
{"STATE":"IL","ZIP":60644,"LATTITUDE":41.86565488609488,"ADDRESS":"5730 W ROOSEVELT RD  ","YEAR":2015,"DOING_BUSINESS_AS_NAME":"HARTGROVE HOSPITAL","POP_AT_RISK":241435,"BUSINESS_TYPE":"Regulated Business License","LEGAL_NAME":"UHS OF HARTGROVE, INC.","LONGITUDE":-87.76805077897151},
{"STATE":"IL","ZIP":60633,"LATTITUDE":41.65633977866091,"ADDRESS":"13132 S HOUSTON AVE 1ST ","YEAR":2015,"DOING_BUSINESS_AS_NAME":"IMMACULATE CLEANING SERVICES","POP_AT_RISK":9426,"BUSINESS_TYPE":"Regulated Business License","LEGAL_NAME":"ANGELICA M. LEON HERNANDEZ","LONGITUDE":-87.548517786399},
{"STATE":"IL","ZIP":60644,"LATTITUDE":41.88201959469414,"ADDRESS":"5927 W WASHINGTON BLVD 3 ","YEAR":2015,"DOING_BUSINESS_AS_NAME":"RM REID & ASSOCIATES INC.","POP_AT_RISK":42195,"BUSINESS_TYPE":"Regulated Business License","LEGAL_NAME":"RM REID & ASSOCIATES, INC.","LONGITUDE":-87.7730418905378},
{"STATE":"IL","ZIP":60655,"LATTITUDE":41.691031666973096,"ADDRESS":"4401 W 111TH ST GROUND ","YEAR":2015,"DOING_BUSINESS_AS_NAME":"ST. CASIMIR CEMETERY","POP_AT_RISK":16265,"BUSINESS_TYPE":"Regulated Business License","LEGAL_NAME":"CATHOLIC CHURCH ARCHDIOCESE OF CHICAGO","LONGITUDE":-87.73010297363676},
{"STATE":"IL","ZIP":60655,"LATTITUDE":41.67788984281194,"ADDRESS":"11841 S ARTESIAN AVE  ","YEAR":2015,"DOING_BUSINESS_AS_NAME":"RESURRECTION PROPERTY SERVICE HEATING AND AIR CO.","POP_AT_RISK":19493,"BUSINESS_TYPE":"Regulated Business License","LEGAL_NAME":"RESURRECTION PROPERTY SERVICE HEATING AND AIR CO.","LONGITUDE":-87.68180057712748},
{}]