[
{"STATE":"IL","ZIP":60628,"LATTITUDE":41.704322007345716,"ADDRESS":"10436 S PRAIRIE AVE  ","YEAR":2011,"DOING_BUSINESS_AS_NAME":"David Koen","POP_AT_RISK":25573,"BUSINESS_TYPE":"Peddler, food (fruits and vegtables only)","LEGAL_NAME":"David Koen","LONGITUDE":-87.6174915358198},
{"STATE":"IL","ZIP":60644,"LATTITUDE":41.87493430097376,"ADDRESS":"4715 W VAN BUREN ST  ","YEAR":2011,"DOING_BUSINESS_AS_NAME":"DEVON DAVIS","POP_AT_RISK":37608,"BUSINESS_TYPE":"Peddler, food (fruits and vegtables only)","LEGAL_NAME":"DEVON DAVIS","LONGITUDE":-87.7432825231279},
{"STATE":"IL","ZIP":60609,"LATTITUDE":41.807662005385204,"ADDRESS":"4734 S ELIZABETH ST  ","YEAR":2011,"DOING_BUSINESS_AS_NAME":"DAVID ENCISO","POP_AT_RISK":31553,"BUSINESS_TYPE":"Peddler, food (fruits and vegtables only)","LEGAL_NAME":"DAVID ENCISO","LONGITUDE":-87.65657992801899},
{"STATE":"IL","ZIP":60644,"LATTITUDE":41.8920375336065,"ADDRESS":"5810 W ERIE ST  ","YEAR":2011,"DOING_BUSINESS_AS_NAME":"JAMES T BLUE","POP_AT_RISK":49046,"BUSINESS_TYPE":"Peddler, food (fruits and vegtables only)","LEGAL_NAME":"JAMES T BLUE","LONGITUDE":-87.77053513084724},
{"STATE":"IL","ZIP":60619,"LATTITUDE":41.74138610320092,"ADDRESS":"934 E 84TH PL  A","YEAR":2011,"DOING_BUSINESS_AS_NAME":"WARREN AVERY","POP_AT_RISK":76578,"BUSINESS_TYPE":"Peddler, food (fruits and vegtables only)","LEGAL_NAME":"WARREN AVERY","LONGITUDE":-87.60116787130296},
{"STATE":"IL","ZIP":60615,"LATTITUDE":41.801437747703055,"ADDRESS":"5117 S WABASH AVE 2 ","YEAR":2011,"DOING_BUSINESS_AS_NAME":"BERNARD SMITH","POP_AT_RISK":149856,"BUSINESS_TYPE":"Peddler, food (fruits and vegtables only)","LEGAL_NAME":"BERNARD SMITH","LONGITUDE":-87.62411249502317},
{"STATE":"IL","ZIP":60707,"LATTITUDE":41.92972324122959,"ADDRESS":"2725 N NEVA AVE  ","YEAR":2011,"DOING_BUSINESS_AS_NAME":"LUIGI ADDANTE","POP_AT_RISK":203252,"BUSINESS_TYPE":"Peddler, food (fruits and vegtables only)","LEGAL_NAME":"LUIGI ADDANTE","LONGITUDE":-87.80508781506443},
{"STATE":"IL","ZIP":60617,"LATTITUDE":41.740881220966536,"ADDRESS":"8500 S MUSKEGON AVE  ","YEAR":2011,"DOING_BUSINESS_AS_NAME":"DEBRA A. NICKS","POP_AT_RISK":109359,"BUSINESS_TYPE":"Peddler, food (fruits and vegtables only)","LEGAL_NAME":"DEBRA A. NICKS","LONGITUDE":-87.55527809714098},
{"STATE":"IL","ZIP":60608,"LATTITUDE":41.84279918124978,"ADDRESS":"2833 S ARCHER AVE 2ND ","YEAR":2011,"DOING_BUSINESS_AS_NAME":"FEDERICO TAPIA","POP_AT_RISK":125715,"BUSINESS_TYPE":"Peddler, food (fruits and vegtables only)","LEGAL_NAME":"FEDERICO TAPIA","LONGITUDE":-87.65529373998227},
{"STATE":"IL","ZIP":60629,"LATTITUDE":41.763450660473616,"ADDRESS":"3542 W 71ST PL  ","YEAR":2011,"DOING_BUSINESS_AS_NAME":"ROSA M. GUZMAN","POP_AT_RISK":34004,"BUSINESS_TYPE":"Peddler, food (fruits and vegtables only)","LEGAL_NAME":"ROSA M. GUZMAN","LONGITUDE":-87.71181149812033},
{"STATE":"IN","ZIP":46327,"LATTITUDE":41.94733722300029,"ADDRESS":"3601  SHEFFIELD AVE  88","YEAR":2011,"DOING_BUSINESS_AS_NAME":"YADIRA RAMIREZ","POP_AT_RISK":2178675,"BUSINESS_TYPE":"Peddler, food (fruits and vegtables only)","LEGAL_NAME":"YADIRA RAMIREZ","LONGITUDE":-87.65418633739488},
{"STATE":"IL","ZIP":60620,"LATTITUDE":41.74435968188464,"ADDRESS":"8220 S ELIZABETH ST 2ND ","YEAR":2011,"DOING_BUSINESS_AS_NAME":"ANDREA C. SMITH","POP_AT_RISK":121659,"BUSINESS_TYPE":"Peddler, food (fruits and vegtables only)","LEGAL_NAME":"ANDREA C. SMITH","LONGITUDE":-87.654934662638},
{"STATE":"IL","ZIP":60617,"LATTITUDE":41.749422563456335,"ADDRESS":"8013 S PHILLIPS AVE 1ST ","YEAR":2011,"DOING_BUSINESS_AS_NAME":"CHARLEY CARROLL","POP_AT_RISK":34051,"BUSINESS_TYPE":"Peddler, food (fruits and vegtables only)","LEGAL_NAME":"CHARLEY CARROLL","LONGITUDE":-87.5648359299573},
{"STATE":"IL","ZIP":60623,"LATTITUDE":41.8460938480936,"ADDRESS":"4306 W 25TH ST  ","YEAR":2011,"DOING_BUSINESS_AS_NAME":"GRISELDA FLORES","POP_AT_RISK":47984,"BUSINESS_TYPE":"Peddler, food (fruits and vegtables only)","LEGAL_NAME":"GRISELDA FLORES","LONGITUDE":-87.73143564909104},
{"STATE":"IL","ZIP":60644,"LATTITUDE":41.87936385338038,"ADDRESS":"5572 W MONROE ST 2 206","YEAR":2011,"DOING_BUSINESS_AS_NAME":"LESLIE WILLIAMS","POP_AT_RISK":93266,"BUSINESS_TYPE":"Peddler, food (fruits and vegtables only)","LEGAL_NAME":"LESLIE WILLIAMS","LONGITUDE":-87.76460627389659},
{"STATE":"IL","ZIP":60612,"LATTITUDE":41.88206863158385,"ADDRESS":"2125 W WARREN BLVD 1ST 1","YEAR":2011,"DOING_BUSINESS_AS_NAME":"MICHAEL D AVERY","POP_AT_RISK":31656,"BUSINESS_TYPE":"Peddler, food (fruits and vegtables only)","LEGAL_NAME":"MICHAEL D AVERY","LONGITUDE":-87.68013011731564},
{"STATE":"IL","ZIP":60629,"LATTITUDE":41.76258640220072,"ADDRESS":"3416 W 72ND ST 1 ","YEAR":2011,"DOING_BUSINESS_AS_NAME":"WENDY M. CAUSEY","POP_AT_RISK":30822,"BUSINESS_TYPE":"Peddler, food (fruits and vegtables only)","LEGAL_NAME":"WENDY M. CAUSEY","LONGITUDE":-87.70838044647353},
{"STATE":"IL","ZIP":60620,"LATTITUDE":41.72347876320298,"ADDRESS":"9356 S LOWE AVE  ","YEAR":2011,"DOING_BUSINESS_AS_NAME":"DONNELL WILLIAMS","POP_AT_RISK":59538,"BUSINESS_TYPE":"Peddler, food (fruits and vegtables only)","LEGAL_NAME":"DONNELL WILLIAMS","LONGITUDE":-87.63977333661444},
{"STATE":"IL","ZIP":60643,"LATTITUDE":41.695212098174196,"ADDRESS":"10925 S RACINE AVE  ","YEAR":2011,"DOING_BUSINESS_AS_NAME":"KENNETH C. HARDY","POP_AT_RISK":73617,"BUSINESS_TYPE":"Peddler, food (fruits and vegtables only)","LEGAL_NAME":"KENNETH C. HARDY","LONGITUDE":-87.65204416433163},
{"STATE":"IL","ZIP":60619,"LATTITUDE":41.73419069670633,"ADDRESS":"8814 S CALUMET AVE 1ST ","YEAR":2011,"DOING_BUSINESS_AS_NAME":"WILLIAM S MARTIN","POP_AT_RISK":28946,"BUSINESS_TYPE":"Peddler, food (fruits and vegtables only)","LEGAL_NAME":"WILLIAM S MARTIN","LONGITUDE":-87.61622754774335},
{"STATE":"IL","ZIP":60615,"LATTITUDE":41.802879778113265,"ADDRESS":"5050 S LAKE SHORE WEST DR 6TH 601","YEAR":2011,"DOING_BUSINESS_AS_NAME":"MARILYN DAUGHERTY","POP_AT_RISK":347892,"BUSINESS_TYPE":"Peddler, food (fruits and vegtables only)","LEGAL_NAME":"MARILYN DAUGHERTY","LONGITUDE":-87.58184369392683},
{"STATE":"IL","ZIP":60632,"LATTITUDE":41.81091741135504,"ADDRESS":"4510 S KEATING AVE  ","YEAR":2011,"DOING_BUSINESS_AS_NAME":"ALMA ROSA MARTINEZ","POP_AT_RISK":20478,"BUSINESS_TYPE":"Peddler, food (fruits and vegtables only)","LEGAL_NAME":"ALMA ROSA MARTINEZ","LONGITUDE":-87.7421732353587},
{"STATE":"IL","ZIP":60626,"LATTITUDE":42.01449251756229,"ADDRESS":"7306 N WINCHESTER AVE  ","YEAR":2011,"DOING_BUSINESS_AS_NAME":"ESPERANZA ESPINOZA","POP_AT_RISK":74190,"BUSINESS_TYPE":"Peddler, food (fruits and vegtables only)","LEGAL_NAME":"ESPERANZA ESPINOZA","LONGITUDE":-87.67922671173909},
{"STATE":"IL","ZIP":60643,"LATTITUDE":41.70108210250723,"ADDRESS":"10557 S OAKLEY AVE  ","YEAR":2011,"DOING_BUSINESS_AS_NAME":"JEFFREY T. PINZINO","POP_AT_RISK":110850,"BUSINESS_TYPE":"Peddler, food (fruits and vegtables only)","LEGAL_NAME":"JEFFREY T. PINZINO","LONGITUDE":-87.67886779715505},
{"STATE":"IL","ZIP":60654,"LATTITUDE":41.89206949449362,"ADDRESS":"540 N STATE ST  ","YEAR":2011,"DOING_BUSINESS_AS_NAME":"ALLEN J. ROCHELLE","POP_AT_RISK":720171,"BUSINESS_TYPE":"Peddler, food (fruits and vegtables only)","LEGAL_NAME":"ALLEN JAMES ROCHELLE","LONGITUDE":-87.62822442829267},
{"STATE":"IL","ZIP":60634,"LATTITUDE":41.94523771347506,"ADDRESS":"3547 N NARRAGANSETT AVE  ","YEAR":2011,"DOING_BUSINESS_AS_NAME":"JUAN DE JESUS RIVERA","POP_AT_RISK":44835,"BUSINESS_TYPE":"Peddler, food (fruits and vegtables only)","LEGAL_NAME":"JUAN DE JESUS RIVERA","LONGITUDE":-87.78620304774938},
{"STATE":"IL","ZIP":60625,"LATTITUDE":41.96931018962226,"ADDRESS":"4824 N TALMAN AVE 2 2B","YEAR":2011,"DOING_BUSINESS_AS_NAME":"PAULA MIRANDA-HUERTA","POP_AT_RISK":207723,"BUSINESS_TYPE":"Peddler, food (fruits and vegtables only)","LEGAL_NAME":"PAULA MIRANDA-HUERTA","LONGITUDE":-87.69519318439971},
{"STATE":"IL","ZIP":60623,"LATTITUDE":41.85981735188338,"ADDRESS":"1528 S HARDING AVE 2 ","YEAR":2011,"DOING_BUSINESS_AS_NAME":"YULANDA NICOLE PAIGE","POP_AT_RISK":41804,"BUSINESS_TYPE":"Peddler, food (fruits and vegtables only)","LEGAL_NAME":"YULANDA NICOLE PAIGE","LONGITUDE":-87.72391358579158},
{"STATE":"IL","ZIP":60610,"LATTITUDE":41.90827142339081,"ADDRESS":"1415 N DEARBORN ST 1 ","YEAR":2011,"DOING_BUSINESS_AS_NAME":"CHRISTINA A. KALLIRIS","POP_AT_RISK":318285,"BUSINESS_TYPE":"Peddler, food (fruits and vegtables only)","LEGAL_NAME":"CHRISTINA A. KALLIRIS","LONGITUDE":-87.62997092580711},
{"STATE":"IL","ZIP":60629,"LATTITUDE":41.78212690280831,"ADDRESS":"6101 S KILDARE AVE APT 1 ","YEAR":2011,"DOING_BUSINESS_AS_NAME":"HUMBERTO DURAN","POP_AT_RISK":38938,"BUSINESS_TYPE":"Peddler, food (fruits and vegtables only)","LEGAL_NAME":"HUMBERTO DURAN-FLORES","LONGITUDE":-87.73004064701803},
{"STATE":"IL","ZIP":60617,"LATTITUDE":41.695863119021226,"ADDRESS":"10946 S AVENUE C   ","YEAR":2011,"DOING_BUSINESS_AS_NAME":"JOSE TYINIDAD MENDEZ","POP_AT_RISK":17150,"BUSINESS_TYPE":"Peddler, food (fruits and vegtables only)","LEGAL_NAME":"JOSE TYINIADAD MENDEZ","LONGITUDE":-87.52716006168079},
{"STATE":"IL","ZIP":60629,"LATTITUDE":41.772128261134284,"ADDRESS":"6635 S KOMENSKY AVE  ","YEAR":2011,"DOING_BUSINESS_AS_NAME":"MARIA E CASTRO ARROYO","POP_AT_RISK":40605,"BUSINESS_TYPE":"Peddler, food (fruits and vegtables only)","LEGAL_NAME":"MARIA E CASTRO ARROYO","LONGITUDE":-87.72366532681676},
{"STATE":"IL","ZIP":60643,"LATTITUDE":41.674052619031144,"ADDRESS":"12056 S JUSTINE ST 1 ","YEAR":2011,"DOING_BUSINESS_AS_NAME":"ROBERT L. JOHNSON JR.","POP_AT_RISK":126800,"BUSINESS_TYPE":"Peddler, food (fruits and vegtables only)","LEGAL_NAME":"ROBERT L. JOHNSON, JR","LONGITUDE":-87.66020570250922},
{"STATE":"IL","ZIP":60637,"LATTITUDE":41.78212400880484,"ADDRESS":"801 E 62ND ST  ","YEAR":2011,"DOING_BUSINESS_AS_NAME":"STEPHANIE T. CAMPBELL","POP_AT_RISK":32852,"BUSINESS_TYPE":"Peddler, food (fruits and vegtables only)","LEGAL_NAME":"STEPHANIE T. CAMPBELL","LONGITUDE":-87.60588472217749},
{"STATE":"IL","ZIP":60638,"LATTITUDE":41.793727199169396,"ADDRESS":"6201 S ARCHER AVE 2-F 2","YEAR":2011,"DOING_BUSINESS_AS_NAME":"ALEJANDRA BARANDA LUNA","POP_AT_RISK":103935,"BUSINESS_TYPE":"Peddler, food (fruits and vegtables only)","LEGAL_NAME":"ALEJANDRA BARANDA LUNA","LONGITUDE":-87.77457290234543},
{"STATE":"IL","ZIP":60827,"LATTITUDE":41.65575177057305,"ADDRESS":"13157 S ST LAWRENCE AVE  ","YEAR":2011,"DOING_BUSINESS_AS_NAME":"LATANYA KING","POP_AT_RISK":12964,"BUSINESS_TYPE":"Peddler, food (fruits and vegtables only)","LEGAL_NAME":"LATANYA D O BANER-KING","LONGITUDE":-87.60741415985987},
{"STATE":"IL","ZIP":60642,"LATTITUDE":41.893271741236816,"ADDRESS":"1461 W ERIE ST  ","YEAR":2011,"DOING_BUSINESS_AS_NAME":"MIGUEL ANGEL CASTREJON","POP_AT_RISK":37594,"BUSINESS_TYPE":"Peddler, food (fruits and vegtables only)","LEGAL_NAME":"MIGUEL ANGEL CASTREJON","LONGITUDE":-87.66468410064617},
{"STATE":"IL","ZIP":60634,"LATTITUDE":41.95966347848037,"ADDRESS":"5632 W PENSACOLA AVE  ","YEAR":2011,"DOING_BUSINESS_AS_NAME":"EMPERATRIZ FRUIT","POP_AT_RISK":205996,"BUSINESS_TYPE":"Peddler, food (fruits and vegtables only)","LEGAL_NAME":"EMPERATRIZ M. MALDONADO","LONGITUDE":-87.76855204500197},
{"STATE":"IL","ZIP":60607,"LATTITUDE":41.8619488347298,"ADDRESS":"1458 S CANAL ST  ","YEAR":2011,"DOING_BUSINESS_AS_NAME":"ROYZELL LAMONT STAFFORD","POP_AT_RISK":32989,"BUSINESS_TYPE":"Peddler, food (fruits and vegtables only)","LEGAL_NAME":"ROYZELL LAMONT STAFFORD","LONGITUDE":-87.639221139667},
{"STATE":"IL","ZIP":60618,"LATTITUDE":41.933230701856495,"ADDRESS":"2839 N SACRAMENTO AVE  ","YEAR":2011,"DOING_BUSINESS_AS_NAME":"FERNANDA LARA-QUEZADA MUNOZ","POP_AT_RISK":53407,"BUSINESS_TYPE":"Peddler, food (fruits and vegtables only)","LEGAL_NAME":"FERNANDA LARA-QUEZADA MUNOZ","LONGITUDE":-87.70240750221113},
{"STATE":"IL","ZIP":60638,"LATTITUDE":41.78422889010193,"ADDRESS":"5936 S PARKSIDE AVE  ","YEAR":2011,"DOING_BUSINESS_AS_NAME":"GERMAINE LILLIE MARCINKOWSKI","POP_AT_RISK":27833,"BUSINESS_TYPE":"Peddler, food (fruits and vegtables only)","LEGAL_NAME":"GERMAINE LILLIE MARCINKOWSKI","LONGITUDE":-87.76334139822646},
{}]