[
{"STATE":"IL","ZIP":60644,"LATTITUDE":41.86808030351578,"ADDRESS":"1035 S MASON AVE  BSMT","YEAR":2008,"DOING_BUSINESS_AS_NAME":"ORANGUTAN DESIGN","POP_AT_RISK":43582,"BUSINESS_TYPE":"Home Occupation","LEGAL_NAME":"ARIF HIDAYAT","LONGITUDE":-87.77284891373147},
{"STATE":"IL","ZIP":60655,"LATTITUDE":41.68217268377317,"ADDRESS":"3609 W 116TH ST  ","YEAR":2008,"DOING_BUSINESS_AS_NAME":"CRUISEONE","POP_AT_RISK":19944,"BUSINESS_TYPE":"Home Occupation","LEGAL_NAME":"JOHN R. ROSE","LONGITUDE":-87.7105802296456},
{"STATE":"IL","ZIP":60623,"LATTITUDE":41.84926649309046,"ADDRESS":"2308 S KILDARE AVE 2ND ","YEAR":2008,"DOING_BUSINESS_AS_NAME":"KBBK PRINTING","POP_AT_RISK":57034,"BUSINESS_TYPE":"Home Occupation","LEGAL_NAME":"KARLA M. KIDD","LONGITUDE":-87.73133283932808},
{"STATE":"IL","ZIP":60638,"LATTITUDE":41.77603825973843,"ADDRESS":"6232 W 64TH ST  ","YEAR":2008,"DOING_BUSINESS_AS_NAME":"R C CARPET CLEANING","POP_AT_RISK":28149,"BUSINESS_TYPE":"Home Occupation","LEGAL_NAME":"RUBEN CUELLAR","LONGITUDE":-87.77764608913346},
{"STATE":"IL","ZIP":60707,"LATTITUDE":41.911213293284874,"ADDRESS":"1714 N NEVA AVE  ","YEAR":2008,"DOING_BUSINESS_AS_NAME":"HILLCO HOME PRODUCTS","POP_AT_RISK":22205,"BUSINESS_TYPE":"Home Occupation","LEGAL_NAME":"GREGORY L. HILL","LONGITUDE":-87.80416285528244},
{"STATE":"IL","ZIP":60631,"LATTITUDE":42.0153936468466,"ADDRESS":"7405 N OSCEOLA AVE  ","YEAR":2008,"DOING_BUSINESS_AS_NAME":"MEDI-RAY PORTABLE","POP_AT_RISK":18952,"BUSINESS_TYPE":"Home Occupation","LEGAL_NAME":"MEDI-RAY PORTABLE","LONGITUDE":-87.81254586033211},
{"STATE":"IL","ZIP":60645,"LATTITUDE":42.014539127066755,"ADDRESS":"3047 W SHERWIN AVE 1 1","YEAR":2008,"DOING_BUSINESS_AS_NAME":"THE LEARNING CONNECTION","POP_AT_RISK":41806,"BUSINESS_TYPE":"Home Occupation","LEGAL_NAME":"NECHAMA DENA COHEN","LONGITUDE":-87.70619581022483},
{"STATE":"IL","ZIP":60656,"LATTITUDE":41.97865803040564,"ADDRESS":"5451 N EAST RIVER RD 14TH 1403","YEAR":2008,"DOING_BUSINESS_AS_NAME":"SHINSEN J.C., INC.","POP_AT_RISK":15819,"BUSINESS_TYPE":"Home Occupation","LEGAL_NAME":"SHINSEN J.C., INC.","LONGITUDE":-87.84630905951563},
{"STATE":"IL","ZIP":60631,"LATTITUDE":42.01536960157228,"ADDRESS":"7401 N OCTAVIA AVE  ","YEAR":2008,"DOING_BUSINESS_AS_NAME":"THE DOG WALKERS, INC","POP_AT_RISK":19053,"BUSINESS_TYPE":"Home Occupation","LEGAL_NAME":"THE DOG WALKERS, INC.","LONGITUDE":-87.8088851430967},
{}]