[
  {
    "BUSINESS_TYPE": "Tobacco", 
    "LEGAL_NAME": "BOCKWINKEL FOOD MARKETS, INC.", 
    "STATE": "IL", 
    "DOING_BUSINESS_AS_NAME": "BOCKWINKEL'S FOOD MARKET", 
    "POP_AT_RISK": 64861, 
    "ZIP": 60610, 
    "ADDRESS": "1313 N RITCHIE CT  1ST", 
    "YEAR": 1999, 
    "LONGITUDE": -87.626459679, 
    "LATTITUDE": 41.906293549
  }, 
  {
    "BUSINESS_TYPE": "Tobacco", 
    "LEGAL_NAME": "FOUR FRIENDS CIGAR CO", 
    "STATE": "IL", 
    "DOING_BUSINESS_AS_NAME": "FOUR FRIENDS CIGAR SHOP", 
    "POP_AT_RISK": 33204, 
    "ZIP": 60609, 
    "ADDRESS": "3516 S HALSTED ST 1ST", 
    "YEAR": 1999, 
    "LONGITUDE": -87.646240828, 
    "LATTITUDE": 41.830197345
  }, 
  {
    "BUSINESS_TYPE": "Tobacco", 
    "LEGAL_NAME": "CAVANAUGH'S LLC", 
    "STATE": "IL", 
    "DOING_BUSINESS_AS_NAME": "CAVANAUGH'S BAR & RESTAURANT", 
    "POP_AT_RISK": 50511, 
    "ZIP": 60604, 
    "ADDRESS": "53 W JACKSON BLVD", 
    "YEAR": 1999, 
    "LONGITUDE": -87.629781008, 
    "LATTITUDE": 41.878050681
  }, 
  {
    "BUSINESS_TYPE": "Tobacco", 
    "LEGAL_NAME": "JOSE RODRIGUEZ", 
    "STATE": "IL", 
    "DOING_BUSINESS_AS_NAME": "THE LEGACY", 
    "POP_AT_RISK": 65231, 
    "ZIP": 60618, 
    "ADDRESS": "3042 W IRVING PARK RD 1ST", 
    "YEAR": 1999, 
    "LONGITUDE": -87.704886117, 
    "LATTITUDE": 41.954049206
  }, 
  {
    "BUSINESS_TYPE": "Tobacco", 
    "LEGAL_NAME": "HAPPY DAY CORPORATION", 
    "STATE": "IL", 
    "DOING_BUSINESS_AS_NAME": "HAPPY DAY FOOD & LIQUOR", 
    "POP_AT_RISK": 63177, 
    "ZIP": 60618, 
    "ADDRESS": "3755 W MONTROSE AVE 1ST", 
    "YEAR": 1999, 
    "LONGITUDE": -87.722707523, 
    "LATTITUDE": 41.960902061
  }, 
  {
    "BUSINESS_TYPE": "Tobacco", 
    "LEGAL_NAME": "LAKEVIEW BILLIARD CAFE, INC.", 
    "STATE": "IL", 
    "DOING_BUSINESS_AS_NAME": "LAKEVIEW BILLIARD CAFE", 
    "POP_AT_RISK": 77916, 
    "ZIP": 60657, 
    "ADDRESS": "3449 N LINCOLN AVE", 
    "YEAR": 1999, 
    "LONGITUDE": -87.672009689, 
    "LATTITUDE": 41.944712685
  }, 
  {
    "BUSINESS_TYPE": "Tobacco", 
    "LEGAL_NAME": "SMMP INC", 
    "STATE": "IL", 
    "DOING_BUSINESS_AS_NAME": "CARLTON CARDS GIFT SHOP", 
    "POP_AT_RISK": 73526, 
    "ZIP": 60610, 
    "ADDRESS": "33 W ILLINOIS ST 1ST", 
    "YEAR": 1999, 
    "LONGITUDE": -87.629385656, 
    "LATTITUDE": 41.890728908
  }, 
  {
    "BUSINESS_TYPE": "Tobacco", 
    "LEGAL_NAME": "DE LOISE GAINES", 
    "STATE": "IL", 
    "DOING_BUSINESS_AS_NAME": "GAINES MINI MART", 
    "POP_AT_RISK": 37302, 
    "ZIP": 60636, 
    "ADDRESS": "6729 S HERMITAGE AVE 1ST", 
    "YEAR": 1999, 
    "LONGITUDE": -87.667486845, 
    "LATTITUDE": 41.771268132
  }
]