[
{"STATE":"IL","ZIP":60609,"LATTITUDE":41.79882174411404,"ADDRESS":"2027 W 52ND ST 2ND ","YEAR":2006,"DOING_BUSINESS_AS_NAME":"PAUL WHITE","POP_AT_RISK":516967,"BUSINESS_TYPE":"Peddler,food - (fruits and vegetables only) - special","LEGAL_NAME":"PAUL WHITE","LONGITUDE":-87.67554494061855},
{"STATE":"IL","ZIP":60707,"LATTITUDE":41.92131571234415,"ADDRESS":"6640 W BELDEN AVE  104B","YEAR":2006,"DOING_BUSINESS_AS_NAME":"ELIZA GRANT","POP_AT_RISK":82828,"BUSINESS_TYPE":"Peddler,food - (fruits and vegetables only) - special","LEGAL_NAME":"ELIZA GRANT","LONGITUDE":-87.79182386507166},
{"STATE":"IL","ZIP":60630,"LATTITUDE":41.963183921265326,"ADDRESS":"4536 N ELSTON AVE  ","YEAR":2006,"DOING_BUSINESS_AS_NAME":"BYRON YABLON","POP_AT_RISK":276162,"BUSINESS_TYPE":"Peddler,food - (fruits and vegetables only) - special","LEGAL_NAME":"BYRON YABLON","LONGITUDE":-87.73318715325468},
{"STATE":"IL","ZIP":60608,"LATTITUDE":41.85378231044434,"ADDRESS":"2253 W 21ST ST 1ST ","YEAR":2006,"DOING_BUSINESS_AS_NAME":"ALFREDO RUBIO","POP_AT_RISK":182790,"BUSINESS_TYPE":"Peddler,food - (fruits and vegetables only) - special","LEGAL_NAME":"ALFREDO RUBIO","LONGITUDE":-87.6828901196451},
{"STATE":"IL","ZIP":60639,"LATTITUDE":41.92062330871917,"ADDRESS":"4305 W PALMER ST  ","YEAR":2006,"DOING_BUSINESS_AS_NAME":"CIRILO GANTES","POP_AT_RISK":320995,"BUSINESS_TYPE":"Peddler,food - (fruits and vegetables only) - special","LEGAL_NAME":"CIRILO GANTES","LONGITUDE":-87.73421758023801},
{"STATE":"IL","ZIP":60619,"LATTITUDE":41.75619457777317,"ADDRESS":"7612 S EBERHART AVE  ","YEAR":2006,"DOING_BUSINESS_AS_NAME":"HOGAN","POP_AT_RISK":539799,"BUSINESS_TYPE":"Peddler,food - (fruits and vegetables only) - special","LEGAL_NAME":"EARNEST HOGAN","LONGITUDE":-87.61276996803532},
{"STATE":"IL","ZIP":60647,"LATTITUDE":41.914872525125695,"ADDRESS":"1842 N SPRINGFIELD AVE  1","YEAR":2006,"DOING_BUSINESS_AS_NAME":"RAMON  CORONEL","POP_AT_RISK":619668,"BUSINESS_TYPE":"Peddler,food - (fruits and vegetables only) - special","LEGAL_NAME":"RAMON CORONEL","LONGITUDE":-87.72419022922423},
{"STATE":"IL","ZIP":60610,"LATTITUDE":41.900432775078606,"ADDRESS":"171 W OAK ST  7R","YEAR":2006,"DOING_BUSINESS_AS_NAME":"PAUL W. WILLIS","POP_AT_RISK":1361616,"BUSINESS_TYPE":"Peddler,food - (fruits and vegetables only) - special","LEGAL_NAME":"PAUL W. WILLIS","LONGITUDE":-87.63419286634776},
{"STATE":"IL","ZIP":60623,"LATTITUDE":41.84525562231124,"ADDRESS":"2532 S TRUMBULL AVE  ","YEAR":2006,"DOING_BUSINESS_AS_NAME":"SANTOS PERALTA","POP_AT_RISK":281264,"BUSINESS_TYPE":"Peddler,food - (fruits and vegetables only) - special","LEGAL_NAME":"SANTOS PERALTA","LONGITUDE":-87.71129907879453},
{"STATE":"IL","ZIP":60608,"LATTITUDE":41.8588811255851,"ADDRESS":"1412 W 17TH ST  ","YEAR":2006,"DOING_BUSINESS_AS_NAME":"EPIFANIO LOZANO","POP_AT_RISK":116154,"BUSINESS_TYPE":"Peddler,food - (fruits and vegetables only) - special","LEGAL_NAME":"EPIFANIO LOZANO","LONGITUDE":-87.66192236162263},
{"STATE":"IL","ZIP":60639,"LATTITUDE":41.92774715914984,"ADDRESS":"2610 N MOBILE AVE 2 ","YEAR":2006,"DOING_BUSINESS_AS_NAME":"MA. ELENA GOMEZ","POP_AT_RISK":259110,"BUSINESS_TYPE":"Peddler,food - (fruits and vegetables only) - special","LEGAL_NAME":"MA. ELENA GOMEZ","LONGITUDE":-87.78329259129448},
{"STATE":"IL","ZIP":60618,"LATTITUDE":41.96077984306484,"ADDRESS":"4350 N ST LOUIS AVE 1 ","YEAR":2006,"DOING_BUSINESS_AS_NAME":"PEDRO MEJIA","POP_AT_RISK":832260,"BUSINESS_TYPE":"Peddler,food - (fruits and vegetables only) - special","LEGAL_NAME":"PEDRO MEJIA SR.","LONGITUDE":-87.71572411783474},
{"STATE":"IL","ZIP":60632,"LATTITUDE":41.79519551927019,"ADDRESS":"5355 S TRIPP AVE  ","YEAR":2006,"DOING_BUSINESS_AS_NAME":"REMBERTO FLORES","POP_AT_RISK":391980,"BUSINESS_TYPE":"Peddler,food - (fruits and vegetables only) - special","LEGAL_NAME":"REMBERTO FLORES","LONGITUDE":-87.72919729095125},
{"STATE":"IL","ZIP":60620,"LATTITUDE":41.73343751070247,"ADDRESS":"8820 S THROOP ST  ","YEAR":2006,"DOING_BUSINESS_AS_NAME":"THOMAS E TAYLOR","POP_AT_RISK":320790,"BUSINESS_TYPE":"Peddler,food - (fruits and vegetables only) - special","LEGAL_NAME":"THOMAS E TAYLOR","LONGITUDE":-87.65584506880892},
{"STATE":"IL","ZIP":60619,"LATTITUDE":41.72754546251406,"ADDRESS":"536 E 92ND ST  ","YEAR":2006,"DOING_BUSINESS_AS_NAME":"ERNESTINE MARTIN","POP_AT_RISK":22916,"BUSINESS_TYPE":"Peddler,food - (fruits and vegetables only) - special","LEGAL_NAME":"ERNESTINE MARTIN","LONGITUDE":-87.6103938277523},
{"STATE":"IL","ZIP":60619,"LATTITUDE":41.72824526406769,"ADDRESS":"547 E 91ST PL  PETE'","YEAR":2006,"DOING_BUSINESS_AS_NAME":"ELIJAH W PETERSON","POP_AT_RISK":22411,"BUSINESS_TYPE":"Peddler,food - (fruits and vegetables only) - special","LEGAL_NAME":"ELIJAH W PETERSON","LONGITUDE":-87.61003613414654},
{"STATE":"IL","ZIP":60617,"LATTITUDE":41.71590186001373,"ADDRESS":"9816 S MERRION AVE # 1ST","YEAR":2006,"DOING_BUSINESS_AS_NAME":"ANTOINETTE JOHNSON","POP_AT_RISK":69712,"BUSINESS_TYPE":"Peddler,food - (fruits and vegetables only) - special","LEGAL_NAME":"ANTOINETTE JOHNSON","LONGITUDE":-87.5696927426852},
{"STATE":"IL","ZIP":60632,"LATTITUDE":41.80197291342214,"ADDRESS":"5029 S WASHTENAW AVE  ","YEAR":2006,"DOING_BUSINESS_AS_NAME":"FILIBERTO MARTINEZ","POP_AT_RISK":273075,"BUSINESS_TYPE":"Peddler,food - (fruits and vegetables only) - special","LEGAL_NAME":"FILIBERTO MARTINEZ","LONGITUDE":-87.69143676882874},
{"STATE":"IL","ZIP":60649,"LATTITUDE":41.75978171300422,"ADDRESS":"7435 S KINGSTON AVE 406 ","YEAR":2006,"DOING_BUSINESS_AS_NAME":"IRVIN WASHINGTON ST.","POP_AT_RISK":355300,"BUSINESS_TYPE":"Peddler,food - (fruits and vegetables only) - special","LEGAL_NAME":"IRVIN WASHINGTON SR.","LONGITUDE":-87.56301094487287},
{"STATE":"IL","ZIP":60623,"LATTITUDE":41.84483054026172,"ADDRESS":"2542 S SPRINGFIELD AVE  ","YEAR":2006,"DOING_BUSINESS_AS_NAME":"SEVERIANO GUTIERREZ","POP_AT_RISK":174984,"BUSINESS_TYPE":"Peddler,food - (fruits and vegetables only) - special","LEGAL_NAME":"SEVERIANO GUITIERREZ","LONGITUDE":-87.7222737070315},
{"STATE":"IL","ZIP":60653,"LATTITUDE":41.82107087074464,"ADDRESS":"4009 S VINCENNES AVE  ","YEAR":2006,"DOING_BUSINESS_AS_NAME":"TURHERAN C. CRAWFORD","POP_AT_RISK":392124,"BUSINESS_TYPE":"Peddler,food - (fruits and vegetables only) - special","LEGAL_NAME":"TURHERAN C. CRAWFORD","LONGITUDE":-87.61309825395774},
{"STATE":"IL","ZIP":60616,"LATTITUDE":41.83475726864901,"ADDRESS":"400 E 33RD ST  2214","YEAR":2006,"DOING_BUSINESS_AS_NAME":"JOSEPH T. VALLIER JR.","POP_AT_RISK":239049,"BUSINESS_TYPE":"Peddler,food - (fruits and vegetables only) - special","LEGAL_NAME":"JOSEPH T. VALLIER JR.","LONGITUDE":-87.6170103485163},
{}]