[
  {
    "BUSINESS_TYPE": "Tavern", 
    "LEGAL_NAME": "THE CORRIB - IRISH PUB, INC.", 
    "STATE": "IL", 
    "DOING_BUSINESS_AS_NAME": "THE CORRIB IRISH PUB", 
    "POP_AT_RISK": 28232, 
    "ZIP": 60630, 
    "ADDRESS": "5522 N ELSTON AVE", 
    "YEAR": 2019, 
    "LONGITUDE": -87.762219198, 
    "LATTITUDE": 41.981537587
  }, 
  {
    "BUSINESS_TYPE": "Tavern", 
    "LEGAL_NAME": "BUOU APPETITO INC", 
    "STATE": "IL", 
    "DOING_BUSINESS_AS_NAME": "PARADISE CLUB", 
    "POP_AT_RISK": 38126, 
    "ZIP": 60634, 
    "ADDRESS": "7068 W BELMONT AVE 1ST", 
    "YEAR": 2019, 
    "LONGITUDE": -87.803863081, 
    "LATTITUDE": 41.938147542
  }, 
  {
    "BUSINESS_TYPE": "Tavern", 
    "LEGAL_NAME": "THE WATER HOLE E.T., LTD.", 
    "STATE": "IL", 
    "DOING_BUSINESS_AS_NAME": "THE WATERHOLE LOUNGE", 
    "POP_AT_RISK": 36529, 
    "ZIP": 60608, 
    "ADDRESS": "1400 S WESTERN AVE 1ST", 
    "YEAR": 2019, 
    "LONGITUDE": -87.686081438, 
    "LATTITUDE": 41.862940665
  }, 
  {
    "BUSINESS_TYPE": "Tavern", 
    "LEGAL_NAME": "SUAVE, INC.", 
    "STATE": "IL", 
    "DOING_BUSINESS_AS_NAME": "INFINITI BAR AND GRILL", 
    "POP_AT_RISK": 14637, 
    "ZIP": 60628, 
    "ADDRESS": "12717 S HALSTED ST", 
    "YEAR": 2019, 
    "LONGITUDE": -87.641255514, 
    "LATTITUDE": 41.662677267
  }, 
  {
    "BUSINESS_TYPE": "Tavern", 
    "LEGAL_NAME": "REVEL BAR GROUP, LLC", 
    "STATE": "IL", 
    "DOING_BUSINESS_AS_NAME": "WISE OWL DRINKERY & COOKHOUSE", 
    "POP_AT_RISK": 39868, 
    "ZIP": 60607, 
    "ADDRESS": "324 S RACINE AVE 1", 
    "YEAR": 2019, 
    "LONGITUDE": -87.65715348, 
    "LATTITUDE": 41.876981199
  }, 
  {
    "BUSINESS_TYPE": "Tavern", 
    "LEGAL_NAME": "THE UNIVERSITY OF CHICAGO CLOISTERS CLUB", 
    "STATE": "IL", 
    "DOING_BUSINESS_AS_NAME": "UNIVERSITY OF CHICAGO CLOISTERS CLUB", 
    "POP_AT_RISK": 40417, 
    "ZIP": 60637, 
    "ADDRESS": "1212 E 59TH ST  1", 
    "YEAR": 2019, 
    "LONGITUDE": -87.595806262, 
    "LATTITUDE": 41.787921484
  }, 
  {
    "BUSINESS_TYPE": "Tavern", 
    "LEGAL_NAME": "CAPARI, INC.", 
    "STATE": "IL", 
    "DOING_BUSINESS_AS_NAME": "DUFFY'S PLACE", 
    "POP_AT_RISK": 16795, 
    "ZIP": 60638, 
    "ADDRESS": "6355 S CENTRAL AVE", 
    "YEAR": 2019, 
    "LONGITUDE": -87.761513212, 
    "LATTITUDE": 41.776417683
  }, 
  {
    "BUSINESS_TYPE": "Tavern", 
    "LEGAL_NAME": "ANNIE MCKINNON", 
    "STATE": "IL", 
    "DOING_BUSINESS_AS_NAME": "MS ANN'S PAD", 
    "POP_AT_RISK": 38204, 
    "ZIP": 60644, 
    "ADDRESS": "4701 W HARRISON ST  1", 
    "YEAR": 2019, 
    "LONGITUDE": -87.742682672, 
    "LATTITUDE": 41.873089763
  }, 
  {
    "BUSINESS_TYPE": "Tavern", 
    "LEGAL_NAME": "THE NEW SOME PLACE ELSE, INC.", 
    "STATE": "IL", 
    "DOING_BUSINESS_AS_NAME": "THE NEW SOME PLACE ELSE LOUNGE", 
    "POP_AT_RISK": 26744, 
    "ZIP": 60643, 
    "ADDRESS": "11043 S ASHLAND AVE 1ST", 
    "YEAR": 2019, 
    "LONGITUDE": -87.661711113, 
    "LATTITUDE": 41.692637091
  }, 
  {
    "BUSINESS_TYPE": "Tavern", 
    "LEGAL_NAME": "03659 S INDIANA CORP", 
    "STATE": "IL", 
    "DOING_BUSINESS_AS_NAME": "WILLIE NEW HIDEAWAY LOUNGE", 
    "POP_AT_RISK": 34712, 
    "ZIP": 60653, 
    "ADDRESS": "3659 S INDIANA AVE  1ST", 
    "YEAR": 2019, 
    "LONGITUDE": -87.62154879, 
    "LATTITUDE": 41.827954093
  }, 
  {
    "BUSINESS_TYPE": "Tavern", 
    "LEGAL_NAME": "SUPERIOR CLUB, INC.", 
    "STATE": "IL", 
    "DOING_BUSINESS_AS_NAME": "AMBITION", 
    "POP_AT_RISK": 24839, 
    "ZIP": 60628, 
    "ADDRESS": "12001-12003 S HALSTED ST 1", 
    "YEAR": 2019, 
    "LONGITUDE": -87.641698046, 
    "LATTITUDE": 41.675902066
  }, 
  {
    "BUSINESS_TYPE": "Tavern", 
    "LEGAL_NAME": "JAF, LTD.", 
    "STATE": "IL", 
    "DOING_BUSINESS_AS_NAME": "JEFFERY PUB", 
    "POP_AT_RISK": 43909, 
    "ZIP": 60649, 
    "ADDRESS": "7041 S JEFFERY BLVD", 
    "YEAR": 2019, 
    "LONGITUDE": -87.576170828, 
    "LATTITUDE": 41.766818068
  }, 
  {
    "BUSINESS_TYPE": "Tavern", 
    "LEGAL_NAME": "THE 9705 CORPORATION", 
    "STATE": "IL", 
    "DOING_BUSINESS_AS_NAME": "9705 CORP", 
    "POP_AT_RISK": 25334, 
    "ZIP": 60628, 
    "ADDRESS": "9705 S HALSTED ST  1", 
    "YEAR": 2019, 
    "LONGITUDE": -87.642958666, 
    "LATTITUDE": 41.717541962
  }, 
  {
    "BUSINESS_TYPE": "Tavern", 
    "LEGAL_NAME": "HENRY L HOSKIN", 
    "STATE": "IL", 
    "DOING_BUSINESS_AS_NAME": "HOT CITY LOUNGE", 
    "POP_AT_RISK": 45150, 
    "ZIP": 60636, 
    "ADDRESS": "7432 S RACINE AVE 1ST", 
    "YEAR": 2019, 
    "LONGITUDE": -87.654093887, 
    "LATTITUDE": 41.758643529
  }, 
  {
    "BUSINESS_TYPE": "Tavern", 
    "LEGAL_NAME": "HOWARD SMITH", 
    "STATE": "IL", 
    "DOING_BUSINESS_AS_NAME": "THE ODYSSEY 11 LOUNGE", 
    "POP_AT_RISK": 28189, 
    "ZIP": 60637, 
    "ADDRESS": "211 E 55TH ST 1ST", 
    "YEAR": 2019, 
    "LONGITUDE": -87.620347916, 
    "LATTITUDE": 41.7942922
  }, 
  {
    "BUSINESS_TYPE": "Tavern", 
    "LEGAL_NAME": "ZAPOTLAN INC", 
    "STATE": "IL", 
    "DOING_BUSINESS_AS_NAME": "ZAPOTLAN INC", 
    "POP_AT_RISK": 41726, 
    "ZIP": 60632, 
    "ADDRESS": "3923- 3925 S KEDZIE AVE 1ST", 
    "YEAR": 2019, 
    "LONGITUDE": -87.704363679, 
    "LATTITUDE": 41.821803331
  }, 
  {
    "BUSINESS_TYPE": "Tavern", 
    "LEGAL_NAME": "BILL BABS, INC.", 
    "STATE": "IL", 
    "DOING_BUSINESS_AS_NAME": "KELLY'S TAVERN", 
    "POP_AT_RISK": 20203, 
    "ZIP": 60609, 
    "ADDRESS": "4403 S WALLACE ST 1ST", 
    "YEAR": 2019, 
    "LONGITUDE": -87.640668438, 
    "LATTITUDE": 41.814326117
  }, 
  {
    "BUSINESS_TYPE": "Tavern", 
    "LEGAL_NAME": "ODESSA DICKERSON", 
    "STATE": "IL", 
    "DOING_BUSINESS_AS_NAME": "BERNARD & VANESSA'S LOUNGE", 
    "POP_AT_RISK": 46210, 
    "ZIP": 60651, 
    "ADDRESS": "5206-5208 W DIVISION ST 1ST", 
    "YEAR": 2019, 
    "LONGITUDE": -87.756117964, 
    "LATTITUDE": 41.902353479
  }, 
  {
    "BUSINESS_TYPE": "Tavern", 
    "LEGAL_NAME": "UNGER'S LOUNGE, INC.", 
    "STATE": "IL", 
    "DOING_BUSINESS_AS_NAME": "FOR THE GOOD TIMES LOUNGE", 
    "POP_AT_RISK": 50038, 
    "ZIP": 60636, 
    "ADDRESS": "5545 S DAMEN AVE 1ST", 
    "YEAR": 2019, 
    "LONGITUDE": -87.674099908, 
    "LATTITUDE": 41.792169878
  }, 
  {
    "BUSINESS_TYPE": "Tavern", 
    "LEGAL_NAME": "75TH STREET ENTERTAINMENT, INC.", 
    "STATE": "IL", 
    "DOING_BUSINESS_AS_NAME": "CLUB ESCAPE", 
    "POP_AT_RISK": 37781, 
    "ZIP": 60619, 
    "ADDRESS": "1530 E 75TH ST", 
    "YEAR": 2019, 
    "LONGITUDE": -87.587219247, 
    "LATTITUDE": 41.758864314
  }, 
  {
    "BUSINESS_TYPE": "Tavern", 
    "LEGAL_NAME": "LLOYD'S LOUNGE, INC.", 
    "STATE": "IL", 
    "DOING_BUSINESS_AS_NAME": "LLOYD'S LOUNGE, INC.", 
    "POP_AT_RISK": 29159, 
    "ZIP": 60636, 
    "ADDRESS": "6046 S RACINE AVE", 
    "YEAR": 2019, 
    "LONGITUDE": -87.654752164, 
    "LATTITUDE": 41.783672737
  }, 
  {
    "BUSINESS_TYPE": "Tavern", 
    "LEGAL_NAME": "LAKESIDE BAR, LIMITED", 
    "STATE": "IL", 
    "DOING_BUSINESS_AS_NAME": "LAKESIDE BAR", 
    "POP_AT_RISK": 34459, 
    "ZIP": 60624, 
    "ADDRESS": "3500 W LAKE ST 1", 
    "YEAR": 2019, 
    "LONGITUDE": -87.713672291, 
    "LATTITUDE": 41.88489392
  }, 
  {
    "BUSINESS_TYPE": "Tavern", 
    "LEGAL_NAME": "EXCALIBUR CLUB, INC.", 
    "STATE": "IL", 
    "DOING_BUSINESS_AS_NAME": "EXCALIBUR CLUB", 
    "POP_AT_RISK": 26093, 
    "ZIP": 60628, 
    "ADDRESS": "451 E 111TH ST", 
    "YEAR": 2019, 
    "LONGITUDE": -87.611377369, 
    "LATTITUDE": 41.692648793
  }, 
  {
    "BUSINESS_TYPE": "Tavern", 
    "LEGAL_NAME": "FRANCES WILSON MITCHELL INC.", 
    "STATE": "IL", 
    "DOING_BUSINESS_AS_NAME": "FRANCES' COCKTAIL LOUNGE", 
    "POP_AT_RISK": 34086, 
    "ZIP": 60619, 
    "ADDRESS": "307 E 75TH ST", 
    "YEAR": 2019, 
    "LONGITUDE": -87.617967183, 
    "LATTITUDE": 41.758247951
  }, 
  {
    "BUSINESS_TYPE": "Tavern", 
    "LEGAL_NAME": "LA CANOPY INC", 
    "STATE": "IL", 
    "DOING_BUSINESS_AS_NAME": "MONASTERO'S RISTORANTE", 
    "POP_AT_RISK": 11498, 
    "ZIP": 60659, 
    "ADDRESS": "3935-3939 W DEVON AVE  1ST", 
    "YEAR": 2019, 
    "LONGITUDE": -87.727663622, 
    "LATTITUDE": 41.997134146
  }, 
  {
    "BUSINESS_TYPE": "Tavern", 
    "LEGAL_NAME": "WILLIE MAE SHORTER", 
    "STATE": "IL", 
    "DOING_BUSINESS_AS_NAME": "IMLA LOUNGE", 
    "POP_AT_RISK": 33856, 
    "ZIP": 60609, 
    "ADDRESS": "1116 W 51ST ST  1ST", 
    "YEAR": 2019, 
    "LONGITUDE": -87.653278016, 
    "LATTITUDE": 41.801585516
  }, 
  {
    "BUSINESS_TYPE": "Tavern", 
    "LEGAL_NAME": "RICARDO & MARTHA VILLALOBOS", 
    "STATE": "IL", 
    "DOING_BUSINESS_AS_NAME": "RICARDO & MARTHA VILLALOBOS", 
    "POP_AT_RISK": 57732, 
    "ZIP": 60608, 
    "ADDRESS": "2234 S CALIFORNIA AVE 1ST", 
    "YEAR": 2019, 
    "LONGITUDE": -87.69556742, 
    "LATTITUDE": 41.850873995
  }
]