[
  {
    "BUSINESS_TYPE": "Music and Dance", 
    "LEGAL_NAME": "MESON DEL RIO RESTAURANT, INC.", 
    "STATE": "IL", 
    "DOING_BUSINESS_AS_NAME": "MESON DEL RIO RESTAURANT, INC.", 
    "POP_AT_RISK": 18922, 
    "ZIP": 60638, 
    "ADDRESS": "5728 S ARCHER AVE", 
    "YEAR": 2001, 
    "LONGITUDE": -87.755430018, 
    "LATTITUDE": 41.796899999
  }, 
  {
    "BUSINESS_TYPE": "Music and Dance", 
    "LEGAL_NAME": "JO-KIM LOUNGE CORP.", 
    "STATE": "IL", 
    "DOING_BUSINESS_AS_NAME": "HAPPY'S BAMBOO BAR & LOUNGE", 
    "POP_AT_RISK": 67573, 
    "ZIP": 60614, 
    "ADDRESS": "2247 N LINCOLN AVE", 
    "YEAR": 2001, 
    "LONGITUDE": -87.645166361, 
    "LATTITUDE": 41.923025621
  }, 
  {
    "BUSINESS_TYPE": "Music and Dance", 
    "LEGAL_NAME": "BRUDDER'S BAR & GRILL LLC", 
    "STATE": "IL", 
    "DOING_BUSINESS_AS_NAME": "BRUDDER'S", 
    "POP_AT_RISK": 56603, 
    "ZIP": 60641, 
    "ADDRESS": "3600 N PULASKI RD 1ST", 
    "YEAR": 2001, 
    "LONGITUDE": -87.727549491, 
    "LATTITUDE": 41.946415942
  }, 
  {
    "BUSINESS_TYPE": "Music and Dance", 
    "LEGAL_NAME": "MALOID JONES", 
    "STATE": "IL", 
    "DOING_BUSINESS_AS_NAME": "NEW CHECKERBOARD LOUNGE #2", 
    "POP_AT_RISK": 35913, 
    "ZIP": 60636, 
    "ADDRESS": "1634 W 69TH ST 1ST", 
    "YEAR": 2001, 
    "LONGITUDE": -87.665274308, 
    "LATTITUDE": 41.768645056
  }, 
  {
    "BUSINESS_TYPE": "Music and Dance", 
    "LEGAL_NAME": "MAXINE THOMAS", 
    "STATE": "IL", 
    "DOING_BUSINESS_AS_NAME": "THE ROSE", 
    "POP_AT_RISK": 33942, 
    "ZIP": 60644, 
    "ADDRESS": "5671-5673 W MADISON ST", 
    "YEAR": 2001, 
    "LONGITUDE": -87.767631011, 
    "LATTITUDE": 41.880093218
  }, 
  {
    "BUSINESS_TYPE": "Music and Dance", 
    "LEGAL_NAME": "ARTIS KING LUDD", 
    "STATE": "IL", 
    "DOING_BUSINESS_AS_NAME": "ARTIS KING LUDD", 
    "POP_AT_RISK": 33658, 
    "ZIP": 60619, 
    "ADDRESS": "1249 E 87TH ST 1ST", 
    "YEAR": 2001, 
    "LONGITUDE": -87.5930218, 
    "LATTITUDE": 41.736705257
  }, 
  {
    "BUSINESS_TYPE": "Music and Dance", 
    "LEGAL_NAME": "MENARD LIQUORS INC", 
    "STATE": "IL", 
    "DOING_BUSINESS_AS_NAME": "SIX PENNY B P", 
    "POP_AT_RISK": 43959, 
    "ZIP": 60634, 
    "ADDRESS": "5800 W MONTROSE AVE  1", 
    "YEAR": 2001, 
    "LONGITUDE": -87.772194431, 
    "LATTITUDE": 41.960527204
  }, 
  {
    "BUSINESS_TYPE": "Music and Dance", 
    "LEGAL_NAME": "SHEBA MIDDLE EAST RESTAURANT", 
    "STATE": "IL", 
    "DOING_BUSINESS_AS_NAME": "Governor's", 
    "POP_AT_RISK": 78633, 
    "ZIP": 60625, 
    "ADDRESS": "4613 N KEDZIE AVE 1ST", 
    "YEAR": 2001, 
    "LONGITUDE": -87.708221964, 
    "LATTITUDE": 41.965113976
  }, 
  {
    "BUSINESS_TYPE": "Music and Dance", 
    "LEGAL_NAME": "ESPIAL, LTD.", 
    "STATE": "IL", 
    "DOING_BUSINESS_AS_NAME": "ESPIAL LTD", 
    "POP_AT_RISK": 62420, 
    "ZIP": 60614, 
    "ADDRESS": "948 W ARMITAGE AVE", 
    "YEAR": 2001, 
    "LONGITUDE": -87.652888911, 
    "LATTITUDE": 41.918222369
  }, 
  {
    "BUSINESS_TYPE": "Music and Dance", 
    "LEGAL_NAME": "WITH A STICK, INC.", 
    "STATE": "IL", 
    "DOING_BUSINESS_AS_NAME": "COCKTAIL", 
    "POP_AT_RISK": 76728, 
    "ZIP": 60657, 
    "ADDRESS": "3359 N HALSTED ST", 
    "YEAR": 2001, 
    "LONGITUDE": -87.649226641, 
    "LATTITUDE": 41.943573161
  }, 
  {
    "BUSINESS_TYPE": "Music and Dance", 
    "LEGAL_NAME": "VINCENNES LOUNGE & REST INC", 
    "STATE": "IL", 
    "DOING_BUSINESS_AS_NAME": "LOOK IT OVER LOUNGE", 
    "POP_AT_RISK": 33694, 
    "ZIP": 60619, 
    "ADDRESS": "7857 S WOODLAWN AVE", 
    "YEAR": 2001, 
    "LONGITUDE": -87.595348139, 
    "LATTITUDE": 41.7515355
  }, 
  {
    "BUSINESS_TYPE": "Music and Dance", 
    "LEGAL_NAME": "MY COUSIN'S PLACE, INC.", 
    "STATE": "IL", 
    "DOING_BUSINESS_AS_NAME": "BACKDRAFTS", 
    "POP_AT_RISK": 20884, 
    "ZIP": 60652, 
    "ADDRESS": "8533-8535 S PULASKI RD # 1ST", 
    "YEAR": 2001, 
    "LONGITUDE": -87.72137826, 
    "LATTITUDE": 41.737504103
  }
]