[
{"STATE":"IL","ZIP":60647,"LATTITUDE":41.93012611532404,"ADDRESS":"2657 N KEDZIE AVE 2ND ","YEAR":2013,"DOING_BUSINESS_AS_NAME":"LONGMAN & EAGLE","POP_AT_RISK":1482390,"BUSINESS_TYPE":"Bed-And-Breakfast Establishment","LEGAL_NAME":"LOGAN B&B, LLC","LONGITUDE":-87.7072308071835},
{"STATE":"IL","ZIP":60610,"LATTITUDE":41.90301899645078,"ADDRESS":"113 W ELM ST  ","YEAR":2013,"DOING_BUSINESS_AS_NAME":"GOLD COAST GUEST HOUSE B & B","POP_AT_RISK":464592,"BUSINESS_TYPE":"Bed-And-Breakfast Establishment","LEGAL_NAME":"SALLY J. BAKER","LONGITUDE":-87.63199155014638},
{"STATE":"IL","ZIP":60626,"LATTITUDE":42.016815596678676,"ADDRESS":"7421 N SHERIDAN RD  ","YEAR":2013,"DOING_BUSINESS_AS_NAME":"THE LANG HOUSE B&B ON SHERIDAN","POP_AT_RISK":578512,"BUSINESS_TYPE":"Bed-And-Breakfast Establishment","LEGAL_NAME":"CAT'S CRADLE LLC","LONGITUDE":-87.66515820029109},
{"STATE":"IL","ZIP":60615,"LATTITUDE":41.807395667081856,"ADDRESS":"4810 S ELLIS AVE  ","YEAR":2013,"DOING_BUSINESS_AS_NAME":"HUTCHINS HOUSE LTD","POP_AT_RISK":475260,"BUSINESS_TYPE":"Bed-And-Breakfast Establishment","LEGAL_NAME":"HUTCHINS HOUSE LTD","LONGITUDE":-87.60180487566743},
{"STATE":"IL","ZIP":60640,"LATTITUDE":41.97527615293627,"ADDRESS":"1303 W WINONA ST 2 2","YEAR":2013,"DOING_BUSINESS_AS_NAME":"NINA'S BED AND BREAKFAST","POP_AT_RISK":1283381,"BUSINESS_TYPE":"Bed-And-Breakfast Establishment","LEGAL_NAME":"BARNES & HENLEY LLC","LONGITUDE":-87.66264799211612},
{"STATE":"IL","ZIP":60613,"LATTITUDE":41.95327822988729,"ADDRESS":"3924 N JANSSEN AVE  ","YEAR":2013,"DOING_BUSINESS_AS_NAME":"NYBERG B & B","POP_AT_RISK":1988792,"BUSINESS_TYPE":"Bed-And-Breakfast Establishment","LEGAL_NAME":"ANDERS AND MYRA NYBERG","LONGITUDE":-87.66596582772932},
{"STATE":"IL","ZIP":60653,"LATTITUDE":41.81125870704504,"ADDRESS":"4563 S MICHIGAN AVE 2ND ","YEAR":2013,"DOING_BUSINESS_AS_NAME":"WELCOME INN MANOR INC.","POP_AT_RISK":337722,"BUSINESS_TYPE":"Bed-And-Breakfast Establishment","LEGAL_NAME":"WELCOME INN MANOR INC.","LONGITUDE":-87.62274179271307},
{"STATE":"IL","ZIP":60610,"LATTITUDE":41.908809053563495,"ADDRESS":"1442 N NORTH PARK AVE  ","YEAR":2013,"DOING_BUSINESS_AS_NAME":"OLD TOWN CHICAGO BED & BREAKFAST","POP_AT_RISK":192138,"BUSINESS_TYPE":"Bed-And-Breakfast Establishment","LEGAL_NAME":"ELIZABETH GREGORY SERRITELLA","LONGITUDE":-87.6367393767414},
{}]