[
  {
    "BUSINESS_TYPE": "Tavern", 
    "LEGAL_NAME": "EXCALIBUR CLUB, INC.", 
    "STATE": "IL", 
    "DOING_BUSINESS_AS_NAME": "EXCALIBUR CLUB", 
    "POP_AT_RISK": 26093, 
    "ZIP": 60628, 
    "ADDRESS": "451 E 111TH ST", 
    "YEAR": 2012, 
    "LONGITUDE": -87.611377369, 
    "LATTITUDE": 41.692648793
  }, 
  {
    "BUSINESS_TYPE": "Tavern", 
    "LEGAL_NAME": "JAMES H. LEATHERWOOD", 
    "STATE": "IL", 
    "DOING_BUSINESS_AS_NAME": "NEW GRAND TERRACE", 
    "POP_AT_RISK": 36225, 
    "ZIP": 60616, 
    "ADDRESS": "206 E 35TH ST 2ND", 
    "YEAR": 2012, 
    "LONGITUDE": -87.621452991, 
    "LATTITUDE": 41.831172304
  }, 
  {
    "BUSINESS_TYPE": "Tavern", 
    "LEGAL_NAME": "ROMAN MYTNIK", 
    "STATE": "IL", 
    "DOING_BUSINESS_AS_NAME": "ROMANS INN", 
    "POP_AT_RISK": 20191, 
    "ZIP": 60631, 
    "ADDRESS": "6448 N MILWAUKEE AVE 1ST", 
    "YEAR": 2012, 
    "LONGITUDE": -87.789014216, 
    "LATTITUDE": 41.998404308
  }, 
  {
    "BUSINESS_TYPE": "Tavern", 
    "LEGAL_NAME": "THE NEW SOME PLACE ELSE, INC.", 
    "STATE": "IL", 
    "DOING_BUSINESS_AS_NAME": "THE NEW SOME PLACE ELSE LOUNGE", 
    "POP_AT_RISK": 26744, 
    "ZIP": 60643, 
    "ADDRESS": "11043 S ASHLAND AVE 1ST", 
    "YEAR": 2012, 
    "LONGITUDE": -87.661711113, 
    "LATTITUDE": 41.692637091
  }, 
  {
    "BUSINESS_TYPE": "Tavern", 
    "LEGAL_NAME": "NORTHWOODS LOUNGE INC", 
    "STATE": "IL", 
    "DOING_BUSINESS_AS_NAME": "NORTHWOODS LOUNGE", 
    "POP_AT_RISK": 24933, 
    "ZIP": 60656, 
    "ADDRESS": "5342 N CUMBERLAND AVE 1ST", 
    "YEAR": 2012, 
    "LONGITUDE": -87.836760961, 
    "LATTITUDE": 41.976805394
  }, 
  {
    "BUSINESS_TYPE": "Tavern", 
    "LEGAL_NAME": "PALMER ENTERPRISES, LIMITED", 
    "STATE": "IL", 
    "DOING_BUSINESS_AS_NAME": "MIKE'S LOUNGE", 
    "POP_AT_RISK": 27135, 
    "ZIP": 60628, 
    "ADDRESS": "10253 S CALUMET AVE 1ST", 
    "YEAR": 2012, 
    "LONGITUDE": -87.614848221, 
    "LATTITUDE": 41.70755755
  }, 
  {
    "BUSINESS_TYPE": "Tavern", 
    "LEGAL_NAME": "THE 9705 CORPORATION", 
    "STATE": "IL", 
    "DOING_BUSINESS_AS_NAME": "9705 CORP", 
    "POP_AT_RISK": 25334, 
    "ZIP": 60628, 
    "ADDRESS": "9705 S HALSTED ST  1", 
    "YEAR": 2012, 
    "LONGITUDE": -87.642958666, 
    "LATTITUDE": 41.717541962
  }, 
  {
    "BUSINESS_TYPE": "Tavern", 
    "LEGAL_NAME": "KENNY & HELEN ROBINSON", 
    "STATE": "IL", 
    "DOING_BUSINESS_AS_NAME": "HIDIRI", 
    "POP_AT_RISK": 18513, 
    "ZIP": 60619, 
    "ADDRESS": "1008 E 93RD ST 1ST", 
    "YEAR": 2012, 
    "LONGITUDE": -87.599297643, 
    "LATTITUDE": 41.72589432
  }
]