[
  {
    "BUSINESS_TYPE": "Street Performer", 
    "LEGAL_NAME": "CORDERO CLARK", 
    "STATE": "IL", 
    "DOING_BUSINESS_AS_NAME": "CORDERO CLARK", 
    "POP_AT_RISK": 64571, 
    "ZIP": 60629, 
    "ADDRESS": "5944 S SPAULDING AVE", 
    "YEAR": 2009, 
    "LONGITUDE": -87.705874459, 
    "LATTITUDE": 41.78487298
  }, 
  {
    "BUSINESS_TYPE": "Street Performer", 
    "LEGAL_NAME": "JEANNA JOHNSON", 
    "STATE": "IL", 
    "DOING_BUSINESS_AS_NAME": "JEANNA JOHNSON", 
    "POP_AT_RISK": 35004, 
    "ZIP": 60632, 
    "ADDRESS": "4929 S KOSTNER AVE 1 1", 
    "YEAR": 2009, 
    "LONGITUDE": -87.733099415, 
    "LATTITUDE": 41.803210427
  }, 
  {
    "BUSINESS_TYPE": "Street Performer", 
    "LEGAL_NAME": "CARMEN SALINAS", 
    "STATE": "IL", 
    "DOING_BUSINESS_AS_NAME": "CARMEN SALINAS", 
    "POP_AT_RISK": 24259, 
    "ZIP": 60609, 
    "ADDRESS": "2038 W 35TH ST", 
    "YEAR": 2009, 
    "LONGITUDE": -87.676878076, 
    "LATTITUDE": 41.830481857
  }, 
  {
    "BUSINESS_TYPE": "Street Performer", 
    "LEGAL_NAME": "MICHAEL KERRELL SANDERS", 
    "STATE": "IL", 
    "DOING_BUSINESS_AS_NAME": "MICHAEL KERRELL SANDERS", 
    "POP_AT_RISK": 6482, 
    "ZIP": 60827, 
    "ADDRESS": "1124 E 132ND ST", 
    "YEAR": 2009, 
    "LONGITUDE": -87.594392225, 
    "LATTITUDE": 41.655935656
  }, 
  {
    "BUSINESS_TYPE": "Street Performer", 
    "LEGAL_NAME": "LORRAINE RUNGE", 
    "STATE": "IL", 
    "DOING_BUSINESS_AS_NAME": "LORRAINE RUNGE", 
    "POP_AT_RISK": 24680, 
    "ZIP": 60656, 
    "ADDRESS": "7135 W SUMMERDALE AVE", 
    "YEAR": 2009, 
    "LONGITUDE": -87.806146942, 
    "LATTITUDE": 41.977764885
  }, 
  {
    "BUSINESS_TYPE": "Street Performer", 
    "LEGAL_NAME": "LEE M. DARROW", 
    "STATE": "IL", 
    "DOING_BUSINESS_AS_NAME": "LEE M. DARROW", 
    "POP_AT_RISK": 30155, 
    "ZIP": 60617, 
    "ADDRESS": "2215 E 83RD ST", 
    "YEAR": 2009, 
    "LONGITUDE": -87.570336462, 
    "LATTITUDE": 41.744295745
  }, 
  {
    "BUSINESS_TYPE": "Street Performer", 
    "LEGAL_NAME": "MATSON D. ADAMS, JR", 
    "STATE": "IL", 
    "DOING_BUSINESS_AS_NAME": "MATSON DARIUS ADAMS JR.", 
    "POP_AT_RISK": 26756, 
    "ZIP": 60707, 
    "ADDRESS": "2431 N NEVA AVE", 
    "YEAR": 2009, 
    "LONGITUDE": -87.804266325, 
    "LATTITUDE": 41.924712573
  }, 
  {
    "BUSINESS_TYPE": "Street Performer", 
    "LEGAL_NAME": "JAMES PATRICK SHINE", 
    "STATE": "IL", 
    "DOING_BUSINESS_AS_NAME": "JAMES PATRICK SHINE", 
    "POP_AT_RISK": 22077, 
    "ZIP": 60652, 
    "ADDRESS": "7827 S KENNETH AVE 1", 
    "YEAR": 2009, 
    "LONGITUDE": -87.732752359, 
    "LATTITUDE": 41.750305703
  }, 
  {
    "BUSINESS_TYPE": "Street Performer", 
    "LEGAL_NAME": "LISA L. JANOSCHKA", 
    "STATE": "IL", 
    "DOING_BUSINESS_AS_NAME": "LISA L. JANOSCHKA", 
    "POP_AT_RISK": 27547, 
    "ZIP": 60630, 
    "ADDRESS": "5481 N NORTHWEST HWY 2ND 2", 
    "YEAR": 2009, 
    "LONGITUDE": -87.777476599, 
    "LATTITUDE": 41.980383565
  }, 
  {
    "BUSINESS_TYPE": "Street Performer", 
    "LEGAL_NAME": "THOMAS M SEXTON", 
    "STATE": "IL", 
    "DOING_BUSINESS_AS_NAME": "THOMAS M SEXTON", 
    "POP_AT_RISK": 12033, 
    "ZIP": 60656, 
    "ADDRESS": "8615 W SUNNYSIDE AVE 1ST", 
    "YEAR": 2009, 
    "LONGITUDE": -87.842301739, 
    "LATTITUDE": 41.961202595
  }, 
  {
    "BUSINESS_TYPE": "Street Performer", 
    "LEGAL_NAME": "DEBORAH A. HUBBARD-PARKS", 
    "STATE": "IL", 
    "DOING_BUSINESS_AS_NAME": "DEBORAH A. HUBBARD-PARKS", 
    "POP_AT_RISK": 24321, 
    "ZIP": 60628, 
    "ADDRESS": "10058 S PRAIRIE AVE", 
    "YEAR": 2009, 
    "LONGITUDE": -87.617661351, 
    "LATTITUDE": 41.710989684
  }, 
  {
    "BUSINESS_TYPE": "Street Performer", 
    "LEGAL_NAME": "JOHN JOSEPH TAUS", 
    "STATE": "IL", 
    "DOING_BUSINESS_AS_NAME": "JOHN JOSEPH TAUS", 
    "POP_AT_RISK": 19727, 
    "ZIP": 60617, 
    "ADDRESS": "10132 S EWING AVE", 
    "YEAR": 2009, 
    "LONGITUDE": -87.535427955, 
    "LATTITUDE": 41.711009451
  }, 
  {
    "BUSINESS_TYPE": "Street Performer", 
    "LEGAL_NAME": "GILBERT R. CORONEL", 
    "STATE": "IL", 
    "DOING_BUSINESS_AS_NAME": "GILBERT R. CORONEL", 
    "POP_AT_RISK": 55277, 
    "ZIP": 60623, 
    "ADDRESS": "2715 S TROY ST BASEMENT", 
    "YEAR": 2009, 
    "LONGITUDE": -87.703598771, 
    "LATTITUDE": 41.842230639
  }, 
  {
    "BUSINESS_TYPE": "Street Performer", 
    "LEGAL_NAME": "JONATHAN K. ST. CLAIR", 
    "STATE": "IL", 
    "DOING_BUSINESS_AS_NAME": "JONATHAN K. ST. CLAIR", 
    "POP_AT_RISK": 33732, 
    "ZIP": 60619, 
    "ADDRESS": "541 E 87TH ST", 
    "YEAR": 2009, 
    "LONGITUDE": -87.610436507, 
    "LATTITUDE": 41.736455474
  }, 
  {
    "BUSINESS_TYPE": "Street Performer", 
    "LEGAL_NAME": "LARRY LEE STEWART", 
    "STATE": "IL", 
    "DOING_BUSINESS_AS_NAME": "LARRY LEE STEWART", 
    "POP_AT_RISK": 20309, 
    "ZIP": 60628, 
    "ADDRESS": "739 E 105TH ST", 
    "YEAR": 2009, 
    "LONGITUDE": -87.604741925, 
    "LATTITUDE": 41.703684474
  }, 
  {
    "BUSINESS_TYPE": "Street Performer", 
    "LEGAL_NAME": "DANIEL A. GOODE", 
    "STATE": "IL", 
    "DOING_BUSINESS_AS_NAME": "DANIEL A. GOODE", 
    "POP_AT_RISK": 16562, 
    "ZIP": 60659, 
    "ADDRESS": "6243 N SPRINGFIELD AVE HSE", 
    "YEAR": 2009, 
    "LONGITUDE": -87.726274871, 
    "LATTITUDE": 41.994949016
  }, 
  {
    "BUSINESS_TYPE": "Street Performer", 
    "LEGAL_NAME": "CAROL EPHRAIM", 
    "STATE": "IL", 
    "DOING_BUSINESS_AS_NAME": "CAROL EPHRAIM", 
    "POP_AT_RISK": 32143, 
    "ZIP": 60652, 
    "ADDRESS": "3643 W 79TH ST", 
    "YEAR": 2009, 
    "LONGITUDE": -87.713778115, 
    "LATTITUDE": 41.749455613
  }, 
  {
    "BUSINESS_TYPE": "Street Performer", 
    "LEGAL_NAME": "JANE MARIE WRIGHT", 
    "STATE": "IL", 
    "DOING_BUSINESS_AS_NAME": "JANE WRIGHT", 
    "POP_AT_RISK": 20929, 
    "ZIP": 60617, 
    "ADDRESS": "9525 S CLYDE AVE 1", 
    "YEAR": 2009, 
    "LONGITUDE": -87.571553103, 
    "LATTITUDE": 41.721739712
  }, 
  {
    "BUSINESS_TYPE": "Street Performer", 
    "LEGAL_NAME": "CECIL D LOCKE", 
    "STATE": "IL", 
    "DOING_BUSINESS_AS_NAME": "CECIL D LOCKE", 
    "POP_AT_RISK": 48881, 
    "ZIP": 60609, 
    "ADDRESS": "5347 S WOOD ST 1ST", 
    "YEAR": 2009, 
    "LONGITUDE": -87.669360606, 
    "LATTITUDE": 41.796248088
  }, 
  {
    "BUSINESS_TYPE": "Street Performer", 
    "LEGAL_NAME": "MARK R. NAMBO", 
    "STATE": "IL", 
    "DOING_BUSINESS_AS_NAME": "MARK R. NAMBO", 
    "POP_AT_RISK": 32897, 
    "ZIP": 60629, 
    "ADDRESS": "7310 S CALIFORNIA AVE", 
    "YEAR": 2009, 
    "LONGITUDE": -87.693062607, 
    "LATTITUDE": 41.760519317
  }, 
  {
    "BUSINESS_TYPE": "Street Performer", 
    "LEGAL_NAME": "EUGENE S. LOGAN III", 
    "STATE": "IL", 
    "DOING_BUSINESS_AS_NAME": "EUGENE S. LOGAN III", 
    "POP_AT_RISK": 34293, 
    "ZIP": 60628, 
    "ADDRESS": "11008 S NORMAL AVE", 
    "YEAR": 2009, 
    "LONGITUDE": -87.635333296, 
    "LATTITUDE": 41.693982122
  }, 
  {
    "BUSINESS_TYPE": "Street Performer", 
    "LEGAL_NAME": "JASON M. NEWMAN", 
    "STATE": "IL", 
    "DOING_BUSINESS_AS_NAME": "JASON M. NEWMAN", 
    "POP_AT_RISK": 23487, 
    "ZIP": 60643, 
    "ADDRESS": "1510 W 114TH PL", 
    "YEAR": 2009, 
    "LONGITUDE": -87.660495012, 
    "LATTITUDE": 41.685851732
  }, 
  {
    "BUSINESS_TYPE": "Street Performer", 
    "LEGAL_NAME": "LEONEL LOEZA JR.", 
    "STATE": "IL", 
    "DOING_BUSINESS_AS_NAME": "LEONEL LOEZA JR.", 
    "POP_AT_RISK": 26799, 
    "ZIP": 60629, 
    "ADDRESS": "6437 S KILPATRICK AVE", 
    "YEAR": 2009, 
    "LONGITUDE": -87.739611156, 
    "LATTITUDE": 41.775533098
  }, 
  {
    "BUSINESS_TYPE": "Street Performer", 
    "LEGAL_NAME": "XAVIER ALEJANDRO CHAVEZ", 
    "STATE": "IL", 
    "DOING_BUSINESS_AS_NAME": "XAVIER ALEJANDRO CHAVEZ", 
    "POP_AT_RISK": 44304, 
    "ZIP": 60632, 
    "ADDRESS": "4312 S MOZART ST", 
    "YEAR": 2009, 
    "LONGITUDE": -87.695788023, 
    "LATTITUDE": 41.815093748
  }, 
  {
    "BUSINESS_TYPE": "Street Performer", 
    "LEGAL_NAME": "LORITA ANN METLOW", 
    "STATE": "IL", 
    "DOING_BUSINESS_AS_NAME": "LORITA ANN METLOW", 
    "POP_AT_RISK": 22813, 
    "ZIP": 60638, 
    "ADDRESS": "5814 S ARCHER AVE", 
    "YEAR": 2009, 
    "LONGITUDE": -87.759168332, 
    "LATTITUDE": 41.796324314
  }, 
  {
    "BUSINESS_TYPE": "Street Performer", 
    "LEGAL_NAME": "SHARON DAWN  MIDDLETON", 
    "STATE": "IL", 
    "DOING_BUSINESS_AS_NAME": "SHARON DAWN MIDDLETON", 
    "POP_AT_RISK": 26368, 
    "ZIP": 60631, 
    "ADDRESS": "6502 W DEVON AVE", 
    "YEAR": 2009, 
    "LONGITUDE": -87.7900211, 
    "LATTITUDE": 41.997447676
  }, 
  {
    "BUSINESS_TYPE": "Street Performer", 
    "LEGAL_NAME": "OTTO C. RICHARD", 
    "STATE": "IL", 
    "DOING_BUSINESS_AS_NAME": "OTTO C RICHARD", 
    "POP_AT_RISK": 37320, 
    "ZIP": 60619, 
    "ADDRESS": "8404 S DORCHESTER AVE", 
    "YEAR": 2009, 
    "LONGITUDE": -87.590549681, 
    "LATTITUDE": 41.742111581
  }
]