[
{"STATE":"IL","ZIP":60645,"LATTITUDE":42.00397948469877,"ADDRESS":"6720 N DAMEN AVE  ","YEAR":2006,"DOING_BUSINESS_AS_NAME":"JAMES ABE","POP_AT_RISK":81988,"BUSINESS_TYPE":"Street Performer","LEGAL_NAME":"JAMES ABE","LONGITUDE":-87.68047966732321},
{"STATE":"IL","ZIP":60638,"LATTITUDE":41.777774927475114,"ADDRESS":"5931 W 63RD ST  ","YEAR":2006,"DOING_BUSINESS_AS_NAME":"ROSIE LEE","POP_AT_RISK":56814,"BUSINESS_TYPE":"Street Performer","LEGAL_NAME":"ROSIE LEE","LONGITUDE":-87.77033035916966},
{"STATE":"IL","ZIP":60649,"LATTITUDE":41.76977854545002,"ADDRESS":"6900 S CRANDON AVE  413","YEAR":2006,"DOING_BUSINESS_AS_NAME":"ANDREW ODOM","POP_AT_RISK":32423,"BUSINESS_TYPE":"Street Performer","LEGAL_NAME":"ANDREW ODOM","LONGITUDE":-87.57001530092332},
{"STATE":"IL","ZIP":60630,"LATTITUDE":41.966014989671244,"ADDRESS":"5738 W LELAND AVE  ","YEAR":2006,"DOING_BUSINESS_AS_NAME":"FRED GALATI","POP_AT_RISK":43924,"BUSINESS_TYPE":"Street Performer","LEGAL_NAME":"FRED GALATI","LONGITUDE":-87.77143391538988},
{"STATE":"IL","ZIP":60634,"LATTITUDE":41.9499493662751,"ADDRESS":"3833 N NOTTINGHAM AVE  ","YEAR":2006,"DOING_BUSINESS_AS_NAME":"MISSION CRISTIAN ELIM CHURCH","POP_AT_RISK":53846,"BUSINESS_TYPE":"Street Performer","LEGAL_NAME":"RAY ALVAREZ","LONGITUDE":-87.80457677131378},
{"STATE":"IL","ZIP":60609,"LATTITUDE":41.826808599751416,"ADDRESS":"3659 S HOYNE AVE  1F","YEAR":2006,"DOING_BUSINESS_AS_NAME":"BRET A KOONTZ","POP_AT_RISK":35927,"BUSINESS_TYPE":"Street Performer","LEGAL_NAME":"BRET A KOONTZ","LONGITUDE":-87.67747759504144},
{"STATE":"IL","ZIP":60644,"LATTITUDE":41.865723858599125,"ADDRESS":"1153 S AUSTIN BLVD  ","YEAR":2006,"DOING_BUSINESS_AS_NAME":"GINA M MILLER","POP_AT_RISK":254868,"BUSINESS_TYPE":"Street Performer","LEGAL_NAME":"GINA M MILLER","LONGITUDE":-87.77399260921713},
{"STATE":"IL","ZIP":60612,"LATTITUDE":41.88552542818158,"ADDRESS":"3124 W WALNUT ST  ","YEAR":2006,"DOING_BUSINESS_AS_NAME":"NORMAN K SMITH","POP_AT_RISK":35101,"BUSINESS_TYPE":"Street Performer","LEGAL_NAME":"NORMAN K SMITH","LONGITUDE":-87.70483005985442},
{"STATE":"IL","ZIP":60634,"LATTITUDE":41.93787055581471,"ADDRESS":"3140 N AUSTIN AVE  ","YEAR":2006,"DOING_BUSINESS_AS_NAME":"CESAR A. JUAREZ","POP_AT_RISK":108222,"BUSINESS_TYPE":"Street Performer","LEGAL_NAME":"CESAR A. JUAREZ","LONGITUDE":-87.77634412177606},
{"STATE":"IL","ZIP":60628,"LATTITUDE":41.68101379589991,"ADDRESS":"11717 S STATE ST  ","YEAR":2006,"DOING_BUSINESS_AS_NAME":"FRANK SCOTT JR","POP_AT_RISK":48786,"BUSINESS_TYPE":"Street Performer","LEGAL_NAME":"FRANK SCOTT JR.","LONGITUDE":-87.6226064336375},
{"STATE":"IL","ZIP":60632,"LATTITUDE":41.80212112484893,"ADDRESS":"5023 S FAIRFIELD  BSMT ","YEAR":2006,"DOING_BUSINESS_AS_NAME":"RONALD L MILLER","POP_AT_RISK":327690,"BUSINESS_TYPE":"Street Performer","LEGAL_NAME":"RONALD L MILLER","LONGITUDE":-87.69266205513807},
{"STATE":"IL","ZIP":60621,"LATTITUDE":41.77842330898274,"ADDRESS":"6340 S ABERDEEN ST  `","YEAR":2006,"DOING_BUSINESS_AS_NAME":"JABOWEN S DIXON","POP_AT_RISK":106032,"BUSINESS_TYPE":"Street Performer","LEGAL_NAME":"JABOWEN  S DIXON","LONGITUDE":-87.65218636472981},
{"STATE":"IL","ZIP":60620,"LATTITUDE":41.72257973422157,"ADDRESS":"9428 S LAFAYETTE AVE 3RD ","YEAR":2006,"DOING_BUSINESS_AS_NAME":"LAURENCE A JONES","POP_AT_RISK":63322,"BUSINESS_TYPE":"Street Performer","LEGAL_NAME":"LAURENCE A JONES","LONGITUDE":-87.62521706354833},
{"STATE":"IL","ZIP":60629,"LATTITUDE":41.7755330983029,"ADDRESS":"6437 S KILPATRICK AVE  ","YEAR":2006,"DOING_BUSINESS_AS_NAME":"LEONEL LOEZA JR.","POP_AT_RISK":94140,"BUSINESS_TYPE":"Street Performer","LEGAL_NAME":"LEONEL LOEZA JR.","LONGITUDE":-87.73961115561566},
{"STATE":"IL","ZIP":60624,"LATTITUDE":41.88917657089958,"ADDRESS":"438 N SPRINGFIELD AVE  ","YEAR":2006,"DOING_BUSINESS_AS_NAME":"RUFUS LUCKETT SR","POP_AT_RISK":38246,"BUSINESS_TYPE":"Street Performer","LEGAL_NAME":"RUFUS LUCKETT SR","LONGITUDE":-87.7236133006893},
{"STATE":"IL","ZIP":60647,"LATTITUDE":41.91436480499542,"ADDRESS":"1821 N ST LOUIS AVE 1 ","YEAR":2006,"DOING_BUSINESS_AS_NAME":"STEVEN C. KENLEY","POP_AT_RISK":338515,"BUSINESS_TYPE":"Street Performer","LEGAL_NAME":"STEVEN C. KENLEY","LONGITUDE":-87.71329499288481},
{"STATE":"IL","ZIP":60624,"LATTITUDE":41.88178632184437,"ADDRESS":"4507 W WASHINGTON BLVD  315","YEAR":2006,"DOING_BUSINESS_AS_NAME":"WARDELL MCCLAIN","POP_AT_RISK":41070,"BUSINESS_TYPE":"Street Performer","LEGAL_NAME":"WARDELL  MCCLAIN","LONGITUDE":-87.73831162413308},
{"STATE":"IL","ZIP":60636,"LATTITUDE":41.76333681976745,"ADDRESS":"1214 W 72ND ST  80","YEAR":2006,"DOING_BUSINESS_AS_NAME":"ALVARO B VILLEGAS","POP_AT_RISK":39434,"BUSINESS_TYPE":"Street Performer","LEGAL_NAME":"ALVARO B VILLEGAS","LONGITUDE":-87.65474357534882},
{"STATE":"IL","ZIP":60645,"LATTITUDE":42.015513753247824,"ADDRESS":"2927 W JARVIS AVE  ","YEAR":2006,"DOING_BUSINESS_AS_NAME":"ELIZABETH A. LAND","POP_AT_RISK":72129,"BUSINESS_TYPE":"Street Performer","LEGAL_NAME":"ELIZABETH A. LAND","LONGITUDE":-87.7030787692355},
{"STATE":"IL","ZIP":60637,"LATTITUDE":41.786641179348365,"ADDRESS":"5924 S MICHIGAN AVE 1ST ","YEAR":2006,"DOING_BUSINESS_AS_NAME":"JAMES M WILKERSON","POP_AT_RISK":26050,"BUSINESS_TYPE":"Street Performer","LEGAL_NAME":"JAMES M WILKERSON","LONGITUDE":-87.62240475369265},
{"STATE":"IL","ZIP":60617,"LATTITUDE":41.72173971187443,"ADDRESS":"9525 S CLYDE AVE 1 ","YEAR":2006,"DOING_BUSINESS_AS_NAME":"JANE WRIGHT","POP_AT_RISK":104645,"BUSINESS_TYPE":"Street Performer","LEGAL_NAME":"JANE MARIE WRIGHT","LONGITUDE":-87.57155310349063},
{"STATE":"IL","ZIP":60626,"LATTITUDE":42.0207184562741,"ADDRESS":"7655 N SHERIDAN RD  #3S","YEAR":2006,"DOING_BUSINESS_AS_NAME":"JOSHUA B SAFFORD","POP_AT_RISK":40227,"BUSINESS_TYPE":"Street Performer","LEGAL_NAME":"JOSHUA B. SAFFORD","LONGITUDE":-87.666321305577},
{"STATE":"IL","ZIP":60628,"LATTITUDE":41.703684473874304,"ADDRESS":"739 E 105TH ST  ","YEAR":2006,"DOING_BUSINESS_AS_NAME":"LARRY LEE STEWART","POP_AT_RISK":20309,"BUSINESS_TYPE":"Street Performer","LEGAL_NAME":"LARRY LEE STEWART","LONGITUDE":-87.6047419252213},
{"STATE":"NY","ZIP":10027,"LATTITUDE":41.666894437741654,"ADDRESS":"421 W 125TH ST  8","YEAR":2006,"DOING_BUSINESS_AS_NAME":"TIFFANY K. HODGES","POP_AT_RISK":31242,"BUSINESS_TYPE":"Street Performer","LEGAL_NAME":"TIFFANY K. HODGES","LONGITUDE":-87.63287416489231},
{"STATE":"IL","ZIP":60619,"LATTITUDE":41.76182107449947,"ADDRESS":"7307 S VERNON AVE  ","YEAR":2006,"DOING_BUSINESS_AS_NAME":"SIR WILLY C","POP_AT_RISK":33744,"BUSINESS_TYPE":"Street Performer","LEGAL_NAME":"WILLIAM L CARY JR","LONGITUDE":-87.61381715355398},
{"STATE":"IL","ZIP":60630,"LATTITUDE":41.96519346557691,"ADDRESS":"4623 N KOSTNER AVE  ","YEAR":2006,"DOING_BUSINESS_AS_NAME":"GERRY P. O'CONNELL","POP_AT_RISK":49999,"BUSINESS_TYPE":"Street Performer","LEGAL_NAME":"GERRY P. O'CONNELL","LONGITUDE":-87.73841963488019},
{"STATE":"IL","ZIP":60623,"LATTITUDE":41.8422306390621,"ADDRESS":"2715 S TROY ST BASEMENT ","YEAR":2006,"DOING_BUSINESS_AS_NAME":"GILBERT R. CORONEL","POP_AT_RISK":306080,"BUSINESS_TYPE":"Street Performer","LEGAL_NAME":"GILBERT R. CORONEL","LONGITUDE":-87.70359877060741},
{"STATE":"IL","ZIP":60628,"LATTITUDE":41.695954775488296,"ADDRESS":"10909 S EDBROOKE AVE  ","YEAR":2006,"DOING_BUSINESS_AS_NAME":"RONNIE SELLERS JR.","POP_AT_RISK":57184,"BUSINESS_TYPE":"Street Performer","LEGAL_NAME":"RONNIE SELLERS JR.","LONGITUDE":-87.61941926564319},
{"STATE":"IL","ZIP":60636,"LATTITUDE":41.764765054797024,"ADDRESS":"1713 W 71ST ST  ","YEAR":2006,"DOING_BUSINESS_AS_NAME":"STEPHEN D. COLLINS","POP_AT_RISK":43695,"BUSINESS_TYPE":"Street Performer","LEGAL_NAME":"STEPHEN D. COLLINS","LONGITUDE":-87.66680988584088},
{"STATE":"IL","ZIP":60639,"LATTITUDE":41.929623770436464,"ADDRESS":"5404 W SCHUBERT AVE  ","YEAR":2006,"DOING_BUSINESS_AS_NAME":"STEVEN D. FINNEGAN","POP_AT_RISK":70728,"BUSINESS_TYPE":"Street Performer","LEGAL_NAME":"STEVEN D. FINNEGAN","LONGITUDE":-87.76154776462147},
{"STATE":"IL","ZIP":60620,"LATTITUDE":41.73511231339348,"ADDRESS":"8720 S ASHLAND AVE 3 3B","YEAR":2006,"DOING_BUSINESS_AS_NAME":"VICTOR M WALKER JR","POP_AT_RISK":426811,"BUSINESS_TYPE":"Street Performer","LEGAL_NAME":"VICTOR M WALKER JR","LONGITUDE":-87.66319455689805},
{"STATE":"IL","ZIP":60612,"LATTITUDE":41.890783752502415,"ADDRESS":"2340 W GRAND AVE  ","YEAR":2006,"DOING_BUSINESS_AS_NAME":"MARC EDWARD ANDREWS","POP_AT_RISK":43250,"BUSINESS_TYPE":"Street Performer","LEGAL_NAME":"MARC EDWARD ANDREWS","LONGITUDE":-87.68586246414674},
{"STATE":"IL","ZIP":60619,"LATTITUDE":41.7489210268322,"ADDRESS":"8005 S STATE ST  ","YEAR":2006,"DOING_BUSINESS_AS_NAME":"MARTIN L. DUMAS III","POP_AT_RISK":68514,"BUSINESS_TYPE":"Street Performer","LEGAL_NAME":"MARTIN L. DUMAS III","LONGITUDE":-87.62432621837802},
{"STATE":"IL","ZIP":60637,"LATTITUDE":41.77379896668718,"ADDRESS":"6640 S GREENWOOD AVE  3B","YEAR":2006,"DOING_BUSINESS_AS_NAME":"TOMEKA REID","POP_AT_RISK":194095,"BUSINESS_TYPE":"Street Performer","LEGAL_NAME":"TOMEKA SUMMERS REID","LONGITUDE":-87.59984810386912},
{"STATE":"IL","ZIP":60652,"LATTITUDE":41.7533343388514,"ADDRESS":"4260 W FORD CITY DR  104","YEAR":2006,"DOING_BUSINESS_AS_NAME":"VIMONT F. BROGSDALE","POP_AT_RISK":33516,"BUSINESS_TYPE":"Street Performer","LEGAL_NAME":"VIMONT F. BROGSDALE","LONGITUDE":-87.72906554788531},
{"STATE":"IL","ZIP":60659,"LATTITUDE":41.983679712399955,"ADDRESS":"5621 N CHRISTIANA AVE 3 ","YEAR":2006,"DOING_BUSINESS_AS_NAME":"AMANDA COHEN","POP_AT_RISK":110464,"BUSINESS_TYPE":"Street Performer","LEGAL_NAME":"AMANDA MERDITH COHEN","LONGITUDE":-87.71240568836679},
{"STATE":"IL","ZIP":60617,"LATTITUDE":41.7490377464978,"ADDRESS":"8027 S YATES BLVD  ","YEAR":2006,"DOING_BUSINESS_AS_NAME":"JOHN HOWELL","POP_AT_RISK":102153,"BUSINESS_TYPE":"Street Performer","LEGAL_NAME":"HOWELL TRUCKING INC.","LONGITUDE":-87.56604052855593},
{"STATE":"IL","ZIP":60623,"LATTITUDE":41.864253236300215,"ADDRESS":"1309 S KEDZIE AVE  ","YEAR":2006,"DOING_BUSINESS_AS_NAME":"JOE EARL JACKSON JR","POP_AT_RISK":160620,"BUSINESS_TYPE":"Street Performer","LEGAL_NAME":"JOE EARL JACKSON JR.","LONGITUDE":-87.70545891080064},
{"STATE":"IL","ZIP":60619,"LATTITUDE":41.73745337420913,"ADDRESS":"8635 S DREXEL AVE 2 ","YEAR":2006,"DOING_BUSINESS_AS_NAME":"LEONARD D. MAJOR, SR.","POP_AT_RISK":39907,"BUSINESS_TYPE":"Street Performer","LEGAL_NAME":"LEONARD D. MAJOR, SR.","LONGITUDE":-87.6022718398251},
{"STATE":"IL","ZIP":60623,"LATTITUDE":41.85735883126501,"ADDRESS":"1662 S TROY ST  ","YEAR":2006,"DOING_BUSINESS_AS_NAME":"RICHARD LAMONT CEASAR","POP_AT_RISK":56282,"BUSINESS_TYPE":"Street Performer","LEGAL_NAME":"RICHARD LAMONT CEASAR","LONGITUDE":-87.7043476270793},
{"STATE":"IL","ZIP":60643,"LATTITUDE":41.71316042726137,"ADDRESS":"9932 S SANGAMON ST 1 ","YEAR":2006,"DOING_BUSINESS_AS_NAME":"CARLTON MAGELLAN WATTS JR.","POP_AT_RISK":105948,"BUSINESS_TYPE":"Street Performer","LEGAL_NAME":"CARLTON MAGELLAN WATTS JR.","LONGITUDE":-87.6467890258547},
{}]