[
  {
    "BUSINESS_TYPE": "Junk Peddler", 
    "LEGAL_NAME": "LEON WILLIAMS", 
    "STATE": "IL", 
    "DOING_BUSINESS_AS_NAME": "LEON WILLIAMS", 
    "POP_AT_RISK": 62755, 
    "ZIP": 60639, 
    "ADDRESS": "2016 N LAMON AVE 2 WEST", 
    "YEAR": 2003, 
    "LONGITUDE": -87.748832698, 
    "LATTITUDE": 41.917443993
  }, 
  {
    "BUSINESS_TYPE": "Junk Peddler", 
    "LEGAL_NAME": "RAUL PEREZ", 
    "STATE": "IL", 
    "DOING_BUSINESS_AS_NAME": "RAUL PEREZ", 
    "POP_AT_RISK": 79577, 
    "ZIP": 60625, 
    "ADDRESS": "4540 N ST LOUIS AVE", 
    "YEAR": 2003, 
    "LONGITUDE": -87.715825127, 
    "LATTITUDE": 41.964137719
  }, 
  {
    "BUSINESS_TYPE": "Junk Peddler", 
    "LEGAL_NAME": "HIGINIO HERNANDEZ", 
    "STATE": "IL", 
    "DOING_BUSINESS_AS_NAME": "HIGINIO JUNK DEALER", 
    "POP_AT_RISK": 68885, 
    "ZIP": 60647, 
    "ADDRESS": "1638 N FAIRFIELD AVE", 
    "YEAR": 2003, 
    "LONGITUDE": -87.695943944, 
    "LATTITUDE": 41.911399968
  }, 
  {
    "BUSINESS_TYPE": "Junk Peddler", 
    "LEGAL_NAME": "DANIEL BARAN", 
    "STATE": "IL", 
    "DOING_BUSINESS_AS_NAME": "DANIEL BARAN", 
    "POP_AT_RISK": 45927, 
    "ZIP": 60609, 
    "ADDRESS": "5225 S DAMEN AVE", 
    "YEAR": 2003, 
    "LONGITUDE": -87.674290227, 
    "LATTITUDE": 41.798627511
  }, 
  {
    "BUSINESS_TYPE": "Junk Peddler", 
    "LEGAL_NAME": "MARIA ZACATENCO", 
    "STATE": "IL", 
    "DOING_BUSINESS_AS_NAME": "MARIA ZACATENCO", 
    "POP_AT_RISK": 48242, 
    "ZIP": 60707, 
    "ADDRESS": "2615 N NEWCASTLE AVE 1ST", 
    "YEAR": 2003, 
    "LONGITUDE": -87.796446448, 
    "LATTITUDE": 41.92771745
  }, 
  {
    "BUSINESS_TYPE": "Junk Peddler", 
    "LEGAL_NAME": "MARY GONZALEZ", 
    "STATE": "IL", 
    "DOING_BUSINESS_AS_NAME": "MARY GONZALEZ", 
    "POP_AT_RISK": 71756, 
    "ZIP": 60613, 
    "ADDRESS": "3614 N LINCOLN AVE", 
    "YEAR": 2003, 
    "LONGITUDE": -87.674242398, 
    "LATTITUDE": 41.947424759
  }, 
  {
    "BUSINESS_TYPE": "Junk Peddler", 
    "LEGAL_NAME": "FILIBERTO HURTADO", 
    "STATE": "IL", 
    "DOING_BUSINESS_AS_NAME": "FILLIBERTO  HURTADO", 
    "POP_AT_RISK": 67901, 
    "ZIP": 60618, 
    "ADDRESS": "3055 N AVERS AVE", 
    "YEAR": 2003, 
    "LONGITUDE": -87.721984865, 
    "LATTITUDE": 41.936538635
  }, 
  {
    "BUSINESS_TYPE": "Junk Peddler", 
    "LEGAL_NAME": "AUSTREBERTO TELLO", 
    "STATE": "IL", 
    "DOING_BUSINESS_AS_NAME": "AUSTREBERTO TELLO", 
    "POP_AT_RISK": 73640, 
    "ZIP": 60639, 
    "ADDRESS": "5048 W ALTGELD ST", 
    "YEAR": 2003, 
    "LONGITUDE": -87.753250098, 
    "LATTITUDE": 41.926114091
  }, 
  {
    "BUSINESS_TYPE": "Junk Peddler", 
    "LEGAL_NAME": "JUAN A SANCHEZ", 
    "STATE": "IL", 
    "DOING_BUSINESS_AS_NAME": "JUAN A SANCHEZ", 
    "POP_AT_RISK": 42037, 
    "ZIP": 60608, 
    "ADDRESS": "932 W 32ND PL 1ST", 
    "YEAR": 2003, 
    "LONGITUDE": -87.649981942, 
    "LATTITUDE": 41.835726486
  }, 
  {
    "BUSINESS_TYPE": "Junk Peddler", 
    "LEGAL_NAME": "TOM BALLOG", 
    "STATE": "IL", 
    "DOING_BUSINESS_AS_NAME": "TOM BALLOG", 
    "POP_AT_RISK": 50325, 
    "ZIP": 60618, 
    "ADDRESS": "3000 N ELSTON AVE", 
    "YEAR": 2003, 
    "LONGITUDE": -87.693230982, 
    "LATTITUDE": 41.93574656
  }, 
  {
    "BUSINESS_TYPE": "Junk Peddler", 
    "LEGAL_NAME": "RAFAEL MERCADO", 
    "STATE": "IL", 
    "DOING_BUSINESS_AS_NAME": "RAFAEL MERCADO", 
    "POP_AT_RISK": 43409, 
    "ZIP": 60651, 
    "ADDRESS": "919 N KEYSTONE AVE", 
    "YEAR": 2003, 
    "LONGITUDE": -87.727237196, 
    "LATTITUDE": 41.897784713
  }, 
  {
    "BUSINESS_TYPE": "Junk Peddler", 
    "LEGAL_NAME": "JOSE LUIS AVALOS", 
    "STATE": "IL", 
    "DOING_BUSINESS_AS_NAME": "JOSE LUIS AVALOS", 
    "POP_AT_RISK": 68393, 
    "ZIP": 60647, 
    "ADDRESS": "3721 W CONCORD PL 1ST", 
    "YEAR": 2003, 
    "LONGITUDE": -87.719858094, 
    "LATTITUDE": 41.910782437
  }, 
  {
    "BUSINESS_TYPE": "Junk Peddler", 
    "LEGAL_NAME": "DOMINGO ALCANTARA", 
    "STATE": "IL", 
    "DOING_BUSINESS_AS_NAME": "DOMINGO ALCANTARA", 
    "POP_AT_RISK": 47203, 
    "ZIP": 60639, 
    "ADDRESS": "2175 N MENARD AVE  B2", 
    "YEAR": 2003, 
    "LONGITUDE": -87.770571143, 
    "LATTITUDE": 41.920128225
  }, 
  {
    "BUSINESS_TYPE": "Junk Peddler", 
    "LEGAL_NAME": "JOSE RODRIGUEZ", 
    "STATE": "IL", 
    "DOING_BUSINESS_AS_NAME": "JOSE RODRIGUEZ", 
    "POP_AT_RISK": 59657, 
    "ZIP": 60630, 
    "ADDRESS": "4713 N KEYSTONE AVE", 
    "YEAR": 2003, 
    "LONGITUDE": -87.729036237, 
    "LATTITUDE": 41.966100992
  }, 
  {
    "BUSINESS_TYPE": "Junk Peddler", 
    "LEGAL_NAME": "RAMIRO PEREZ", 
    "STATE": "IL", 
    "DOING_BUSINESS_AS_NAME": "RAMIRO PEREZ", 
    "POP_AT_RISK": 51634, 
    "ZIP": 60632, 
    "ADDRESS": "5136 S MOZART ST 1ST", 
    "YEAR": 2003, 
    "LONGITUDE": -87.695337203, 
    "LATTITUDE": 41.799853704
  }, 
  {
    "BUSINESS_TYPE": "Junk Peddler", 
    "LEGAL_NAME": "ROGELIO VILCHIS", 
    "STATE": "IL", 
    "DOING_BUSINESS_AS_NAME": "ROGER'S SCRAP", 
    "POP_AT_RISK": 44045, 
    "ZIP": 60632, 
    "ADDRESS": "2908 W 40TH ST 1ST", 
    "YEAR": 2003, 
    "LONGITUDE": -87.697503065, 
    "LATTITUDE": 41.821053315
  }, 
  {
    "BUSINESS_TYPE": "Junk Peddler", 
    "LEGAL_NAME": "JOSE C PEREZ", 
    "STATE": "IL", 
    "DOING_BUSINESS_AS_NAME": "JOSE C PEREZ", 
    "POP_AT_RISK": 52318, 
    "ZIP": 60639, 
    "ADDRESS": "2229 N MONITOR AVE", 
    "YEAR": 2003, 
    "LONGITUDE": -87.771810156, 
    "LATTITUDE": 41.920758132
  }
]