[
{"STATE":"IL","ZIP":60639,"LATTITUDE":41.92414989457289,"ADDRESS":"5406-5408 W FULLERTON AVE 1ST ","YEAR":2015,"DOING_BUSINESS_AS_NAME":"ALEGRA","POP_AT_RISK":915194,"BUSINESS_TYPE":"Food - Shared Kitchen - Supplemental","LEGAL_NAME":"S 5408 INC.","LONGITUDE":-87.76136988672664},
{"STATE":"IL","ZIP":60647,"LATTITUDE":41.91023000926717,"ADDRESS":"2325 W NORTH AVE 1ST ","YEAR":2015,"DOING_BUSINESS_AS_NAME":"NAVEEN' S CUISINE","POP_AT_RISK":1757875,"BUSINESS_TYPE":"Food - Shared Kitchen - Supplemental","LEGAL_NAME":"SACHAR INC.","LONGITUDE":-87.6858503668328},
{"STATE":"IL","ZIP":60642,"LATTITUDE":41.89099763912711,"ADDRESS":"1103 W GRAND AVE 1ST ","YEAR":2015,"DOING_BUSINESS_AS_NAME":"ZULLO'S INC.","POP_AT_RISK":541560,"BUSINESS_TYPE":"Food - Shared Kitchen - Supplemental","LEGAL_NAME":"ZULLO'S INC.","LONGITUDE":-87.6547725026918},
{"STATE":"IL","ZIP":60618,"LATTITUDE":41.939646610904056,"ADDRESS":"3207 N ELSTON AVE 1ST FLOOR 1","YEAR":2015,"DOING_BUSINESS_AS_NAME":"BULL DOG BAKERY II","POP_AT_RISK":824517,"BUSINESS_TYPE":"Food - Shared Kitchen - Supplemental","LEGAL_NAME":"PAT'S PASTRIES LLC","LONGITUDE":-87.69847901358345},
{"STATE":"IL","ZIP":60631,"LATTITUDE":41.99727682798901,"ADDRESS":"7280 W DEVON AVE 1ST ","YEAR":2015,"DOING_BUSINESS_AS_NAME":"UNFORGETTABLE EDIBLES","POP_AT_RISK":47856,"BUSINESS_TYPE":"Food - Shared Kitchen - Supplemental","LEGAL_NAME":"SHAMROCK CATERING INC","LONGITUDE":-87.80962433024467},
{"STATE":"IL","ZIP":60623,"LATTITUDE":41.85017059600243,"ADDRESS":"4115 W OGDEN AVE  4","YEAR":2015,"DOING_BUSINESS_AS_NAME":"EL PICOSO IMPORTS INC.","POP_AT_RISK":916080,"BUSINESS_TYPE":"Food - Shared Kitchen - Supplemental","LEGAL_NAME":"EL PICOSO IMPORTS INC.","LONGITUDE":-87.72701196326896},
{"STATE":"IL","ZIP":60640,"LATTITUDE":41.964177038368376,"ADDRESS":"4527 N RAVENSWOOD AVE 1ST 106","YEAR":2015,"DOING_BUSINESS_AS_NAME":"Lucila's Homemade","POP_AT_RISK":1000170,"BUSINESS_TYPE":"Food - Shared Kitchen - Supplemental","LEGAL_NAME":"LUCILA' S HOMEMADE, LLC","LONGITUDE":-87.67390421656927},
{"STATE":"IL","ZIP":60612,"LATTITUDE":41.89275410387521,"ADDRESS":"627 N ALBANY AVE 1ST 170","YEAR":2015,"DOING_BUSINESS_AS_NAME":"MILK & HONEY GRANOLA","POP_AT_RISK":386020,"BUSINESS_TYPE":"Food - Shared Kitchen - Supplemental","LEGAL_NAME":"MILK & HONEY GRANOLA, LLC","LONGITUDE":-87.70386026922512},
{"STATE":"IL","ZIP":60631,"LATTITUDE":42.00224676505933,"ADDRESS":"6701 N OLMSTED AVE 1ST ","YEAR":2015,"DOING_BUSINESS_AS_NAME":"LE FLOUR BAKE SHOP & MARKET INC.","POP_AT_RISK":37836,"BUSINESS_TYPE":"Food - Shared Kitchen - Supplemental","LEGAL_NAME":"LE FLOUR BAKE SHOP & MARKET INC.","LONGITUDE":-87.81681363623768},
{"STATE":"IL","ZIP":60660,"LATTITUDE":41.989563447865955,"ADDRESS":"5917 N BROADWAY   ","YEAR":2015,"DOING_BUSINESS_AS_NAME":"FEARLESS FOOD KITCHEN","POP_AT_RISK":1058598,"BUSINESS_TYPE":"Food - Shared Kitchen - Supplemental","LEGAL_NAME":"THE PETERSON GARDEN PROJECT, INC. NFP","LONGITUDE":-87.66010699454277},
{}]