[
  {
    "BUSINESS_TYPE": "Auctioneer", 
    "LEGAL_NAME": "SEAN SUSANIN", 
    "STATE": "IL", 
    "DOING_BUSINESS_AS_NAME": "SUSANIN'S", 
    "POP_AT_RISK": 34142, 
    "ZIP": 60607, 
    "ADDRESS": "900 S CLINTON ST", 
    "YEAR": 2013, 
    "LONGITUDE": -87.640974125, 
    "LATTITUDE": 41.870487423
  }, 
  {
    "BUSINESS_TYPE": "Auctioneer", 
    "LEGAL_NAME": "JEFFREY BENDIX", 
    "STATE": "IL", 
    "DOING_BUSINESS_AS_NAME": "JEFFREY BENDIX", 
    "POP_AT_RISK": 64779, 
    "ZIP": 60640, 
    "ADDRESS": "5501 N CLARK ST  LOWER", 
    "YEAR": 2013, 
    "LONGITUDE": -87.668287655, 
    "LATTITUDE": 41.981723366
  }, 
  {
    "BUSINESS_TYPE": "Auctioneer", 
    "LEGAL_NAME": "JEFFREY P. BROWN", 
    "STATE": "IL", 
    "DOING_BUSINESS_AS_NAME": "ACE AUCTIONEERS INC", 
    "POP_AT_RISK": 36938, 
    "ZIP": 60641, 
    "ADDRESS": "3825 N LOWELL AVE", 
    "YEAR": 2013, 
    "LONGITUDE": -87.736568774, 
    "LATTITUDE": 41.95068671
  }, 
  {
    "BUSINESS_TYPE": "Auctioneer", 
    "LEGAL_NAME": "RPN SALES, INC.", 
    "STATE": "IL", 
    "DOING_BUSINESS_AS_NAME": "RPN SALES, INC.", 
    "POP_AT_RISK": 44522, 
    "ZIP": 60630, 
    "ADDRESS": "4451 N MILWAUKEE AVE", 
    "YEAR": 2013, 
    "LONGITUDE": -87.755469993, 
    "LATTITUDE": 41.961978116
  }, 
  {
    "BUSINESS_TYPE": "Auctioneer", 
    "LEGAL_NAME": "JOHN R. MODICA", 
    "STATE": "IL", 
    "DOING_BUSINESS_AS_NAME": "JOHN R. MODICA", 
    "POP_AT_RISK": 47384, 
    "ZIP": 60645, 
    "ADDRESS": "7232 N WESTERN AVE", 
    "YEAR": 2013, 
    "LONGITUDE": -87.690389587, 
    "LATTITUDE": 42.013193041
  }, 
  {
    "BUSINESS_TYPE": "Auctioneer", 
    "LEGAL_NAME": "RICK LEVIN", 
    "STATE": "IL", 
    "DOING_BUSINESS_AS_NAME": "RICK LEVIN", 
    "POP_AT_RISK": 58720, 
    "ZIP": 60610, 
    "ADDRESS": "1347 N STATE PKWY 1", 
    "YEAR": 2013, 
    "LONGITUDE": -87.628632234, 
    "LATTITUDE": 41.907165907
  }, 
  {
    "BUSINESS_TYPE": "Auctioneer", 
    "LEGAL_NAME": "LESLIE HINDMAN AUCTIONEERS, INC.", 
    "STATE": "IL", 
    "DOING_BUSINESS_AS_NAME": "LESLIE HINDMAN AUCTIONEERS, INC.", 
    "POP_AT_RISK": 32562, 
    "ZIP": 60607, 
    "ADDRESS": "1338 W LAKE ST 1 & 2", 
    "YEAR": 2013, 
    "LONGITUDE": -87.6604408, 
    "LATTITUDE": 41.885560136
  }, 
  {
    "BUSINESS_TYPE": "Auctioneer", 
    "LEGAL_NAME": "RICHARD M STONE", 
    "STATE": "IL", 
    "DOING_BUSINESS_AS_NAME": "NATIONAL AUCTIONEERS, INC.", 
    "POP_AT_RISK": 43864, 
    "ZIP": 60604, 
    "ADDRESS": "343 S DEARBORN ST # 101", 
    "YEAR": 2013, 
    "LONGITUDE": -87.629121233, 
    "LATTITUDE": 41.877146786
  }, 
  {
    "BUSINESS_TYPE": "Auctioneer", 
    "LEGAL_NAME": "CHERE WALSH", 
    "STATE": "IL", 
    "DOING_BUSINESS_AS_NAME": "CHERE WALSH", 
    "POP_AT_RISK": 79757, 
    "ZIP": 60640, 
    "ADDRESS": "4430 N CLARK ST 1ST", 
    "YEAR": 2013, 
    "LONGITUDE": -87.666302194, 
    "LATTITUDE": 41.96255273
  }
]