[
{"STATE":"IL","ZIP":60654,"LATTITUDE":41.891080594220774,"ADDRESS":"723 W GRAND AVE  ","YEAR":2013,"DOING_BUSINESS_AS_NAME":"ARCADIA","POP_AT_RISK":162147,"BUSINESS_TYPE":"Single Room Occupancy Class I","LEGAL_NAME":"DOMINIC STEA","LONGITUDE":-87.64702028278052},
{"STATE":"IL","ZIP":60612,"LATTITUDE":41.877535885799354,"ADDRESS":"2822 W JACKSON BLVD  ","YEAR":2013,"DOING_BUSINESS_AS_NAME":"DEBORAH'S PLACE","POP_AT_RISK":60274,"BUSINESS_TYPE":"Single Room Occupancy Class I","LEGAL_NAME":"DEBORAH'S PLACE","LONGITUDE":-87.69706304834142},
{"STATE":"IL","ZIP":60610,"LATTITUDE":41.91017752520468,"ADDRESS":"1530-1532 N SEDGWICK ST  ","YEAR":2013,"DOING_BUSINESS_AS_NAME":"DEBORAH'S PLACE II","POP_AT_RISK":282088,"BUSINESS_TYPE":"Single Room Occupancy Class I","LEGAL_NAME":"DEBORAH'S PLACE","LONGITUDE":-87.63870982686717},
{"STATE":"IL","ZIP":60622,"LATTITUDE":41.910150567285044,"ADDRESS":"1567  -01569 N HOYNE AVE  1ST","YEAR":2013,"DOING_BUSINESS_AS_NAME":"HOWARD APTS","POP_AT_RISK":1867632,"BUSINESS_TYPE":"Single Room Occupancy Class I","LEGAL_NAME":"HOWARD APARTMENTS","LONGITUDE":-87.67975185387394},
{"STATE":"IL","ZIP":60617,"LATTITUDE":41.71252486738108,"ADDRESS":"10047 S AVENUE N   ","YEAR":2013,"DOING_BUSINESS_AS_NAME":"BEEKON-HOUSE","POP_AT_RISK":98635,"BUSINESS_TYPE":"Single Room Occupancy Class I","LEGAL_NAME":"MILDRED R. GARCIA","LONGITUDE":-87.53875663855442},
{"STATE":"IL","ZIP":60613,"LATTITUDE":41.96170383486639,"ADDRESS":"851 W MONTROSE AVE  ","YEAR":2013,"DOING_BUSINESS_AS_NAME":"THE HAZELTON  LLC","POP_AT_RISK":727910,"BUSINESS_TYPE":"Single Room Occupancy Class I","LEGAL_NAME":"THE HAZELTON, LLC","LONGITUDE":-87.65195167826572},
{"STATE":"IL","ZIP":60616,"LATTITUDE":41.857792921043036,"ADDRESS":"1801 S WABASH AVE  ","YEAR":2013,"DOING_BUSINESS_AS_NAME":"THE STUDIOS","POP_AT_RISK":40698,"BUSINESS_TYPE":"Single Room Occupancy Class I","LEGAL_NAME":"18TH & WABASH CORP","LONGITUDE":-87.62546236883539},
{"STATE":"IL","ZIP":60624,"LATTITUDE":41.88369802211018,"ADDRESS":"3300 W MAYPOLE AVE  1ST","YEAR":2013,"DOING_BUSINESS_AS_NAME":"EAST PARK APARTMENTS","POP_AT_RISK":237482,"BUSINESS_TYPE":"Single Room Occupancy Class I","LEGAL_NAME":"East Park Apartments","LONGITUDE":-87.70890250016994},
{"STATE":"IL","ZIP":60660,"LATTITUDE":41.99798230762319,"ADDRESS":"1539 W DEVON AVE 2ND & 3RD ","YEAR":2013,"DOING_BUSINESS_AS_NAME":"1539 DEVON BUILDING","POP_AT_RISK":1611998,"BUSINESS_TYPE":"Single Room Occupancy Class I","LEGAL_NAME":"DEVON BANK TRUST 1743","LONGITUDE":-87.66930586791973},
{"STATE":"IL","ZIP":60610,"LATTITUDE":41.89279044658767,"ADDRESS":"611 N WELLS ST  ","YEAR":2013,"DOING_BUSINESS_AS_NAME":"OLYMPIA BUILDING CORP.","POP_AT_RISK":362420,"BUSINESS_TYPE":"Single Room Occupancy Class I","LEGAL_NAME":"OLYMPIA BUILDING CORP.","LONGITUDE":-87.63395358331424},
{"STATE":"IL","ZIP":60621,"LATTITUDE":41.78090936356471,"ADDRESS":"500 W ENGLEWOOD AVE  1","YEAR":2013,"DOING_BUSINESS_AS_NAME":"THRESHOLDS","POP_AT_RISK":311201,"BUSINESS_TYPE":"Single Room Occupancy Class I","LEGAL_NAME":"THRESHOLDS ROWAN TREES","LONGITUDE":-87.63761781700276},
{"STATE":"IL","ZIP":60615,"LATTITUDE":41.79898994746036,"ADDRESS":"5316 S HARPER AVE  1ST","YEAR":2013,"DOING_BUSINESS_AS_NAME":"HYDE PARK ARMS HOTEL","POP_AT_RISK":602736,"BUSINESS_TYPE":"Single Room Occupancy Class I","LEGAL_NAME":"HYDE PARK ARMS HOTEL INC","LONGITUDE":-87.5892249927663},
{"STATE":"IL","ZIP":60649,"LATTITUDE":41.760500325918436,"ADDRESS":"7419 S EXCHANGE AVE  ","YEAR":2013,"DOING_BUSINESS_AS_NAME":"COLES SUPPORTIVE LIVING LLC","POP_AT_RISK":161292,"BUSINESS_TYPE":"Single Room Occupancy Class I","LEGAL_NAME":"COLES SUPPORTIVE LIVING LLC","LONGITUDE":-87.56113617707305},
{"STATE":"IL","ZIP":60640,"LATTITUDE":41.97453000370947,"ADDRESS":"5042 N WINTHROP AVE 1 - 4 ","YEAR":2013,"DOING_BUSINESS_AS_NAME":"DELMAR APTS","POP_AT_RISK":683410,"BUSINESS_TYPE":"Single Room Occupancy Class I","LEGAL_NAME":"5042 WINTHROP LIMITED PARTNERSHIP","LONGITUDE":-87.65791554834995},
{"STATE":"IL","ZIP":60612,"LATTITUDE":41.877645479248834,"ADDRESS":"1810 W JACKSON BLVD  1","YEAR":2013,"DOING_BUSINESS_AS_NAME":"ROYALTON HOTEL","POP_AT_RISK":191958,"BUSINESS_TYPE":"Single Room Occupancy Class I","LEGAL_NAME":"METROPOLITAN PROPERTIES AND DEVELOPMENT, INC.","LONGITUDE":-87.67215509360692},
{"STATE":"IL","ZIP":60619,"LATTITUDE":41.75884821792363,"ADDRESS":"1440-1448 E 75TH ST 1-5 ","YEAR":2013,"DOING_BUSINESS_AS_NAME":"JACKSON PARK SUPPORTIVE LIVING FACILITY, LLC.","POP_AT_RISK":415270,"BUSINESS_TYPE":"Single Room Occupancy Class I","LEGAL_NAME":"JACKSON PARK SUPPORTIVE LIVING FACILITY, L.L.C.","LONGITUDE":-87.58918947319052},
{}]