[
  {
    "BUSINESS_TYPE": "Junk Peddler", 
    "LEGAL_NAME": "FERNANDO R FLORIAN", 
    "STATE": "IL", 
    "DOING_BUSINESS_AS_NAME": "SCRAP PICK-UP", 
    "POP_AT_RISK": 78489, 
    "ZIP": 60618, 
    "ADDRESS": "4338 N FRANCISCO AVE", 
    "YEAR": 2004, 
    "LONGITUDE": -87.701038578, 
    "LATTITUDE": 41.960568979
  }, 
  {
    "BUSINESS_TYPE": "Junk Peddler", 
    "LEGAL_NAME": "LEON WILLIAMS", 
    "STATE": "IL", 
    "DOING_BUSINESS_AS_NAME": "LEON WILLIAMS", 
    "POP_AT_RISK": 62755, 
    "ZIP": 60639, 
    "ADDRESS": "2016 N LAMON AVE 2 WEST", 
    "YEAR": 2004, 
    "LONGITUDE": -87.748832698, 
    "LATTITUDE": 41.917443993
  }, 
  {
    "BUSINESS_TYPE": "Junk Peddler", 
    "LEGAL_NAME": "KOFI AGYEKUM", 
    "STATE": "IL", 
    "DOING_BUSINESS_AS_NAME": "KOFI AGYEKUM", 
    "POP_AT_RISK": 38266, 
    "ZIP": 60619, 
    "ADDRESS": "7654 S WABASH AVE", 
    "YEAR": 2004, 
    "LONGITUDE": -87.623223998, 
    "LATTITUDE": 41.754823188
  }, 
  {
    "BUSINESS_TYPE": "Junk Peddler", 
    "LEGAL_NAME": "ALFONSO PEREZ", 
    "STATE": "IL", 
    "DOING_BUSINESS_AS_NAME": "ALFONSO PEREZ", 
    "POP_AT_RISK": 30226, 
    "ZIP": 60707, 
    "ADDRESS": "2706 N NORDICA AVE", 
    "YEAR": 2004, 
    "LONGITUDE": -87.802910289, 
    "LATTITUDE": 41.929240156
  }, 
  {
    "BUSINESS_TYPE": "Junk Peddler", 
    "LEGAL_NAME": "JOSE L. ARROYO", 
    "STATE": "IL", 
    "DOING_BUSINESS_AS_NAME": "JOSE L. ARROYO", 
    "POP_AT_RISK": 33756, 
    "ZIP": 60630, 
    "ADDRESS": "5210 N LIEB AVE", 
    "YEAR": 2004, 
    "LONGITUDE": -87.764512375, 
    "LATTITUDE": 41.976217332
  }, 
  {
    "BUSINESS_TYPE": "Junk Peddler", 
    "LEGAL_NAME": "MARIE BARBER", 
    "STATE": "IL", 
    "DOING_BUSINESS_AS_NAME": "MARIE BARBER", 
    "POP_AT_RISK": 55706, 
    "ZIP": 60634, 
    "ADDRESS": "2831 N MELVINA AVE", 
    "YEAR": 2004, 
    "LONGITUDE": -87.780711505, 
    "LATTITUDE": 41.932015702
  }, 
  {
    "BUSINESS_TYPE": "Junk Peddler", 
    "LEGAL_NAME": "JUAN A MENCHACA", 
    "STATE": "IL", 
    "DOING_BUSINESS_AS_NAME": "JUAN A MENCHACA", 
    "POP_AT_RISK": 66313, 
    "ZIP": 60629, 
    "ADDRESS": "5625 S SAWYER AVE", 
    "YEAR": 2004, 
    "LONGITUDE": -87.704559578, 
    "LATTITUDE": 41.790915057
  }, 
  {
    "BUSINESS_TYPE": "Junk Peddler", 
    "LEGAL_NAME": "CATALINO   A  GONZALEZ", 
    "STATE": "IL", 
    "DOING_BUSINESS_AS_NAME": "JUNK PEDDLER", 
    "POP_AT_RISK": 58917, 
    "ZIP": 60641, 
    "ADDRESS": "2923 N KOLMAR AVE", 
    "YEAR": 2004, 
    "LONGITUDE": -87.740393967, 
    "LATTITUDE": 41.934156163
  }, 
  {
    "BUSINESS_TYPE": "Junk Peddler", 
    "LEGAL_NAME": "JUAN A SANCHEZ", 
    "STATE": "IL", 
    "DOING_BUSINESS_AS_NAME": "JUAN A SANCHEZ", 
    "POP_AT_RISK": 42037, 
    "ZIP": 60608, 
    "ADDRESS": "932 W 32ND PL 1ST", 
    "YEAR": 2004, 
    "LONGITUDE": -87.649981942, 
    "LATTITUDE": 41.835726486
  }, 
  {
    "BUSINESS_TYPE": "Junk Peddler", 
    "LEGAL_NAME": "TOM BALLOG", 
    "STATE": "IL", 
    "DOING_BUSINESS_AS_NAME": "TOM BALLOG", 
    "POP_AT_RISK": 50325, 
    "ZIP": 60618, 
    "ADDRESS": "3000 N ELSTON AVE", 
    "YEAR": 2004, 
    "LONGITUDE": -87.693230982, 
    "LATTITUDE": 41.93574656
  }, 
  {
    "BUSINESS_TYPE": "Junk Peddler", 
    "LEGAL_NAME": "RAFAEL MERCADO", 
    "STATE": "IL", 
    "DOING_BUSINESS_AS_NAME": "RAFAEL MERCADO", 
    "POP_AT_RISK": 43409, 
    "ZIP": 60651, 
    "ADDRESS": "919 N KEYSTONE AVE", 
    "YEAR": 2004, 
    "LONGITUDE": -87.727237196, 
    "LATTITUDE": 41.897784713
  }, 
  {
    "BUSINESS_TYPE": "Junk Peddler", 
    "LEGAL_NAME": "HIGINIO HERNANDEZ", 
    "STATE": "IL", 
    "DOING_BUSINESS_AS_NAME": "HIGINIO JUNK DEALER", 
    "POP_AT_RISK": 68885, 
    "ZIP": 60647, 
    "ADDRESS": "1638 N FAIRFIELD AVE", 
    "YEAR": 2004, 
    "LONGITUDE": -87.695943944, 
    "LATTITUDE": 41.911399968
  }, 
  {
    "BUSINESS_TYPE": "Junk Peddler", 
    "LEGAL_NAME": "HECTOR L COSME", 
    "STATE": "IL", 
    "DOING_BUSINESS_AS_NAME": "HECTOR COSME", 
    "POP_AT_RISK": 60936, 
    "ZIP": 60660, 
    "ADDRESS": "5710 N WINTHROP AVE", 
    "YEAR": 2004, 
    "LONGITUDE": -87.658232154, 
    "LATTITUDE": 41.985854698
  }, 
  {
    "BUSINESS_TYPE": "Junk Peddler", 
    "LEGAL_NAME": "RAUL PEREZ", 
    "STATE": "IL", 
    "DOING_BUSINESS_AS_NAME": "RAUL PEREZ", 
    "POP_AT_RISK": 79577, 
    "ZIP": 60625, 
    "ADDRESS": "4540 N ST LOUIS AVE", 
    "YEAR": 2004, 
    "LONGITUDE": -87.715825127, 
    "LATTITUDE": 41.964137719
  }, 
  {
    "BUSINESS_TYPE": "Junk Peddler", 
    "LEGAL_NAME": "REY ESTRADA", 
    "STATE": "IL", 
    "DOING_BUSINESS_AS_NAME": "REY ESTRADA", 
    "POP_AT_RISK": 75660, 
    "ZIP": 60625, 
    "ADDRESS": "4422 N ST LOUIS AVE", 
    "YEAR": 2004, 
    "LONGITUDE": -87.715756497, 
    "LATTITUDE": 41.961810994
  }, 
  {
    "BUSINESS_TYPE": "Junk Peddler", 
    "LEGAL_NAME": "DOMINGO ALCANTARA", 
    "STATE": "IL", 
    "DOING_BUSINESS_AS_NAME": "DOMINGO ALCANTARA", 
    "POP_AT_RISK": 47203, 
    "ZIP": 60639, 
    "ADDRESS": "2175 N MENARD AVE  B2", 
    "YEAR": 2004, 
    "LONGITUDE": -87.770571143, 
    "LATTITUDE": 41.920128225
  }, 
  {
    "BUSINESS_TYPE": "Junk Peddler", 
    "LEGAL_NAME": "JOSE RODRIGUEZ", 
    "STATE": "IL", 
    "DOING_BUSINESS_AS_NAME": "JOSE RODRIGUEZ", 
    "POP_AT_RISK": 59657, 
    "ZIP": 60630, 
    "ADDRESS": "4713 N KEYSTONE AVE", 
    "YEAR": 2004, 
    "LONGITUDE": -87.729036237, 
    "LATTITUDE": 41.966100992
  }, 
  {
    "BUSINESS_TYPE": "Junk Peddler", 
    "LEGAL_NAME": "RAMIRO PEREZ", 
    "STATE": "IL", 
    "DOING_BUSINESS_AS_NAME": "RAMIRO PEREZ", 
    "POP_AT_RISK": 51634, 
    "ZIP": 60632, 
    "ADDRESS": "5136 S MOZART ST 1ST", 
    "YEAR": 2004, 
    "LONGITUDE": -87.695337203, 
    "LATTITUDE": 41.799853704
  }, 
  {
    "BUSINESS_TYPE": "Junk Peddler", 
    "LEGAL_NAME": "ROGELIO VILCHIS", 
    "STATE": "IL", 
    "DOING_BUSINESS_AS_NAME": "ROGER'S SCRAP", 
    "POP_AT_RISK": 44045, 
    "ZIP": 60632, 
    "ADDRESS": "2908 W 40TH ST 1ST", 
    "YEAR": 2004, 
    "LONGITUDE": -87.697503065, 
    "LATTITUDE": 41.821053315
  }, 
  {
    "BUSINESS_TYPE": "Junk Peddler", 
    "LEGAL_NAME": "JUAN S. GARCIA", 
    "STATE": "IL", 
    "DOING_BUSINESS_AS_NAME": "JUAN S. GARCIA", 
    "POP_AT_RISK": 32623, 
    "ZIP": 60630, 
    "ADDRESS": "4557 N NARRAGANSETT AVE", 
    "YEAR": 2004, 
    "LONGITUDE": -87.786621809, 
    "LATTITUDE": 41.963588205
  }
]