[
{"STATE":"IL","ZIP":60616,"LATTITUDE":41.83267813012173,"ADDRESS":"3405 S MICHIGAN AVE 1 1","YEAR":2012,"DOING_BUSINESS_AS_NAME":"AGEE CLARK","POP_AT_RISK":34216,"BUSINESS_TYPE":"Peddler,food - (fruits and vegetables only) - special","LEGAL_NAME":"AGEE CLARK","LONGITUDE":-87.62314760698986},
{"STATE":"IL","ZIP":60615,"LATTITUDE":41.79787080935852,"ADDRESS":"5325 S COTTAGE GROVE AVE  305","YEAR":2012,"DOING_BUSINESS_AS_NAME":"MARY JONES","POP_AT_RISK":782560,"BUSINESS_TYPE":"Peddler,food - (fruits and vegetables only) - special","LEGAL_NAME":"MARY JONES","LONGITUDE":-87.60615496878968},
{"STATE":"IL","ZIP":60609,"LATTITUDE":41.79882174411404,"ADDRESS":"2027 W 52ND ST 2ND ","YEAR":2012,"DOING_BUSINESS_AS_NAME":"PAUL WHITE","POP_AT_RISK":187988,"BUSINESS_TYPE":"Peddler,food - (fruits and vegetables only) - special","LEGAL_NAME":"PAUL WHITE","LONGITUDE":-87.67554494061855},
{"STATE":"IL","ZIP":60647,"LATTITUDE":41.91938344890458,"ADDRESS":"2061 N CAMPBELL AVE 4 419","YEAR":2012,"DOING_BUSINESS_AS_NAME":"GLORIA ROIG","POP_AT_RISK":339054,"BUSINESS_TYPE":"Peddler,food - (fruits and vegetables only) - special","LEGAL_NAME":"GLORIA ROIG","LONGITUDE":-87.68907394160927},
{"STATE":"IL","ZIP":60630,"LATTITUDE":41.963183921265326,"ADDRESS":"4536 N ELSTON AVE  ","YEAR":2012,"DOING_BUSINESS_AS_NAME":"BYRON YABLON","POP_AT_RISK":138081,"BUSINESS_TYPE":"Peddler,food - (fruits and vegetables only) - special","LEGAL_NAME":"BYRON YABLON","LONGITUDE":-87.73318715325468},
{"STATE":"IL","ZIP":60622,"LATTITUDE":41.9134214150233,"ADDRESS":"1734 N PAULINA ST 10TH 1008","YEAR":2012,"DOING_BUSINESS_AS_NAME":"REGINO RAMOS","POP_AT_RISK":655875,"BUSINESS_TYPE":"Peddler,food - (fruits and vegetables only) - special","LEGAL_NAME":"REGINO RAMOS","LONGITUDE":-87.67035633233488},
{"STATE":"IL","ZIP":60649,"LATTITUDE":41.760280980603156,"ADDRESS":"7452 S COLES AVE  ","YEAR":2012,"DOING_BUSINESS_AS_NAME":"VICKIE CLARK","POP_AT_RISK":29611,"BUSINESS_TYPE":"Peddler,food - (fruits and vegetables only) - special","LEGAL_NAME":"VICKIE CLARK","LONGITUDE":-87.55919417744803},
{"STATE":"IL","ZIP":60652,"LATTITUDE":41.75188320409682,"ADDRESS":"7754 S KEDZIE AVE  ","YEAR":2012,"DOING_BUSINESS_AS_NAME":"WILLIE DIXON","POP_AT_RISK":92068,"BUSINESS_TYPE":"Peddler,food - (fruits and vegetables only) - special","LEGAL_NAME":"WILLIE DIXON","LONGITUDE":-87.70260268826716},
{"STATE":"IL","ZIP":60619,"LATTITUDE":41.75619457777317,"ADDRESS":"7612 S EBERHART AVE  ","YEAR":2012,"DOING_BUSINESS_AS_NAME":"HOGAN","POP_AT_RISK":166092,"BUSINESS_TYPE":"Peddler,food - (fruits and vegetables only) - special","LEGAL_NAME":"EARNEST HOGAN","LONGITUDE":-87.61276996803532},
{"STATE":"IL","ZIP":60628,"LATTITUDE":41.69253838919618,"ADDRESS":"161 E 111TH ST  ","YEAR":2012,"DOING_BUSINESS_AS_NAME":"ELAINE SUTTON","POP_AT_RISK":24078,"BUSINESS_TYPE":"Peddler,food - (fruits and vegetables only) - special","LEGAL_NAME":"ELAINE SUTTON","LONGITUDE":-87.61855290940034},
{"STATE":"IL","ZIP":60608,"LATTITUDE":41.83342591889174,"ADDRESS":"3317 S LEAVITT ST  ","YEAR":2012,"DOING_BUSINESS_AS_NAME":"ISMAEL HUIZAR","POP_AT_RISK":103119,"BUSINESS_TYPE":"Peddler,food - (fruits and vegetables only) - special","LEGAL_NAME":"ISMAEL HUIZAR","LONGITUDE":-87.68010878644178},
{"STATE":"IL","ZIP":60612,"LATTITUDE":41.89122350049371,"ADDRESS":"529 1\/2 N KEDZIE AVE  ","YEAR":2012,"DOING_BUSINESS_AS_NAME":"NAZERE ASHLEY","POP_AT_RISK":355770,"BUSINESS_TYPE":"Peddler,food - (fruits and vegetables only) - special","LEGAL_NAME":"NAZERE ASHLEY","LONGITUDE":-87.70627764212301},
{"STATE":"IL","ZIP":60649,"LATTITUDE":41.755313468484346,"ADDRESS":"2603 E 77TH ST  ","YEAR":2012,"DOING_BUSINESS_AS_NAME":"RONALD HOLLIS","POP_AT_RISK":65374,"BUSINESS_TYPE":"Peddler,food - (fruits and vegetables only) - special","LEGAL_NAME":"RONALD HOLLIS","LONGITUDE":-87.56130065591925},
{"STATE":"IL","ZIP":60653,"LATTITUDE":41.82562416881556,"ADDRESS":"627 E 38TH ST  ","YEAR":2012,"DOING_BUSINESS_AS_NAME":"ARMEKER WRIGHT","POP_AT_RISK":132804,"BUSINESS_TYPE":"Peddler,food - (fruits and vegetables only) - special","LEGAL_NAME":"ARMEKER WRIGHT","LONGITUDE":-87.61114223050376},
{"STATE":"IL","ZIP":60623,"LATTITUDE":41.84017289140799,"ADDRESS":"2809 S TRIPP AVE  ","YEAR":2012,"DOING_BUSINESS_AS_NAME":"BALTAZAR PEREZ","POP_AT_RISK":48808,"BUSINESS_TYPE":"Peddler,food - (fruits and vegetables only) - special","LEGAL_NAME":"BALTAZAR PEREZ","LONGITUDE":-87.73037481802437},
{"STATE":"IL","ZIP":60619,"LATTITUDE":41.74457342959597,"ADDRESS":"8242 S ELLIS AVE  ","YEAR":2012,"DOING_BUSINESS_AS_NAME":"CONNIE D BOGUS","POP_AT_RISK":72748,"BUSINESS_TYPE":"Peddler,food - (fruits and vegetables only) - special","LEGAL_NAME":"CONNIE D BOGUS","LONGITUDE":-87.60029092121401},
{"STATE":"IL","ZIP":60649,"LATTITUDE":41.77324235457403,"ADDRESS":"1643 E 67TH ST  1A","YEAR":2012,"DOING_BUSINESS_AS_NAME":"DORIS I. MOORE","POP_AT_RISK":107601,"BUSINESS_TYPE":"Peddler,food - (fruits and vegetables only) - special","LEGAL_NAME":"DORIS I. MOORE","LONGITUDE":-87.58459480292203},
{"STATE":"IL","ZIP":60623,"LATTITUDE":41.85129718248562,"ADDRESS":"4347 W CERMAK RD  ","YEAR":2012,"DOING_BUSINESS_AS_NAME":"FARRIS COLLINS","POP_AT_RISK":94418,"BUSINESS_TYPE":"Peddler,food - (fruits and vegetables only) - special","LEGAL_NAME":"FARRIS COLLINS","LONGITUDE":-87.7339578483408},
{"STATE":"IL","ZIP":60639,"LATTITUDE":41.925525977482536,"ADDRESS":"2449 N LOREL AVE  ","YEAR":2012,"DOING_BUSINESS_AS_NAME":"LONGINO GARCIA","POP_AT_RISK":125404,"BUSINESS_TYPE":"Peddler,food - (fruits and vegetables only) - special","LEGAL_NAME":"LONGINO GARCIA","LONGITUDE":-87.75974157732053},
{"STATE":"IL","ZIP":60630,"LATTITUDE":41.97233817937336,"ADDRESS":"5349 W WINNEMAC AVE  ","YEAR":2012,"DOING_BUSINESS_AS_NAME":"MARIA TALAVERA","POP_AT_RISK":304632,"BUSINESS_TYPE":"Peddler,food - (fruits and vegetables only) - special","LEGAL_NAME":"MARIA TALAVERA","LONGITUDE":-87.76213509965838},
{"STATE":"IL","ZIP":60610,"LATTITUDE":41.900432775078606,"ADDRESS":"171 W OAK ST  7R","YEAR":2012,"DOING_BUSINESS_AS_NAME":"PAUL W. WILLIS","POP_AT_RISK":1361616,"BUSINESS_TYPE":"Peddler,food - (fruits and vegetables only) - special","LEGAL_NAME":"PAUL W. WILLIS","LONGITUDE":-87.63419286634776},
{"STATE":"IL","ZIP":60636,"LATTITUDE":41.7683810439287,"ADDRESS":"1809 W 69TH ST  ","YEAR":2012,"DOING_BUSINESS_AS_NAME":"VINCENT SPARKS","POP_AT_RISK":149330,"BUSINESS_TYPE":"Peddler,food - (fruits and vegetables only) - special","LEGAL_NAME":"VINCENT SPARKS","LONGITUDE":-87.6691677971012},
{"STATE":"IL","ZIP":60647,"LATTITUDE":41.920095862919595,"ADDRESS":"3724 W SHAKESPEARE AVE  ","YEAR":2012,"DOING_BUSINESS_AS_NAME":"WILFREDO REYES","POP_AT_RISK":83069,"BUSINESS_TYPE":"Peddler,food - (fruits and vegetables only) - special","LEGAL_NAME":"WILFREDO REYES","LONGITUDE":-87.72033830154847},
{"STATE":"IL","ZIP":60612,"LATTITUDE":41.87751188470479,"ADDRESS":"2135 W JACKSON BLVD  D","YEAR":2012,"DOING_BUSINESS_AS_NAME":"CLYDE T. PRUITT","POP_AT_RISK":22327,"BUSINESS_TYPE":"Peddler,food - (fruits and vegetables only) - special","LEGAL_NAME":"CLYDE T. PRUITT","LONGITUDE":-87.68037231903925},
{"STATE":"IL","ZIP":60651,"LATTITUDE":41.903544618573065,"ADDRESS":"4334 W CRYSTAL ST  ","YEAR":2012,"DOING_BUSINESS_AS_NAME":"HANDY L JOHNSON","POP_AT_RISK":143862,"BUSINESS_TYPE":"Peddler,food - (fruits and vegetables only) - special","LEGAL_NAME":"HANDY L JOHNSON","LONGITUDE":-87.73513097453957},
{"STATE":"IL","ZIP":60628,"LATTITUDE":41.719531611353844,"ADDRESS":"9607 S HARVARD AVE  ","YEAR":2012,"DOING_BUSINESS_AS_NAME":"JACOB HIGHTOWER","POP_AT_RISK":75060,"BUSINESS_TYPE":"Peddler,food - (fruits and vegetables only) - special","LEGAL_NAME":"JACOB HIGHTOWER","LONGITUDE":-87.63209884534082},
{"STATE":"IL","ZIP":60613,"LATTITUDE":41.95334908655599,"ADDRESS":"3930 N CLARK ST  1308","YEAR":2012,"DOING_BUSINESS_AS_NAME":"LOUIS ARMSTRONG","POP_AT_RISK":1987848,"BUSINESS_TYPE":"Peddler,food - (fruits and vegetables only) - special","LEGAL_NAME":"LOUIS ARMSTRONG","LONGITUDE":-87.661608670445},
{"STATE":"IL","ZIP":60632,"LATTITUDE":41.808625875492034,"ADDRESS":"4644 S TROY ST  ","YEAR":2012,"DOING_BUSINESS_AS_NAME":"MARIA CONTRERAS","POP_AT_RISK":143124,"BUSINESS_TYPE":"Peddler,food - (fruits and vegetables only) - special","LEGAL_NAME":"MARIA CONTRERAS","LONGITUDE":-87.70292445353302},
{"STATE":"IL","ZIP":60612,"LATTITUDE":41.882904692482,"ADDRESS":"2319 W WASHINGTON BLVD  ","YEAR":2012,"DOING_BUSINESS_AS_NAME":"NATHANIEL CURRY","POP_AT_RISK":88458,"BUSINESS_TYPE":"Peddler,food - (fruits and vegetables only) - special","LEGAL_NAME":"NATHANIEL CURRY","LONGITUDE":-87.68482350105631},
{"STATE":"IL","ZIP":60632,"LATTITUDE":41.79519551927019,"ADDRESS":"5355 S TRIPP AVE  ","YEAR":2012,"DOING_BUSINESS_AS_NAME":"REMBERTO FLORES","POP_AT_RISK":78396,"BUSINESS_TYPE":"Peddler,food - (fruits and vegetables only) - special","LEGAL_NAME":"REMBERTO FLORES","LONGITUDE":-87.72919729095125},
{"STATE":"IL","ZIP":60620,"LATTITUDE":41.73343751070247,"ADDRESS":"8820 S THROOP ST  ","YEAR":2012,"DOING_BUSINESS_AS_NAME":"THOMAS E TAYLOR","POP_AT_RISK":256632,"BUSINESS_TYPE":"Peddler,food - (fruits and vegetables only) - special","LEGAL_NAME":"THOMAS E TAYLOR","LONGITUDE":-87.65584506880892},
{"STATE":"IL","ZIP":60605,"LATTITUDE":41.86655820981653,"ADDRESS":"1231 S STATE ST  ","YEAR":2012,"DOING_BUSINESS_AS_NAME":"LAVAUGHN R. HART","POP_AT_RISK":236946,"BUSINESS_TYPE":"Peddler,food - (fruits and vegetables only) - special","LEGAL_NAME":"LAVAUGHN R. HART","LONGITUDE":-87.62724748973362},
{"STATE":"IL","ZIP":60621,"LATTITUDE":41.77754124097294,"ADDRESS":"6408 S MORGAN ST  ","YEAR":2012,"DOING_BUSINESS_AS_NAME":"ROBERT LUNDERMAN","POP_AT_RISK":407568,"BUSINESS_TYPE":"Peddler,food - (fruits and vegetables only) - special","LEGAL_NAME":"ROBERT LUNDERMAN","LONGITUDE":-87.64973296542712},
{"STATE":"IL","ZIP":60629,"LATTITUDE":41.78753874872224,"ADDRESS":"5800 S KILBOURN AVE  ","YEAR":2012,"DOING_BUSINESS_AS_NAME":"BERNARDINO ORTEGA","POP_AT_RISK":156464,"BUSINESS_TYPE":"Peddler,food - (fruits and vegetables only) - special","LEGAL_NAME":"BERNARDINO ORTEGA","LONGITUDE":-87.73538998386198},
{"STATE":"IL","ZIP":60629,"LATTITUDE":41.77800391376346,"ADDRESS":"6339 S ROCKWELL ST  ","YEAR":2012,"DOING_BUSINESS_AS_NAME":"CYNTHIA L MCDUFFY","POP_AT_RISK":52093,"BUSINESS_TYPE":"Peddler,food - (fruits and vegetables only) - special","LEGAL_NAME":"CYNTHIA L MCDUFFY","LONGITUDE":-87.68835209660816},
{"STATE":"IL","ZIP":60629,"LATTITUDE":41.77851334839378,"ADDRESS":"6319 S WASHTENAW AVE 1 ","YEAR":2012,"DOING_BUSINESS_AS_NAME":"LUIS SOTO-DURAN","POP_AT_RISK":59249,"BUSINESS_TYPE":"Peddler,food - (fruits and vegetables only) - special","LEGAL_NAME":"LUIS SOTO - DURAN","LONGITUDE":-87.69079325777614},
{"STATE":"IL","ZIP":60641,"LATTITUDE":41.946259427544824,"ADDRESS":"4720 W ADDISON ST 3 3A","YEAR":2012,"DOING_BUSINESS_AS_NAME":"MARIA ANN DANIELS","POP_AT_RISK":154680,"BUSINESS_TYPE":"Peddler,food - (fruits and vegetables only) - special","LEGAL_NAME":"MARIA ANN DANIELS","LONGITUDE":-87.7453612921393},
{"STATE":"IL","ZIP":60609,"LATTITUDE":41.81568111366923,"ADDRESS":"4302 S WOOD ST  ","YEAR":2012,"DOING_BUSINESS_AS_NAME":"MICHELLE P FOURTE","POP_AT_RISK":45512,"BUSINESS_TYPE":"Peddler,food - (fruits and vegetables only) - special","LEGAL_NAME":"MICHELLE P FOURTE","LONGITUDE":-87.67015923208183},
{"STATE":"IL","ZIP":60641,"LATTITUDE":41.93527582414574,"ADDRESS":"4149 W WELLINGTON AVE BSMT ","YEAR":2012,"DOING_BUSINESS_AS_NAME":"ZEFERINO GONZALEZ","POP_AT_RISK":250228,"BUSINESS_TYPE":"Peddler,food - (fruits and vegetables only) - special","LEGAL_NAME":"ZEFERINO GONZALEZ","LONGITUDE":-87.73144273961461},
{"STATE":"IL","ZIP":60608,"LATTITUDE":41.85762172122518,"ADDRESS":"1749 W 18TH ST 2FRONT ","YEAR":2012,"DOING_BUSINESS_AS_NAME":"MARIA CARMEN ARVIZO","POP_AT_RISK":192915,"BUSINESS_TYPE":"Peddler,food - (fruits and vegetables only) - special","LEGAL_NAME":"MARIA CARMEN ARVIZO","LONGITUDE":-87.67063892713637},
{"STATE":"IL","ZIP":60625,"LATTITUDE":41.967591915472944,"ADDRESS":"4734 N DRAKE AVE 1 ","YEAR":2012,"DOING_BUSINESS_AS_NAME":"JULIO RAMIREZ-MATIAS","POP_AT_RISK":603495,"BUSINESS_TYPE":"Peddler,food - (fruits and vegetables only) - special","LEGAL_NAME":"JULIO RAMIREZ-MATIAS","LONGITUDE":-87.7171552779976},
{"STATE":"IL","ZIP":60638,"LATTITUDE":41.77522156421942,"ADDRESS":"6435 S CENTRAL AVE 1ST ","YEAR":2012,"DOING_BUSINESS_AS_NAME":"REYNALDO R. GUTIERREZ","POP_AT_RISK":40593,"BUSINESS_TYPE":"Peddler,food - (fruits and vegetables only) - special","LEGAL_NAME":"REYNALDO R. GUTERREZ","LONGITUDE":-87.76146684551247},
{"STATE":"IL","ZIP":60616,"LATTITUDE":41.83475726864901,"ADDRESS":"400 E 33RD ST  2214","YEAR":2012,"DOING_BUSINESS_AS_NAME":"JOSEPH T. VALLIER JR.","POP_AT_RISK":26561,"BUSINESS_TYPE":"Peddler,food - (fruits and vegetables only) - special","LEGAL_NAME":"JOSEPH T. VALLIER JR.","LONGITUDE":-87.6170103485163},
{"STATE":"IL","ZIP":60660,"LATTITUDE":41.98520448696692,"ADDRESS":"5657 N WAYNE AVE 1 ","YEAR":2012,"DOING_BUSINESS_AS_NAME":"LEOCADIO GARCIA ALDANA","POP_AT_RISK":1404540,"BUSINESS_TYPE":"Peddler,food - (fruits and vegetables only) - special","LEGAL_NAME":"LEOCADIO GARCIA ALDANA","LONGITUDE":-87.66345032212345},
{"STATE":"IL","ZIP":60628,"LATTITUDE":41.679969431463505,"ADDRESS":"16 E 118TH ST  ","YEAR":2012,"DOING_BUSINESS_AS_NAME":"CHARLES ANDREW WILLIAMS","POP_AT_RISK":130300,"BUSINESS_TYPE":"Peddler,food - (fruits and vegetables only) - special","LEGAL_NAME":"CHARLES ANDREW WILLIAMS","LONGITUDE":-87.62207081294027},
{"STATE":"IL","ZIP":60628,"LATTITUDE":41.70439143993936,"ADDRESS":"126 E 104TH PL  ","YEAR":2012,"DOING_BUSINESS_AS_NAME":"CYPRUS ALEXANDRIA WATTS","POP_AT_RISK":56144,"BUSINESS_TYPE":"Peddler,food - (fruits and vegetables only) - special","LEGAL_NAME":"CYPRUS ALEXANDRIA WATTS","LONGITUDE":-87.61950509478314},
{"STATE":"IL","ZIP":60653,"LATTITUDE":41.82578264433403,"ADDRESS":"3757 S WABASH AVE 1 1","YEAR":2012,"DOING_BUSINESS_AS_NAME":"NASIRAH S. SHABAZZ","POP_AT_RISK":57210,"BUSINESS_TYPE":"Peddler,food - (fruits and vegetables only) - special","LEGAL_NAME":"NASIRAH  SHAKIR SHABAZZ","LONGITUDE":-87.62470307811014},
{"STATE":"IL","ZIP":60623,"LATTITUDE":41.85268214481221,"ADDRESS":"4022 W 21ST PL  ","YEAR":2012,"DOING_BUSINESS_AS_NAME":"CHARLES EDWARD SINGLETON","POP_AT_RISK":122452,"BUSINESS_TYPE":"Peddler,food - (fruits and vegetables only) - special","LEGAL_NAME":"CHARLES EDWARD SINGLETON","LONGITUDE":-87.72573798095208},
{}]