[
{"STATE":"IL","ZIP":60651,"LATTITUDE":41.89969525822016,"ADDRESS":"1033 N CICERO AVE 1 ","YEAR":2008,"DOING_BUSINESS_AS_NAME":"PACKAGING UNLIMITED CASH & CARRY","POP_AT_RISK":502601,"BUSINESS_TYPE":"Tobacco Dealer Wholesale","LEGAL_NAME":"EL MORRAL LTD.","LONGITUDE":-87.74576749777188},
{"STATE":"IL","ZIP":61802,"LATTITUDE":41.92933675905904,"ADDRESS":"2611 N LINCOLN   ","YEAR":2008,"DOING_BUSINESS_AS_NAME":"SUPERVALU INC.","POP_AT_RISK":1396044,"BUSINESS_TYPE":"Tobacco Dealer Wholesale","LEGAL_NAME":"SUPERVALU INC.","LONGITUDE":-87.65399686901772},
{"STATE":"IL","ZIP":60625,"LATTITUDE":41.968447574062616,"ADDRESS":"3620 W LAWRENCE AVE 1ST ","YEAR":2008,"DOING_BUSINESS_AS_NAME":"YASIR CORPORATION","POP_AT_RISK":471450,"BUSINESS_TYPE":"Tobacco Dealer Wholesale","LEGAL_NAME":"YASIR CORPORATION","LONGITUDE":-87.71916300284474},
{"STATE":"IL","ZIP":60618,"LATTITUDE":41.94993755652151,"ADDRESS":"3761 N ELSTON AVE  ","YEAR":2008,"DOING_BUSINESS_AS_NAME":"ELSTON SELF SERVICE","POP_AT_RISK":237640,"BUSINESS_TYPE":"Tobacco Dealer Wholesale","LEGAL_NAME":"ELSTON SELF SERVICE","LONGITUDE":-87.7134548280642},
{"STATE":"IL","ZIP":60641,"LATTITUDE":41.94037119686467,"ADDRESS":"3250 N KILPATRICK AVE 1ST ","YEAR":2008,"DOING_BUSINESS_AS_NAME":"J & B BRANDS, CORP.","POP_AT_RISK":465059,"BUSINESS_TYPE":"Tobacco Dealer Wholesale","LEGAL_NAME":"J & B BRANDS, CORP.","LONGITUDE":-87.74408596494875},
{"STATE":"WI","ZIP":53545,"LATTITUDE":42.007667271543255,"ADDRESS":"1733  MORSE ST  ","YEAR":2008,"DOING_BUSINESS_AS_NAME":"CHAMBERS & OWEN, INC.","POP_AT_RISK":692514,"BUSINESS_TYPE":"Tobacco Dealer Wholesale","LEGAL_NAME":"CHAMBERS & OWEN, INC.","LONGITUDE":-87.67360153961387},
{"STATE":"IL","ZIP":60637,"LATTITUDE":41.76602560513521,"ADDRESS":"7047 S STATE ST  1ST","YEAR":2008,"DOING_BUSINESS_AS_NAME":"L & P WHOLESALE CANDY","POP_AT_RISK":249249,"BUSINESS_TYPE":"Tobacco Dealer Wholesale","LEGAL_NAME":"L & P WHOLESALE CANDY","LONGITUDE":-87.624776325687},
{"STATE":"IL","ZIP":60608,"LATTITUDE":41.83929995733921,"ADDRESS":"3000 S ASHLAND AVE  ","YEAR":2008,"DOING_BUSINESS_AS_NAME":"BANNER WHOLESALE GROCERS","POP_AT_RISK":220974,"BUSINESS_TYPE":"Tobacco Dealer Wholesale","LEGAL_NAME":"BANNER WHOLESALE GROCERS","LONGITUDE":-87.66593524191883},
{"STATE":"IL","ZIP":60638,"LATTITUDE":41.77443770105713,"ADDRESS":"5235 W 65TH   A","YEAR":2008,"DOING_BUSINESS_AS_NAME":"JENIN DISTRIBUTORS, INC.","POP_AT_RISK":39980,"BUSINESS_TYPE":"Tobacco Dealer Wholesale","LEGAL_NAME":"JENIN DISTRIBUTORS, INC.","LONGITUDE":-87.75328782247097},
{"STATE":"IL","ZIP":60618,"LATTITUDE":41.93739494901925,"ADDRESS":"3057 N ROCKWELL ST  ","YEAR":2008,"DOING_BUSINESS_AS_NAME":"LOS BLANCOS CIGAR CO INC","POP_AT_RISK":73666,"BUSINESS_TYPE":"Tobacco Dealer Wholesale","LEGAL_NAME":"LOS BLANCOS CIGAR CO INC","LONGITUDE":-87.69273768966114},
{"STATE":"IL","ZIP":60620,"LATTITUDE":41.7417050755653,"ADDRESS":"41 W 84TH ST  1ST","YEAR":2008,"DOING_BUSINESS_AS_NAME":"MIDWAY WHOLESALERS","POP_AT_RISK":200454,"BUSINESS_TYPE":"Tobacco Dealer Wholesale","LEGAL_NAME":"MIDWAY WHOLESALERS, INC.","LONGITUDE":-87.62597631099247},
{"STATE":"IL","ZIP":60641,"LATTITUDE":41.93916130043317,"ADDRESS":"4120 W BELMONT AVE 1ST ","YEAR":2008,"DOING_BUSINESS_AS_NAME":"EMPIRE DISTRIBUTOR INC","POP_AT_RISK":181731,"BUSINESS_TYPE":"Tobacco Dealer Wholesale","LEGAL_NAME":"EMPIRE DISTRIBUTORS, INC.","LONGITUDE":-87.73050848310972},
{"STATE":"IL","ZIP":60652,"LATTITUDE":41.74150692710327,"ADDRESS":"3636 W 83RD PL  ","YEAR":2008,"DOING_BUSINESS_AS_NAME":"NADER WHOLESALE GROCERS INC","POP_AT_RISK":137465,"BUSINESS_TYPE":"Tobacco Dealer Wholesale","LEGAL_NAME":"NADER WHOLESALE GROCERS INC","LONGITUDE":-87.7135424197768},
{"STATE":"IL","ZIP":60644,"LATTITUDE":41.8709702551693,"ADDRESS":"5077 W LEXINGTON ST  ","YEAR":2008,"DOING_BUSINESS_AS_NAME":"NADER WHOLESALE GROCERS INC","POP_AT_RISK":231282,"BUSINESS_TYPE":"Tobacco Dealer Wholesale","LEGAL_NAME":"NADER WHOLESALE GROCERS INC","LONGITUDE":-87.75216630883989},
{"STATE":"IL","ZIP":60629,"LATTITUDE":41.76037749872514,"ADDRESS":"7300 S CICERO AVE  381","YEAR":2008,"DOING_BUSINESS_AS_NAME":"COSTCO WHOLESALE # 381","POP_AT_RISK":18876,"BUSINESS_TYPE":"Tobacco Dealer Wholesale","LEGAL_NAME":"COSTCO WHOLESALE CORPORATION","LONGITUDE":-87.74192003165926},
{"STATE":"IL","ZIP":60614,"LATTITUDE":41.93102100579779,"ADDRESS":"2746 N CLYBOURN AVE  ","YEAR":2008,"DOING_BUSINESS_AS_NAME":"Costco Wholesale # 380","POP_AT_RISK":220268,"BUSINESS_TYPE":"Tobacco Dealer Wholesale","LEGAL_NAME":"COSTCO WHOLESALE CORPORATION","LONGITUDE":-87.6768640181342},
{"STATE":"IL","ZIP":60622,"LATTITUDE":41.90366841772684,"ADDRESS":"1030 W DIVISION ST 1ST ","YEAR":2008,"DOING_BUSINESS_AS_NAME":"RESTAURANT DEPOT","POP_AT_RISK":769184,"BUSINESS_TYPE":"Tobacco Dealer Wholesale","LEGAL_NAME":"RESTAURANT DEPOT ENTERPR LLC","LONGITUDE":-87.65369936365693},
{"STATE":"IL","ZIP":60620,"LATTITUDE":41.75016167702497,"ADDRESS":"1841 W 79TH ST 1 #","YEAR":2008,"DOING_BUSINESS_AS_NAME":"DEARBORN WHOLESALE GROCER LP","POP_AT_RISK":267318,"BUSINESS_TYPE":"Tobacco Dealer Wholesale","LEGAL_NAME":"DEARBORN WHOLESALE GROCERS LP","LONGITUDE":-87.66988951666725},
{"STATE":"IL","ZIP":60608,"LATTITUDE":41.841114991691946,"ADDRESS":"2801 S WESTERN AVE  ","YEAR":2008,"DOING_BUSINESS_AS_NAME":"DEARBORN WHOLESALE GROCER LP","POP_AT_RISK":134356,"BUSINESS_TYPE":"Tobacco Dealer Wholesale","LEGAL_NAME":"DEARBORN WHOLESALE GROCERS LP","LONGITUDE":-87.68513203475922},
{"STATE":"IL","ZIP":60624,"LATTITUDE":41.880460999176385,"ADDRESS":"4525 W MADISON ST 1 #","YEAR":2008,"DOING_BUSINESS_AS_NAME":"DEARBORN WHOLESALE GROCER LP","POP_AT_RISK":245520,"BUSINESS_TYPE":"Tobacco Dealer Wholesale","LEGAL_NAME":"DEARBORN WHOLESALE GROCERS LP","LONGITUDE":-87.73889657725695},
{"STATE":"IL","ZIP":60645,"LATTITUDE":42.01934395073065,"ADDRESS":"2017 W HOWARD ST 1 #","YEAR":2008,"DOING_BUSINESS_AS_NAME":"DEARBORN WHOLESALE GROCERY LP","POP_AT_RISK":311560,"BUSINESS_TYPE":"Tobacco Dealer Wholesale","LEGAL_NAME":"DEARBORN WHOLESALE GROCERS LP","LONGITUDE":-87.68121783958063},
{"STATE":"IL","ZIP":60608,"LATTITUDE":41.85956418720173,"ADDRESS":"1601 S ASHLAND AVE 1 #","YEAR":2008,"DOING_BUSINESS_AS_NAME":"DEARBORN WHOLESALE GROCERY LP","POP_AT_RISK":251664,"BUSINESS_TYPE":"Tobacco Dealer Wholesale","LEGAL_NAME":"DEARBORN WHOLESALE GROCERS LP","LONGITUDE":-87.66605024515842},
{"STATE":"IL","ZIP":60613,"LATTITUDE":41.96190984490327,"ADDRESS":"918 W MONTROSE AVE 1ST #","YEAR":2008,"DOING_BUSINESS_AS_NAME":"DEARBORN WHOLESALE GROCERS INC","POP_AT_RISK":1572220,"BUSINESS_TYPE":"Tobacco Dealer Wholesale","LEGAL_NAME":"DEARBORN WHOLESALE GROCERS LP","LONGITUDE":-87.65312737854316},
{"STATE":"IL","ZIP":60619,"LATTITUDE":41.75371285104864,"ADDRESS":"7729 S STATE ST 1ST 1NORTH","YEAR":2008,"DOING_BUSINESS_AS_NAME":"EXPRESS WHOLESALE GROCERS INC","POP_AT_RISK":73032,"BUSINESS_TYPE":"Tobacco Dealer Wholesale","LEGAL_NAME":"EXPRESS WHOLESALE GROCERS INC","LONGITUDE":-87.62447915530512},
{}]