[
{"STATE":"IL","ZIP":60302,"LATTITUDE":41.90792160257591,"ADDRESS":"1514 N AUSTIN BLVD  ","YEAR":2010,"DOING_BUSINESS_AS_NAME":"ADAM JONES","POP_AT_RISK":44986,"BUSINESS_TYPE":"Peddler, non-food","LEGAL_NAME":"ADAM JONES","LONGITUDE":-87.77570559606387},
{"STATE":"IL","ZIP":60634,"LATTITUDE":41.958857445505956,"ADDRESS":"4308 N MOODY AVE 1 ","YEAR":2010,"DOING_BUSINESS_AS_NAME":"DIANA URIBE","POP_AT_RISK":76508,"BUSINESS_TYPE":"Peddler, non-food","LEGAL_NAME":"DIANA URIBE","LONGITUDE":-87.78079177786935},
{"STATE":"IL","ZIP":60617,"LATTITUDE":41.701062728606225,"ADDRESS":"10656 S AVENUE J   ","YEAR":2010,"DOING_BUSINESS_AS_NAME":"ELISEO LEON","POP_AT_RISK":83868,"BUSINESS_TYPE":"Peddler, non-food","LEGAL_NAME":"ELISEO LEON","LONGITUDE":-87.53422470733575},
{"STATE":"IL","ZIP":60631,"LATTITUDE":42.00149657533695,"ADDRESS":"6640 N NORTHWEST HWY  ","YEAR":2010,"DOING_BUSINESS_AS_NAME":"TIFFANY BELL","POP_AT_RISK":18918,"BUSINESS_TYPE":"Peddler, non-food","LEGAL_NAME":"TIFFANY BELL","LONGITUDE":-87.81435623786965},
{"STATE":"IL","ZIP":60635,"LATTITUDE":41.80367870154325,"ADDRESS":"4913 S KOLIN  2ND ","YEAR":2010,"DOING_BUSINESS_AS_NAME":"CARMEN ZAPATA","POP_AT_RISK":140016,"BUSINESS_TYPE":"Peddler, non-food","LEGAL_NAME":"CARMEN ZAPATA","LONGITUDE":-87.73188810177032},
{"STATE":"IL","ZIP":60652,"LATTITUDE":41.739831099949434,"ADDRESS":"3252 W 84TH PL  ","YEAR":2010,"DOING_BUSINESS_AS_NAME":"DIANE JOHNSON","POP_AT_RISK":24391,"BUSINESS_TYPE":"Peddler, non-food","LEGAL_NAME":"DIANE JOHNSON","LONGITUDE":-87.7042079592918},
{"STATE":"IL","ZIP":60707,"LATTITUDE":41.9171319323781,"ADDRESS":"2030 N HARLEM AVE 1ST A-3","YEAR":2010,"DOING_BUSINESS_AS_NAME":"NICOLO RADOSTA","POP_AT_RISK":34367,"BUSINESS_TYPE":"Peddler, non-food","LEGAL_NAME":"NICOLO RADOSTA","LONGITUDE":-87.80618410223347},
{"STATE":"IL","ZIP":60643,"LATTITUDE":41.68754976897045,"ADDRESS":"11346 S CHURCH ST 1 ","YEAR":2010,"DOING_BUSINESS_AS_NAME":"VICTORIA GRADY","POP_AT_RISK":24273,"BUSINESS_TYPE":"Peddler, non-food","LEGAL_NAME":"VICTORIA GRADY","LONGITUDE":-87.66778079720693},
{"STATE":"IL","ZIP":60644,"LATTITUDE":41.89091016932336,"ADDRESS":"5919 W OHIO ST HSE ","YEAR":2010,"DOING_BUSINESS_AS_NAME":"DEBRA D. TAYLOR","POP_AT_RISK":95364,"BUSINESS_TYPE":"Peddler, non-food","LEGAL_NAME":"DEBRA D. TAYLOR","LONGITUDE":-87.7729787447001},
{"STATE":"IL","ZIP":60646,"LATTITUDE":41.99691044531468,"ADDRESS":"6333 N LEONA AVE  ","YEAR":2010,"DOING_BUSINESS_AS_NAME":"HOWARD K. KADET","POP_AT_RISK":29738,"BUSINESS_TYPE":"Peddler, non-food","LEGAL_NAME":"HOWARD K. KADET","LONGITUDE":-87.75384375298215},
{"STATE":"IL","ZIP":60655,"LATTITUDE":41.68556100263544,"ADDRESS":"11431 S ST LOUIS AVE  ","YEAR":2010,"DOING_BUSINESS_AS_NAME":"JOSHUA JAMES SOICH","POP_AT_RISK":73892,"BUSINESS_TYPE":"Peddler, non-food","LEGAL_NAME":"JOSHUA J. SOICH","LONGITUDE":-87.70778792327808},
{"STATE":"IL","ZIP":60659,"LATTITUDE":41.9947944595765,"ADDRESS":"6224 N ROCKWELL ST  ","YEAR":2010,"DOING_BUSINESS_AS_NAME":"LISA DYANN PATE","POP_AT_RISK":61118,"BUSINESS_TYPE":"Peddler, non-food","LEGAL_NAME":"LISA DYANN PATE","LONGITUDE":-87.69481890297219},
{"STATE":"IL","ZIP":60638,"LATTITUDE":41.79105802412348,"ADDRESS":"5548 S MCVICKER AVE  ","YEAR":2010,"DOING_BUSINESS_AS_NAME":"BENJAMIN","POP_AT_RISK":31019,"BUSINESS_TYPE":"Peddler, non-food","LEGAL_NAME":"BENJAMIN G GALLO","LONGITUDE":-87.77337547404142},
{"STATE":"IL","ZIP":60630,"LATTITUDE":41.97962064235783,"ADDRESS":"5411 N MELVINA AVE  ","YEAR":2010,"DOING_BUSINESS_AS_NAME":"CATHY H. BELLINI","POP_AT_RISK":32566,"BUSINESS_TYPE":"Peddler, non-food","LEGAL_NAME":"CATHY H. BELLINI","LONGITUDE":-87.78341104679562},
{"STATE":"IL","ZIP":60644,"LATTITUDE":41.86904530351909,"ADDRESS":"5855 W ARTHINGTON ST  ","YEAR":2010,"DOING_BUSINESS_AS_NAME":"RAPHAEL T BARNES","POP_AT_RISK":118353,"BUSINESS_TYPE":"Peddler, non-food","LEGAL_NAME":"RAPHAEL T BARNES","LONGITUDE":-87.77155746785579},
{"STATE":"IL","ZIP":60643,"LATTITUDE":41.69873299478419,"ADDRESS":"10715 S LONGWOOD DR  ","YEAR":2010,"DOING_BUSINESS_AS_NAME":"JAMES M. MITCHELL","POP_AT_RISK":37528,"BUSINESS_TYPE":"Peddler, non-food","LEGAL_NAME":"JAMES M. MITCHELL","LONGITUDE":-87.6711843826047},
{"STATE":"IL","ZIP":60652,"LATTITUDE":41.73571339120002,"ADDRESS":"8629 S KENNETH AVE 1 ","YEAR":2010,"DOING_BUSINESS_AS_NAME":"LAURA NICOLE ZARO","POP_AT_RISK":39620,"BUSINESS_TYPE":"Peddler, non-food","LEGAL_NAME":"LAURA NICOLE ZARO","LONGITUDE":-87.73224099889644},
{"STATE":"IL","ZIP":60634,"LATTITUDE":41.938523235464935,"ADDRESS":"3217 N OCTAVIA AVE  ","YEAR":2010,"DOING_BUSINESS_AS_NAME":"MARY JANE ROSARIO","POP_AT_RISK":90028,"BUSINESS_TYPE":"Peddler, non-food","LEGAL_NAME":"MARY JANE ROSARIO","LONGITUDE":-87.80903897454208},
{"STATE":"IL","ZIP":60660,"LATTITUDE":41.99020025218026,"ADDRESS":"1020 W THORNDALE AVE 3RD 306","YEAR":2010,"DOING_BUSINESS_AS_NAME":"THOMAS J DIGANGI","POP_AT_RISK":111566,"BUSINESS_TYPE":"Peddler, non-food","LEGAL_NAME":"THOMAS JAMES DIGANGI","LONGITUDE":-87.65631782611601},
{"STATE":"IL","ZIP":60628,"LATTITUDE":41.675257063441904,"ADDRESS":"12036 S INDIANA AVE  ","YEAR":2010,"DOING_BUSINESS_AS_NAME":"MIKOS ANTONIO DANIELS","POP_AT_RISK":23839,"BUSINESS_TYPE":"Peddler, non-food","LEGAL_NAME":"MIKOS ANTONIO DANIELS","LONGITUDE":-87.6178838471479},
{"STATE":"IL","ZIP":60458,"LATTITUDE":41.674052619031144,"ADDRESS":"12056 S JUSTINE ST 1 ","YEAR":2010,"DOING_BUSINESS_AS_NAME":"ROBERT L. JOHNSON JR.","POP_AT_RISK":25360,"BUSINESS_TYPE":"Peddler, non-food","LEGAL_NAME":"ROBERT L. JOHNSON, JR","LONGITUDE":-87.66020570250922},
{"STATE":"IL","ZIP":60631,"LATTITUDE":42.01219322871207,"ADDRESS":"7715 W JARLATH ST  ","YEAR":2010,"DOING_BUSINESS_AS_NAME":"JOSE M TORRES SR.","POP_AT_RISK":19740,"BUSINESS_TYPE":"Peddler, non-food","LEGAL_NAME":"JOSE MANUEL TORRES SR.","LONGITUDE":-87.81948791220417},
{"STATE":"IL","ZIP":60659,"LATTITUDE":41.99479007884291,"ADDRESS":"6234 N ST LOUIS AVE  ","YEAR":2010,"DOING_BUSINESS_AS_NAME":"JOSEPH BARHOUMEH","POP_AT_RISK":30318,"BUSINESS_TYPE":"Peddler, non-food","LEGAL_NAME":"JOSEPH KHADER BARHOUMEH","LONGITUDE":-87.71670438280591},
{"STATE":"IL","ZIP":60646,"LATTITUDE":41.987990222044985,"ADDRESS":"5848 N MERRIMAC AVE 1 ","YEAR":2010,"DOING_BUSINESS_AS_NAME":"NICHOLAS JAMES FINNEGAN","POP_AT_RISK":30137,"BUSINESS_TYPE":"Peddler, non-food","LEGAL_NAME":"NICHOLAS JAMES FINNEGAN","LONGITUDE":-87.78414840420129},
{"STATE":"IL","ZIP":60638,"LATTITUDE":41.77502533729492,"ADDRESS":"6456 W 64TH PL 3S ","YEAR":2010,"DOING_BUSINESS_AS_NAME":"RICHARD  G.  LADD, JR.","POP_AT_RISK":22742,"BUSINESS_TYPE":"Peddler, non-food","LEGAL_NAME":"RICHARD   G.  LADD, JR.","LONGITUDE":-87.78340774656445},
{"STATE":"IL","ZIP":60605,"LATTITUDE":41.86422425830418,"ADDRESS":"100 E 14TH ST  ","YEAR":2010,"DOING_BUSINESS_AS_NAME":"RONEESHA KAARON JOHNSON","POP_AT_RISK":34626,"BUSINESS_TYPE":"Peddler, non-food","LEGAL_NAME":"RONEESHA KAARON JOHNSON","LONGITUDE":-87.62407456094904},
{"STATE":"IL","ZIP":60645,"LATTITUDE":42.01938098668099,"ADDRESS":"2451 W HOWARD ST  309","YEAR":2010,"DOING_BUSINESS_AS_NAME":"JOI SHERRYL BOLTON RODRIGUEZ","POP_AT_RISK":99670,"BUSINESS_TYPE":"Peddler, non-food","LEGAL_NAME":"JOI SHERRYL BOLTON RODRIGUEZ","LONGITUDE":-87.69207353162442},
{}]