[
{"STATE":"IL","ZIP":60621,"LATTITUDE":41.77885417721719,"ADDRESS":"6331 S LOWE AVE  ","YEAR":2005,"DOING_BUSINESS_AS_NAME":"TASTE DISCO & STEAK HOUSE","POP_AT_RISK":294570,"BUSINESS_TYPE":"Public Place of Amusement","LEGAL_NAME":"TASTE INC","LONGITUDE":-87.64069495645147},
{"STATE":"IL","ZIP":60639,"LATTITUDE":41.91705557302993,"ADDRESS":"4001 W ARMITAGE AVE  ","YEAR":2005,"DOING_BUSINESS_AS_NAME":"GIGI'S BOOKSTORE, LTD.","POP_AT_RISK":226497,"BUSINESS_TYPE":"Public Place of Amusement","LEGAL_NAME":"MARCAT INC","LONGITUDE":-87.72661737757059},
{"STATE":"IL","ZIP":60641,"LATTITUDE":41.94169157081146,"ADDRESS":"3336-3342 N MILWAUKEE AVE 1ST ","YEAR":2005,"DOING_BUSINESS_AS_NAME":"MAMBO CAFE","POP_AT_RISK":301490,"BUSINESS_TYPE":"Public Place of Amusement","LEGAL_NAME":"AR & IR, INC.","LONGITUDE":-87.72833822192297},
{"STATE":"IL","ZIP":60647,"LATTITUDE":41.93210985510181,"ADDRESS":"2211 W DIVERSEY PKWY  1ST","YEAR":2005,"DOING_BUSINESS_AS_NAME":"DIVERSEY-RIVER BOWL","POP_AT_RISK":311730,"BUSINESS_TYPE":"Public Place of Amusement","LEGAL_NAME":"IVERCREST INC","LONGITUDE":-87.68361585249846},
{"STATE":"IL","ZIP":60625,"LATTITUDE":41.98258181784537,"ADDRESS":"5544 N KEDZIE AVE 1ST ","YEAR":2005,"DOING_BUSINESS_AS_NAME":"CHICAGO BILLIARDS","POP_AT_RISK":101774,"BUSINESS_TYPE":"Public Place of Amusement","LEGAL_NAME":"HAE CHUK CHUNG","LONGITUDE":-87.70899575100229},
{"STATE":"IL","ZIP":60622,"LATTITUDE":41.89670239703975,"ADDRESS":"820 N ASHLAND AVE 1ST & 2ND ","YEAR":2005,"DOING_BUSINESS_AS_NAME":"HACIENDA TECALITLAN","POP_AT_RISK":163788,"BUSINESS_TYPE":"Public Place of Amusement","LEGAL_NAME":"TECATITLAN INC.","LONGITUDE":-87.66745592767211},
{"STATE":"IL","ZIP":60636,"LATTITUDE":41.76181563290822,"ADDRESS":"7247-7251 S RACINE AVE 1ST ","YEAR":2005,"DOING_BUSINESS_AS_NAME":"E T RESTAURANT AND LOUNGE","POP_AT_RISK":69354,"BUSINESS_TYPE":"Public Place of Amusement","LEGAL_NAME":"LEVERNE  BURNETT","LONGITUDE":-87.65388431693869},
{"STATE":"IL","ZIP":60641,"LATTITUDE":41.93978704106656,"ADDRESS":"3231 N CICERO AVE  ","YEAR":2005,"DOING_BUSINESS_AS_NAME":"GOLDEN TIARA LTD","POP_AT_RISK":474424,"BUSINESS_TYPE":"Public Place of Amusement","LEGAL_NAME":"GOLDEN TIARA, LTD.","LONGITUDE":-87.74674561072719},
{"STATE":"IL","ZIP":60659,"LATTITUDE":41.99555536890866,"ADDRESS":"6255 N MCCORMICK RD  C","YEAR":2005,"DOING_BUSINESS_AS_NAME":"SILVER CUE BILLIARD","POP_AT_RISK":168124,"BUSINESS_TYPE":"Public Place of Amusement","LEGAL_NAME":"SILVER QUE 1, INC.","LONGITUDE":-87.71279106359519},
{"STATE":"IL","ZIP":60643,"LATTITUDE":41.683532137968754,"ADDRESS":"11532 S WESTERN AVE 1ST ","YEAR":2005,"DOING_BUSINESS_AS_NAME":"BEVERLY WOODS RESTAURANT","POP_AT_RISK":58808,"BUSINESS_TYPE":"Public Place of Amusement","LEGAL_NAME":"BOWLER-MCGANN CORP.","LONGITUDE":-87.68104527469114},
{"STATE":"IL","ZIP":60625,"LATTITUDE":41.96525973742128,"ADDRESS":"4614 N LINCOLN AVE  ","YEAR":2005,"DOING_BUSINESS_AS_NAME":"DAVIS THEATER","POP_AT_RISK":409339,"BUSINESS_TYPE":"Public Place of Amusement","LEGAL_NAME":"VALUE THEATRE, INC.","LONGITUDE":-87.68651075511647},
{"STATE":"IL","ZIP":60619,"LATTITUDE":41.7514313030561,"ADDRESS":"914 E 79TH ST 1ST ","YEAR":2005,"DOING_BUSINESS_AS_NAME":"EAST OF THE RYAN,INC","POP_AT_RISK":125541,"BUSINESS_TYPE":"Public Place of Amusement","LEGAL_NAME":"EAST OF THE RYAN INC","LONGITUDE":-87.60211212497248},
{"STATE":"IL","ZIP":60652,"LATTITUDE":41.75466012439374,"ADDRESS":"7601 S CICERO AVE  ","YEAR":2005,"DOING_BUSINESS_AS_NAME":"TILT","POP_AT_RISK":129110,"BUSINESS_TYPE":"Public Place of Amusement","LEGAL_NAME":"NICKELS & DIMES, INC","LONGITUDE":-87.74138475860521},
{"STATE":"IL","ZIP":60612,"LATTITUDE":41.87748553469393,"ADDRESS":"1645 W JACKSON BLVD  ","YEAR":2005,"DOING_BUSINESS_AS_NAME":"PARK TAVERN CHICAGO","POP_AT_RISK":218169,"BUSINESS_TYPE":"Public Place of Amusement","LEGAL_NAME":"1645 W. JACKSON, INC.","LONGITUDE":-87.66852104233708},
{"STATE":"IL","ZIP":60623,"LATTITUDE":41.85906468430445,"ADDRESS":"3638 W 16TH ST  ","YEAR":2005,"DOING_BUSINESS_AS_NAME":"Touch II","POP_AT_RISK":921096,"BUSINESS_TYPE":"Public Place of Amusement","LEGAL_NAME":"DENNIS E. QUINNEY SR.","LONGITUDE":-87.71667499753184},
{"STATE":"IL","ZIP":60632,"LATTITUDE":41.80983241507112,"ADDRESS":"4604 S ARCHER AVE 1ST ","YEAR":2005,"DOING_BUSINESS_AS_NAME":"POLONIA","POP_AT_RISK":35391,"BUSINESS_TYPE":"Public Place of Amusement","LEGAL_NAME":"POLONIA BANQUETS, INC","LONGITUDE":-87.71141243854736},
{"STATE":"IL","ZIP":60640,"LATTITUDE":41.969138014237544,"ADDRESS":"4802 N BROADWAY  1ST ","YEAR":2005,"DOING_BUSINESS_AS_NAME":"GREEN MILL JAZZ CLUB","POP_AT_RISK":75245,"BUSINESS_TYPE":"Public Place of Amusement","LEGAL_NAME":"GREEN MILL CORPORATION","LONGITUDE":-87.65982130240475},
{"STATE":"IL","ZIP":60632,"LATTITUDE":41.801670034831716,"ADDRESS":"5030 S KEDZIE AVE  ","YEAR":2005,"DOING_BUSINESS_AS_NAME":"CHUCK 'E' CHEESE'S","POP_AT_RISK":284575,"BUSINESS_TYPE":"Public Place of Amusement","LEGAL_NAME":"CEC ENTERTAINMENT, INC.","LONGITUDE":-87.70393836191948},
{"STATE":"IL","ZIP":60613,"LATTITUDE":41.94987957621978,"ADDRESS":"3730 N CLARK ST  ","YEAR":2005,"DOING_BUSINESS_AS_NAME":"Metro","POP_AT_RISK":78457,"BUSINESS_TYPE":"Public Place of Amusement","LEGAL_NAME":"STAGES-MUSIC HALL, INC.","LONGITUDE":-87.6588429827861},
{"STATE":"IL","ZIP":60619,"LATTITUDE":41.75840352958431,"ADDRESS":"100 E 75TH ST  ","YEAR":2005,"DOING_BUSINESS_AS_NAME":"THE NEW PARK MANOR INC","POP_AT_RISK":101136,"BUSINESS_TYPE":"Public Place of Amusement","LEGAL_NAME":"THE NEW PARK MANOR INC.","LONGITUDE":-87.62145859398333},
{"STATE":"IL","ZIP":60620,"LATTITUDE":41.75594978114761,"ADDRESS":"1219 W 76TH ST  ","YEAR":2005,"DOING_BUSINESS_AS_NAME":"DR. MLK, JR. PARK AND FAMILY ENTERTAINMENT CENTER","POP_AT_RISK":161532,"BUSINESS_TYPE":"Public Place of Amusement","LEGAL_NAME":"CHICAGO CITY SKATING, LLC","LONGITUDE":-87.65466615567901},
{"STATE":"IL","ZIP":60616,"LATTITUDE":41.83078366228312,"ADDRESS":"333 W 35TH ST  ","YEAR":2005,"DOING_BUSINESS_AS_NAME":"CHICAGO WHITE SOX LTD","POP_AT_RISK":71736,"BUSINESS_TYPE":"Public Place of Amusement","LEGAL_NAME":"CHICAGO WHITE SOX LIMITED","LONGITUDE":-87.6352957830455},
{"STATE":"IL","ZIP":60656,"LATTITUDE":41.974588221046915,"ADDRESS":"7300 W FOSTER AVE  ","YEAR":2005,"DOING_BUSINESS_AS_NAME":"LITTLE CAESARS","POP_AT_RISK":100352,"BUSINESS_TYPE":"Public Place of Amusement","LEGAL_NAME":"LITTLE CAESARS EAST, INC.","LONGITUDE":-87.80958568966135},
{"STATE":"IL","ZIP":60626,"LATTITUDE":42.00493637711607,"ADDRESS":"6746 N SHERIDAN RD  ","YEAR":2005,"DOING_BUSINESS_AS_NAME":"VILLAGE NORTH THEATRE","POP_AT_RISK":390504,"BUSINESS_TYPE":"Public Place of Amusement","LEGAL_NAME":"THE VILLAGE THEATER, INC.","LONGITUDE":-87.66101365071366},
{"STATE":"IL","ZIP":60615,"LATTITUDE":41.80929520397561,"ADDRESS":"4701 S DR MARTIN LUTHER KING JR DR  ","YEAR":2005,"DOING_BUSINESS_AS_NAME":"HAROLD WASHINGTON CULTURAL CENTER","POP_AT_RISK":739380,"BUSINESS_TYPE":"Public Place of Amusement","LEGAL_NAME":"TOBACCO ROAD INCORPORATED","LONGITUDE":-87.61643966919897},
{"STATE":"IL","ZIP":60605,"LATTITUDE":41.87225870806733,"ADDRESS":"754 S WABASH AVE  ","YEAR":2005,"DOING_BUSINESS_AS_NAME":"BUDDY GUY'S LEGENDS","POP_AT_RISK":42798,"BUSINESS_TYPE":"Public Place of Amusement","LEGAL_NAME":"CHECKERBOARD PRODUCTIONS INC","LONGITUDE":-87.62609460974379},
{"STATE":"IL","ZIP":60647,"LATTITUDE":41.92773060130293,"ADDRESS":"2539 N KEDZIE BLVD 2ND 15","YEAR":2005,"DOING_BUSINESS_AS_NAME":"LOGAN SQUARE AUDITORIUM","POP_AT_RISK":301240,"BUSINESS_TYPE":"Public Place of Amusement","LEGAL_NAME":"LOGAN SQUARE FESTIVALS, INC.","LONGITUDE":-87.70708886865839},
{"STATE":"IL","ZIP":60622,"LATTITUDE":41.89938196589096,"ADDRESS":"1002 N CALIFORNIA AVE 1ST ","YEAR":2005,"DOING_BUSINESS_AS_NAME":"THE CLIPPER","POP_AT_RISK":458568,"BUSINESS_TYPE":"Public Place of Amusement","LEGAL_NAME":"THE CALIFORNIA CLIPPER CORP.","LONGITUDE":-87.69694004377007},
{"STATE":"IL","ZIP":60637,"LATTITUDE":41.79253620872735,"ADDRESS":"1701 E 57TH DR  ","YEAR":2005,"DOING_BUSINESS_AS_NAME":"MUSEUM OF SCIENCE AND INDUSTRY","POP_AT_RISK":477750,"BUSINESS_TYPE":"Public Place of Amusement","LEGAL_NAME":"MUSEUM OF SCIENCE AND INDUSTRY","LONGITUDE":-87.58379120622547},
{"STATE":"IL","ZIP":60626,"LATTITUDE":42.0103014159201,"ADDRESS":"1770 W GREENLEAF AVE 1ST #","YEAR":2005,"DOING_BUSINESS_AS_NAME":"GALLAGHERS","POP_AT_RISK":450462,"BUSINESS_TYPE":"Public Place of Amusement","LEGAL_NAME":"1770 WEST GREENLEAF CORPORATION","LONGITUDE":-87.67504930323366},
{"STATE":"IL","ZIP":60632,"LATTITUDE":41.807649252190316,"ADDRESS":"4335 W 47TH ST  ","YEAR":2005,"DOING_BUSINESS_AS_NAME":"CHICAGO SPORTS BAR & GRILL, INC.","POP_AT_RISK":222416,"BUSINESS_TYPE":"Public Place of Amusement","LEGAL_NAME":"CHICAGO SPORTS BAR & GRILL, INC.","LONGITUDE":-87.73242906054888},
{"STATE":"IL","ZIP":60616,"LATTITUDE":41.836371827384944,"ADDRESS":"3201 S STATE ST  ","YEAR":2005,"DOING_BUSINESS_AS_NAME":"ILLINOIS INSTITUTE OF TECHNOLOGY","POP_AT_RISK":100077,"BUSINESS_TYPE":"Public Place of Amusement","LEGAL_NAME":"ILLINOIS INSTITUTE OF TECHNOLOGY","LONGITUDE":-87.62638078984217},
{"STATE":"IL","ZIP":60634,"LATTITUDE":41.95263300843126,"ADDRESS":"6855-6859 W IRVING PARK RD  ","YEAR":2005,"DOING_BUSINESS_AS_NAME":"NEW ENGLAND INN OF ILLINOIS, INC.","POP_AT_RISK":252112,"BUSINESS_TYPE":"Public Place of Amusement","LEGAL_NAME":"NEW ENGLAND INN OF ILLINOIS, INC.","LONGITUDE":-87.79847599375749},
{"STATE":"IL","ZIP":60620,"LATTITUDE":41.736217960782156,"ADDRESS":"210 W 87TH ST  ","YEAR":2005,"DOING_BUSINESS_AS_NAME":"ICE Theaters Chatam","POP_AT_RISK":137802,"BUSINESS_TYPE":"Public Place of Amusement","LEGAL_NAME":"MARCUS CINEMAS OF MINNESOTA AND ILLINOIS, INC","LONGITUDE":-87.62931043653778},
{}]