[
{"STATE":"IL","ZIP":60621,"LATTITUDE":41.77240524117657,"ADDRESS":"6701 S EMERALD AVE  ","YEAR":2013,"DOING_BUSINESS_AS_NAME":"LITTLE ANGELS FAMILY DAYCARE","POP_AT_RISK":30275,"BUSINESS_TYPE":"Day Care Center Under 2 Years","LEGAL_NAME":"EUNICE GREER","LONGITUDE":-87.64310796196668},
{"STATE":"IL","ZIP":60657,"LATTITUDE":41.93997636526853,"ADDRESS":"1110 W BELMONT AVE  1ST F","YEAR":2013,"DOING_BUSINESS_AS_NAME":"THRESHOLDS  MOTHERS  PROJECT","POP_AT_RISK":1458630,"BUSINESS_TYPE":"Day Care Center Under 2 Years","LEGAL_NAME":"THE THRESHOLDS","LONGITUDE":-87.65702097547309},
{"STATE":"IL","ZIP":60618,"LATTITUDE":41.941140616614504,"ADDRESS":"3300 N WHIPPLE ST  ","YEAR":2013,"DOING_BUSINESS_AS_NAME":"CONCORDIA PLACE","POP_AT_RISK":841120,"BUSINESS_TYPE":"Day Care Center Under 2 Years","LEGAL_NAME":"CONCORDIA PLACE","LONGITUDE":-87.70414879153417},
{"STATE":"IL","ZIP":60619,"LATTITUDE":41.73826152379797,"ADDRESS":"8605-8607 S COTTAGE GROVE AVE 1ST ","YEAR":2013,"DOING_BUSINESS_AS_NAME":"THE BABY ACADEMY","POP_AT_RISK":38439,"BUSINESS_TYPE":"Day Care Center Under 2 Years","LEGAL_NAME":"THE BABY ACADEMY","LONGITUDE":-87.60472307634768},
{"STATE":"IL","ZIP":60621,"LATTITUDE":41.768827997910584,"ADDRESS":"1118 W 69TH ST  ","YEAR":2013,"DOING_BUSINESS_AS_NAME":"BUILDING BLOCKS LEARNING ACADEMY","POP_AT_RISK":79424,"BUSINESS_TYPE":"Day Care Center Under 2 Years","LEGAL_NAME":"BLACK RHINO, INC.","LONGITUDE":-87.65260540548795},
{"STATE":"IL","ZIP":60618,"LATTITUDE":41.95201166669297,"ADDRESS":"3901 N RIDGEWAY AVE  ","YEAR":2013,"DOING_BUSINESS_AS_NAME":"KIDWATCH PLUS INC","POP_AT_RISK":438816,"BUSINESS_TYPE":"Day Care Center Under 2 Years","LEGAL_NAME":"KIDWATCH PLUS INC","LONGITUDE":-87.72128864540792},
{"STATE":"IL","ZIP":60613,"LATTITUDE":41.95880408212383,"ADDRESS":"4214  -4220 N BROADWAY  1ST ","YEAR":2013,"DOING_BUSINESS_AS_NAME":"A STEP AHEAD LEARNING CENTER","POP_AT_RISK":859116,"BUSINESS_TYPE":"Day Care Center Under 2 Years","LEGAL_NAME":"CARING HANDS, INC.","LONGITUDE":-87.65342019040853},
{"STATE":"IL","ZIP":60609,"LATTITUDE":41.80162620836676,"ADDRESS":"1000 W 51ST ST  ","YEAR":2013,"DOING_BUSINESS_AS_NAME":"NEW CITY DAYCARE INC.","POP_AT_RISK":373828,"BUSINESS_TYPE":"Day Care Center Under 2 Years","LEGAL_NAME":"NEW CITY DAYCARE INC.","LONGITUDE":-87.65026589146807},
{"STATE":"IL","ZIP":60649,"LATTITUDE":41.75908547586528,"ADDRESS":"2334 E 75TH ST  ","YEAR":2013,"DOING_BUSINESS_AS_NAME":"KENYATTA'S DAYCARE","POP_AT_RISK":129099,"BUSINESS_TYPE":"Day Care Center Under 2 Years","LEGAL_NAME":"KENYATTA DAYCARE CENTER","LONGITUDE":-87.56744784945764},
{"STATE":"IL","ZIP":60616,"LATTITUDE":41.848761809669455,"ADDRESS":"2416 S MICHIGAN AVE  ","YEAR":2013,"DOING_BUSINESS_AS_NAME":"KIDS CORNER ACADEMY, INC.","POP_AT_RISK":122829,"BUSINESS_TYPE":"Day Care Center Under 2 Years","LEGAL_NAME":"KIDS CORNER ACADEMY, INC.","LONGITUDE":-87.62384798976935},
{"STATE":"IL","ZIP":60614,"LATTITUDE":41.92133238926864,"ADDRESS":"2145 N HALSTED ST 1ST ","YEAR":2013,"DOING_BUSINESS_AS_NAME":"ST VINCENT DE PAUL CENTER","POP_AT_RISK":634932,"BUSINESS_TYPE":"Day Care Center Under 2 Years","LEGAL_NAME":"ST VINCENT DE PAUL CENTER","LONGITUDE":-87.64847173462576},
{"STATE":"IL","ZIP":60638,"LATTITUDE":41.7932347787373,"ADDRESS":"6287 S ARCHER AVE  1ST F","YEAR":2013,"DOING_BUSINESS_AS_NAME":"KID'Z COLONY DAYCARE, INC.","POP_AT_RISK":124644,"BUSINESS_TYPE":"Day Care Center Under 2 Years","LEGAL_NAME":"KID'Z COLONY DAYCARE. INC.","LONGITUDE":-87.77777643611029},
{"STATE":"IL","ZIP":60622,"LATTITUDE":41.9028223612357,"ADDRESS":"2739 W DIVISION ST 1ST ","YEAR":2013,"DOING_BUSINESS_AS_NAME":"CENTRO INFANTIL","POP_AT_RISK":1494050,"BUSINESS_TYPE":"Day Care Center Under 2 Years","LEGAL_NAME":"PUERTO RICAN CULTURAL CENTER","LONGITUDE":-87.69599039701163},
{"STATE":"IL","ZIP":60607,"LATTITUDE":41.88451419700416,"ADDRESS":"140 N ASHLAND AVE  1","YEAR":2013,"DOING_BUSINESS_AS_NAME":"THE WOMEN'S TREATMENT CNTR-DAY","POP_AT_RISK":211506,"BUSINESS_TYPE":"Day Care Center Under 2 Years","LEGAL_NAME":"THE WOMEN'S TREATMENT CENTER","LONGITUDE":-87.66704209415728},
{"STATE":"IL","ZIP":60631,"LATTITUDE":41.99697539188323,"ADDRESS":"7750 W DEVON AVE  1","YEAR":2013,"DOING_BUSINESS_AS_NAME":"HAPPY CHILD DAY CARE CTN, INC","POP_AT_RISK":41726,"BUSINESS_TYPE":"Day Care Center Under 2 Years","LEGAL_NAME":"HAPPY CHILD DAY CARE CTN, INC","LONGITUDE":-87.82099583645142},
{"STATE":"IL","ZIP":60609,"LATTITUDE":41.828616842513334,"ADDRESS":"3600-3604 S HALSTED ST 1ST ","YEAR":2013,"DOING_BUSINESS_AS_NAME":"SMART STUFF LEARNING CENTER","POP_AT_RISK":377245,"BUSINESS_TYPE":"Day Care Center Under 2 Years","LEGAL_NAME":"SMART STUFF EDUCATIONAL, INC.","LONGITUDE":-87.64620069261998},
{"STATE":"IL","ZIP":60612,"LATTITUDE":41.874081965880684,"ADDRESS":"2150 W HARRISON ST  ","YEAR":2013,"DOING_BUSINESS_AS_NAME":"LAURENCE ARMOUR DAY SCHOOL","POP_AT_RISK":295690,"BUSINESS_TYPE":"Day Care Center Under 2 Years","LEGAL_NAME":"RUSH UNIVERSITY MEDICAL CENTER","LONGITUDE":-87.68092243741066},
{"STATE":"IL","ZIP":60619,"LATTITUDE":41.73276769817549,"ADDRESS":"8907 S COTTAGE GROVE AVE  ","YEAR":2013,"DOING_BUSINESS_AS_NAME":"JENKINS INSTITUTE OF LOVE","POP_AT_RISK":45732,"BUSINESS_TYPE":"Day Care Center Under 2 Years","LEGAL_NAME":"JENKINS INSTITUTE OF LOVE, INC.","LONGITUDE":-87.60458211171219},
{"STATE":"IL","ZIP":60605,"LATTITUDE":41.86232200622226,"ADDRESS":"1463 S STATE ST 1 ","YEAR":2013,"DOING_BUSINESS_AS_NAME":"KINDERCARE LEARNING CENTER","POP_AT_RISK":45563,"BUSINESS_TYPE":"Day Care Center Under 2 Years","LEGAL_NAME":"KINDERCARE LEARNING CENTERS LLC","LONGITUDE":-87.62715554221299},
{"STATE":"IL","ZIP":60611,"LATTITUDE":41.89357131013786,"ADDRESS":"446 E ONTARIO ST  ","YEAR":2013,"DOING_BUSINESS_AS_NAME":"KINDERCARE LEARNING CENTERS","POP_AT_RISK":577490,"BUSINESS_TYPE":"Day Care Center Under 2 Years","LEGAL_NAME":"KINDERCARE LEARNING CENTERS LLC","LONGITUDE":-87.61594747652425},
{"STATE":"IL","ZIP":60639,"LATTITUDE":41.90959070094518,"ADDRESS":"5242 W NORTH AVE  ","YEAR":2013,"DOING_BUSINESS_AS_NAME":"RACHEL'S LEARNING CENTER, LTD.","POP_AT_RISK":785512,"BUSINESS_TYPE":"Day Care Center Under 2 Years","LEGAL_NAME":"RACHEL'S LEARNING CENTERS, LTD.","LONGITUDE":-87.75740429414539},
{"STATE":"IL","ZIP":60624,"LATTITUDE":41.86644399024747,"ADDRESS":"3430-3434 W ROOSEVELT RD  ","YEAR":2013,"DOING_BUSINESS_AS_NAME":"RACHEL'S LEARNING CENTERS, LTD.","POP_AT_RISK":745750,"BUSINESS_TYPE":"Day Care Center Under 2 Years","LEGAL_NAME":"RACHEL'S LEARNING CENTERS, LTD.","LONGITUDE":-87.71180237896404},
{"STATE":"IL","ZIP":60617,"LATTITUDE":41.718354119253824,"ADDRESS":"9725 S COMMERCIAL AVE 1ST FLOOR ","YEAR":2013,"DOING_BUSINESS_AS_NAME":"MARI'S BUMBLE BEE DAY CARE CORP.","POP_AT_RISK":53247,"BUSINESS_TYPE":"Day Care Center Under 2 Years","LEGAL_NAME":"MARI'S BUMBLE BEE DAY CARE CORP.","LONGITUDE":-87.55087407318614},
{"STATE":"IL","ZIP":60619,"LATTITUDE":41.76580164804015,"ADDRESS":"358-370 E 71ST ST 1ST ","YEAR":2013,"DOING_BUSINESS_AS_NAME":"JELLYBEAN LEARNING CENTER","POP_AT_RISK":162330,"BUSINESS_TYPE":"Day Care Center Under 2 Years","LEGAL_NAME":"JELLYBEAN LEARNING CENTER II, NFP","LONGITUDE":-87.61618278066202},
{"STATE":"IL","ZIP":60620,"LATTITUDE":41.72933663322672,"ADDRESS":"9040 S VINCENNES AVE 1ST ","YEAR":2013,"DOING_BUSINESS_AS_NAME":"KIDS R FIRST LEARNING CENTER","POP_AT_RISK":234451,"BUSINESS_TYPE":"Day Care Center Under 2 Years","LEGAL_NAME":"KIDS R FIRST LEARNING CENTER, INC.","LONGITUDE":-87.64786961995537},
{"STATE":"IL","ZIP":60638,"LATTITUDE":41.80325513926886,"ADDRESS":"4922 S CICERO AVE 1ST ","YEAR":2013,"DOING_BUSINESS_AS_NAME":"SANCTUARY CHILDCARE DEVELOPMENT CENTER","POP_AT_RISK":218178,"BUSINESS_TYPE":"Day Care Center Under 2 Years","LEGAL_NAME":"SANCTUARY OF THE LIVING GOD CHURCH","LONGITUDE":-87.74318434425263},
{"STATE":"IL","ZIP":60638,"LATTITUDE":41.778117574741486,"ADDRESS":"6255 S MAYFIELD AVE  ","YEAR":2013,"DOING_BUSINESS_AS_NAME":"LITTLE LEARNERS DAYCARE","POP_AT_RISK":37876,"BUSINESS_TYPE":"Day Care Center Under 2 Years","LEGAL_NAME":"LITTLE LEARNERS DAYCARE INCORPORATED","LONGITUDE":-87.76891206328479},
{"STATE":"IL","ZIP":60620,"LATTITUDE":41.74591661747167,"ADDRESS":"8130 S RACINE AVE 1 ","YEAR":2013,"DOING_BUSINESS_AS_NAME":"NEW PISGAH DAY CARE","POP_AT_RISK":38927,"BUSINESS_TYPE":"Day Care Center Under 2 Years","LEGAL_NAME":"NEW PISGAH MISSIONARY BAPTIST CHURCH","LONGITUDE":-87.65376178752422},
{"STATE":"IL","ZIP":60631,"LATTITUDE":41.98857518279947,"ADDRESS":"7435 W TALCOTT AVE 1ST ","YEAR":2013,"DOING_BUSINESS_AS_NAME":"PRESENCE RESURRECTION MEDICAL CENTER","POP_AT_RISK":43488,"BUSINESS_TYPE":"Day Care Center Under 2 Years","LEGAL_NAME":"PRESENCE RESURRECTION MEDICAL CENTER","LONGITUDE":-87.81297791219501},
{"STATE":"IL","ZIP":60661,"LATTITUDE":41.8806992461244,"ADDRESS":"500 W MONROE ST 1ST ","YEAR":2013,"DOING_BUSINESS_AS_NAME":"BRIGHT HORIZONS CHICAGO WEST LOOP","POP_AT_RISK":103392,"BUSINESS_TYPE":"Day Care Center Under 2 Years","LEGAL_NAME":"BRIGHT HORIZONS CHILDREN'S CENTERS LLC","LONGITUDE":-87.63972502663867},
{"STATE":"IL","ZIP":60617,"LATTITUDE":41.681053268167084,"ADDRESS":"3552 E 118TH ST  ","YEAR":2013,"DOING_BUSINESS_AS_NAME":"BRENDA'S KIDS CLUB DAYCARE CENTER","POP_AT_RISK":13690,"BUSINESS_TYPE":"Day Care Center Under 2 Years","LEGAL_NAME":"BRENDA'S KIDS CLUB DAY CARE CENTER INC.","LONGITUDE":-87.53683432709336},
{"STATE":"IL","ZIP":60618,"LATTITUDE":41.96110410411044,"ADDRESS":"3021 -3023 W MONTROSE AVE 1ST ","YEAR":2013,"DOING_BUSINESS_AS_NAME":"IRVING PARK EARLY LEARNING CNT","POP_AT_RISK":748820,"BUSINESS_TYPE":"Day Care Center Under 2 Years","LEGAL_NAME":"IRVING PARK EARLY LEARNING CENTER, INC.","LONGITUDE":-87.70433833416415},
{"STATE":"IL","ZIP":60619,"LATTITUDE":41.76295717441382,"ADDRESS":"7239-7241 S DOBSON AVE 1ST ","YEAR":2013,"DOING_BUSINESS_AS_NAME":"GINA'S UNBELIEVABLE LEARNING CENTER","POP_AT_RISK":80288,"BUSINESS_TYPE":"Day Care Center Under 2 Years","LEGAL_NAME":"GINA'S UNBELIEVABLE LEARNING CENTER, INC","LONGITUDE":-87.59926120003807},
{"STATE":"IL","ZIP":60620,"LATTITUDE":41.74845026012511,"ADDRESS":"7954-7958 S WESTERN AVE  ","YEAR":2013,"DOING_BUSINESS_AS_NAME":"THE CHILDREN'S CENTER","POP_AT_RISK":136852,"BUSINESS_TYPE":"Day Care Center Under 2 Years","LEGAL_NAME":"CHILDREN'S CENTER FOR CREATIVE LEARNING INC","LONGITUDE":-87.68295412470142},
{"STATE":"IL","ZIP":60615,"LATTITUDE":41.80193132611665,"ADDRESS":"221 E 51ST ST 1ST FLOOR 1","YEAR":2013,"DOING_BUSINESS_AS_NAME":"PRECIOUS LITTLE ONE'S LEARNING CENTER, INC.","POP_AT_RISK":89463,"BUSINESS_TYPE":"Day Care Center Under 2 Years","LEGAL_NAME":"PRECIOUS LITTLE ONE'S LEARNING CENTER, INC.","LONGITUDE":-87.6201754266252},
{"STATE":"IL","ZIP":60617,"LATTITUDE":41.73713247245401,"ADDRESS":"1900 E 87TH ST  ","YEAR":2013,"DOING_BUSINESS_AS_NAME":"HEAD OF THE CLASS DAYCARE AND LEARNING CENTER","POP_AT_RISK":31468,"BUSINESS_TYPE":"Day Care Center Under 2 Years","LEGAL_NAME":"HEAD OF THE CLASS DAYCARE AND LEARNING CENTER","LONGITUDE":-87.57809061210452},
{"STATE":"IL","ZIP":60619,"LATTITUDE":41.758811164964605,"ADDRESS":"1300 E 75TH ST  ","YEAR":2013,"DOING_BUSINESS_AS_NAME":"Stepping Stones Early Childhood Learning Center","POP_AT_RISK":43152,"BUSINESS_TYPE":"Day Care Center Under 2 Years","LEGAL_NAME":"Stepping Stones Early Childhood Learning Center, Inc.","LONGITUDE":-87.59317052970165},
{"STATE":"IL","ZIP":60617,"LATTITUDE":41.72836670381486,"ADDRESS":"3010-3016 E 92ND ST  ","YEAR":2013,"DOING_BUSINESS_AS_NAME":"SHINING STAR CHILD DEVELOPMENT INSTITUTE OF THE ARTS INC.","POP_AT_RISK":35404,"BUSINESS_TYPE":"Day Care Center Under 2 Years","LEGAL_NAME":"SHINING STAR CHILD DEVELOPMENT INSTITUTE OF THE ARTS INC.","LONGITUDE":-87.55072921513458},
{}]