[
{"STATE":"IL","ZIP":60640,"LATTITUDE":41.98060262501753,"ADDRESS":"1639 W RASCHER AVE  1","YEAR":2002,"DOING_BUSINESS_AS_NAME":"TANIS DESIGN","POP_AT_RISK":219720,"BUSINESS_TYPE":"Home Occupation","LEGAL_NAME":"PAUL TANIS","LONGITUDE":-87.67130318522675},
{"STATE":"IL","ZIP":60643,"LATTITUDE":41.715182255267614,"ADDRESS":"9805 S CLAREMONT AVE 1ST ","YEAR":2002,"DOING_BUSINESS_AS_NAME":"CITYWIDE REDEVELOPMENT ASS","POP_AT_RISK":88472,"BUSINESS_TYPE":"Home Occupation","LEGAL_NAME":"DARRELL LUCAS","LONGITUDE":-87.68052352809208},
{"STATE":"IL","ZIP":60620,"LATTITUDE":41.74598915742619,"ADDRESS":"8128 S MAY ST 2ND ","YEAR":2002,"DOING_BUSINESS_AS_NAME":"THE SAFETY GEAR STORE .COM","POP_AT_RISK":428197,"BUSINESS_TYPE":"Home Occupation","LEGAL_NAME":"DENNIS WALKER","LONGITUDE":-87.65254951239555},
{"STATE":"IL","ZIP":60653,"LATTITUDE":41.81945419774268,"ADDRESS":"410 E BOWEN AVE  1004","YEAR":2002,"DOING_BUSINESS_AS_NAME":"BRONZEVILLE HOMECARE","POP_AT_RISK":684980,"BUSINESS_TYPE":"Home Occupation","LEGAL_NAME":"MARY J TEZENO","LONGITUDE":-87.61609164870877},
{"STATE":"IL","ZIP":60660,"LATTITUDE":41.992214044806246,"ADDRESS":"1059 W GLENLAKE AVE  1","YEAR":2002,"DOING_BUSINESS_AS_NAME":"AREMGEE ENTERPRISE","POP_AT_RISK":191778,"BUSINESS_TYPE":"Home Occupation","LEGAL_NAME":"ROBERT GUNTHER","LONGITUDE":-87.6577962189975},
{"STATE":"IL","ZIP":60640,"LATTITUDE":41.980473329827255,"ADDRESS":"5415 N SHERIDAN RD  4207","YEAR":2002,"DOING_BUSINESS_AS_NAME":"FARLAP & ASSOCIATES","POP_AT_RISK":67086,"BUSINESS_TYPE":"Home Occupation","LEGAL_NAME":"Angelo Canchola","LONGITUDE":-87.65495264052998},
{"STATE":"IL","ZIP":60620,"LATTITUDE":41.723807964792876,"ADDRESS":"9345 S UNION AVE  ","YEAR":2002,"DOING_BUSINESS_AS_NAME":"DAY 7 ENTERPRISES","POP_AT_RISK":238152,"BUSINESS_TYPE":"Home Occupation","LEGAL_NAME":"BYRON CHARLES DAY","LONGITUDE":-87.64070353401235},
{"STATE":"IL","ZIP":60619,"LATTITUDE":41.74430040481476,"ADDRESS":"8256 S DANTE AVE  1ST","YEAR":2002,"DOING_BUSINESS_AS_NAME":"LATANCH MANAGEMENT SERVICES","POP_AT_RISK":197898,"BUSINESS_TYPE":"Home Occupation","LEGAL_NAME":"CHRISTOPHER MOORE","LONGITUDE":-87.58946110499143},
{"STATE":"IL","ZIP":60617,"LATTITUDE":41.71798770964674,"ADDRESS":"9717 S LUELLA AVE  ","YEAR":2002,"DOING_BUSINESS_AS_NAME":"PRESCRIPTION PICK UP & DELIVERY","POP_AT_RISK":52284,"BUSINESS_TYPE":"Home Occupation","LEGAL_NAME":"STEPHANIE MARIE FREE","LONGITUDE":-87.56884604704476},
{"STATE":"IL","ZIP":60628,"LATTITUDE":41.67127133902954,"ADDRESS":"12239 S NORMAL AVE  ","YEAR":2002,"DOING_BUSINESS_AS_NAME":"WILD WILD RECORDS","POP_AT_RISK":137976,"BUSINESS_TYPE":"Home Occupation","LEGAL_NAME":"WILD WILD RECORDS INC.","LONGITUDE":-87.6343304843144},
{"STATE":"IL","ZIP":60657,"LATTITUDE":41.93788637913801,"ADDRESS":"1235 W BARRY AVE  B","YEAR":2002,"DOING_BUSINESS_AS_NAME":"BETTER LIVING CHEMISTRY","POP_AT_RISK":2560480,"BUSINESS_TYPE":"Home Occupation","LEGAL_NAME":"BETTER LIVING CHEMISTRY","LONGITUDE":-87.66028048221013},
{"STATE":"IL","ZIP":60617,"LATTITUDE":41.741102509584294,"ADDRESS":"8449 S PAXTON AVE  ","YEAR":2002,"DOING_BUSINESS_AS_NAME":"ESSEX MEDICAL SUPPLY INC","POP_AT_RISK":162430,"BUSINESS_TYPE":"Home Occupation","LEGAL_NAME":"ESSEX MEDICAL SUPPLY INC","LONGITUDE":-87.57078887424144},
{"STATE":"IL","ZIP":60620,"LATTITUDE":41.72367806142227,"ADDRESS":"9329 S CLAREMONT AVE  ","YEAR":2002,"DOING_BUSINESS_AS_NAME":"DIRTY WORK MAID & CLEANING SERV","POP_AT_RISK":23478,"BUSINESS_TYPE":"Home Occupation","LEGAL_NAME":"DIRTY WORK MAID & CLEANING","LONGITUDE":-87.68077095427068},
{"STATE":"IL","ZIP":60605,"LATTITUDE":41.874966487730035,"ADDRESS":"537 S DEARBORN ST 1ST ","YEAR":2002,"DOING_BUSINESS_AS_NAME":"CREATIVE CORPORATE IMAGE","POP_AT_RISK":342384,"BUSINESS_TYPE":"Home Occupation","LEGAL_NAME":"LISA ROBINSON & SAMI OZGEN","LONGITUDE":-87.629071372283},
{"STATE":"IL","ZIP":60634,"LATTITUDE":41.950175685760186,"ADDRESS":"3836 N OAK PARK AVE  ","YEAR":2002,"DOING_BUSINESS_AS_NAME":"ALL OCCASION GIFTS GALORE INC","POP_AT_RISK":361134,"BUSINESS_TYPE":"Home Occupation","LEGAL_NAME":"ALL OCASSION GIFT GALORE INC.","LONGITUDE":-87.79631987020777},
{}]