[
  {
    "BUSINESS_TYPE": "Hotel", 
    "LEGAL_NAME": "DENHAM INC", 
    "STATE": "IL", 
    "DOING_BUSINESS_AS_NAME": "HOTEL TOLEDO #2", 
    "POP_AT_RISK": 37746, 
    "ZIP": 60636, 
    "ADDRESS": "6219 S ASHLAND AVE", 
    "YEAR": 2011, 
    "LONGITUDE": -87.664102996, 
    "LATTITUDE": 41.780693093
  }, 
  {
    "BUSINESS_TYPE": "Hotel", 
    "LEGAL_NAME": "JACK GORE", 
    "STATE": "IL", 
    "DOING_BUSINESS_AS_NAME": "LINCOLN INN", 
    "POP_AT_RISK": 55358, 
    "ZIP": 60659, 
    "ADDRESS": "5952 N LINCOLN AVE # 1ST", 
    "YEAR": 2011, 
    "LONGITUDE": -87.705714347, 
    "LATTITUDE": 41.989258322
  }, 
  {
    "BUSINESS_TYPE": "Hotel", 
    "LEGAL_NAME": "NATWAR PATEL", 
    "STATE": "IL", 
    "DOING_BUSINESS_AS_NAME": "SUPER 8", 
    "POP_AT_RISK": 47368, 
    "ZIP": 60626, 
    "ADDRESS": "7300 N SHERIDAN RD 1ST", 
    "YEAR": 2011, 
    "LONGITUDE": -87.664243236, 
    "LATTITUDE": 42.013957777
  }, 
  {
    "BUSINESS_TYPE": "Hotel", 
    "LEGAL_NAME": "NISU INC", 
    "STATE": "IL", 
    "DOING_BUSINESS_AS_NAME": "ROYAL CASTLE MOTEL", 
    "POP_AT_RISK": 34022, 
    "ZIP": 60628, 
    "ADDRESS": "45 W 103RD ST", 
    "YEAR": 2011, 
    "LONGITUDE": -87.625323133, 
    "LATTITUDE": 41.70703034
  }, 
  {
    "BUSINESS_TYPE": "Hotel", 
    "LEGAL_NAME": "SAM & R ENTERPRISES, INC.", 
    "STATE": "IL", 
    "DOING_BUSINESS_AS_NAME": "MIDWAY INN", 
    "POP_AT_RISK": 44002, 
    "ZIP": 60632, 
    "ADDRESS": "5335 S PULASKI RD", 
    "YEAR": 2011, 
    "LONGITUDE": -87.723088059, 
    "LATTITUDE": 41.795812441
  }, 
  {
    "BUSINESS_TYPE": "Hotel", 
    "LEGAL_NAME": "AMBER INN INC", 
    "STATE": "IL", 
    "DOING_BUSINESS_AS_NAME": "AMBER INN INC.", 
    "POP_AT_RISK": 32890, 
    "ZIP": 60653, 
    "ADDRESS": "3901 S MICHIGAN AVE", 
    "YEAR": 2011, 
    "LONGITUDE": -87.623023792, 
    "LATTITUDE": 41.823649318
  }, 
  {
    "BUSINESS_TYPE": "Hotel", 
    "LEGAL_NAME": "DAVIDSON HOTEL COMPANY", 
    "STATE": "IL", 
    "DOING_BUSINESS_AS_NAME": "MARIOTT CHICAGO at MEDICAL DISTRICT/ UIC", 
    "POP_AT_RISK": 36487, 
    "ZIP": 60607, 
    "ADDRESS": "625 S ASHLAND AVE", 
    "YEAR": 2011, 
    "LONGITUDE": -87.666433681, 
    "LATTITUDE": 41.873434566
  }, 
  {
    "BUSINESS_TYPE": "Hotel", 
    "LEGAL_NAME": "A C MOTEL, LLC.", 
    "STATE": "IL", 
    "DOING_BUSINESS_AS_NAME": "DIPLOMAT MOTEL", 
    "POP_AT_RISK": 57767, 
    "ZIP": 60625, 
    "ADDRESS": "5230 N LINCOLN AVE", 
    "YEAR": 2011, 
    "LONGITUDE": -87.692562101, 
    "LATTITUDE": 41.976810199
  }, 
  {
    "BUSINESS_TYPE": "Hotel", 
    "LEGAL_NAME": "S O C, LLC", 
    "STATE": "IL", 
    "DOING_BUSINESS_AS_NAME": "EDGEBROOK MOTEL", 
    "POP_AT_RISK": 8129, 
    "ZIP": 60646, 
    "ADDRESS": "6401 W TOUHY AVE 1 & 2", 
    "YEAR": 2011, 
    "LONGITUDE": -87.786825921, 
    "LATTITUDE": 42.011881972
  }, 
  {
    "BUSINESS_TYPE": "Hotel", 
    "LEGAL_NAME": "S.T.M ENETERPRISES INC.", 
    "STATE": "IL", 
    "DOING_BUSINESS_AS_NAME": "SARATOGA MOTEL", 
    "POP_AT_RISK": 16758, 
    "ZIP": 60652, 
    "ADDRESS": "7701 S CICERO AVE 1ST", 
    "YEAR": 2011, 
    "LONGITUDE": -87.741354493, 
    "LATTITUDE": 41.752822021
  }, 
  {
    "BUSINESS_TYPE": "Hotel", 
    "LEGAL_NAME": "1409 W DIVERSEY CORPORATION", 
    "STATE": "IL", 
    "DOING_BUSINESS_AS_NAME": "BELLWOOD HOTEL", 
    "POP_AT_RISK": 76394, 
    "ZIP": 60614, 
    "ADDRESS": "1409 W DIVERSEY PKWY", 
    "YEAR": 2011, 
    "LONGITUDE": -87.663958205, 
    "LATTITUDE": 41.932364186
  }, 
  {
    "BUSINESS_TYPE": "Hotel", 
    "LEGAL_NAME": "CARLTON  MIDWAY CORP.", 
    "STATE": "IL", 
    "DOING_BUSINESS_AS_NAME": "CARLTON  INN MIDWAY", 
    "POP_AT_RISK": 32140, 
    "ZIP": 60632, 
    "ADDRESS": "4944 S ARCHER AVE", 
    "YEAR": 2011, 
    "LONGITUDE": -87.72178643, 
    "LATTITUDE": 41.803466981
  }, 
  {
    "BUSINESS_TYPE": "Hotel", 
    "LEGAL_NAME": "SOMIP CORPORATION", 
    "STATE": "IL", 
    "DOING_BUSINESS_AS_NAME": "ALOHA MOTEL", 
    "POP_AT_RISK": 11047, 
    "ZIP": 60652, 
    "ADDRESS": "8515 S CICERO AVE 1-2", 
    "YEAR": 2011, 
    "LONGITUDE": -87.740813041, 
    "LATTITUDE": 41.737711982
  }, 
  {
    "BUSINESS_TYPE": "Hotel", 
    "LEGAL_NAME": "LAKE SHORE HOSPITALITY INC", 
    "STATE": "IL", 
    "DOING_BUSINESS_AS_NAME": "RAMADA LAKE SHORE INN", 
    "POP_AT_RISK": 32591, 
    "ZIP": 60615, 
    "ADDRESS": "4900 S CHICAGO BEACH DR", 
    "YEAR": 2011, 
    "LONGITUDE": -87.585799573, 
    "LATTITUDE": 41.806170388
  }, 
  {
    "BUSINESS_TYPE": "Hotel", 
    "LEGAL_NAME": "GRAND MOTEL, INC.", 
    "STATE": "IL", 
    "DOING_BUSINESS_AS_NAME": "GRAND MOTEL", 
    "POP_AT_RISK": 25432, 
    "ZIP": 60628, 
    "ADDRESS": "10022 S HALSTED ST", 
    "YEAR": 2011, 
    "LONGITUDE": -87.643099414, 
    "LATTITUDE": 41.711660352
  }, 
  {
    "BUSINESS_TYPE": "Hotel", 
    "LEGAL_NAME": "KING DRIVE HOSPITALITY GROUP, INC", 
    "STATE": "IL", 
    "DOING_BUSINESS_AS_NAME": "BEST MOTEL", 
    "POP_AT_RISK": 39166, 
    "ZIP": 60637, 
    "ADDRESS": "6535 S DR MARTIN LUTHER KING JR DR", 
    "YEAR": 2011, 
    "LONGITUDE": -87.6153632, 
    "LATTITUDE": 41.775555482
  }, 
  {
    "BUSINESS_TYPE": "Hotel", 
    "LEGAL_NAME": "HYATT CORPORATION", 
    "STATE": "IL", 
    "DOING_BUSINESS_AS_NAME": "HYATT REGENCY MCCORMICK PLACE HOTEL", 
    "POP_AT_RISK": 35622, 
    "ZIP": 60616, 
    "ADDRESS": "2233 S DR MARTIN LUTHER KING JR DR", 
    "YEAR": 2011, 
    "LONGITUDE": -87.618850804, 
    "LATTITUDE": 41.852075574
  }, 
  {
    "BUSINESS_TYPE": "Hotel", 
    "LEGAL_NAME": "KIKI ENTERPRISES, LTD.", 
    "STATE": "IL", 
    "DOING_BUSINESS_AS_NAME": "NEW BUDGET MOTEL", 
    "POP_AT_RISK": 29257, 
    "ZIP": 60620, 
    "ADDRESS": "8903 S ASHLAND AVE", 
    "YEAR": 2011, 
    "LONGITUDE": -87.662804261, 
    "LATTITUDE": 41.73187237
  }, 
  {
    "BUSINESS_TYPE": "Hotel", 
    "LEGAL_NAME": "BPG HOSPITALITY, INC.", 
    "STATE": "IL", 
    "DOING_BUSINESS_AS_NAME": "RAINBOW MOTEL", 
    "POP_AT_RISK": 13444, 
    "ZIP": 60638, 
    "ADDRESS": "7050 W ARCHER AVE", 
    "YEAR": 2011, 
    "LONGITUDE": -87.798584483, 
    "LATTITUDE": 41.792111158
  }, 
  {
    "BUSINESS_TYPE": "Hotel", 
    "LEGAL_NAME": "SOUTH SHORE MOTEL & SUITES, INC.", 
    "STATE": "IL", 
    "DOING_BUSINESS_AS_NAME": "SOUTH SHORE MOTEL & SUTIES, INC.", 
    "POP_AT_RISK": 37875, 
    "ZIP": 60617, 
    "ADDRESS": "8101 S STONY ISLAND AVE", 
    "YEAR": 2011, 
    "LONGITUDE": -87.585300236, 
    "LATTITUDE": 41.747758854
  }, 
  {
    "BUSINESS_TYPE": "Hotel", 
    "LEGAL_NAME": "1244 DEARBORN, LLC", 
    "STATE": "IL", 
    "DOING_BUSINESS_AS_NAME": "HOTEL INIDGO CHICAGO GOLD COAST", 
    "POP_AT_RISK": 81122, 
    "ZIP": 60610, 
    "ADDRESS": "1244 N DEARBORN ST", 
    "YEAR": 2011, 
    "LONGITUDE": -87.630169952, 
    "LATTITUDE": 41.905215314
  }, 
  {
    "BUSINESS_TYPE": "Hotel", 
    "LEGAL_NAME": "ALF CORPORATION", 
    "STATE": "IL", 
    "DOING_BUSINESS_AS_NAME": "FULLERTON HOTEL", 
    "POP_AT_RISK": 80835, 
    "ZIP": 60647, 
    "ADDRESS": "3919 W FULLERTON AVE", 
    "YEAR": 2011, 
    "LONGITUDE": -87.725094374, 
    "LATTITUDE": 41.924397349
  }, 
  {
    "BUSINESS_TYPE": "Hotel", 
    "LEGAL_NAME": "HLT O'HARE LLC", 
    "STATE": "IL", 
    "DOING_BUSINESS_AS_NAME": "HILTON O'HARE", 
    "POP_AT_RISK": 4956, 
    "ZIP": 60666, 
    "ADDRESS": "11601 W TOUHY AVE", 
    "YEAR": 2011, 
    "LONGITUDE": -87.914428439, 
    "LATTITUDE": 42.008536401
  }, 
  {
    "BUSINESS_TYPE": "Hotel", 
    "LEGAL_NAME": "BAR INVESTORS INC", 
    "STATE": "IL", 
    "DOING_BUSINESS_AS_NAME": "NORTH PARK INN", 
    "POP_AT_RISK": 30246, 
    "ZIP": 60659, 
    "ADDRESS": "6250 N LINCOLN AVE 1ST", 
    "YEAR": 2011, 
    "LONGITUDE": -87.715786527, 
    "LATTITUDE": 41.995417144
  }, 
  {
    "BUSINESS_TYPE": "Hotel", 
    "LEGAL_NAME": "DETROIT INC.", 
    "STATE": "IL", 
    "DOING_BUSINESS_AS_NAME": "GRAND WEST MOTEL", 
    "POP_AT_RISK": 44982, 
    "ZIP": 60644, 
    "ADDRESS": "4925 W MADISON ST", 
    "YEAR": 2011, 
    "LONGITUDE": -87.748705801, 
    "LATTITUDE": 41.880343274
  }, 
  {
    "BUSINESS_TYPE": "Hotel", 
    "LEGAL_NAME": "CHICAGO SOUTH LOOP HOTEL, LLC", 
    "STATE": "IL", 
    "DOING_BUSINESS_AS_NAME": "CHICAGO SOUTH LOOP HOTEL, LLC", 
    "POP_AT_RISK": 28949, 
    "ZIP": 60616, 
    "ADDRESS": "11 W 26TH ST 1-5", 
    "YEAR": 2011, 
    "LONGITUDE": -87.62745299, 
    "LATTITUDE": 41.845468162
  }, 
  {
    "BUSINESS_TYPE": "Hotel", 
    "LEGAL_NAME": "PETERSON - RIDGE CORP", 
    "STATE": "IL", 
    "DOING_BUSINESS_AS_NAME": "PETERSON - RIDGE CORP", 
    "POP_AT_RISK": 69081, 
    "ZIP": 60660, 
    "ADDRESS": "5990 N RIDGE AVE 1ST", 
    "YEAR": 2011, 
    "LONGITUDE": -87.671912673, 
    "LATTITUDE": 41.990523338
  }, 
  {
    "BUSINESS_TYPE": "Hotel", 
    "LEGAL_NAME": "HOTEL TOLEDO", 
    "STATE": "IL", 
    "DOING_BUSINESS_AS_NAME": "HOTEL TOLEDO INC", 
    "POP_AT_RISK": 31036, 
    "ZIP": 60628, 
    "ADDRESS": "10928 S MICHIGAN AVE", 
    "YEAR": 2011, 
    "LONGITUDE": -87.620917954, 
    "LATTITUDE": 41.695367641
  }, 
  {
    "BUSINESS_TYPE": "Hotel", 
    "LEGAL_NAME": "ARLO HOTEL CORPORATION", 
    "STATE": "IL", 
    "DOING_BUSINESS_AS_NAME": "HOTEL MILSHIRE", 
    "POP_AT_RISK": 66143, 
    "ZIP": 60647, 
    "ADDRESS": "2525 N MILWAUKEE AVE", 
    "YEAR": 2011, 
    "LONGITUDE": -87.704315776, 
    "LATTITUDE": 41.927319935
  }, 
  {
    "BUSINESS_TYPE": "Hotel", 
    "LEGAL_NAME": "KTKY, INC.", 
    "STATE": "IL", 
    "DOING_BUSINESS_AS_NAME": "STONY ISLAND MOTEL", 
    "POP_AT_RISK": 20682, 
    "ZIP": 60617, 
    "ADDRESS": "9201 S STONY ISLAND AVE", 
    "YEAR": 2011, 
    "LONGITUDE": -87.58487782, 
    "LATTITUDE": 41.727766454
  }, 
  {
    "BUSINESS_TYPE": "Hotel", 
    "LEGAL_NAME": "ARLINGTON INTERNATIONAL HOUSE, INC", 
    "STATE": "IL", 
    "DOING_BUSINESS_AS_NAME": "CHICAGO GETAWAY HOSTEL", 
    "POP_AT_RISK": 76461, 
    "ZIP": 60614, 
    "ADDRESS": "616 W ARLINGTON PL", 
    "YEAR": 2011, 
    "LONGITUDE": -87.644706266, 
    "LATTITUDE": 41.926825002
  }, 
  {
    "BUSINESS_TYPE": "Hotel", 
    "LEGAL_NAME": "BEVERLY MOTEL & SUITES, INC.", 
    "STATE": "IL", 
    "DOING_BUSINESS_AS_NAME": "BEVERLY MOTEL & SUITES", 
    "POP_AT_RISK": 30832, 
    "ZIP": 60643, 
    "ADDRESS": "1140 W 95TH ST 1-2", 
    "YEAR": 2011, 
    "LONGITUDE": -87.652263184, 
    "LATTITUDE": 41.721455295
  }, 
  {
    "BUSINESS_TYPE": "Hotel", 
    "LEGAL_NAME": "VMM INC", 
    "STATE": "IL", 
    "DOING_BUSINESS_AS_NAME": "SKYLARK MOTEL", 
    "POP_AT_RISK": 32432, 
    "ZIP": 60638, 
    "ADDRESS": "5435 S ARCHER AVE", 
    "YEAR": 2011, 
    "LONGITUDE": -87.744316941, 
    "LATTITUDE": 41.79834535
  }, 
  {
    "BUSINESS_TYPE": "Hotel", 
    "LEGAL_NAME": "SAI-SHARAN, INC.", 
    "STATE": "IL", 
    "DOING_BUSINESS_AS_NAME": "NEW HALSTED MOTEL", 
    "POP_AT_RISK": 38685, 
    "ZIP": 60620, 
    "ADDRESS": "8220 S HALSTED ST", 
    "YEAR": 2011, 
    "LONGITUDE": -87.644010323, 
    "LATTITUDE": 41.744526862
  }, 
  {
    "BUSINESS_TYPE": "Hotel", 
    "LEGAL_NAME": "BUDGET HOSPITALITY INC", 
    "STATE": "IL", 
    "DOING_BUSINESS_AS_NAME": "ESQUIRE MOTEL", 
    "POP_AT_RISK": 24342, 
    "ZIP": 60646, 
    "ADDRESS": "6145 N ELSTON AVE", 
    "YEAR": 2011, 
    "LONGITUDE": -87.782508555, 
    "LATTITUDE": 41.992488429
  }, 
  {
    "BUSINESS_TYPE": "Hotel", 
    "LEGAL_NAME": "COLLEGE IN LTD", 
    "STATE": "IL", 
    "DOING_BUSINESS_AS_NAME": "CHICAGO INTERNATIONAL HOTEL", 
    "POP_AT_RISK": 60738, 
    "ZIP": 60660, 
    "ADDRESS": "6318 N WINTHROP AVE", 
    "YEAR": 2011, 
    "LONGITUDE": -87.658574751, 
    "LATTITUDE": 41.996996961
  }
]