[
  {
    "BUSINESS_TYPE": "Hotel", 
    "LEGAL_NAME": "1244 DEARBORN, LLC", 
    "STATE": "IL", 
    "DOING_BUSINESS_AS_NAME": "HOTEL INIDGO CHICAGO GOLD COAST", 
    "POP_AT_RISK": 81122, 
    "ZIP": 60610, 
    "ADDRESS": "1244 N DEARBORN ST", 
    "YEAR": 2014, 
    "LONGITUDE": -87.630169952, 
    "LATTITUDE": 41.905215314
  }, 
  {
    "BUSINESS_TYPE": "Hotel", 
    "LEGAL_NAME": "VMM INC", 
    "STATE": "IL", 
    "DOING_BUSINESS_AS_NAME": "SKYLARK MOTEL", 
    "POP_AT_RISK": 32432, 
    "ZIP": 60638, 
    "ADDRESS": "5435 S ARCHER AVE", 
    "YEAR": 2014, 
    "LONGITUDE": -87.744316941, 
    "LATTITUDE": 41.79834535
  }, 
  {
    "BUSINESS_TYPE": "Hotel", 
    "LEGAL_NAME": "BARBARA ANN'S MOTEL, INC.", 
    "STATE": "IL", 
    "DOING_BUSINESS_AS_NAME": "BARBARA ANNS MOTEL 2", 
    "POP_AT_RISK": 36651, 
    "ZIP": 60619, 
    "ADDRESS": "7621 S COTTAGE GROVE AVE", 
    "YEAR": 2014, 
    "LONGITUDE": -87.605179979, 
    "LATTITUDE": 41.756102125
  }, 
  {
    "BUSINESS_TYPE": "Hotel", 
    "LEGAL_NAME": "HLT O'HARE LLC", 
    "STATE": "IL", 
    "DOING_BUSINESS_AS_NAME": "HILTON O'HARE", 
    "POP_AT_RISK": 4956, 
    "ZIP": 60666, 
    "ADDRESS": "11601 W TOUHY AVE", 
    "YEAR": 2014, 
    "LONGITUDE": -87.914428439, 
    "LATTITUDE": 42.008536401
  }, 
  {
    "BUSINESS_TYPE": "Hotel", 
    "LEGAL_NAME": "CP/AJ HOTEL LINCOLN PARK MANAGER, LLC", 
    "STATE": "IL", 
    "DOING_BUSINESS_AS_NAME": "HOTEL LINCOLN", 
    "POP_AT_RISK": 56343, 
    "ZIP": 60614, 
    "ADDRESS": "1816 N CLARK ST 1-13", 
    "YEAR": 2014, 
    "LONGITUDE": -87.634293268, 
    "LATTITUDE": 41.915249987
  }, 
  {
    "BUSINESS_TYPE": "Hotel", 
    "LEGAL_NAME": "LAKE SHORE HOSPITALITY INC", 
    "STATE": "IL", 
    "DOING_BUSINESS_AS_NAME": "RAMADA LAKE SHORE INN", 
    "POP_AT_RISK": 32591, 
    "ZIP": 60615, 
    "ADDRESS": "4900 S CHICAGO BEACH DR", 
    "YEAR": 2014, 
    "LONGITUDE": -87.585799573, 
    "LATTITUDE": 41.806170388
  }, 
  {
    "BUSINESS_TYPE": "Hotel", 
    "LEGAL_NAME": "HRH, L.L.C.", 
    "STATE": "IL", 
    "DOING_BUSINESS_AS_NAME": "SPRINGHILL SUITES BY MARRIOTT", 
    "POP_AT_RISK": 18242, 
    "ZIP": 60631, 
    "ADDRESS": "8101 W HIGGINS RD", 
    "YEAR": 2014, 
    "LONGITUDE": -87.829818376, 
    "LATTITUDE": 41.985318073
  }, 
  {
    "BUSINESS_TYPE": "Hotel", 
    "LEGAL_NAME": "NATWAR PATEL", 
    "STATE": "IL", 
    "DOING_BUSINESS_AS_NAME": "SUPER 8", 
    "POP_AT_RISK": 47368, 
    "ZIP": 60626, 
    "ADDRESS": "7300 N SHERIDAN RD 1ST", 
    "YEAR": 2014, 
    "LONGITUDE": -87.664243236, 
    "LATTITUDE": 42.013957777
  }, 
  {
    "BUSINESS_TYPE": "Hotel", 
    "LEGAL_NAME": "2600 WEST BRYN MAWR INC", 
    "STATE": "IL", 
    "DOING_BUSINESS_AS_NAME": "GUEST HOUSE MOTEL", 
    "POP_AT_RISK": 44402, 
    "ZIP": 60659, 
    "ADDRESS": "2600 W BRYN MAWR AVE", 
    "YEAR": 2014, 
    "LONGITUDE": -87.69434483, 
    "LATTITUDE": 41.9832561
  }, 
  {
    "BUSINESS_TYPE": "Hotel", 
    "LEGAL_NAME": "AMBER INN INC", 
    "STATE": "IL", 
    "DOING_BUSINESS_AS_NAME": "AMBER INN INC.", 
    "POP_AT_RISK": 32890, 
    "ZIP": 60653, 
    "ADDRESS": "3901 S MICHIGAN AVE", 
    "YEAR": 2014, 
    "LONGITUDE": -87.623023792, 
    "LATTITUDE": 41.823649318
  }, 
  {
    "BUSINESS_TYPE": "Hotel", 
    "LEGAL_NAME": "DAVIDSON HOTEL COMPANY", 
    "STATE": "IL", 
    "DOING_BUSINESS_AS_NAME": "MARIOTT CHICAGO at MEDICAL DISTRICT/ UIC", 
    "POP_AT_RISK": 36487, 
    "ZIP": 60607, 
    "ADDRESS": "625 S ASHLAND AVE", 
    "YEAR": 2014, 
    "LONGITUDE": -87.666433681, 
    "LATTITUDE": 41.873434566
  }, 
  {
    "BUSINESS_TYPE": "Hotel", 
    "LEGAL_NAME": "HYATT CORPORATION", 
    "STATE": "IL", 
    "DOING_BUSINESS_AS_NAME": "HYATT REGENCY MCCORMICK PLACE HOTEL", 
    "POP_AT_RISK": 35622, 
    "ZIP": 60616, 
    "ADDRESS": "2233 S DR MARTIN LUTHER KING JR DR", 
    "YEAR": 2014, 
    "LONGITUDE": -87.618850804, 
    "LATTITUDE": 41.852075574
  }, 
  {
    "BUSINESS_TYPE": "Hotel", 
    "LEGAL_NAME": "KIKI ENTERPRISES, LTD.", 
    "STATE": "IL", 
    "DOING_BUSINESS_AS_NAME": "NEW BUDGET MOTEL", 
    "POP_AT_RISK": 29257, 
    "ZIP": 60620, 
    "ADDRESS": "8903 S ASHLAND AVE", 
    "YEAR": 2014, 
    "LONGITUDE": -87.662804261, 
    "LATTITUDE": 41.73187237
  }, 
  {
    "BUSINESS_TYPE": "Hotel", 
    "LEGAL_NAME": "MART PLAZA CATERING CORPORATION", 
    "STATE": "IL", 
    "DOING_BUSINESS_AS_NAME": "HOLIDAY INN MART PLAZA", 
    "POP_AT_RISK": 65951, 
    "ZIP": 60654, 
    "ADDRESS": "350 N ORLEANS ST 1 #", 
    "YEAR": 2014, 
    "LONGITUDE": -87.637080541, 
    "LATTITUDE": 41.888741038
  }, 
  {
    "BUSINESS_TYPE": "Hotel", 
    "LEGAL_NAME": "S O C, LLC", 
    "STATE": "IL", 
    "DOING_BUSINESS_AS_NAME": "EDGEBROOK MOTEL", 
    "POP_AT_RISK": 8129, 
    "ZIP": 60646, 
    "ADDRESS": "6401 W TOUHY AVE 1 & 2", 
    "YEAR": 2014, 
    "LONGITUDE": -87.786825921, 
    "LATTITUDE": 42.011881972
  }, 
  {
    "BUSINESS_TYPE": "Hotel", 
    "LEGAL_NAME": "BPG HOSPITALITY, INC.", 
    "STATE": "IL", 
    "DOING_BUSINESS_AS_NAME": "RAINBOW MOTEL", 
    "POP_AT_RISK": 13444, 
    "ZIP": 60638, 
    "ADDRESS": "7050 W ARCHER AVE", 
    "YEAR": 2014, 
    "LONGITUDE": -87.798584483, 
    "LATTITUDE": 41.792111158
  }, 
  {
    "BUSINESS_TYPE": "Hotel", 
    "LEGAL_NAME": "SOUTH SHORE MOTEL & SUITES, INC.", 
    "STATE": "IL", 
    "DOING_BUSINESS_AS_NAME": "SOUTH SHORE MOTEL & SUTIES, INC.", 
    "POP_AT_RISK": 37875, 
    "ZIP": 60617, 
    "ADDRESS": "8101 S STONY ISLAND AVE", 
    "YEAR": 2014, 
    "LONGITUDE": -87.585300236, 
    "LATTITUDE": 41.747758854
  }, 
  {
    "BUSINESS_TYPE": "Hotel", 
    "LEGAL_NAME": "ADMIRAL MOTEL & SUITES, INC.", 
    "STATE": "IL", 
    "DOING_BUSINESS_AS_NAME": "ADMIRAL MOTEL", 
    "POP_AT_RISK": 25108, 
    "ZIP": 60619, 
    "ADDRESS": "9110 - 9126 S COTTAGE GROVE AVE 1 1", 
    "YEAR": 2014, 
    "LONGITUDE": -87.60478406, 
    "LATTITUDE": 41.728992256
  }, 
  {
    "BUSINESS_TYPE": "Hotel", 
    "LEGAL_NAME": "CHICAGO SOUTH LOOP HOTEL, LLC", 
    "STATE": "IL", 
    "DOING_BUSINESS_AS_NAME": "CHICAGO SOUTH LOOP HOTEL, LLC", 
    "POP_AT_RISK": 28949, 
    "ZIP": 60616, 
    "ADDRESS": "11 W 26TH ST 1-5", 
    "YEAR": 2014, 
    "LONGITUDE": -87.62745299, 
    "LATTITUDE": 41.845468162
  }, 
  {
    "BUSINESS_TYPE": "Hotel", 
    "LEGAL_NAME": "KTKY, INC.", 
    "STATE": "IL", 
    "DOING_BUSINESS_AS_NAME": "STONY ISLAND MOTEL", 
    "POP_AT_RISK": 20682, 
    "ZIP": 60617, 
    "ADDRESS": "9201 S STONY ISLAND AVE", 
    "YEAR": 2014, 
    "LONGITUDE": -87.58487782, 
    "LATTITUDE": 41.727766454
  }
]