[
{"STATE":"IL","ZIP":60655,"LATTITUDE":41.69139339581095,"ADDRESS":"3942 W 111TH ST 1 ","YEAR":2009,"DOING_BUSINESS_AS_NAME":"DENTLAB, INC","POP_AT_RISK":92024,"BUSINESS_TYPE":"Manufacturing Establishments","LEGAL_NAME":"DENTLAB, INC.","LONGITUDE":-87.71960826505213},
{"STATE":"IL","ZIP":60827,"LATTITUDE":41.64471651864612,"ADDRESS":"612 E 138TH ST  ","YEAR":2009,"DOING_BUSINESS_AS_NAME":"INNOPHOS INC.","POP_AT_RISK":13381,"BUSINESS_TYPE":"Manufacturing Establishments","LEGAL_NAME":"INNOPHOS INC.","LONGITUDE":-87.60679330792205},
{"STATE":"IL","ZIP":60626,"LATTITUDE":41.998705414717755,"ADDRESS":"6423 N RAVENSWOOD AVE  ","YEAR":2009,"DOING_BUSINESS_AS_NAME":"SUS IRON CORP","POP_AT_RISK":150542,"BUSINESS_TYPE":"Manufacturing Establishments","LEGAL_NAME":"SUS IRON CORP","LONGITUDE":-87.67489125512769},
{"STATE":"IL","ZIP":60634,"LATTITUDE":41.9452825522059,"ADDRESS":"7746 W ADDISON ST 1ST ","YEAR":2009,"DOING_BUSINESS_AS_NAME":"VOLTRONICS INC","POP_AT_RISK":175602,"BUSINESS_TYPE":"Manufacturing Establishments","LEGAL_NAME":"VOLTRONICS INC","LONGITUDE":-87.82148508277187},
{"STATE":"IL","ZIP":60626,"LATTITUDE":42.01032472895419,"ADDRESS":"1724 W GREENLEAF AVE  REAR","YEAR":2009,"DOING_BUSINESS_AS_NAME":"ORGANICS L.L.C.","POP_AT_RISK":69338,"BUSINESS_TYPE":"Manufacturing Establishments","LEGAL_NAME":"ORGANICS L.L.C.","LONGITUDE":-87.67339987061956},
{"STATE":"IL","ZIP":60626,"LATTITUDE":42.02266026807753,"ADDRESS":"1832 W JUNEWAY TER  NW CO","YEAR":2009,"DOING_BUSINESS_AS_NAME":"DURO DECAL CO INC","POP_AT_RISK":48218,"BUSINESS_TYPE":"Manufacturing Establishments","LEGAL_NAME":"DURO DECAL CO INC","LONGITUDE":-87.67664723812041},
{"STATE":"IL","ZIP":60629,"LATTITUDE":41.77905562837101,"ADDRESS":"3240 W 63RD ST  ","YEAR":2009,"DOING_BUSINESS_AS_NAME":"J & J ELECTRONIC","POP_AT_RISK":62644,"BUSINESS_TYPE":"Manufacturing Establishments","LEGAL_NAME":"J & J ELECTRONICS","LONGITUDE":-87.70476487332088},
{"STATE":"IL","ZIP":60621,"LATTITUDE":41.78463248965462,"ADDRESS":"6028 S PERRY AVE  ","YEAR":2009,"DOING_BUSINESS_AS_NAME":"RUSSELL'S WELDING & MFG","POP_AT_RISK":29078,"BUSINESS_TYPE":"Manufacturing Establishments","LEGAL_NAME":"RUSSELL SUTHERLAND","LONGITUDE":-87.62770213406625},
{"STATE":"IL","ZIP":60609,"LATTITUDE":41.81597853695627,"ADDRESS":"4310 S SHIELDS AVE 1ST ","YEAR":2009,"DOING_BUSINESS_AS_NAME":"CM STONE WORKS","POP_AT_RISK":19692,"BUSINESS_TYPE":"Manufacturing Establishments","LEGAL_NAME":"CM STONE WORKS INC.","LONGITUDE":-87.63485303039089},
{"STATE":"IL","ZIP":60638,"LATTITUDE":41.774471369513115,"ADDRESS":"5654 W 65TH ST  ","YEAR":2009,"DOING_BUSINESS_AS_NAME":"EXCEL MACHINING INC","POP_AT_RISK":19217,"BUSINESS_TYPE":"Manufacturing Establishments","LEGAL_NAME":"EXCEL MACHINING INC","LONGITUDE":-87.76375997030551},
{"STATE":"IL","ZIP":60638,"LATTITUDE":41.7947047678449,"ADDRESS":"5432 W 54TH ST  ","YEAR":2009,"DOING_BUSINESS_AS_NAME":"STERLING SPRING LLC","POP_AT_RISK":19549,"BUSINESS_TYPE":"Manufacturing Establishments","LEGAL_NAME":"STERLING SPRING LLC","LONGITUDE":-87.75883544408453},
{"STATE":"IL","ZIP":60646,"LATTITUDE":41.99255611745503,"ADDRESS":"6120 N PULASKI RD 1ST ","YEAR":2009,"DOING_BUSINESS_AS_NAME":"BEAUTY PHOENIX","POP_AT_RISK":22844,"BUSINESS_TYPE":"Manufacturing Establishments","LEGAL_NAME":"BEAUTY PHOENIX, INC.","LONGITUDE":-87.72902280433158},
{"STATE":"IL","ZIP":60639,"LATTITUDE":41.91272939470666,"ADDRESS":"5750 W BLOOMINGDALE AVE  ","YEAR":2009,"DOING_BUSINESS_AS_NAME":"NELLA WINDOW COMPANY","POP_AT_RISK":47566,"BUSINESS_TYPE":"Manufacturing Establishments","LEGAL_NAME":"NELLA WINDOW COMPANY","LONGITUDE":-87.76944064303055},
{"STATE":"IL","ZIP":60640,"LATTITUDE":41.98301912837452,"ADDRESS":"5540 N BROADWAY  1ST ","YEAR":2009,"DOING_BUSINESS_AS_NAME":"ZIRLIN INTERIORS INC","POP_AT_RISK":210900,"BUSINESS_TYPE":"Manufacturing Establishments","LEGAL_NAME":"ZIRLIN INTERIORS INC","LONGITUDE":-87.66019880136832},
{"STATE":"IL","ZIP":60619,"LATTITUDE":41.73662782135372,"ADDRESS":"1037 E 87TH ST 1ST ","YEAR":2009,"DOING_BUSINESS_AS_NAME":"AKERS PACKAGING SERVICE","POP_AT_RISK":33070,"BUSINESS_TYPE":"Manufacturing Establishments","LEGAL_NAME":"AKERS PACKAGING SERVICE","LONGITUDE":-87.59846416343471},
{"STATE":"IL","ZIP":60617,"LATTITUDE":41.737524443063855,"ADDRESS":"3100 E 87TH ST 1ST ","YEAR":2009,"DOING_BUSINESS_AS_NAME":"CARLO STEEL CORPORATION","POP_AT_RISK":57230,"BUSINESS_TYPE":"Manufacturing Establishments","LEGAL_NAME":"CARLO STEEL CORPORATION","LONGITUDE":-87.5487715297924},
{"STATE":"IL","ZIP":60652,"LATTITUDE":41.737498226797825,"ADDRESS":"8532 S PULASKI RD  ","YEAR":2009,"DOING_BUSINESS_AS_NAME":"ROLAND LAB INC","POP_AT_RISK":75699,"BUSINESS_TYPE":"Manufacturing Establishments","LEGAL_NAME":"ROLAND DENTAL LAB, INC.","LONGITUDE":-87.72167126456692},
{"STATE":"IL","ZIP":60638,"LATTITUDE":41.77750446371041,"ADDRESS":"6255 S HARLEM AVE  ","YEAR":2009,"DOING_BUSINESS_AS_NAME":"ARMBRUST PAPER TUBES INC","POP_AT_RISK":23658,"BUSINESS_TYPE":"Manufacturing Establishments","LEGAL_NAME":"ARMBRUST PAPER TUBES INC","LONGITUDE":-87.80076866830747},
{"STATE":"IL","ZIP":60609,"LATTITUDE":41.82088004242324,"ADDRESS":"328 W 40TH PL  ","YEAR":2009,"DOING_BUSINESS_AS_NAME":"JERNBERG INDUSTRIES, INC.","POP_AT_RISK":28832,"BUSINESS_TYPE":"Manufacturing Establishments","LEGAL_NAME":"JERNBERG INDUSTRIES INC.","LONGITUDE":-87.63424403899519},
{"STATE":"IL","ZIP":60619,"LATTITUDE":41.73259590815749,"ADDRESS":"31 E 89TH ST  ","YEAR":2009,"DOING_BUSINESS_AS_NAME":"MASTERPIECE PRODUCTS INC","POP_AT_RISK":28982,"BUSINESS_TYPE":"Manufacturing Establishments","LEGAL_NAME":"MASTERPIECE PRODUCTS INC","LONGITUDE":-87.62286873161595},
{"STATE":"IL","ZIP":60655,"LATTITUDE":41.69183877431484,"ADDRESS":"2626 W 111TH ST 1 ","YEAR":2009,"DOING_BUSINESS_AS_NAME":"BEVERLY FENCE COMPANY","POP_AT_RISK":21672,"BUSINESS_TYPE":"Manufacturing Establishments","LEGAL_NAME":"BEVERLY FENCE COMPANY, LLC","LONGITUDE":-87.68714913563709},
{"STATE":"IL","ZIP":60617,"LATTITUDE":41.71812799992384,"ADDRESS":"9746 S AVENUE N   ","YEAR":2009,"DOING_BUSINESS_AS_NAME":"SO CHICAGO & IN HARBOR RWY","POP_AT_RISK":13632,"BUSINESS_TYPE":"Manufacturing Establishments","LEGAL_NAME":"ISG SO CHICAGO & IN HBR RY","LONGITUDE":-87.53905015329579},
{"STATE":"IL","ZIP":60640,"LATTITUDE":41.97512066660159,"ADDRESS":"1111 W WINONA ST  1","YEAR":2009,"DOING_BUSINESS_AS_NAME":"GRAN ADELL MANUFACTURING CO","POP_AT_RISK":70049,"BUSINESS_TYPE":"Manufacturing Establishments","LEGAL_NAME":"GRAN ADELL MANUFACTURING CO","LONGITUDE":-87.65828803155793},
{"STATE":"IL","ZIP":60620,"LATTITUDE":41.72920193703528,"ADDRESS":"9050 S GREEN ST  ","YEAR":2009,"DOING_BUSINESS_AS_NAME":"PRAIRIE MATERIAL","POP_AT_RISK":32327,"BUSINESS_TYPE":"Manufacturing Establishments","LEGAL_NAME":"VCNA PRAIRIE ILLINOIS, INC.","LONGITUDE":-87.64481372911507},
{"STATE":"IL","ZIP":60637,"LATTITUDE":41.76837202098898,"ADDRESS":"755-765 E 69TH PL  ","YEAR":2009,"DOING_BUSINESS_AS_NAME":"BILL'S SHADE & BLIND SERVICE","POP_AT_RISK":35253,"BUSINESS_TYPE":"Manufacturing Establishments","LEGAL_NAME":"BILL'S SHADE & BLIND SERVICE","LONGITUDE":-87.60684191296633},
{"STATE":"IL","ZIP":60620,"LATTITUDE":41.721748458056226,"ADDRESS":"9449 S HALSTED ST  1","YEAR":2009,"DOING_BUSINESS_AS_NAME":"HOMECRAFT CONSTRUCTION,  INC.","POP_AT_RISK":33383,"BUSINESS_TYPE":"Manufacturing Establishments","LEGAL_NAME":"HOMECRAFT CONSTRUCTION,  INC.","LONGITUDE":-87.64307373522628},
{"STATE":"IL","ZIP":60646,"LATTITUDE":42.01210106862045,"ADDRESS":"6050 W TOUHY AVE  109","YEAR":2009,"DOING_BUSINESS_AS_NAME":"ECCENTRIC DENTAL LAB","POP_AT_RISK":32259,"BUSINESS_TYPE":"Manufacturing Establishments","LEGAL_NAME":"ECCENTRIC DENTAL LABORATORY LLC","LONGITUDE":-87.77895789805753},
{"STATE":"IL","ZIP":60619,"LATTITUDE":41.75832067891438,"ADDRESS":"431 E 75TH ST  ","YEAR":2009,"DOING_BUSINESS_AS_NAME":"GREATER CHICAGO DENTAL LAB","POP_AT_RISK":38146,"BUSINESS_TYPE":"Manufacturing Establishments","LEGAL_NAME":"GREATER CHICAGO DENTAL LAB INC.","LONGITUDE":-87.6139407392573},
{"STATE":"IL","ZIP":60655,"LATTITUDE":41.69172972597,"ADDRESS":"3004 W 111TH ST 1ST ","YEAR":2009,"DOING_BUSINESS_AS_NAME":"BEVERLY SHEAR MFG CORP","POP_AT_RISK":21393,"BUSINESS_TYPE":"Manufacturing Establishments","LEGAL_NAME":"BEVERLY SHEAR MANUFACTURING CORP","LONGITUDE":-87.6963775207205},
{"STATE":"IL","ZIP":60657,"LATTITUDE":41.939094818078736,"ADDRESS":"860 W FLETCHER ST  ","YEAR":2009,"DOING_BUSINESS_AS_NAME":"ERIE BRUSH & MANUFACTURING CORP.","POP_AT_RISK":454555,"BUSINESS_TYPE":"Manufacturing Establishments","LEGAL_NAME":"ERIE BRUSH & MANUFACTURING CORP.","LONGITUDE":-87.65155455766002},
{"STATE":"IL","ZIP":60622,"LATTITUDE":41.90956224371685,"ADDRESS":"1530 N HALSTED ST 1ST ","YEAR":2009,"DOING_BUSINESS_AS_NAME":"NELSON & LAVOLD MFG CO","POP_AT_RISK":50038,"BUSINESS_TYPE":"Manufacturing Establishments","LEGAL_NAME":"NELSON & LAVOLD MANUFACTURING CO","LONGITUDE":-87.6483885323108},
{"STATE":"IL","ZIP":60649,"LATTITUDE":41.7590622669018,"ADDRESS":"2240 E 75TH ST  ","YEAR":2009,"DOING_BUSINESS_AS_NAME":"COMMERCIAL LEATHER PRODUCTS, INC.","POP_AT_RISK":263460,"BUSINESS_TYPE":"Manufacturing Establishments","LEGAL_NAME":"COMMERCIAL LEATHER PRODUCTS, INC.","LONGITUDE":-87.56962604416944},
{"STATE":"IL","ZIP":60613,"LATTITUDE":41.948077626553534,"ADDRESS":"3625 N HALSTED ST  ","YEAR":2009,"DOING_BUSINESS_AS_NAME":"PHOENIX ELECTRIC MFG CO","POP_AT_RISK":85431,"BUSINESS_TYPE":"Manufacturing Establishments","LEGAL_NAME":"PHOENIX ELECTRIC MANUFACTURING CO","LONGITUDE":-87.64936304335718},
{}]