[
{"STATE":"IL","ZIP":60652,"LATTITUDE":41.75388279176942,"ADDRESS":"7647 S KEDZIE AVE 1ST ","YEAR":2014,"DOING_BUSINESS_AS_NAME":"MI COSTENITA","POP_AT_RISK":27249,"BUSINESS_TYPE":"Wholesale Food Establishment","LEGAL_NAME":"YOLI INC","LONGITUDE":-87.70236383804829},
{"STATE":"IL","ZIP":60642,"LATTITUDE":41.908032372060696,"ADDRESS":"1456 N DAYTON ST 1ST ","YEAR":2014,"DOING_BUSINESS_AS_NAME":"TEKLA INC","POP_AT_RISK":51090,"BUSINESS_TYPE":"Wholesale Food Establishment","LEGAL_NAME":"TEKLA INC","LONGITUDE":-87.64957846368361},
{"STATE":"IL","ZIP":60609,"LATTITUDE":41.81064440590946,"ADDRESS":"125 W 46TH PL  ","YEAR":2014,"DOING_BUSINESS_AS_NAME":"ARTOPOLIS BAKERY, CAFE & A GORA","POP_AT_RISK":118290,"BUSINESS_TYPE":"Wholesale Food Establishment","LEGAL_NAME":"ARTOS LIMITED","LONGITUDE":-87.62945032101811},
{"STATE":"IL","ZIP":60827,"LATTITUDE":41.64471651864612,"ADDRESS":"612 E 138TH ST  ","YEAR":2014,"DOING_BUSINESS_AS_NAME":"INNOPHOS INC.","POP_AT_RISK":40143,"BUSINESS_TYPE":"Wholesale Food Establishment","LEGAL_NAME":"INNOPHOS INC.","LONGITUDE":-87.60679330792205},
{"STATE":"IL","ZIP":60657,"LATTITUDE":41.9366100784149,"ADDRESS":"3017 N LINCOLN AVE  303","YEAR":2014,"DOING_BUSINESS_AS_NAME":"CHAR CRUST COMPANY","POP_AT_RISK":141830,"BUSINESS_TYPE":"Wholesale Food Establishment","LEGAL_NAME":"BERNARD SILVER","LONGITUDE":-87.66417114868288},
{"STATE":"IL","ZIP":60629,"LATTITUDE":41.786196544925204,"ADDRESS":"3600 W 59TH ST  1","YEAR":2014,"DOING_BUSINESS_AS_NAME":"LANG ICE COMPANY","POP_AT_RISK":484141,"BUSINESS_TYPE":"Wholesale Food Establishment","LEGAL_NAME":"LANG ICE COMPANY","LONGITUDE":-87.71348942184615},
{"STATE":"IL","ZIP":60613,"LATTITUDE":41.95180634357866,"ADDRESS":"3830 N CLARK ST  ","YEAR":2014,"DOING_BUSINESS_AS_NAME":"NUTS ON CLARK INC","POP_AT_RISK":83060,"BUSINESS_TYPE":"Wholesale Food Establishment","LEGAL_NAME":"NUTS ON CLARK INC","LONGITUDE":-87.66038145990446},
{"STATE":"IL","ZIP":60617,"LATTITUDE":41.739684595079034,"ADDRESS":"8544  -08546 S COMMERCIAL AVE 1ST ","YEAR":2014,"DOING_BUSINESS_AS_NAME":"CECY'S MOLINO DE MASA","POP_AT_RISK":85845,"BUSINESS_TYPE":"Wholesale Food Establishment","LEGAL_NAME":"CECILIA VILLARRUEL","LONGITUDE":-87.55162081518151},
{"STATE":"IL","ZIP":60621,"LATTITUDE":41.7605150241803,"ADDRESS":"7335 S HALSTED ST  ","YEAR":2014,"DOING_BUSINESS_AS_NAME":"MAJOR PRODUCTS DISTRIBUTOR","POP_AT_RISK":73192,"BUSINESS_TYPE":"Wholesale Food Establishment","LEGAL_NAME":"CHARLES E CHANDLER","LONGITUDE":-87.64414732309463},
{"STATE":"IL","ZIP":60660,"LATTITUDE":41.98824288245684,"ADDRESS":"5845 N BROADWAY   1ST","YEAR":2014,"DOING_BUSINESS_AS_NAME":"VIET HOA","POP_AT_RISK":117622,"BUSINESS_TYPE":"Wholesale Food Establishment","LEGAL_NAME":"VIET HOA PLAZA INC","LONGITUDE":-87.66006346126679},
{"STATE":"IL","ZIP":60707,"LATTITUDE":41.9289626042484,"ADDRESS":"2701 N HARLEM AVE 1ST ","YEAR":2014,"DOING_BUSINESS_AS_NAME":"MICHAELANGELO'S FOODS","POP_AT_RISK":87052,"BUSINESS_TYPE":"Wholesale Food Establishment","LEGAL_NAME":"MICHAEL CIAMPANELLI","LONGITUDE":-87.80628280360719},
{"STATE":"IL","ZIP":60629,"LATTITUDE":41.76066858314362,"ADDRESS":"7300 S KEDZIE AVE 1ST - 7TH ","YEAR":2014,"DOING_BUSINESS_AS_NAME":"MONDELEZ INTERNATIONAL","POP_AT_RISK":26650,"BUSINESS_TYPE":"Wholesale Food Establishment","LEGAL_NAME":"MONDELEZ GLOBAL LLC","LONGITUDE":-87.7028547971541},
{"STATE":"IL","ZIP":60018,"LATTITUDE":42.00519055693345,"ADDRESS":"1769  PRATT AVE 1ST ","YEAR":2014,"DOING_BUSINESS_AS_NAME":"RONALD G MULHOLLAND","POP_AT_RISK":870220,"BUSINESS_TYPE":"Wholesale Food Establishment","LEGAL_NAME":"RONALD G MULHOLLAND","LONGITUDE":-87.6754482343933},
{"STATE":"IL","ZIP":60644,"LATTITUDE":41.868444563183594,"ADDRESS":"5610 W TAYLOR ST  ","YEAR":2014,"DOING_BUSINESS_AS_NAME":"THE PUCKERED PICKLE","POP_AT_RISK":91034,"BUSINESS_TYPE":"Wholesale Food Establishment","LEGAL_NAME":"PICKLES SORRELL, INC","LONGITUDE":-87.76497544455088},
{"STATE":"IL","ZIP":60631,"LATTITUDE":41.99412935894236,"ADDRESS":"6186 N NORTHWEST HWY 1ST ","YEAR":2014,"DOING_BUSINESS_AS_NAME":"UNION FISHERIES CORP","POP_AT_RISK":95712,"BUSINESS_TYPE":"Wholesale Food Establishment","LEGAL_NAME":"UNION FISHERIES CORP","LONGITUDE":-87.80226201134202},
{"STATE":"IL","ZIP":60610,"LATTITUDE":41.89213347860132,"ADDRESS":"545 N WELLS ST # 1ST","YEAR":2014,"DOING_BUSINESS_AS_NAME":"ANICHINI BROS INC","POP_AT_RISK":463968,"BUSINESS_TYPE":"Wholesale Food Establishment","LEGAL_NAME":"ANICHINI BROTHERS INC","LONGITUDE":-87.63393294670098},
{"STATE":"IL","ZIP":60634,"LATTITUDE":41.952632794111594,"ADDRESS":"6851 W IRVING PARK RD 1ST ","YEAR":2014,"DOING_BUSINESS_AS_NAME":"GOOD FOODS GROUP, LLC","POP_AT_RISK":216096,"BUSINESS_TYPE":"Wholesale Food Establishment","LEGAL_NAME":"GOOD FOODS GROUP, LLC","LONGITUDE":-87.79830631114467},
{"STATE":"IL","ZIP":60621,"LATTITUDE":41.78566325269064,"ADDRESS":"5950 S WALLACE ST 1 1","YEAR":2014,"DOING_BUSINESS_AS_NAME":"SUSTAINABLE FOODS, LLC","POP_AT_RISK":26308,"BUSINESS_TYPE":"Wholesale Food Establishment","LEGAL_NAME":"SUSTAINABLE FOODS, LLC","LONGITUDE":-87.64028544536903},
{"STATE":"IL","ZIP":60645,"LATTITUDE":42.019181973030165,"ADDRESS":"2841 W HOWARD ST  ","YEAR":2014,"DOING_BUSINESS_AS_NAME":"JR DESSERT BAKERY","POP_AT_RISK":132128,"BUSINESS_TYPE":"Wholesale Food Establishment","LEGAL_NAME":"CHEESECAKES BY JR, INC.","LONGITUDE":-87.70116444187651},
{"STATE":"IL","ZIP":60609,"LATTITUDE":41.81901264253939,"ADDRESS":"215 W ROOT ST  ","YEAR":2014,"DOING_BUSINESS_AS_NAME":"DANIELSON FOOD PROD INC","POP_AT_RISK":41374,"BUSINESS_TYPE":"Wholesale Food Establishment","LEGAL_NAME":"DANIELSON FOOD PROD INC","LONGITUDE":-87.63184863563215},
{"STATE":"IL","ZIP":60619,"LATTITUDE":41.72565184476607,"ADDRESS":"945 E 93RD ST  ","YEAR":2014,"DOING_BUSINESS_AS_NAME":"FOOD & PAPER SUPPLY CO.","POP_AT_RISK":143822,"BUSINESS_TYPE":"Wholesale Food Establishment","LEGAL_NAME":"FOOD & PAPER SUPPLY CO.","LONGITUDE":-87.60079152053679},
{"STATE":"IL","ZIP":60619,"LATTITUDE":41.763518738292134,"ADDRESS":"7247-7249 S SOUTH CHICAGO AVE  1ST","YEAR":2014,"DOING_BUSINESS_AS_NAME":"FOOD & PAPER SUPPLY CO.","POP_AT_RISK":142640,"BUSINESS_TYPE":"Wholesale Food Establishment","LEGAL_NAME":"FOOD & PAPER SUPPLY CO.","LONGITUDE":-87.6020811928112},
{"STATE":"IL","ZIP":60617,"LATTITUDE":41.72552276451634,"ADDRESS":"9332 S ANTHONY AVE  ","YEAR":2014,"DOING_BUSINESS_AS_NAME":"ALL UNITED IMPORTS","POP_AT_RISK":36858,"BUSINESS_TYPE":"Wholesale Food Establishment","LEGAL_NAME":"ALL UNITED IMPORTS, INC.","LONGITUDE":-87.55287606866008},
{"STATE":"IL","ZIP":60614,"LATTITUDE":41.924966179088,"ADDRESS":"2345 N CLARK ST  ","YEAR":2014,"DOING_BUSINESS_AS_NAME":"BIG APPLE FINER FOODS INC","POP_AT_RISK":511101,"BUSINESS_TYPE":"Wholesale Food Establishment","LEGAL_NAME":"BIG APPLE FINER FOODS INC","LONGITUDE":-87.63992601896568},
{"STATE":"IL","ZIP":60625,"LATTITUDE":41.96836730905349,"ADDRESS":"3055 W LAWRENCE AVE 1ST ","YEAR":2014,"DOING_BUSINESS_AS_NAME":"LEE'S SEAFOOD MARKET, INC","POP_AT_RISK":80584,"BUSINESS_TYPE":"Wholesale Food Establishment","LEGAL_NAME":"LEE'S SEAFOOD MARKET, INC","LONGITUDE":-87.70581227358586},
{"STATE":"IL","ZIP":60638,"LATTITUDE":41.78519267395424,"ADDRESS":"5757 W 59TH ST 1ST ","YEAR":2014,"DOING_BUSINESS_AS_NAME":"OLYMPIA FOOD INDUSTRIES INC","POP_AT_RISK":139165,"BUSINESS_TYPE":"Wholesale Food Establishment","LEGAL_NAME":"OLYMPIA FOOD INDUSTRIES INC","LONGITUDE":-87.7667534323291},
{"STATE":"IL","ZIP":60620,"LATTITUDE":41.74169192075343,"ADDRESS":"101 W 84TH ST 1ST ","YEAR":2014,"DOING_BUSINESS_AS_NAME":"BEST VALUE DISTRIBUTORS INC.","POP_AT_RISK":95592,"BUSINESS_TYPE":"Wholesale Food Establishment","LEGAL_NAME":"BEST VALUE DISTRIBUTORS INC.","LONGITUDE":-87.62684750615163},
{"STATE":"IL","ZIP":60629,"LATTITUDE":41.75872799769038,"ADDRESS":"7401 S CICERO AVE  ","YEAR":2014,"DOING_BUSINESS_AS_NAME":"TOOTSIE ROLL INDUSTRIES, LLC","POP_AT_RISK":48141,"BUSINESS_TYPE":"Wholesale Food Establishment","LEGAL_NAME":"TOOTSIE ROLL INDUSTRIES, LLC","LONGITUDE":-87.74153566231715},
{"STATE":"IL","ZIP":60633,"LATTITUDE":41.65928603914349,"ADDRESS":"2400 E 130TH ST  ","YEAR":2014,"DOING_BUSINESS_AS_NAME":"American Sugar Refining, Inc.","POP_AT_RISK":2798,"BUSINESS_TYPE":"Wholesale Food Establishment","LEGAL_NAME":"AMERICAN SUGAR REFINING, INC.","LONGITUDE":-87.565517863218},
{"STATE":"IL","ZIP":60613,"LATTITUDE":41.96190984490327,"ADDRESS":"918 W MONTROSE AVE 1ST #","YEAR":2014,"DOING_BUSINESS_AS_NAME":"DEARBORN WHOLESALE GROCERS INC","POP_AT_RISK":78611,"BUSINESS_TYPE":"Wholesale Food Establishment","LEGAL_NAME":"DEARBORN WHOLESALE GROCERS LP","LONGITUDE":-87.65312737854316},
{"STATE":"IL","ZIP":60647,"LATTITUDE":41.91742276227435,"ADDRESS":"2577 W ARMITAGE AVE 1ST ","YEAR":2014,"DOING_BUSINESS_AS_NAME":"CASH & CARRY WHOLESALE","POP_AT_RISK":65033,"BUSINESS_TYPE":"Wholesale Food Establishment","LEGAL_NAME":"MIDWESTERN CASH AND CARRY, LLC","LONGITUDE":-87.69221180721557},
{"STATE":"IL","ZIP":60644,"LATTITUDE":41.873092477389,"ADDRESS":"5070 W HARRISON ST  ","YEAR":2014,"DOING_BUSINESS_AS_NAME":"Salad Oils International Corp.","POP_AT_RISK":38547,"BUSINESS_TYPE":"Wholesale Food Establishment","LEGAL_NAME":"Salad Oils International Corp.","LONGITUDE":-87.75201236878274},
{"STATE":"IL","ZIP":60638,"LATTITUDE":41.79468154402482,"ADDRESS":"5370 S CICERO AVE 1ST ","YEAR":2014,"DOING_BUSINESS_AS_NAME":"FLYING FOOD FARE MIDWAY L.L.C.","POP_AT_RISK":28658,"BUSINESS_TYPE":"Wholesale Food Establishment","LEGAL_NAME":"FLYING FOOD FARE MIDWAY, L.L.C.","LONGITUDE":-87.74292108541009},
{"STATE":"IL","ZIP":60651,"LATTITUDE":41.90608046015144,"ADDRESS":"1401 N CICERO AVE  ","YEAR":2014,"DOING_BUSINESS_AS_NAME":"COCA-COLA REFRESHMENTS","POP_AT_RISK":59052,"BUSINESS_TYPE":"Wholesale Food Establishment","LEGAL_NAME":"COCA-COLA REFRESHMENTS USA, INC.","LONGITUDE":-87.74589087855617},
{"STATE":"IL","ZIP":60639,"LATTITUDE":41.91272939470666,"ADDRESS":"5750 W BLOOMINGDALE AVE  ","YEAR":2014,"DOING_BUSINESS_AS_NAME":"JM DISTRIBUTION ENTERPRISES","POP_AT_RISK":47566,"BUSINESS_TYPE":"Wholesale Food Establishment","LEGAL_NAME":"JM DISTRIBUTION ENTERPRISES LTD.","LONGITUDE":-87.76944064303055},
{"STATE":"IL","ZIP":60628,"LATTITUDE":41.715083039432876,"ADDRESS":"9880 S DORCHESTER AVE  11","YEAR":2014,"DOING_BUSINESS_AS_NAME":"DEL MONTE FRESH PRODUCE N A IN","POP_AT_RISK":13388,"BUSINESS_TYPE":"Wholesale Food Establishment","LEGAL_NAME":"DEL MONTE FRESH PRODUCE N.A., INC.","LONGITUDE":-87.59056162053739},
{"STATE":"IL","ZIP":60616,"LATTITUDE":41.85096722084695,"ADDRESS":"15-19 E 23RD ST 1 ","YEAR":2014,"DOING_BUSINESS_AS_NAME":"Chicago Oriental Wholesale Market","POP_AT_RISK":39535,"BUSINESS_TYPE":"Wholesale Food Establishment","LEGAL_NAME":"CHICAGO ORIENTAL WHOLESALE MARKET, INC.","LONGITUDE":-87.62631731778754},
{"STATE":"IL","ZIP":60617,"LATTITUDE":41.682696264898055,"ADDRESS":"11700 S TORRENCE AVE  ","YEAR":2014,"DOING_BUSINESS_AS_NAME":"CHICAGO & ILLINOIS RIVER MARKETING,  LLC","POP_AT_RISK":3233,"BUSINESS_TYPE":"Wholesale Food Establishment","LEGAL_NAME":"CHICAGO & ILLINOIS  RIVER MARKETING,  LLC","LONGITUDE":-87.55950138523278},
{}]