[
  {
    "BUSINESS_TYPE": "Auctioneer", 
    "LEGAL_NAME": "JOEL J CIELAK", 
    "STATE": "IL", 
    "DOING_BUSINESS_AS_NAME": "JOEL J CIELAK", 
    "POP_AT_RISK": 64511, 
    "ZIP": 60641, 
    "ADDRESS": "3120 N PULASKI RD", 
    "YEAR": 2004, 
    "LONGITUDE": -87.727297437, 
    "LATTITUDE": 41.937924424
  }, 
  {
    "BUSINESS_TYPE": "Auctioneer", 
    "LEGAL_NAME": "SEAN SUSANIN", 
    "STATE": "IL", 
    "DOING_BUSINESS_AS_NAME": "SUSANIN'S", 
    "POP_AT_RISK": 34142, 
    "ZIP": 60607, 
    "ADDRESS": "900 S CLINTON ST", 
    "YEAR": 2004, 
    "LONGITUDE": -87.640974125, 
    "LATTITUDE": 41.870487423
  }, 
  {
    "BUSINESS_TYPE": "Auctioneer", 
    "LEGAL_NAME": "RICK LEVIN", 
    "STATE": "IL", 
    "DOING_BUSINESS_AS_NAME": "RICK LEVIN", 
    "POP_AT_RISK": 58720, 
    "ZIP": 60610, 
    "ADDRESS": "1347 N STATE PKWY 1", 
    "YEAR": 2004, 
    "LONGITUDE": -87.628632234, 
    "LATTITUDE": 41.907165907
  }, 
  {
    "BUSINESS_TYPE": "Auctioneer", 
    "LEGAL_NAME": "JEFFREY BENDIX", 
    "STATE": "IL", 
    "DOING_BUSINESS_AS_NAME": "JEFFREY BENDIX", 
    "POP_AT_RISK": 64779, 
    "ZIP": 60640, 
    "ADDRESS": "5501 N CLARK ST  LOWER", 
    "YEAR": 2004, 
    "LONGITUDE": -87.668287655, 
    "LATTITUDE": 41.981723366
  }, 
  {
    "BUSINESS_TYPE": "Auctioneer", 
    "LEGAL_NAME": "KOSTER INDUSTRIES INC", 
    "STATE": "IL", 
    "DOING_BUSINESS_AS_NAME": "KOSTER INDUSTRIES INC", 
    "POP_AT_RISK": 58786, 
    "ZIP": 60018, 
    "ADDRESS": "2590 E DEVON AVE  115", 
    "YEAR": 2004, 
    "LONGITUDE": -87.694707565, 
    "LATTITUDE": 41.997757252
  }, 
  {
    "BUSINESS_TYPE": "Auctioneer", 
    "LEGAL_NAME": "JEFFREY P. BROWN", 
    "STATE": "IL", 
    "DOING_BUSINESS_AS_NAME": "ACE AUCTIONEERS INC", 
    "POP_AT_RISK": 25417, 
    "ZIP": 60659, 
    "ADDRESS": "3530 W PETERSON AVE  204", 
    "YEAR": 2004, 
    "LONGITUDE": -87.717705843, 
    "LATTITUDE": 41.990386896
  }, 
  {
    "BUSINESS_TYPE": "Auctioneer", 
    "LEGAL_NAME": "TEIMOUR FAILY", 
    "STATE": "IL", 
    "DOING_BUSINESS_AS_NAME": "1ST FEDERAL AUTO AUCTION, INC", 
    "POP_AT_RISK": 34593, 
    "ZIP": 60637, 
    "ADDRESS": "35-75 E 63RD ST 1ST", 
    "YEAR": 2004, 
    "LONGITUDE": -87.624014875, 
    "LATTITUDE": 41.779904224
  }, 
  {
    "BUSINESS_TYPE": "Auctioneer", 
    "LEGAL_NAME": "HAMID -REZA SHAVERDI", 
    "STATE": "IL", 
    "DOING_BUSINESS_AS_NAME": "HAMID-REZA SHAVERDI", 
    "POP_AT_RISK": 83448, 
    "ZIP": 60614, 
    "ADDRESS": "2759 N LINCOLN AVE", 
    "YEAR": 2004, 
    "LONGITUDE": -87.65778267, 
    "LATTITUDE": 41.932048436
  }, 
  {
    "BUSINESS_TYPE": "Auctioneer", 
    "LEGAL_NAME": "JAMES McCULLOUGH", 
    "STATE": "IL", 
    "DOING_BUSINESS_AS_NAME": "NATIONWIDE AUCTION SYSTEM", 
    "POP_AT_RISK": 18334, 
    "ZIP": 60644, 
    "ADDRESS": "1001 S LARAMIE AVE", 
    "YEAR": 2004, 
    "LONGITUDE": -87.754788464, 
    "LATTITUDE": 41.868140958
  }, 
  {
    "BUSINESS_TYPE": "Auctioneer", 
    "LEGAL_NAME": "RICHARD M STONE", 
    "STATE": "IL", 
    "DOING_BUSINESS_AS_NAME": "NATIONAL AUCTIONEERS, INC.", 
    "POP_AT_RISK": 43864, 
    "ZIP": 60604, 
    "ADDRESS": "343 S DEARBORN ST # 101", 
    "YEAR": 2004, 
    "LONGITUDE": -87.629121233, 
    "LATTITUDE": 41.877146786
  }, 
  {
    "BUSINESS_TYPE": "Auctioneer", 
    "LEGAL_NAME": "CHERE WALSH", 
    "STATE": "IL", 
    "DOING_BUSINESS_AS_NAME": "CHERE WALSH", 
    "POP_AT_RISK": 79757, 
    "ZIP": 60640, 
    "ADDRESS": "4430 N CLARK ST 1ST", 
    "YEAR": 2004, 
    "LONGITUDE": -87.666302194, 
    "LATTITUDE": 41.96255273
  }
]