[
  {
    "BUSINESS_TYPE": "Late Hour", 
    "LEGAL_NAME": "SAAR INC", 
    "STATE": "IL", 
    "DOING_BUSINESS_AS_NAME": "ST. PAULI'S BAR", 
    "POP_AT_RISK": 58801, 
    "ZIP": 60625, 
    "ADDRESS": "5109 N LINCOLN AVE  1", 
    "YEAR": 2010, 
    "LONGITUDE": -87.691998213, 
    "LATTITUDE": 41.974369465
  }, 
  {
    "BUSINESS_TYPE": "Late Hour", 
    "LEGAL_NAME": "MARK II, LTD.", 
    "STATE": "IL", 
    "DOING_BUSINESS_AS_NAME": "MARK II LTD", 
    "POP_AT_RISK": 31637, 
    "ZIP": 60645, 
    "ADDRESS": "7436 N WESTERN AVE 1ST", 
    "YEAR": 2010, 
    "LONGITUDE": -87.690347254, 
    "LATTITUDE": 42.016961013
  }, 
  {
    "BUSINESS_TYPE": "Late Hour", 
    "LEGAL_NAME": "LACOCO PIZZA AND PASTA, INC.", 
    "STATE": "IL", 
    "DOING_BUSINESS_AS_NAME": "MAD ANTHONY'S SPORTS BAR & GRILL", 
    "POP_AT_RISK": 41410, 
    "ZIP": 60632, 
    "ADDRESS": "3346 W 47TH ST", 
    "YEAR": 2010, 
    "LONGITUDE": -87.708329085, 
    "LATTITUDE": 41.808174915
  }, 
  {
    "BUSINESS_TYPE": "Late Hour", 
    "LEGAL_NAME": "LAURIE'S PIZZERIA INC.", 
    "STATE": "IL", 
    "DOING_BUSINESS_AS_NAME": "LAURIE'S REST & COCKTAIL LOUNG", 
    "POP_AT_RISK": 69764, 
    "ZIP": 60640, 
    "ADDRESS": "5153 N BROADWAY  1ST", 
    "YEAR": 2010, 
    "LONGITUDE": -87.65971548, 
    "LATTITUDE": 41.976165361
  }, 
  {
    "BUSINESS_TYPE": "Late Hour", 
    "LEGAL_NAME": "LOS DOS LAREDOS RESTAURANT, INC.", 
    "STATE": "IL", 
    "DOING_BUSINESS_AS_NAME": "LOS DOS LAREDOS RESTAURANT", 
    "POP_AT_RISK": 62997, 
    "ZIP": 60623, 
    "ADDRESS": "3120 W 26TH ST", 
    "YEAR": 2010, 
    "LONGITUDE": -87.703496856, 
    "LATTITUDE": 41.844644812
  }, 
  {
    "BUSINESS_TYPE": "Late Hour", 
    "LEGAL_NAME": "ZIEMEK CORPORATION, INC.", 
    "STATE": "IL", 
    "DOING_BUSINESS_AS_NAME": "ZIEMEK CORP.", 
    "POP_AT_RISK": 33756, 
    "ZIP": 60630, 
    "ADDRESS": "5368 N MILWAUKEE AVE", 
    "YEAR": 2010, 
    "LONGITUDE": -87.770377202, 
    "LATTITUDE": 41.978363925
  }, 
  {
    "BUSINESS_TYPE": "Late Hour", 
    "LEGAL_NAME": "PAUL AND MARC'S ENTERPRISES, LTD.", 
    "STATE": "IL", 
    "DOING_BUSINESS_AS_NAME": "GROUCHO'S BAR & GRILL", 
    "POP_AT_RISK": 27493, 
    "ZIP": 60652, 
    "ADDRESS": "8355 S PULASKI RD", 
    "YEAR": 2010, 
    "LONGITUDE": -87.721478363, 
    "LATTITUDE": 41.740515143
  }, 
  {
    "BUSINESS_TYPE": "Late Hour", 
    "LEGAL_NAME": "R & G MILLER INC.", 
    "STATE": "IL", 
    "DOING_BUSINESS_AS_NAME": "BROTHER'S PALACE -939", 
    "POP_AT_RISK": 48358, 
    "ZIP": 60651, 
    "ADDRESS": "939-941 N PULASKI RD", 
    "YEAR": 2010, 
    "LONGITUDE": -87.726027844, 
    "LATTITUDE": 41.898367071
  }, 
  {
    "BUSINESS_TYPE": "Late Hour", 
    "LEGAL_NAME": "LAS VEGAS NITE CLUB, INC.", 
    "STATE": "IL", 
    "DOING_BUSINESS_AS_NAME": "LAS VEGAS NITE CLUB INC", 
    "POP_AT_RISK": 77243, 
    "ZIP": 60647, 
    "ADDRESS": "3702 W ARMITAGE AVE", 
    "YEAR": 2010, 
    "LONGITUDE": -87.719361145, 
    "LATTITUDE": 41.917360988
  }, 
  {
    "BUSINESS_TYPE": "Late Hour", 
    "LEGAL_NAME": "THE CONCORD RESTAURANT INC", 
    "STATE": "IL", 
    "DOING_BUSINESS_AS_NAME": "SIDEKICKS", 
    "POP_AT_RISK": 46331, 
    "ZIP": 60641, 
    "ADDRESS": "4420  -04430 W MONTROSE AVE 1ST", 
    "YEAR": 2010, 
    "LONGITUDE": -87.739335861, 
    "LATTITUDE": 41.960927728
  }, 
  {
    "BUSINESS_TYPE": "Late Hour", 
    "LEGAL_NAME": "LULA'S INC.", 
    "STATE": "IL", 
    "DOING_BUSINESS_AS_NAME": "WILLIAMS INN", 
    "POP_AT_RISK": 30540, 
    "ZIP": 60636, 
    "ADDRESS": "5701 S ASHLAND AVE", 
    "YEAR": 2010, 
    "LONGITUDE": -87.664341682, 
    "LATTITUDE": 41.790298025
  }, 
  {
    "BUSINESS_TYPE": "Late Hour", 
    "LEGAL_NAME": "MR. B'S STUFFED PIZZA, INC.", 
    "STATE": "IL", 
    "DOING_BUSINESS_AS_NAME": "SUPAROSSA", 
    "POP_AT_RISK": 52427, 
    "ZIP": 60634, 
    "ADDRESS": "4250 N CENTRAL AVE", 
    "YEAR": 2010, 
    "LONGITUDE": -87.767320762, 
    "LATTITUDE": 41.958373846
  }, 
  {
    "BUSINESS_TYPE": "Late Hour", 
    "LEGAL_NAME": "JAF, LTD.", 
    "STATE": "IL", 
    "DOING_BUSINESS_AS_NAME": "JEFFERY PUB", 
    "POP_AT_RISK": 43909, 
    "ZIP": 60649, 
    "ADDRESS": "7041 S JEFFERY BLVD", 
    "YEAR": 2010, 
    "LONGITUDE": -87.576170828, 
    "LATTITUDE": 41.766818068
  }, 
  {
    "BUSINESS_TYPE": "Late Hour", 
    "LEGAL_NAME": "EL MEXICO MODERNO BALLROOM, INC.", 
    "STATE": "IL", 
    "DOING_BUSINESS_AS_NAME": "EL MEXICO MODERN BALLROOM INC", 
    "POP_AT_RISK": 51728, 
    "ZIP": 60639, 
    "ADDRESS": "1643-1647 N CICERO AVE 1 & 2 BANQU", 
    "YEAR": 2010, 
    "LONGITUDE": -87.74575021, 
    "LATTITUDE": 41.910931169
  }, 
  {
    "BUSINESS_TYPE": "Late Hour", 
    "LEGAL_NAME": "WHERE'S PAPPA, INC", 
    "STATE": "IL", 
    "DOING_BUSINESS_AS_NAME": "CHRISTINA'S PLACE", 
    "POP_AT_RISK": 62602, 
    "ZIP": 60618, 
    "ADDRESS": "3759 N KEDZIE AVE  1", 
    "YEAR": 2010, 
    "LONGITUDE": -87.707768271, 
    "LATTITUDE": 41.950191673
  }, 
  {
    "BUSINESS_TYPE": "Late Hour", 
    "LEGAL_NAME": "6301 SOUTH HARLEM, INC.", 
    "STATE": "IL", 
    "DOING_BUSINESS_AS_NAME": "ESCAPADES", 
    "POP_AT_RISK": 11842, 
    "ZIP": 60638, 
    "ADDRESS": "6301 S HARLEM AVE 1ST", 
    "YEAR": 2010, 
    "LONGITUDE": -87.800749629, 
    "LATTITUDE": 41.777261773
  }, 
  {
    "BUSINESS_TYPE": "Late Hour", 
    "LEGAL_NAME": "HAZEL L. SMITH", 
    "STATE": "IL", 
    "DOING_BUSINESS_AS_NAME": "NEW GLASSHOUSE LOUNGE", 
    "POP_AT_RISK": 38254, 
    "ZIP": 60620, 
    "ADDRESS": "7911-7915 S HALSTED ST", 
    "YEAR": 2010, 
    "LONGITUDE": -87.643887528, 
    "LATTITUDE": 41.750271027
  }, 
  {
    "BUSINESS_TYPE": "Late Hour", 
    "LEGAL_NAME": "M. T. GLASS, CO.", 
    "STATE": "IL", 
    "DOING_BUSINESS_AS_NAME": "NINA'S RESTAURANT", 
    "POP_AT_RISK": 33540, 
    "ZIP": 60652, 
    "ADDRESS": "3359 W 79TH ST 1ST", 
    "YEAR": 2010, 
    "LONGITUDE": -87.707211112, 
    "LATTITUDE": 41.749557313
  }, 
  {
    "BUSINESS_TYPE": "Late Hour", 
    "LEGAL_NAME": "PALIATSOS & SON CO.", 
    "STATE": "IL", 
    "DOING_BUSINESS_AS_NAME": "ROMA'S REST", 
    "POP_AT_RISK": 21833, 
    "ZIP": 60617, 
    "ADDRESS": "9273 S SOUTH CHICAGO AVE", 
    "YEAR": 2010, 
    "LONGITUDE": -87.550943262, 
    "LATTITUDE": 41.726723094
  }, 
  {
    "BUSINESS_TYPE": "Late Hour", 
    "LEGAL_NAME": "J D R LIQUORS, INC.", 
    "STATE": "IL", 
    "DOING_BUSINESS_AS_NAME": "HOT SPOT", 
    "POP_AT_RISK": 63338, 
    "ZIP": 60641, 
    "ADDRESS": "2959 N CICERO AVE", 
    "YEAR": 2010, 
    "LONGITUDE": -87.746591974, 
    "LATTITUDE": 41.935138656
  }, 
  {
    "BUSINESS_TYPE": "Late Hour", 
    "LEGAL_NAME": "TROY LOGIC, INC", 
    "STATE": "IL", 
    "DOING_BUSINESS_AS_NAME": "MARIANNA'S PLACE", 
    "POP_AT_RISK": 22202, 
    "ZIP": 60638, 
    "ADDRESS": "5625 W 63RD ST 1ST", 
    "YEAR": 2010, 
    "LONGITUDE": -87.762659385, 
    "LATTITUDE": 41.777923814
  }, 
  {
    "BUSINESS_TYPE": "Late Hour", 
    "LEGAL_NAME": "GRAND CENTRAL CORPORATION", 
    "STATE": "IL", 
    "DOING_BUSINESS_AS_NAME": "JEREZ SPORT BAR AND GRILL", 
    "POP_AT_RISK": 54617, 
    "ZIP": 60639, 
    "ADDRESS": "5726 W GRAND AVE", 
    "YEAR": 2010, 
    "LONGITUDE": -87.769375827, 
    "LATTITUDE": 41.919526594
  }, 
  {
    "BUSINESS_TYPE": "Late Hour", 
    "LEGAL_NAME": "THE NEW APARTMENT LOUNGE, INC.", 
    "STATE": "IL", 
    "DOING_BUSINESS_AS_NAME": "NEW APARTMENT LOUNGE, INC", 
    "POP_AT_RISK": 35299, 
    "ZIP": 60619, 
    "ADDRESS": "502-506 E 75TH ST 1ST", 
    "YEAR": 2010, 
    "LONGITUDE": -87.612534306, 
    "LATTITUDE": 41.758565117
  }, 
  {
    "BUSINESS_TYPE": "Late Hour", 
    "LEGAL_NAME": "GORDON LOUNGE, INC", 
    "STATE": "IL", 
    "DOING_BUSINESS_AS_NAME": "BREWBAKERS", 
    "POP_AT_RISK": 22491, 
    "ZIP": 60643, 
    "ADDRESS": "10350 S WESTERN AVE", 
    "YEAR": 2010, 
    "LONGITUDE": -87.681719587, 
    "LATTITUDE": 41.704868712
  }, 
  {
    "BUSINESS_TYPE": "Late Hour", 
    "LEGAL_NAME": "ROSE DEVEREAUX", 
    "STATE": "IL", 
    "DOING_BUSINESS_AS_NAME": "BRIANS LOUNGE", 
    "POP_AT_RISK": 56522, 
    "ZIP": 60623, 
    "ADDRESS": "3245 W 16TH ST 1ST", 
    "YEAR": 2010, 
    "LONGITUDE": -87.707190558, 
    "LATTITUDE": 41.858951711
  }, 
  {
    "BUSINESS_TYPE": "Late Hour", 
    "LEGAL_NAME": "D. T. D., INC.", 
    "STATE": "IL", 
    "DOING_BUSINESS_AS_NAME": "LASKO'S", 
    "POP_AT_RISK": 27547, 
    "ZIP": 60630, 
    "ADDRESS": "5525 N MILWAUKEE AVE", 
    "YEAR": 2010, 
    "LONGITUDE": -87.773620284, 
    "LATTITUDE": 41.982306615
  }, 
  {
    "BUSINESS_TYPE": "Late Hour", 
    "LEGAL_NAME": "7123 W. HIGGINS RD. CORP.", 
    "STATE": "IL", 
    "DOING_BUSINESS_AS_NAME": "TEASER'S PUB", 
    "POP_AT_RISK": 24680, 
    "ZIP": 60656, 
    "ADDRESS": "7123 W HIGGINS AVE 1ST", 
    "YEAR": 2010, 
    "LONGITUDE": -87.80571278, 
    "LATTITUDE": 41.980726198
  }, 
  {
    "BUSINESS_TYPE": "Late Hour", 
    "LEGAL_NAME": "EAST OF THE RYAN INC", 
    "STATE": "IL", 
    "DOING_BUSINESS_AS_NAME": "EAST OF THE RYAN,INC", 
    "POP_AT_RISK": 41847, 
    "ZIP": 60619, 
    "ADDRESS": "914 E 79TH ST 1ST", 
    "YEAR": 2010, 
    "LONGITUDE": -87.602112125, 
    "LATTITUDE": 41.751431303
  }, 
  {
    "BUSINESS_TYPE": "Late Hour", 
    "LEGAL_NAME": "RESTAURANTE ALANIS LTD.", 
    "STATE": "IL", 
    "DOING_BUSINESS_AS_NAME": "RESTAURANTE ALANIS LTD", 
    "POP_AT_RISK": 49064, 
    "ZIP": 60623, 
    "ADDRESS": "4153 W 26TH ST 1ST #", 
    "YEAR": 2010, 
    "LONGITUDE": -87.729074693, 
    "LATTITUDE": 41.84408107
  }, 
  {
    "BUSINESS_TYPE": "Late Hour", 
    "LEGAL_NAME": "LILLIAN PROCHASKA INC", 
    "STATE": "IL", 
    "DOING_BUSINESS_AS_NAME": "OAKWOOD '83", 
    "POP_AT_RISK": 71070, 
    "ZIP": 60613, 
    "ADDRESS": "1959 W MONTROSE AVE 1ST #", 
    "YEAR": 2010, 
    "LONGITUDE": -87.678305159, 
    "LATTITUDE": 41.961355321
  }, 
  {
    "BUSINESS_TYPE": "Late Hour", 
    "LEGAL_NAME": "KYMO INC", 
    "STATE": "IL", 
    "DOING_BUSINESS_AS_NAME": "ALIBIS", 
    "POP_AT_RISK": 72841, 
    "ZIP": 60645, 
    "ADDRESS": "6420 N WESTERN AVE", 
    "YEAR": 2010, 
    "LONGITUDE": -87.690051282, 
    "LATTITUDE": 41.998382026
  }, 
  {
    "BUSINESS_TYPE": "Late Hour", 
    "LEGAL_NAME": "FAUSTO ENTERPRISES INC.", 
    "STATE": "IL", 
    "DOING_BUSINESS_AS_NAME": "El Sinaloense", 
    "POP_AT_RISK": 49473, 
    "ZIP": 60623, 
    "ADDRESS": "2759 S PULASKI RD 1ST", 
    "YEAR": 2010, 
    "LONGITUDE": -87.724305978, 
    "LATTITUDE": 41.840660595
  }, 
  {
    "BUSINESS_TYPE": "Late Hour", 
    "LEGAL_NAME": "TASTE INC", 
    "STATE": "IL", 
    "DOING_BUSINESS_AS_NAME": "TASTE DISCO & STEAK HOUSE", 
    "POP_AT_RISK": 33360, 
    "ZIP": 60621, 
    "ADDRESS": "6331 S LOWE AVE", 
    "YEAR": 2010, 
    "LONGITUDE": -87.640694956, 
    "LATTITUDE": 41.778854177
  }, 
  {
    "BUSINESS_TYPE": "Late Hour", 
    "LEGAL_NAME": "GENE & SOPHIE'S LOUNGE, INC.", 
    "STATE": "IL", 
    "DOING_BUSINESS_AS_NAME": "BLUE SKY RESTAURANT", 
    "POP_AT_RISK": 31737, 
    "ZIP": 60632, 
    "ADDRESS": "4807-4809 S PULASKI RD 1ST", 
    "YEAR": 2010, 
    "LONGITUDE": -87.723374962, 
    "LATTITUDE": 41.805779774
  }, 
  {
    "BUSINESS_TYPE": "Late Hour", 
    "LEGAL_NAME": "GUISEPPE'S INC", 
    "STATE": "IL", 
    "DOING_BUSINESS_AS_NAME": "GUISEPPE'S INC", 
    "POP_AT_RISK": 32178, 
    "ZIP": 60634, 
    "ADDRESS": "7429 W ADDISON ST 1ST", 
    "YEAR": 2010, 
    "LONGITUDE": -87.813047181, 
    "LATTITUDE": 41.945036676
  }
]