[
{"STATE":"IL","ZIP":60623,"LATTITUDE":41.851543684489044,"ADDRESS":"4300 W CERMAK RD  ","YEAR":2015,"DOING_BUSINESS_AS_NAME":"PARADISE CLUB","POP_AT_RISK":899408,"BUSINESS_TYPE":"Not-For-Profit Club","LEGAL_NAME":"CLUB PARADISE","LONGITUDE":-87.7321998316158},
{"STATE":"IL","ZIP":60601,"LATTITUDE":41.88700442325107,"ADDRESS":"307 N MICHIGAN AVE  2400","YEAR":2015,"DOING_BUSINESS_AS_NAME":"THE SKY - LINE CLUB","POP_AT_RISK":73360,"BUSINESS_TYPE":"Not-For-Profit Club","LEGAL_NAME":"THE SKY-LINE CLUB","LONGITUDE":-87.62439465711454},
{"STATE":"IL","ZIP":60655,"LATTITUDE":41.69268209009699,"ADDRESS":"11023 S KEDZIE AVE 1ST ","YEAR":2015,"DOING_BUSINESS_AS_NAME":"49ER'S S.A.C.","POP_AT_RISK":64179,"BUSINESS_TYPE":"Not-For-Profit Club","LEGAL_NAME":"49ER'S S.A.C., INC.","LONGITUDE":-87.7007191247068},
{"STATE":"IL","ZIP":60638,"LATTITUDE":41.77724807588118,"ADDRESS":"5752 W 63RD PL  ","YEAR":2015,"DOING_BUSINESS_AS_NAME":"CLEARING MEN'S CLUB","POP_AT_RISK":56814,"BUSINESS_TYPE":"Not-For-Profit Club","LEGAL_NAME":"CLEARING MEN'S CLUB","LONGITUDE":-87.7662309969763},
{"STATE":"IL","ZIP":60638,"LATTITUDE":41.796040888991286,"ADDRESS":"5856 S ARCHER AVE 1ST ","YEAR":2015,"DOING_BUSINESS_AS_NAME":"MEMORIAL HALL CLUB","POP_AT_RISK":78196,"BUSINESS_TYPE":"Not-For-Profit Club","LEGAL_NAME":"RHINE POST #2729 V F W","LONGITUDE":-87.76097686915702},
{"STATE":"IL","ZIP":60605,"LATTITUDE":41.862306077461064,"ADDRESS":"1500 S LYNN WHITE DR 1ST ","YEAR":2015,"DOING_BUSINESS_AS_NAME":"BURNHAM PARK YACHT CLUB","POP_AT_RISK":20991,"BUSINESS_TYPE":"Not-For-Profit Club","LEGAL_NAME":"BURNHAM PARK YACHT CLUB","LONGITUDE":-87.60952224708733},
{"STATE":"IL","ZIP":60618,"LATTITUDE":41.961152630145925,"ADDRESS":"4355 N WESTERN AVE 1ST ","YEAR":2015,"DOING_BUSINESS_AS_NAME":"TATTLER POST #973 AMER. LEGION","POP_AT_RISK":1076868,"BUSINESS_TYPE":"Not-For-Profit Club","LEGAL_NAME":"TATTLER POST #973, INC.","LONGITUDE":-87.68853134020404},
{"STATE":"IL","ZIP":60622,"LATTITUDE":41.89591242187647,"ADDRESS":"2234 W CHICAGO AVE 1ST ","YEAR":2015,"DOING_BUSINESS_AS_NAME":"UKRAINIAN AMERICAN CLUB","POP_AT_RISK":286025,"BUSINESS_TYPE":"Not-For-Profit Club","LEGAL_NAME":"UKRAINIAN AMERICAN CLUB","LONGITUDE":-87.68336605865775},
{"STATE":"IL","ZIP":60617,"LATTITUDE":41.709478919734515,"ADDRESS":"4025 E 102ND ST 1ST ","YEAR":2015,"DOING_BUSINESS_AS_NAME":"CALUMET YACHT CLUB","POP_AT_RISK":16197,"BUSINESS_TYPE":"Not-For-Profit Club","LEGAL_NAME":"CALUMET YACHT CLUB, INC.","LONGITUDE":-87.52617357053239},
{"STATE":"IL","ZIP":60609,"LATTITUDE":41.815055029878444,"ADDRESS":"4325 S HONORE ST 1ST ","YEAR":2015,"DOING_BUSINESS_AS_NAME":"TOWN OF LAKE POST NO.5216","POP_AT_RISK":124137,"BUSINESS_TYPE":"Not-For-Profit Club","LEGAL_NAME":"TOWN OF LAKE POST #.5216","LONGITUDE":-87.6710668620222},
{"STATE":"IL","ZIP":60617,"LATTITUDE":41.720056611772875,"ADDRESS":"9629 S COMMERCIAL AVE 1ST ","YEAR":2015,"DOING_BUSINESS_AS_NAME":"THE CROATIAN CLUB","POP_AT_RISK":70996,"BUSINESS_TYPE":"Not-For-Profit Club","LEGAL_NAME":"BRANCH VITEZ RAFAEL BOBAN","LONGITUDE":-87.5508945422397},
{"STATE":"IL","ZIP":60618,"LATTITUDE":41.93596059560815,"ADDRESS":"3007 N KEDZIE AVE 1ST ","YEAR":2015,"DOING_BUSINESS_AS_NAME":"LOGAN-AVONDALE VFW #2978","POP_AT_RISK":866655,"BUSINESS_TYPE":"Not-For-Profit Club","LEGAL_NAME":"LOGAN-AVONDALE VFW # 2978","LONGITUDE":-87.70738908487385},
{"STATE":"IL","ZIP":60609,"LATTITUDE":41.8005474438464,"ADDRESS":"5118 S WESTERN AVE 1ST ","YEAR":2015,"DOING_BUSINESS_AS_NAME":"BLUE CONDORS PLEASURE CLUB","POP_AT_RISK":503840,"BUSINESS_TYPE":"Not-For-Profit Club","LEGAL_NAME":"BLUE CONDORS PLEASURE CLUB","LONGITUDE":-87.68435497673944},
{"STATE":"IL","ZIP":60707,"LATTITUDE":41.930943088114155,"ADDRESS":"6940 W DIVERSEY AVE POST #","YEAR":2015,"DOING_BUSINESS_AS_NAME":"MONT CLARE LEYDEN VETERANS","POP_AT_RISK":303219,"BUSINESS_TYPE":"Not-For-Profit Club","LEGAL_NAME":"MONT CLARE LETDEN VETERANS","LONGITUDE":-87.79959597372361},
{"STATE":"IL","ZIP":60610,"LATTITUDE":41.907636294514994,"ADDRESS":"1365 N DEARBORN ST  ","YEAR":2015,"DOING_BUSINESS_AS_NAME":"THE RACQUET CLUB OF CHICAGO","POP_AT_RISK":709044,"BUSINESS_TYPE":"Not-For-Profit Club","LEGAL_NAME":"THE RACQUET CLUB OF CHICAGO","LONGITUDE":-87.62995230434338},
{"STATE":"IL","ZIP":60638,"LATTITUDE":41.79212942932081,"ADDRESS":"7036 W ARCHER AVE  1","YEAR":2015,"DOING_BUSINESS_AS_NAME":"CROATION AMERICAN RADIO CLUB","POP_AT_RISK":75188,"BUSINESS_TYPE":"Not-For-Profit Club","LEGAL_NAME":"CROATION AMERICAN RADIO CLUB","LONGITUDE":-87.79797099475219},
{"STATE":"IL","ZIP":60613,"LATTITUDE":41.96192072373917,"ADDRESS":"601 W MONTROSE DR 1 ","YEAR":2015,"DOING_BUSINESS_AS_NAME":"CORINTHIAN YACHT CLUB","POP_AT_RISK":807781,"BUSINESS_TYPE":"Not-For-Profit Club","LEGAL_NAME":"CHICAGO CORINTHIAN YACHT CLUB","LONGITUDE":-87.6459095290921},
{"STATE":"IL","ZIP":60618,"LATTITUDE":41.958649120186195,"ADDRESS":"4265 N ELSTON AVE  ","YEAR":2015,"DOING_BUSINESS_AS_NAME":"RHEINISCHER VEREIN, INC.","POP_AT_RISK":123116,"BUSINESS_TYPE":"Not-For-Profit Club","LEGAL_NAME":"RHEINISCHER VEREIN 1890, INC.","LONGITUDE":-87.72616954836586},
{"STATE":"IL","ZIP":60609,"LATTITUDE":41.80906805837132,"ADDRESS":"552 W 47TH ST 1ST ","YEAR":2015,"DOING_BUSINESS_AS_NAME":"FLAGS SOCIAL & ATHLETIC CLUB","POP_AT_RISK":42782,"BUSINESS_TYPE":"Not-For-Profit Club","LEGAL_NAME":"'FLAGS' SOCIAL & ATHLETIC CLUB","LONGITUDE":-87.64033287979429},
{"STATE":"IL","ZIP":60655,"LATTITUDE":41.69158385086208,"ADDRESS":"3422 W 111TH ST 1ST ","YEAR":2015,"DOING_BUSINESS_AS_NAME":"FATHER PEREZ K OF C CLUB HOUSE","POP_AT_RISK":50040,"BUSINESS_TYPE":"Not-For-Profit Club","LEGAL_NAME":"FATHER PEREZ K OF C CLUB HOUSE","LONGITUDE":-87.70671869760828},
{"STATE":"IL","ZIP":60621,"LATTITUDE":41.766803676079526,"ADDRESS":"7011-7019 S VINCENNES AVE 1 ","YEAR":2015,"DOING_BUSINESS_AS_NAME":"MONTFORD POINT MARINE ASSOCIATION","POP_AT_RISK":249249,"BUSINESS_TYPE":"Not-For-Profit Club","LEGAL_NAME":"MONTFORD POINT MARINE ASSOCIATION","LONGITUDE":-87.62713084194895},
{"STATE":"IL","ZIP":60622,"LATTITUDE":41.89560945124529,"ADDRESS":"2455 W CHICAGO AVE  1ST","YEAR":2015,"DOING_BUSINESS_AS_NAME":"AMERICAN UKRAINIAN YOUTH ASSOCIATION","POP_AT_RISK":183680,"BUSINESS_TYPE":"Not-For-Profit Club","LEGAL_NAME":"AMERICAN UKRAINIAN YOUTH ASSOCIATION","LONGITUDE":-87.68902909242446},
{"STATE":"IL","ZIP":60608,"LATTITUDE":41.852009133719456,"ADDRESS":"2129 W CERMAK RD  2","YEAR":2015,"DOING_BUSINESS_AS_NAME":"DORMAN-DUNN POST #547 AMERICAN LEGION","POP_AT_RISK":354930,"BUSINESS_TYPE":"Not-For-Profit Club","LEGAL_NAME":"DORMAN-DUNN POST #547 AMERICAN LEGION","LONGITUDE":-87.67947655907231},
{"STATE":"IL","ZIP":60619,"LATTITUDE":41.75916817600598,"ADDRESS":"7443 S INGLESIDE AVE  BANQU","YEAR":2015,"DOING_BUSINESS_AS_NAME":"MOST WORSHIPFUL ST. JOHN'S  GRAND LODGE","POP_AT_RISK":77482,"BUSINESS_TYPE":"Not-For-Profit Club","LEGAL_NAME":"MOST WORSHIPFUL ST. JOHN'S GRAND LODGE","LONGITUDE":-87.60159143984758},
{"STATE":"IL","ZIP":60616,"LATTITUDE":41.83654376132184,"ADDRESS":"3152 S WALLACE ST 1ST ","YEAR":2015,"DOING_BUSINESS_AS_NAME":"MARK WHITE SQUARE POST 6870","POP_AT_RISK":623312,"BUSINESS_TYPE":"Not-For-Profit Club","LEGAL_NAME":"MARK WHITE SQUARE POST #6870 V.F.W. INC.","LONGITUDE":-87.64152154553862},
{"STATE":"IL","ZIP":60631,"LATTITUDE":42.00036552780774,"ADDRESS":"6540 N MILWAUKEE AVE  ","YEAR":2015,"DOING_BUSINESS_AS_NAME":"AMERICAN AID SOCIETY","POP_AT_RISK":80764,"BUSINESS_TYPE":"Not-For-Profit Club","LEGAL_NAME":"AMERICAN AID SOCIETY OF GERMAN DESCENDANTS","LONGITUDE":-87.79079496182301},
{"STATE":"IL","ZIP":60609,"LATTITUDE":41.830502048736825,"ADDRESS":"1954-1956 W 35TH ST 1ST ","YEAR":2015,"DOING_BUSINESS_AS_NAME":"The American Legion William McKinley Post No. 231","POP_AT_RISK":72777,"BUSINESS_TYPE":"Not-For-Profit Club","LEGAL_NAME":"The American Legion William McKinley Post No. 231","LONGITUDE":-87.67505256395896},
{"STATE":"IL","ZIP":60617,"LATTITUDE":41.70430239111159,"ADDRESS":"10506 S EWING AVE 1ST ","YEAR":2015,"DOING_BUSINESS_AS_NAME":"ILLIANA POST#220 AMERICA LEGN","POP_AT_RISK":21953,"BUSINESS_TYPE":"Not-For-Profit Club","LEGAL_NAME":"ILLIANA POST#220 AMERICAN LEGION OF ILLINOIS, INC.","LONGITUDE":-87.53543089409116},
{"STATE":"IL","ZIP":60639,"LATTITUDE":41.93107933281035,"ADDRESS":"5835 W DIVERSEY AVE 1ST ","YEAR":2015,"DOING_BUSINESS_AS_NAME":"ALLIANCE OF POLISH CLUBS IN THE UNITED STATES OFAMERICA","POP_AT_RISK":782508,"BUSINESS_TYPE":"Not-For-Profit Club","LEGAL_NAME":"ALLIANCE OF POLISH CLUBS IN THE UNITED STATES OF AMERICA","LONGITUDE":-87.7725354748207},
{"STATE":"IL","ZIP":60622,"LATTITUDE":41.91611821313358,"ADDRESS":"1824 W CORTLAND ST BASEM ","YEAR":2015,"DOING_BUSINESS_AS_NAME":"FRANKLIN D ROOSEVELT POST 923","POP_AT_RISK":1018206,"BUSINESS_TYPE":"Not-For-Profit Club","LEGAL_NAME":"FRANKLIN DELANO ROOSEVELT POST, INC.,NO. 923, AMERICAN LEGION","LONGITUDE":-87.6737900661716},
{"STATE":"IL","ZIP":60621,"LATTITUDE":41.78965273234417,"ADDRESS":"5745 S STATE ST 1ST ","YEAR":2015,"DOING_BUSINESS_AS_NAME":"GEORGE L GILES POST #87","POP_AT_RISK":119940,"BUSINESS_TYPE":"Not-For-Profit Club","LEGAL_NAME":"GEORGE L. GILES POST NO. 87 THE AMERICAN LEGION, DEPARTMENT OF ILLINOIS","LONGITUDE":-87.62542654330346},
{"STATE":"IL","ZIP":60615,"LATTITUDE":41.80173412227812,"ADDRESS":"5108 S PRAIRIE AVE 2ND ","YEAR":2015,"DOING_BUSINESS_AS_NAME":"GREAT LAKES LDG #43","POP_AT_RISK":268389,"BUSINESS_TYPE":"Not-For-Profit Club","LEGAL_NAME":"GREAT LAKES LODGE NUMBER 43, IMPROVED BENEVOLENT AND PROTECTIVEORDER OF ELKS OF THE WORLD","LONGITUDE":-87.61954398138839},
{}]