[
  {
    "BUSINESS_TYPE": "Package Goods", 
    "LEGAL_NAME": "PM WINE & SPIRITS, INC.", 
    "STATE": "IL", 
    "DOING_BUSINESS_AS_NAME": "PM WINE & SPIRITS, INC.", 
    "POP_AT_RISK": 17943, 
    "ZIP": 60617, 
    "ADDRESS": "1922-1924 E 95TH ST 1ST", 
    "YEAR": 2019, 
    "LONGITUDE": -87.576926451, 
    "LATTITUDE": 41.722559197
  }, 
  {
    "BUSINESS_TYPE": "Package Goods", 
    "LEGAL_NAME": "JASSI K S INC.", 
    "STATE": "IL", 
    "DOING_BUSINESS_AS_NAME": "7-ELEVEN", 
    "POP_AT_RISK": 18938, 
    "ZIP": 60638, 
    "ADDRESS": "5953 W 63RD ST 1", 
    "YEAR": 2019, 
    "LONGITUDE": -87.771193968, 
    "LATTITUDE": 41.777757539
  }, 
  {
    "BUSINESS_TYPE": "Package Goods", 
    "LEGAL_NAME": "J & B LIQUORS INC", 
    "STATE": "IL", 
    "DOING_BUSINESS_AS_NAME": "J & B LIQUORS INC", 
    "POP_AT_RISK": 26253, 
    "ZIP": 60628, 
    "ADDRESS": "12258 S MICHIGAN AVE 1ST #", 
    "YEAR": 2019, 
    "LONGITUDE": -87.620438255, 
    "LATTITUDE": 41.670806414
  }, 
  {
    "BUSINESS_TYPE": "Package Goods", 
    "LEGAL_NAME": "ADAM'S FOOD / LIQUOR INC.", 
    "STATE": "IL", 
    "DOING_BUSINESS_AS_NAME": "ADAM'S FOOD & LIQUOR", 
    "POP_AT_RISK": 25744, 
    "ZIP": 60612, 
    "ADDRESS": "215-219 S WESTERN AVE 1", 
    "YEAR": 2019, 
    "LONGITUDE": -87.686205767, 
    "LATTITUDE": 41.878102806
  }, 
  {
    "BUSINESS_TYPE": "Package Goods", 
    "LEGAL_NAME": "JAMES E HARRINGTON", 
    "STATE": "IL", 
    "DOING_BUSINESS_AS_NAME": "EDDIE'S FOOD & LIQUOR", 
    "POP_AT_RISK": 18511, 
    "ZIP": 60628, 
    "ADDRESS": "9807 S COTTAGE GROVE AVE", 
    "YEAR": 2019, 
    "LONGITUDE": -87.604350268, 
    "LATTITUDE": 41.716330447
  }, 
  {
    "BUSINESS_TYPE": "Package Goods", 
    "LEGAL_NAME": "8900 LIQUORS, INC.", 
    "STATE": "IL", 
    "DOING_BUSINESS_AS_NAME": "COMMERCIAL FOOD & LIQUOR MARKET", 
    "POP_AT_RISK": 25210, 
    "ZIP": 60617, 
    "ADDRESS": "8900 S COMMERCIAL AVE 1", 
    "YEAR": 2019, 
    "LONGITUDE": -87.551490296, 
    "LATTITUDE": 41.733636989
  }, 
  {
    "BUSINESS_TYPE": "Package Goods", 
    "LEGAL_NAME": "WAL-MART STORES, INC.", 
    "STATE": "IL", 
    "DOING_BUSINESS_AS_NAME": "WALMART #5781", 
    "POP_AT_RISK": 27483, 
    "ZIP": 60620, 
    "ADDRESS": "8331 S STEWART AVE", 
    "YEAR": 2019, 
    "LONGITUDE": -87.633936931, 
    "LATTITUDE": 41.742577617
  }, 
  {
    "BUSINESS_TYPE": "Package Goods", 
    "LEGAL_NAME": "87 SOUTH ROTHSCHILD LIQUORS, INC.", 
    "STATE": "IL", 
    "DOING_BUSINESS_AS_NAME": "ROTHSCHILD LIQUORS", 
    "POP_AT_RISK": 39498, 
    "ZIP": 60619, 
    "ADDRESS": "717 E 87TH ST  1ST", 
    "YEAR": 2019, 
    "LONGITUDE": -87.606561685, 
    "LATTITUDE": 41.736514154
  }, 
  {
    "BUSINESS_TYPE": "Package Goods", 
    "LEGAL_NAME": "ALDI INC.", 
    "STATE": "IL", 
    "DOING_BUSINESS_AS_NAME": "ALDI #30", 
    "POP_AT_RISK": 57462, 
    "ZIP": 60623, 
    "ADDRESS": "3030 S KEDZIE AVE", 
    "YEAR": 2019, 
    "LONGITUDE": -87.704994465, 
    "LATTITUDE": 41.838114152
  }, 
  {
    "BUSINESS_TYPE": "Package Goods", 
    "LEGAL_NAME": "DIA FOOD & LIQUOR, INC.", 
    "STATE": "IL", 
    "DOING_BUSINESS_AS_NAME": "DIA FOOD & LIQUOR", 
    "POP_AT_RISK": 23487, 
    "ZIP": 60643, 
    "ADDRESS": "1478 W 115TH ST 1ST", 
    "YEAR": 2019, 
    "LONGITUDE": -87.659725829, 
    "LATTITUDE": 41.684955798
  }, 
  {
    "BUSINESS_TYPE": "Package Goods", 
    "LEGAL_NAME": "ONE STOP FOOD & LIQUOR STORE, INC.", 
    "STATE": "IL", 
    "DOING_BUSINESS_AS_NAME": "ONE STOP FOOD & LIQUOR STORE", 
    "POP_AT_RISK": 28922, 
    "ZIP": 60653, 
    "ADDRESS": "4301-4323 S LAKE PARK AVE", 
    "YEAR": 2019, 
    "LONGITUDE": -87.598688844, 
    "LATTITUDE": 41.816865148
  }, 
  {
    "BUSINESS_TYPE": "Package Goods", 
    "LEGAL_NAME": "LIQUOR DEPOT, INC.", 
    "STATE": "IL", 
    "DOING_BUSINESS_AS_NAME": "LIQUOR DEPOT", 
    "POP_AT_RISK": 29168, 
    "ZIP": 60632, 
    "ADDRESS": "5114 S KNOX AVE", 
    "YEAR": 2019, 
    "LONGITUDE": -87.739421463, 
    "LATTITUDE": 41.799877879
  }, 
  {
    "BUSINESS_TYPE": "Package Goods", 
    "LEGAL_NAME": "QVAC, Inc.", 
    "STATE": "IL", 
    "DOING_BUSINESS_AS_NAME": "Baltimore Food & Liquor", 
    "POP_AT_RISK": 9426, 
    "ZIP": 60633, 
    "ADDRESS": "13322-13324 S BALTIMORE AVE", 
    "YEAR": 2019, 
    "LONGITUDE": -87.547298653, 
    "LATTITUDE": 41.652964612
  }, 
  {
    "BUSINESS_TYPE": "Package Goods", 
    "LEGAL_NAME": "J7 CORPORATION", 
    "STATE": "IL", 
    "DOING_BUSINESS_AS_NAME": "7-ELEVEN #33920A", 
    "POP_AT_RISK": 21393, 
    "ZIP": 60655, 
    "ADDRESS": "3152 W 111TH ST", 
    "YEAR": 2019, 
    "LONGITUDE": -87.700516175, 
    "LATTITUDE": 41.691680749
  }, 
  {
    "BUSINESS_TYPE": "Package Goods", 
    "LEGAL_NAME": "DANA LIQUORS, INC.", 
    "STATE": "IL", 
    "DOING_BUSINESS_AS_NAME": "ROTHSCHILD LIQUORS", 
    "POP_AT_RISK": 32890, 
    "ZIP": 60653, 
    "ADDRESS": "124 E PERSHING RD 1ST", 
    "YEAR": 2019, 
    "LONGITUDE": -87.622029246, 
    "LATTITUDE": 41.823879687
  }, 
  {
    "BUSINESS_TYPE": "Package Goods", 
    "LEGAL_NAME": "ALDI INC.", 
    "STATE": "IL", 
    "DOING_BUSINESS_AS_NAME": "ALDI #79", 
    "POP_AT_RISK": 37982, 
    "ZIP": 60619, 
    "ADDRESS": "7800 S SOUTH CHICAGO AVE", 
    "YEAR": 2019, 
    "LONGITUDE": -87.587523485, 
    "LATTITUDE": 41.75274564
  }, 
  {
    "BUSINESS_TYPE": "Package Goods", 
    "LEGAL_NAME": "11112 SOUTH HALSTED STREET CORPORATION", 
    "STATE": "IL", 
    "DOING_BUSINESS_AS_NAME": "SHELDON LIQUORS", 
    "POP_AT_RISK": 34675, 
    "ZIP": 60628, 
    "ADDRESS": "11112 S HALSTED ST 1ST", 
    "YEAR": 2019, 
    "LONGITUDE": -87.642514376, 
    "LATTITUDE": 41.691924093
  }, 
  {
    "BUSINESS_TYPE": "Package Goods", 
    "LEGAL_NAME": "FAMILY PANTRY INC", 
    "STATE": "IL", 
    "DOING_BUSINESS_AS_NAME": "OPEN PANTRY", 
    "POP_AT_RISK": 16045, 
    "ZIP": 60655, 
    "ADDRESS": "10657 S PULASKI RD 1ST", 
    "YEAR": 2019, 
    "LONGITUDE": -87.720494855, 
    "LATTITUDE": 41.698675241
  }, 
  {
    "BUSINESS_TYPE": "Package Goods", 
    "LEGAL_NAME": "PRO PIONEER, CORP.", 
    "STATE": "IL", 
    "DOING_BUSINESS_AS_NAME": "ADA'S MARKET & DELI", 
    "POP_AT_RISK": 22677, 
    "ZIP": 60631, 
    "ADDRESS": "6163-6165 N NORTHWEST HWY", 
    "YEAR": 2019, 
    "LONGITUDE": -87.801192606, 
    "LATTITUDE": 41.993773581
  }, 
  {
    "BUSINESS_TYPE": "Package Goods", 
    "LEGAL_NAME": "ALDI INC.", 
    "STATE": "IL", 
    "DOING_BUSINESS_AS_NAME": "ALDI'S # 26", 
    "POP_AT_RISK": 18423, 
    "ZIP": 60617, 
    "ADDRESS": "10532 S INDIANAPOLIS AVE 1ST FLOOR 1ST", 
    "YEAR": 2019, 
    "LONGITUDE": -87.525712427, 
    "LATTITUDE": 41.703662361
  }, 
  {
    "BUSINESS_TYPE": "Package Goods", 
    "LEGAL_NAME": "ALDI INC.", 
    "STATE": "IL", 
    "DOING_BUSINESS_AS_NAME": "ALDI INC STORE #95", 
    "POP_AT_RISK": 20644, 
    "ZIP": 60617, 
    "ADDRESS": "2333 E 95TH ST", 
    "YEAR": 2019, 
    "LONGITUDE": -87.566673052, 
    "LATTITUDE": 41.722466242
  }, 
  {
    "BUSINESS_TYPE": "Package Goods", 
    "LEGAL_NAME": "ISLS INC.", 
    "STATE": "IL", 
    "DOING_BUSINESS_AS_NAME": "MISKA LIQUORS", 
    "POP_AT_RISK": 12734, 
    "ZIP": 60634, 
    "ADDRESS": "8227 W IRVING PARK RD", 
    "YEAR": 2019, 
    "LONGITUDE": -87.832959048, 
    "LATTITUDE": 41.952023715
  }, 
  {
    "BUSINESS_TYPE": "Package Goods", 
    "LEGAL_NAME": "KANOUD, INC.", 
    "STATE": "IL", 
    "DOING_BUSINESS_AS_NAME": "SOUTH LOOP MARKET", 
    "POP_AT_RISK": 35264, 
    "ZIP": 60616, 
    "ADDRESS": "2135 S MICHIGAN AVE 1", 
    "YEAR": 2019, 
    "LONGITUDE": -87.62367887, 
    "LATTITUDE": 41.853181606
  }, 
  {
    "BUSINESS_TYPE": "Package Goods", 
    "LEGAL_NAME": "ROGERS PARK PROVISIONS, LLC", 
    "STATE": "IL", 
    "DOING_BUSINESS_AS_NAME": "ROGERS PARK PROVISIONS", 
    "POP_AT_RISK": 57027, 
    "ZIP": 60626, 
    "ADDRESS": "6928 N GLENWOOD AVE", 
    "YEAR": 2019, 
    "LONGITUDE": -87.66631486, 
    "LATTITUDE": 42.007597671
  }, 
  {
    "BUSINESS_TYPE": "Package Goods", 
    "LEGAL_NAME": "FAIRPLAY, INC.", 
    "STATE": "IL", 
    "DOING_BUSINESS_AS_NAME": "FAIRPLAY FOODS", 
    "POP_AT_RISK": 21745, 
    "ZIP": 60609, 
    "ADDRESS": "4640 S HALSTED ST 1", 
    "YEAR": 2019, 
    "LONGITUDE": -87.645707565, 
    "LATTITUDE": 41.809629768
  }, 
  {
    "BUSINESS_TYPE": "Package Goods", 
    "LEGAL_NAME": "Kwik Mart 5500 W. Montrose, Inc.", 
    "STATE": "IL", 
    "DOING_BUSINESS_AS_NAME": "KWIK MART INC", 
    "POP_AT_RISK": 31914, 
    "ZIP": 60652, 
    "ADDRESS": "4047 W 79TH ST", 
    "YEAR": 2019, 
    "LONGITUDE": -87.72385229, 
    "LATTITUDE": 41.749294013
  }, 
  {
    "BUSINESS_TYPE": "Package Goods", 
    "LEGAL_NAME": "RALPHS GROCERY COMPANY", 
    "STATE": "IL", 
    "DOING_BUSINESS_AS_NAME": "Food 4 Less Midwest #570", 
    "POP_AT_RISK": 29261, 
    "ZIP": 60620, 
    "ADDRESS": "112 W 87TH ST 1ST", 
    "YEAR": 2019, 
    "LONGITUDE": -87.627509219, 
    "LATTITUDE": 41.736380046
  }, 
  {
    "BUSINESS_TYPE": "Package Goods", 
    "LEGAL_NAME": "CHALLENGE DISCOUNT, INC.", 
    "STATE": "IL", 
    "DOING_BUSINESS_AS_NAME": "PLATINUM STAR", 
    "POP_AT_RISK": 47256, 
    "ZIP": 60624, 
    "ADDRESS": "3821-3823 W ROOSEVELT RD 1", 
    "YEAR": 2019, 
    "LONGITUDE": -87.720927574, 
    "LATTITUDE": 41.866119494
  }, 
  {
    "BUSINESS_TYPE": "Package Goods", 
    "LEGAL_NAME": "FIRYAL RAHO CORPORATION", 
    "STATE": "IL", 
    "DOING_BUSINESS_AS_NAME": "7-ELEVEN", 
    "POP_AT_RISK": 11842, 
    "ZIP": 60638, 
    "ADDRESS": "6754 W 63RD ST", 
    "YEAR": 2019, 
    "LONGITUDE": -87.790794192, 
    "LATTITUDE": 41.777644994
  }, 
  {
    "BUSINESS_TYPE": "Package Goods", 
    "LEGAL_NAME": "A & G LIQUORS, INC.", 
    "STATE": "IL", 
    "DOING_BUSINESS_AS_NAME": "A & G LIQUORS", 
    "POP_AT_RISK": 36651, 
    "ZIP": 60637, 
    "ADDRESS": "6945 S STATE ST 1ST", 
    "YEAR": 2019, 
    "LONGITUDE": -87.62476594, 
    "LATTITUDE": 41.767831279
  }, 
  {
    "BUSINESS_TYPE": "Package Goods", 
    "LEGAL_NAME": "ALDI INC.", 
    "STATE": "IL", 
    "DOING_BUSINESS_AS_NAME": "ALDI'S", 
    "POP_AT_RISK": 49792, 
    "ZIP": 60707, 
    "ADDRESS": "6520 W FULLERTON AVE 1ST FLOOR 1", 
    "YEAR": 2019, 
    "LONGITUDE": -87.788747763, 
    "LATTITUDE": 41.923760402
  }, 
  {
    "BUSINESS_TYPE": "Package Goods", 
    "LEGAL_NAME": "1344 EAST 67TH STREET CORP.", 
    "STATE": "IL", 
    "DOING_BUSINESS_AS_NAME": "MIDWAY FOOD & LIQUORS NO. 2", 
    "POP_AT_RISK": 41418, 
    "ZIP": 60637, 
    "ADDRESS": "1344 E 67TH ST 1", 
    "YEAR": 2019, 
    "LONGITUDE": -87.592561207, 
    "LATTITUDE": 41.773380691
  }
]