[
  {
    "BUSINESS_TYPE": "Tobacco", 
    "LEGAL_NAME": "CALDWELL FOOD & LIQUOR INC.,", 
    "STATE": "IL", 
    "DOING_BUSINESS_AS_NAME": "CALDWELL LIQUOR", 
    "POP_AT_RISK": 12910, 
    "ZIP": 60646, 
    "ADDRESS": "4132-4138 W PETERSON AVE 1ST", 
    "YEAR": 2019, 
    "LONGITUDE": -87.73257419, 
    "LATTITUDE": 41.990194593
  }, 
  {
    "BUSINESS_TYPE": "Tobacco", 
    "LEGAL_NAME": "FAMILY PANTRY INC", 
    "STATE": "IL", 
    "DOING_BUSINESS_AS_NAME": "OPEN PANTRY", 
    "POP_AT_RISK": 16045, 
    "ZIP": 60655, 
    "ADDRESS": "10657 S PULASKI RD 1ST", 
    "YEAR": 2019, 
    "LONGITUDE": -87.720494855, 
    "LATTITUDE": 41.698675241
  }, 
  {
    "BUSINESS_TYPE": "Tobacco", 
    "LEGAL_NAME": "95TH ST FUEL MART INC.", 
    "STATE": "IL", 
    "DOING_BUSINESS_AS_NAME": "MARATHON", 
    "POP_AT_RISK": 21297, 
    "ZIP": 60617, 
    "ADDRESS": "1835-53 E 95TH ST 1ST", 
    "YEAR": 2019, 
    "LONGITUDE": -87.578854323, 
    "LATTITUDE": 41.722315219
  }, 
  {
    "BUSINESS_TYPE": "Tobacco", 
    "LEGAL_NAME": "79TH FRESH FOOD & MEAT MARKET INC.", 
    "STATE": "IL", 
    "DOING_BUSINESS_AS_NAME": "79TH FRESH FOOD & MEAT MARKET", 
    "POP_AT_RISK": 36119, 
    "ZIP": 60649, 
    "ADDRESS": "2900 E 79TH ST 1ST", 
    "YEAR": 2019, 
    "LONGITUDE": -87.554015417, 
    "LATTITUDE": 41.752005392
  }, 
  {
    "BUSINESS_TYPE": "Tobacco", 
    "LEGAL_NAME": "CYTO TWO, INC.", 
    "STATE": "IL", 
    "DOING_BUSINESS_AS_NAME": "GRAND BP", 
    "POP_AT_RISK": 49523, 
    "ZIP": 60639, 
    "ADDRESS": "6359 W GRAND AVE", 
    "YEAR": 2019, 
    "LONGITUDE": -87.785169755, 
    "LATTITUDE": 41.922436537
  }, 
  {
    "BUSINESS_TYPE": "Tobacco", 
    "LEGAL_NAME": "QVAC, Inc.", 
    "STATE": "IL", 
    "DOING_BUSINESS_AS_NAME": "Baltimore Food & Liquor", 
    "POP_AT_RISK": 9426, 
    "ZIP": 60633, 
    "ADDRESS": "13322-13324 S BALTIMORE AVE", 
    "YEAR": 2019, 
    "LONGITUDE": -87.547298653, 
    "LATTITUDE": 41.652964612
  }, 
  {
    "BUSINESS_TYPE": "Tobacco", 
    "LEGAL_NAME": "AMERICAN AVENUE, INC.", 
    "STATE": "IL", 
    "DOING_BUSINESS_AS_NAME": "7-ELEVEN #33768B", 
    "POP_AT_RISK": 23928, 
    "ZIP": 60631, 
    "ADDRESS": "6200 N SAYRE AVE", 
    "YEAR": 2019, 
    "LONGITUDE": -87.802394436, 
    "LATTITUDE": 41.994396395
  }, 
  {
    "BUSINESS_TYPE": "Tobacco", 
    "LEGAL_NAME": "ST. ANTONY OIL INC.", 
    "STATE": "IL", 
    "DOING_BUSINESS_AS_NAME": "BP GAS", 
    "POP_AT_RISK": 17956, 
    "ZIP": 60646, 
    "ADDRESS": "6308 N CENTRAL AVE", 
    "YEAR": 2019, 
    "LONGITUDE": -87.764277038, 
    "LATTITUDE": 41.996371597
  }, 
  {
    "BUSINESS_TYPE": "Tobacco", 
    "LEGAL_NAME": "J7 CORPORATION", 
    "STATE": "IL", 
    "DOING_BUSINESS_AS_NAME": "7-ELEVEN #33920A", 
    "POP_AT_RISK": 21393, 
    "ZIP": 60655, 
    "ADDRESS": "3152 W 111TH ST", 
    "YEAR": 2019, 
    "LONGITUDE": -87.700516175, 
    "LATTITUDE": 41.691680749
  }, 
  {
    "BUSINESS_TYPE": "Tobacco", 
    "LEGAL_NAME": "KANOUD, INC.", 
    "STATE": "IL", 
    "DOING_BUSINESS_AS_NAME": "SOUTH LOOP MARKET", 
    "POP_AT_RISK": 35264, 
    "ZIP": 60616, 
    "ADDRESS": "2135 S MICHIGAN AVE 1", 
    "YEAR": 2019, 
    "LONGITUDE": -87.62367887, 
    "LATTITUDE": 41.853181606
  }, 
  {
    "BUSINESS_TYPE": "Tobacco", 
    "LEGAL_NAME": "TM FOOD MART, INC.", 
    "STATE": "IL", 
    "DOING_BUSINESS_AS_NAME": "JIMMYS FOOD & DELI", 
    "POP_AT_RISK": 36225, 
    "ZIP": 60616, 
    "ADDRESS": "232-234 E 35TH ST 1ST", 
    "YEAR": 2019, 
    "LONGITUDE": -87.620490941, 
    "LATTITUDE": 41.831180698
  }
]