[
  {
    "BUSINESS_TYPE": "Broker", 
    "LEGAL_NAME": "ROBERT TRUSZ", 
    "STATE": "IL", 
    "DOING_BUSINESS_AS_NAME": "TRUSZ TRAVEL", 
    "POP_AT_RISK": 12734, 
    "ZIP": 60634, 
    "ADDRESS": "3559 N CUMBERLAND AVE", 
    "YEAR": 2004, 
    "LONGITUDE": -87.836277096, 
    "LATTITUDE": 41.944560152
  }, 
  {
    "BUSINESS_TYPE": "Broker", 
    "LEGAL_NAME": "COOP'S ENTERPRISES INC", 
    "STATE": "IL", 
    "DOING_BUSINESS_AS_NAME": "COOP'S RECORDS", 
    "POP_AT_RISK": 37860, 
    "ZIP": 60653, 
    "ADDRESS": "1350 E 47TH ST 1ST", 
    "YEAR": 2004, 
    "LONGITUDE": -87.593091074, 
    "LATTITUDE": 41.809792041
  }, 
  {
    "BUSINESS_TYPE": "Broker", 
    "LEGAL_NAME": "TRI-TAYLOR TRAVEL INC.", 
    "STATE": "IL", 
    "DOING_BUSINESS_AS_NAME": "TRI-TAYLOR TRAVEL INC", 
    "POP_AT_RISK": 32054, 
    "ZIP": 60612, 
    "ADDRESS": "2234 W TAYLOR ST", 
    "YEAR": 2004, 
    "LONGITUDE": -87.682581808, 
    "LATTITUDE": 41.869137506
  }, 
  {
    "BUSINESS_TYPE": "Broker", 
    "LEGAL_NAME": "SANDRA WILLIAMS FOSTER", 
    "STATE": "IL", 
    "DOING_BUSINESS_AS_NAME": "ALFA I TRAVEL AGENCY", 
    "POP_AT_RISK": 32033, 
    "ZIP": 60619, 
    "ADDRESS": "604 E 75TH ST", 
    "YEAR": 2004, 
    "LONGITUDE": -87.610030956, 
    "LATTITUDE": 41.758598682
  }, 
  {
    "BUSINESS_TYPE": "Broker", 
    "LEGAL_NAME": "ADVANCE BANK", 
    "STATE": "IL", 
    "DOING_BUSINESS_AS_NAME": "SOUTH CHGO SAVINGS BANK CORP", 
    "POP_AT_RISK": 18303, 
    "ZIP": 60617, 
    "ADDRESS": "9244 S SOUTH CHICAGO AVE", 
    "YEAR": 2004, 
    "LONGITUDE": -87.552141378, 
    "LATTITUDE": 41.727276368
  }, 
  {
    "BUSINESS_TYPE": "Broker", 
    "LEGAL_NAME": "AEREA TRAVELS INC", 
    "STATE": "IL", 
    "DOING_BUSINESS_AS_NAME": "AEREA TRAVELS", 
    "POP_AT_RISK": 17702, 
    "ZIP": 60617, 
    "ADDRESS": "9214 S COMMERCIAL AVE 1ST", 
    "YEAR": 2004, 
    "LONGITUDE": -87.551350171, 
    "LATTITUDE": 41.727696362
  }, 
  {
    "BUSINESS_TYPE": "Broker", 
    "LEGAL_NAME": "COMMUNITY FINANCIAL CORP.", 
    "STATE": "IL", 
    "DOING_BUSINESS_AS_NAME": "COMMUNITY FINANCIAL  CORP.", 
    "POP_AT_RISK": 66221, 
    "ZIP": 60629, 
    "ADDRESS": "2651 W 59TH ST", 
    "YEAR": 2004, 
    "LONGITUDE": -87.690754322, 
    "LATTITUDE": 41.786343643
  }, 
  {
    "BUSINESS_TYPE": "Broker", 
    "LEGAL_NAME": "DOMINICK'S FINER FOODS, LLC", 
    "STATE": "IL", 
    "DOING_BUSINESS_AS_NAME": "DOMINICK'S # 314/1314", 
    "POP_AT_RISK": 12873, 
    "ZIP": 60652, 
    "ADDRESS": "3250 W 87TH ST", 
    "YEAR": 2004, 
    "LONGITUDE": -87.703511284, 
    "LATTITUDE": 41.73527409
  }, 
  {
    "BUSINESS_TYPE": "Broker", 
    "LEGAL_NAME": "COOP'S ENTERPRISES INC", 
    "STATE": "IL", 
    "DOING_BUSINESS_AS_NAME": "COOP'S RECORDS", 
    "POP_AT_RISK": 35686, 
    "ZIP": 60620, 
    "ADDRESS": "1613-15 W 87TH ST", 
    "YEAR": 2004, 
    "LONGITUDE": -87.663591508, 
    "LATTITUDE": 41.735672252
  }, 
  {
    "BUSINESS_TYPE": "Broker", 
    "LEGAL_NAME": "PACK YOUR BAGS & TRAVEL CRUISE", 
    "STATE": "IL", 
    "DOING_BUSINESS_AS_NAME": "PACK YOUR BAGS TRAVEL & CRUISE", 
    "POP_AT_RISK": 9426, 
    "ZIP": 60633, 
    "ADDRESS": "13259 S BALTIMORE AVE 1ST", 
    "YEAR": 2004, 
    "LONGITUDE": -87.547002715, 
    "LATTITUDE": 41.653769484
  }, 
  {
    "BUSINESS_TYPE": "Broker", 
    "LEGAL_NAME": "EYES AROUND THE WORLD TRAVEL", 
    "STATE": "IL", 
    "DOING_BUSINESS_AS_NAME": "EYES AROUND THE WORLD TRAVEL", 
    "POP_AT_RISK": 37124, 
    "ZIP": 60619, 
    "ADDRESS": "8050 S DR MARTIN LUTHER KING JR DR 1ST", 
    "YEAR": 2004, 
    "LONGITUDE": -87.615026315, 
    "LATTITUDE": 41.747779009
  }, 
  {
    "BUSINESS_TYPE": "Broker", 
    "LEGAL_NAME": "TRAVEL BIZ  EVANGELISTIC OUTREACH DELIVERANCE MINISTRY #1", 
    "STATE": "IL", 
    "DOING_BUSINESS_AS_NAME": "TRAVEL BIZ EODM#1", 
    "POP_AT_RISK": 33567, 
    "ZIP": 60624, 
    "ADDRESS": "4302 W MADISON ST", 
    "YEAR": 2004, 
    "LONGITUDE": -87.733225786, 
    "LATTITUDE": 41.880747189
  }, 
  {
    "BUSINESS_TYPE": "Broker", 
    "LEGAL_NAME": "DISCOVER TRAVEL, INC", 
    "STATE": "IL", 
    "DOING_BUSINESS_AS_NAME": "DISCOVER TRAVEL, INC", 
    "POP_AT_RISK": 21672, 
    "ZIP": 60655, 
    "ADDRESS": "2559 W 111TH ST", 
    "YEAR": 2004, 
    "LONGITUDE": -87.685774181, 
    "LATTITUDE": 41.69163599
  }, 
  {
    "BUSINESS_TYPE": "Broker", 
    "LEGAL_NAME": "TICKETSTUD, INC.", 
    "STATE": "IL", 
    "DOING_BUSINESS_AS_NAME": "TICKETSTUD , INC.", 
    "POP_AT_RISK": 37877, 
    "ZIP": 60612, 
    "ADDRESS": "265 N WESTERN AVE", 
    "YEAR": 2004, 
    "LONGITUDE": -87.68643087, 
    "LATTITUDE": 41.886584709
  }, 
  {
    "BUSINESS_TYPE": "Broker", 
    "LEGAL_NAME": "MAC'S RECORDS PLUS", 
    "STATE": "IL", 
    "DOING_BUSINESS_AS_NAME": "MAC'S RECORDS PLUS", 
    "POP_AT_RISK": 47312, 
    "ZIP": 60644, 
    "ADDRESS": "5412 W MADISON ST 1ST", 
    "YEAR": 2004, 
    "LONGITUDE": -87.760705782, 
    "LATTITUDE": 41.880410003
  }, 
  {
    "BUSINESS_TYPE": "Broker", 
    "LEGAL_NAME": "ROME'S JOY CATERING, INC.", 
    "STATE": "IL", 
    "DOING_BUSINESS_AS_NAME": "ROME'S JOY CATERING INC.", 
    "POP_AT_RISK": 34836, 
    "ZIP": 60653, 
    "ADDRESS": "4455 S DR MARTIN LUTHER KING JR DR 1", 
    "YEAR": 2004, 
    "LONGITUDE": -87.616549207, 
    "LATTITUDE": 41.813215318
  }, 
  {
    "BUSINESS_TYPE": "Broker", 
    "LEGAL_NAME": "MARCELO HERRERA & ROSA LOPEZ", 
    "STATE": "IL", 
    "DOING_BUSINESS_AS_NAME": "M & R INTERNATIONAL TRAVEL", 
    "POP_AT_RISK": 51728, 
    "ZIP": 60639, 
    "ADDRESS": "4751 W NORTH AVE  MAIN", 
    "YEAR": 2004, 
    "LONGITUDE": -87.745696577, 
    "LATTITUDE": 41.909521359
  }, 
  {
    "BUSINESS_TYPE": "Broker", 
    "LEGAL_NAME": "EVELYN  M.ANDERSON", 
    "STATE": "IL", 
    "DOING_BUSINESS_AS_NAME": "TWINS TRAVEL UNLIMITED", 
    "POP_AT_RISK": 25754, 
    "ZIP": 60643, 
    "ADDRESS": "1439 W 103RD ST  2", 
    "YEAR": 2004, 
    "LONGITUDE": -87.658961422, 
    "LATTITUDE": 41.706631714
  }, 
  {
    "BUSINESS_TYPE": "Broker", 
    "LEGAL_NAME": "BRENWAY INC", 
    "STATE": "IL", 
    "DOING_BUSINESS_AS_NAME": "THE TRAVEL DEPOT", 
    "POP_AT_RISK": 21393, 
    "ZIP": 60655, 
    "ADDRESS": "3135 W 111TH ST", 
    "YEAR": 2004, 
    "LONGITUDE": -87.699753468, 
    "LATTITUDE": 41.691469433
  }, 
  {
    "BUSINESS_TYPE": "Broker", 
    "LEGAL_NAME": "DOMINICK'S FINER FOODS, LLC", 
    "STATE": "IL", 
    "DOING_BUSINESS_AS_NAME": "DOMINICK'S # 130/1130", 
    "POP_AT_RISK": 43909, 
    "ZIP": 60649, 
    "ADDRESS": "2101 E 71ST ST", 
    "YEAR": 2004, 
    "LONGITUDE": -87.573787337, 
    "LATTITUDE": 41.765990001
  }, 
  {
    "BUSINESS_TYPE": "Broker", 
    "LEGAL_NAME": "DOMINICK'S FINER FOODS, LLC", 
    "STATE": "IL", 
    "DOING_BUSINESS_AS_NAME": "DOMINICK'S # 111/4111", 
    "POP_AT_RISK": 35944, 
    "ZIP": 60620, 
    "ADDRESS": "122 W 79TH ST", 
    "YEAR": 2004, 
    "LONGITUDE": -87.627955219, 
    "LATTITUDE": 41.751003152
  }, 
  {
    "BUSINESS_TYPE": "Broker", 
    "LEGAL_NAME": "TRA-VAL SERVICES, INC.", 
    "STATE": "IL", 
    "DOING_BUSINESS_AS_NAME": "TRA-VAL SERVICES", 
    "POP_AT_RISK": 25541, 
    "ZIP": 60616, 
    "ADDRESS": "439 E 31ST ST 1", 
    "YEAR": 2004, 
    "LONGITUDE": -87.615613459, 
    "LATTITUDE": 41.838333344
  }
]