[
{"STATE":"IL","ZIP":60632,"LATTITUDE":41.821560277881126,"ADDRESS":"3970 S ARCHER AVE 1ST FLOOR 1","YEAR":2006,"DOING_BUSINESS_AS_NAME":"TECHCHITTLAN TATTOO","POP_AT_RISK":344050,"BUSINESS_TYPE":"Body Piercing","LEGAL_NAME":"JUAN  TORRES","LONGITUDE":-87.69229692907194},
{"STATE":"IL","ZIP":60608,"LATTITUDE":41.85186827166058,"ADDRESS":"2551 W CERMAK RD  104","YEAR":2006,"DOING_BUSINESS_AS_NAME":"LUCKY STAR JEWELRY","POP_AT_RISK":168676,"BUSINESS_TYPE":"Body Piercing","LEGAL_NAME":"GLORIA ALIAGA","LONGITUDE":-87.69007512129495},
{"STATE":"IL","ZIP":60638,"LATTITUDE":41.79812662454975,"ADDRESS":"5518 S ARCHER AVE  ","YEAR":2006,"DOING_BUSINESS_AS_NAME":"INFINITE DRAGON DEZINE","POP_AT_RISK":159383,"BUSINESS_TYPE":"Body Piercing","LEGAL_NAME":"BRYANT L JONES","LONGITUDE":-87.74741651396842},
{"STATE":"IL","ZIP":60647,"LATTITUDE":41.922330072816024,"ADDRESS":"2221 N WESTERN AVE 1ST ","YEAR":2006,"DOING_BUSINESS_AS_NAME":"REVOLUTION TATTOO","POP_AT_RISK":397992,"BUSINESS_TYPE":"Body Piercing","LEGAL_NAME":"OMAR GUTIERREZ","LONGITUDE":-87.68741548120742},
{"STATE":"IL","ZIP":60622,"LATTITUDE":41.91067434035661,"ADDRESS":"1754 W NORTH AVE 1ST ","YEAR":2006,"DOING_BUSINESS_AS_NAME":"TATU TATTOO INC","POP_AT_RISK":129738,"BUSINESS_TYPE":"Body Piercing","LEGAL_NAME":"TATU TATTOO INC","LONGITUDE":-87.67228303147428},
{"STATE":"IL","ZIP":60642,"LATTITUDE":41.9004631469668,"ADDRESS":"1026 N MILWAUKEE AVE  ","YEAR":2006,"DOING_BUSINESS_AS_NAME":"INSIGHT STUDIOS","POP_AT_RISK":46022,"BUSINESS_TYPE":"Body Piercing","LEGAL_NAME":"HTH INCORPORATED","LONGITUDE":-87.66218860926277},
{"STATE":"IL","ZIP":60652,"LATTITUDE":41.74045023530922,"ADDRESS":"8356 S PULASKI RD  STORE","YEAR":2006,"DOING_BUSINESS_AS_NAME":"ETCHED IN SKIN","POP_AT_RISK":127368,"BUSINESS_TYPE":"Body Piercing","LEGAL_NAME":"MICHELLE L RYBKA","LONGITUDE":-87.72176928391136},
{"STATE":"IL","ZIP":60640,"LATTITUDE":41.962842630026145,"ADDRESS":"4439-4443 N BROADWAY   ","YEAR":2006,"DOING_BUSINESS_AS_NAME":"TATTOO FACTORY","POP_AT_RISK":558840,"BUSINESS_TYPE":"Body Piercing","LEGAL_NAME":"PAUL COLLURAFICI","LONGITUDE":-87.6556745694617},
{"STATE":"IL","ZIP":60647,"LATTITUDE":41.9173234757404,"ADDRESS":"3816 W ARMITAGE AVE 1 ","YEAR":2006,"DOING_BUSINESS_AS_NAME":"DIAMOND TATTOOS","POP_AT_RISK":1342320,"BUSINESS_TYPE":"Body Piercing","LEGAL_NAME":"JOSE F. RODRIGUEZ","LONGITUDE":-87.72235907727797},
{"STATE":"IL","ZIP":60622,"LATTITUDE":41.895845639675336,"ADDRESS":"1855 W CHICAGO AVE  1","YEAR":2006,"DOING_BUSINESS_AS_NAME":"TOMATO TATTOO INC","POP_AT_RISK":330078,"BUSINESS_TYPE":"Body Piercing","LEGAL_NAME":"TOMATO TATTOO INC","LONGITUDE":-87.67433457498525},
{"STATE":"IL","ZIP":60629,"LATTITUDE":41.78512642426383,"ADDRESS":"5928 S PULASKI RD 1 ","YEAR":2006,"DOING_BUSINESS_AS_NAME":"INFINITE TATTOO","POP_AT_RISK":528340,"BUSINESS_TYPE":"Body Piercing","LEGAL_NAME":"INFINITE INK CORP.","LONGITUDE":-87.72308541449362},
{"STATE":"IL","ZIP":60632,"LATTITUDE":41.81259655293456,"ADDRESS":"4446 S ARCHER AVE 1ST ","YEAR":2006,"DOING_BUSINESS_AS_NAME":"INFINITE TATTOO","POP_AT_RISK":204950,"BUSINESS_TYPE":"Body Piercing","LEGAL_NAME":"INFINITE INK CORP.","LONGITUDE":-87.70690976957245},
{"STATE":"IL","ZIP":60618,"LATTITUDE":41.95665252968386,"ADDRESS":"4168 N ELSTON AVE  ","YEAR":2006,"DOING_BUSINESS_AS_NAME":"Twisted Tattoo","POP_AT_RISK":328368,"BUSINESS_TYPE":"Body Piercing","LEGAL_NAME":"PETER J. GLUZERMAN","LONGITUDE":-87.72369697421021},
{"STATE":"IL","ZIP":60607,"LATTITUDE":41.86953354394101,"ADDRESS":"1150 W TAYLOR ST 1ST ","YEAR":2006,"DOING_BUSINESS_AS_NAME":"TAYLOR STREET TATTOO AND BODY PIERCING COMPANY","POP_AT_RISK":480315,"BUSINESS_TYPE":"Body Piercing","LEGAL_NAME":"UNDERWOOD ART. CO.","LONGITUDE":-87.65626097874001},
{"STATE":"IL","ZIP":60618,"LATTITUDE":41.93960864859768,"ADDRESS":"2230 W BELMONT AVE  ","YEAR":2006,"DOING_BUSINESS_AS_NAME":"FAMILY TATTOO INC","POP_AT_RISK":447408,"BUSINESS_TYPE":"Body Piercing","LEGAL_NAME":"FAMILY TATTOOS, INC.","LONGITUDE":-87.6844516907268},
{"STATE":"IL","ZIP":60639,"LATTITUDE":41.90976452703277,"ADDRESS":"4650 W NORTH AVE  ","YEAR":2006,"DOING_BUSINESS_AS_NAME":"WALMART #5402","POP_AT_RISK":392868,"BUSINESS_TYPE":"Body Piercing","LEGAL_NAME":"WAL-MART STORES, INC.","LONGITUDE":-87.74337629570627},
{"STATE":"IL","ZIP":60639,"LATTITUDE":41.91946387531173,"ADDRESS":"5718 W GRAND AVE 1 ","YEAR":2006,"DOING_BUSINESS_AS_NAME":"FIFTH SUN GRAPHIX, INC.","POP_AT_RISK":327702,"BUSINESS_TYPE":"Body Piercing","LEGAL_NAME":"FIFTH SUN GRAPHIX, INC","LONGITUDE":-87.76903584780901},
{"STATE":"IL","ZIP":60641,"LATTITUDE":41.93854246746509,"ADDRESS":"5331 W BELMONT AVE 1ST ","YEAR":2006,"DOING_BUSINESS_AS_NAME":"JADE DRAGON TATTOO INC","POP_AT_RISK":281376,"BUSINESS_TYPE":"Body Piercing","LEGAL_NAME":"JADE DRAGON TATTOO INC","LONGITUDE":-87.76040185146701},
{"STATE":"IL","ZIP":60614,"LATTITUDE":41.92521232759425,"ADDRESS":"1730 W FULLERTON AVE  21","YEAR":2006,"DOING_BUSINESS_AS_NAME":"CLAIRE'S","POP_AT_RISK":53942,"BUSINESS_TYPE":"Body Piercing","LEGAL_NAME":"CLAIRE'S BOUTIQUES, INC.","LONGITUDE":-87.67192542513618},
{"STATE":"IL","ZIP":60611,"LATTITUDE":41.897740856252504,"ADDRESS":"835 N MICHIGAN AVE  5015","YEAR":2006,"DOING_BUSINESS_AS_NAME":"CLAIRE'S #1954","POP_AT_RISK":1266180,"BUSINESS_TYPE":"Body Piercing","LEGAL_NAME":"CLAIRE'S BOUTIQUES, INC.","LONGITUDE":-87.62396131598219},
{"STATE":"IL","ZIP":60661,"LATTITUDE":41.88199433820508,"ADDRESS":"500 W MADISON ST # 6696","YEAR":2006,"DOING_BUSINESS_AS_NAME":"CLAIRE'S BOUTIQUE #6696","POP_AT_RISK":252812,"BUSINESS_TYPE":"Body Piercing","LEGAL_NAME":"CLAIRE'S BOUTIQUES, INC.","LONGITUDE":-87.6397586848809},
{"STATE":"IL","ZIP":60618,"LATTITUDE":41.93912927218773,"ADDRESS":"3511 W BELMONT AVE  ","YEAR":2006,"DOING_BUSINESS_AS_NAME":"JADE DRAGON BODY ART, INC","POP_AT_RISK":324085,"BUSINESS_TYPE":"Body Piercing","LEGAL_NAME":"JADE DRAGON BODY ART, INC","LONGITUDE":-87.71551844731349},
{"STATE":"IL","ZIP":60623,"LATTITUDE":41.84776668182944,"ADDRESS":"2410 S KEDZIE AVE  ","YEAR":2006,"DOING_BUSINESS_AS_NAME":"AGELESS ARTS","POP_AT_RISK":806773,"BUSINESS_TYPE":"Body Piercing","LEGAL_NAME":"EXOTIC BODY CREATIONS INC.","LONGITUDE":-87.70528457405833},
{"STATE":"IL","ZIP":60640,"LATTITUDE":41.97272103937437,"ADDRESS":"5005 N CLARK ST  ","YEAR":2006,"DOING_BUSINESS_AS_NAME":"EAGLE LEATHERS INC","POP_AT_RISK":542310,"BUSINESS_TYPE":"Body Piercing","LEGAL_NAME":"EAGLE LEATHERS INCORPORATED","LONGITUDE":-87.66779703352901},
{"STATE":"IL","ZIP":60657,"LATTITUDE":41.940646213272494,"ADDRESS":"3228 N CLARK ST GROUND ","YEAR":2006,"DOING_BUSINESS_AS_NAME":"THE ALLEY","POP_AT_RISK":271533,"BUSINESS_TYPE":"Body Piercing","LEGAL_NAME":"RAGS 2 RICHES FASHIONS, LTD.","LONGITUDE":-87.65140950812834},
{"STATE":"IL","ZIP":60657,"LATTITUDE":41.93979110570738,"ADDRESS":"1017 W BELMONT AVE  ","YEAR":2006,"DOING_BUSINESS_AS_NAME":"THE CHICAGO TATTOOING CO INC","POP_AT_RISK":86172,"BUSINESS_TYPE":"Body Piercing","LEGAL_NAME":"THE CHICAGO TATTOOING CO INC","LONGITUDE":-87.65474668661226},
{"STATE":"IL","ZIP":60628,"LATTITUDE":41.68962718533316,"ADDRESS":"11237 S MICHIGAN AVE  ","YEAR":2006,"DOING_BUSINESS_AS_NAME":"BEAUTY AND SWEETS","POP_AT_RISK":285066,"BUSINESS_TYPE":"Body Piercing","LEGAL_NAME":"DERNANDIEZ ELANDRO LINDSEY SR","LONGITUDE":-87.6208658511398},
{"STATE":"IL","ZIP":60617,"LATTITUDE":41.73909042472304,"ADDRESS":"8548 S STONY ISLAND AVE  ","YEAR":2006,"DOING_BUSINESS_AS_NAME":"SOUTHSIDE TATTOOS & BODY PIERCING LLC","POP_AT_RISK":293607,"BUSINESS_TYPE":"Body Piercing","LEGAL_NAME":"SOUTHSIDE TATTOOS & BODY PIERCING LLC","LONGITUDE":-87.5858420548468},
{"STATE":"IL","ZIP":60641,"LATTITUDE":41.93763137415776,"ADDRESS":"3120 N CICERO AVE  B","YEAR":2006,"DOING_BUSINESS_AS_NAME":"MYSTIC TATTOO ART & BODY PIERCING","POP_AT_RISK":196830,"BUSINESS_TYPE":"Body Piercing","LEGAL_NAME":"MYSTIC TATTOO ART & BODY PIERCING CORP.","LONGITUDE":-87.7469880315815},
{}]