[
{"STATE":"IL","ZIP":60655,"LATTITUDE":41.69146943276456,"ADDRESS":"3135 W 111TH ST  ","YEAR":2009,"DOING_BUSINESS_AS_NAME":"THE TRAVEL DEPOT","POP_AT_RISK":42786,"BUSINESS_TYPE":"Broker","LEGAL_NAME":"BRENWAY INC","LONGITUDE":-87.69975346761993},
{"STATE":"IL","ZIP":60644,"LATTITUDE":41.88018558183858,"ADDRESS":"5425 W MADISON ST  ","YEAR":2009,"DOING_BUSINESS_AS_NAME":"MAC'S RECORDS","POP_AT_RISK":561198,"BUSINESS_TYPE":"Broker","LEGAL_NAME":"EDDIE MISTER","LONGITUDE":-87.76109289845529},
{"STATE":"IL","ZIP":60617,"LATTITUDE":41.734844505482805,"ADDRESS":"8823 S COMMERCIAL AVE 1ST ","YEAR":2009,"DOING_BUSINESS_AS_NAME":"ROCHA TRAVEL\/SANTI'S ICE CREAM","POP_AT_RISK":50420,"BUSINESS_TYPE":"Broker","LEGAL_NAME":"ERNESTO GONZALEZ","LONGITUDE":-87.55122784891006},
{"STATE":"IL","ZIP":60638,"LATTITUDE":41.792020152973315,"ADDRESS":"6835 W ARCHER AVE 1ST ","YEAR":2009,"DOING_BUSINESS_AS_NAME":"TRAVEL FORUM,INC","POP_AT_RISK":37594,"BUSINESS_TYPE":"Broker","LEGAL_NAME":"TRAVEL FORUM,INC","LONGITUDE":-87.79293805360257},
{"STATE":"IL","ZIP":60634,"LATTITUDE":41.9380883476556,"ADDRESS":"7418 W BELMONT AVE  ","YEAR":2009,"DOING_BUSINESS_AS_NAME":"VENUS TRAVEL INC","POP_AT_RISK":42383,"BUSINESS_TYPE":"Broker","LEGAL_NAME":"VENUS TRAVEL INC","LONGITUDE":-87.81216530276042},
{"STATE":"IL","ZIP":60620,"LATTITUDE":41.74595426680885,"ADDRESS":"8116 S WESTERN AVE 1ST ","YEAR":2009,"DOING_BUSINESS_AS_NAME":"WAY TO GO TRAVEL","POP_AT_RISK":171042,"BUSINESS_TYPE":"Broker","LEGAL_NAME":"VIRGINIA L. SMITH","LONGITUDE":-87.68289677791954},
{"STATE":"IL","ZIP":60643,"LATTITUDE":41.706631713956725,"ADDRESS":"1439 W 103RD ST  2","YEAR":2009,"DOING_BUSINESS_AS_NAME":"TWINS TRAVEL UNLIMITED","POP_AT_RISK":51508,"BUSINESS_TYPE":"Broker","LEGAL_NAME":"EVELYN  M.ANDERSON","LONGITUDE":-87.65896142211443},
{"STATE":"IL","ZIP":60707,"LATTITUDE":41.92343318428224,"ADDRESS":"7115 W GRAND AVE  ","YEAR":2009,"DOING_BUSINESS_AS_NAME":"ATLANTIC TRAVEL & TOURS","POP_AT_RISK":42019,"BUSINESS_TYPE":"Broker","LEGAL_NAME":"THOMAS R. FROHLICH","LONGITUDE":-87.8032678930031},
{"STATE":"IL","ZIP":60652,"LATTITUDE":41.74039116700227,"ADDRESS":"8358 S PULASKI RD 1 ","YEAR":2009,"DOING_BUSINESS_AS_NAME":"JETWAY WORLD TRAVEL","POP_AT_RISK":95526,"BUSINESS_TYPE":"Broker","LEGAL_NAME":"SCOTLIND TRAVEL LTD","LONGITUDE":-87.72176718525304},
{"STATE":"IL","ZIP":60646,"LATTITUDE":41.997129083533984,"ADDRESS":"4001 W DEVON AVE 4 405","YEAR":2009,"DOING_BUSINESS_AS_NAME":"SKYLINK TRAVEL, INC","POP_AT_RISK":20014,"BUSINESS_TYPE":"Broker","LEGAL_NAME":"SKYLINK TRAVEL, INC","LONGITUDE":-87.72896986786284},
{"STATE":"IL","ZIP":60655,"LATTITUDE":41.69163599044943,"ADDRESS":"2559 W 111TH ST  ","YEAR":2009,"DOING_BUSINESS_AS_NAME":"DISCOVER TRAVEL, INC","POP_AT_RISK":21672,"BUSINESS_TYPE":"Broker","LEGAL_NAME":"DISCOVER TRAVEL, INC","LONGITUDE":-87.68577418115912},
{"STATE":"IL","ZIP":60615,"LATTITUDE":41.80012851019524,"ADDRESS":"5226 S HARPER AVE  ","YEAR":2009,"DOING_BUSINESS_AS_NAME":"DR WAX RECORDS","POP_AT_RISK":661963,"BUSINESS_TYPE":"Broker","LEGAL_NAME":"G AND S RECORDS, INC","LONGITUDE":-87.58920988297274},
{"STATE":"IL","ZIP":60656,"LATTITUDE":41.9735836675355,"ADDRESS":"5057 N HARLEM AVE 1ST ","YEAR":2009,"DOING_BUSINESS_AS_NAME":"INTERDOME TRAVEL INC","POP_AT_RISK":30252,"BUSINESS_TYPE":"Broker","LEGAL_NAME":"INTERDOME TRAVEL INC","LONGITUDE":-87.80691645928532},
{"STATE":"IL","ZIP":60631,"LATTITUDE":42.01748743236638,"ADDRESS":"7512 N HARLEM AVE 1ST ","YEAR":2009,"DOING_BUSINESS_AS_NAME":"METROPOLE TRAVEL, INC.","POP_AT_RISK":56158,"BUSINESS_TYPE":"Broker","LEGAL_NAME":"METROPOLE TRAVEL, INC.","LONGITUDE":-87.80671443332021},
{"STATE":"IL","ZIP":60619,"LATTITUDE":41.758598682034524,"ADDRESS":"604 E 75TH ST  ","YEAR":2009,"DOING_BUSINESS_AS_NAME":"ALFA I TRAVEL AGENCY","POP_AT_RISK":192198,"BUSINESS_TYPE":"Broker","LEGAL_NAME":"SANDRA WILLIAMS FOSTER","LONGITUDE":-87.6100309563656},
{"STATE":"IL","ZIP":60616,"LATTITUDE":41.838333344180036,"ADDRESS":"439 E 31ST ST 1 ","YEAR":2009,"DOING_BUSINESS_AS_NAME":"TRA-VAL SERVICES","POP_AT_RISK":95896,"BUSINESS_TYPE":"Broker","LEGAL_NAME":"TRA-VAL SERVICES, INC.","LONGITUDE":-87.6156134594386},
{"STATE":"IL","ZIP":60612,"LATTITUDE":41.87417293594547,"ADDRESS":"1926 W HARRISON ST 1ST ","YEAR":2009,"DOING_BUSINESS_AS_NAME":"DIRECT EXPRESS TOURS INC.","POP_AT_RISK":169225,"BUSINESS_TYPE":"Broker","LEGAL_NAME":"DIRECT EXPRESS TOURS INC.","LONGITUDE":-87.67509296181764},
{"STATE":"IL","ZIP":60649,"LATTITUDE":41.765990001140594,"ADDRESS":"2101 E 71ST ST  ","YEAR":2009,"DOING_BUSINESS_AS_NAME":"DOMINICK'S # 130\/1130","POP_AT_RISK":43337,"BUSINESS_TYPE":"Broker","LEGAL_NAME":"DOMINICK'S FINER FOODS, LLC","LONGITUDE":-87.57378733665412},
{"STATE":"IL","ZIP":60620,"LATTITUDE":41.73589838622629,"ADDRESS":"953 W 87TH ST  ","YEAR":2009,"DOING_BUSINESS_AS_NAME":"TREASURE ISLAND TRAVEL INC","POP_AT_RISK":250096,"BUSINESS_TYPE":"Broker","LEGAL_NAME":"TREASURE ISLAND TRAVEL, INC","LONGITUDE":-87.64817738580423},
{"STATE":"IL","ZIP":60619,"LATTITUDE":41.74777900897866,"ADDRESS":"8050 S DR MARTIN LUTHER KING JR DR 1ST ","YEAR":2009,"DOING_BUSINESS_AS_NAME":"EYES AROUND THE WORLD TRAVEL","POP_AT_RISK":176870,"BUSINESS_TYPE":"Broker","LEGAL_NAME":"EYES AROUND THE WORLD TRAVEL","LONGITUDE":-87.61502631469793},
{"STATE":"IL","ZIP":60633,"LATTITUDE":41.653769484084265,"ADDRESS":"13259 S BALTIMORE AVE 1ST ","YEAR":2009,"DOING_BUSINESS_AS_NAME":"PACK YOUR BAGS TRAVEL & CRUISE","POP_AT_RISK":40896,"BUSINESS_TYPE":"Broker","LEGAL_NAME":"PACK YOUR BAGS & TRAVEL CRUISE","LONGITUDE":-87.54700271536521},
{"STATE":"IL","ZIP":60651,"LATTITUDE":41.898867241581556,"ADDRESS":"4630 W AUGUSTA BLVD 1ST 1","YEAR":2009,"DOING_BUSINESS_AS_NAME":"TRANSPORTES GUERRERO","POP_AT_RISK":214260,"BUSINESS_TYPE":"Broker","LEGAL_NAME":"TOURS & CHARTERS SALGADO, INC.","LONGITUDE":-87.74249483200671},
{"STATE":"IL","ZIP":60623,"LATTITUDE":41.84426644699866,"ADDRESS":"4310 W 26TH ST  ","YEAR":2009,"DOING_BUSINESS_AS_NAME":"UNIVERSAL TRAVEL SERVICES","POP_AT_RISK":45902,"BUSINESS_TYPE":"Broker","LEGAL_NAME":"UNIVERSAL TRAVEL SERVICES, INC.","LONGITUDE":-87.73154096730023},
{"STATE":"IL","ZIP":60647,"LATTITUDE":41.917301978826444,"ADDRESS":"3103 W ARMITAGE AVE 1 ","YEAR":2009,"DOING_BUSINESS_AS_NAME":"SAN JUAN STAR TRAVEL","POP_AT_RISK":146612,"BUSINESS_TYPE":"Broker","LEGAL_NAME":"FOUR CORNERS OF THE WORLD TRAVEL, INC.","LONGITUDE":-87.70544873331816},
{}]