[
  {
    "BUSINESS_TYPE": "Street Performer", 
    "LEGAL_NAME": "JANICE INSKEEP", 
    "STATE": "IL", 
    "DOING_BUSINESS_AS_NAME": "JANICE INSKEEP", 
    "POP_AT_RISK": 73255, 
    "ZIP": 60625, 
    "ADDRESS": "3400 W SUNNYSIDE AVE 1ST", 
    "YEAR": 2000, 
    "LONGITUDE": -87.713261383, 
    "LATTITUDE": 41.96306422
  }, 
  {
    "BUSINESS_TYPE": "Street Performer", 
    "LEGAL_NAME": "JOHN HASBROUCK", 
    "STATE": "IL", 
    "DOING_BUSINESS_AS_NAME": "JOHN HASBROUCK", 
    "POP_AT_RISK": 60983, 
    "ZIP": 60622, 
    "ADDRESS": "1237 N HONORE ST  1S", 
    "YEAR": 2000, 
    "LONGITUDE": -87.673168872, 
    "LATTITUDE": 41.904386801
  }, 
  {
    "BUSINESS_TYPE": "Street Performer", 
    "LEGAL_NAME": "JOSEPH D BOLDEN", 
    "STATE": "IL", 
    "DOING_BUSINESS_AS_NAME": "JOSEPH D BOLDEN", 
    "POP_AT_RISK": 40020, 
    "ZIP": 60617, 
    "ADDRESS": "8210 S KINGSTON AVE 1ST", 
    "YEAR": 2000, 
    "LONGITUDE": -87.562646707, 
    "LATTITUDE": 41.745952965
  }, 
  {
    "BUSINESS_TYPE": "Street Performer", 
    "LEGAL_NAME": "CINDY MITCHELL", 
    "STATE": "IL", 
    "DOING_BUSINESS_AS_NAME": "CINDY MITCHELL", 
    "POP_AT_RISK": 23928, 
    "ZIP": 60631, 
    "ADDRESS": "6566 N HARLEM AVE  1ST", 
    "YEAR": 2000, 
    "LONGITUDE": -87.806910668, 
    "LATTITUDE": 42.000575994
  }, 
  {
    "BUSINESS_TYPE": "Street Performer", 
    "LEGAL_NAME": "MARTHA LEMA", 
    "STATE": "IL", 
    "DOING_BUSINESS_AS_NAME": "MARTHA LEMA", 
    "POP_AT_RISK": 59189, 
    "ZIP": 60660, 
    "ADDRESS": "6120 N KENMORE AVE  GE", 
    "YEAR": 2000, 
    "LONGITUDE": -87.657049358, 
    "LATTITUDE": 41.992981645
  }, 
  {
    "BUSINESS_TYPE": "Street Performer", 
    "LEGAL_NAME": "BERNARD HAYES", 
    "STATE": "IL", 
    "DOING_BUSINESS_AS_NAME": "BERNARD HAYES", 
    "POP_AT_RISK": 63918, 
    "ZIP": 60645, 
    "ADDRESS": "6416 N LEAVITT ST  2", 
    "YEAR": 2000, 
    "LONGITUDE": -87.68517668, 
    "LATTITUDE": 41.998350496
  }, 
  {
    "BUSINESS_TYPE": "Street Performer", 
    "LEGAL_NAME": "JUNE CAMERON", 
    "STATE": "IL", 
    "DOING_BUSINESS_AS_NAME": "JUNE CAMERON", 
    "POP_AT_RISK": 25300, 
    "ZIP": 60621, 
    "ADDRESS": "5547 S PRINCETON AVE 1ST", 
    "YEAR": 2000, 
    "LONGITUDE": -87.632806776, 
    "LATTITUDE": 41.792822895
  }, 
  {
    "BUSINESS_TYPE": "Street Performer", 
    "LEGAL_NAME": "EILEEN RICHMOND", 
    "STATE": "IL", 
    "DOING_BUSINESS_AS_NAME": "EILEEN RICHMOND", 
    "POP_AT_RISK": 35151, 
    "ZIP": 60617, 
    "ADDRESS": "8615 S COLFAX AVE 1ST", 
    "YEAR": 2000, 
    "LONGITUDE": -87.561023065, 
    "LATTITUDE": 41.738590951
  }, 
  {
    "BUSINESS_TYPE": "Street Performer", 
    "LEGAL_NAME": "LIZANDRO W PENARANDA", 
    "STATE": "IL", 
    "DOING_BUSINESS_AS_NAME": "LIZANDRO W PENARANDA", 
    "POP_AT_RISK": 37439, 
    "ZIP": 60608, 
    "ADDRESS": "2011 S RACINE AVE  1ST", 
    "YEAR": 2000, 
    "LONGITUDE": -87.656188428, 
    "LATTITUDE": 41.854827564
  }, 
  {
    "BUSINESS_TYPE": "Street Performer", 
    "LEGAL_NAME": "CHARLES A SMITH", 
    "STATE": "IL", 
    "DOING_BUSINESS_AS_NAME": "CHARLES A SMITH", 
    "POP_AT_RISK": 32387, 
    "ZIP": 60612, 
    "ADDRESS": "2715 W HARRISON ST  1ST", 
    "YEAR": 2000, 
    "LONGITUDE": -87.69432297, 
    "LATTITUDE": 41.873699001
  }, 
  {
    "BUSINESS_TYPE": "Street Performer", 
    "LEGAL_NAME": "RONALD OROZCO", 
    "STATE": "IL", 
    "DOING_BUSINESS_AS_NAME": "RONALD OROZCO", 
    "POP_AT_RISK": 58367, 
    "ZIP": 60647, 
    "ADDRESS": "2108 N WESTERN AVE 1ST", 
    "YEAR": 2000, 
    "LONGITUDE": -87.687638666, 
    "LATTITUDE": 41.920134653
  }, 
  {
    "BUSINESS_TYPE": "Street Performer", 
    "LEGAL_NAME": "SAIPH GRAVES", 
    "STATE": "IL", 
    "DOING_BUSINESS_AS_NAME": "SAIPH GRAVES", 
    "POP_AT_RISK": 46204, 
    "ZIP": 60620, 
    "ADDRESS": "8121 S LOOMIS BLVD 1ST #", 
    "YEAR": 2000, 
    "LONGITUDE": -87.658329055, 
    "LATTITUDE": 41.746132376
  }, 
  {
    "BUSINESS_TYPE": "Street Performer", 
    "LEGAL_NAME": "ROBERT KERN", 
    "STATE": "IL", 
    "DOING_BUSINESS_AS_NAME": "ROBERT KERN", 
    "POP_AT_RISK": 88729, 
    "ZIP": 60611, 
    "ADDRESS": "21 E CHESTNUT ST 1ST", 
    "YEAR": 2000, 
    "LONGITUDE": -87.627310783, 
    "LATTITUDE": 41.898227095
  }, 
  {
    "BUSINESS_TYPE": "Street Performer", 
    "LEGAL_NAME": "FRANK NAVA", 
    "STATE": "IL", 
    "DOING_BUSINESS_AS_NAME": "FRANK NAVA", 
    "POP_AT_RISK": 35625, 
    "ZIP": 60612, 
    "ADDRESS": "3048 W FRANKLIN BLVD  1ST", 
    "YEAR": 2000, 
    "LONGITUDE": -87.703564488, 
    "LATTITUDE": 41.890213322
  }, 
  {
    "BUSINESS_TYPE": "Street Performer", 
    "LEGAL_NAME": "JOHN S CLAY", 
    "STATE": "IL", 
    "DOING_BUSINESS_AS_NAME": "JOHN S CLAY", 
    "POP_AT_RISK": 29009, 
    "ZIP": 60621, 
    "ADDRESS": "549 W 60TH ST 1ST", 
    "YEAR": 2000, 
    "LONGITUDE": -87.639547286, 
    "LATTITUDE": 41.78512551
  }
]