[
{"STATE":"IL","ZIP":60646,"LATTITUDE":41.98979237059395,"ADDRESS":"4747 W PETERSON AVE  ","YEAR":2006,"DOING_BUSINESS_AS_NAME":"SHALVA","POP_AT_RISK":59388,"BUSINESS_TYPE":"Raffles","LEGAL_NAME":"SHALVA","LONGITUDE":-87.74784256216424},
{"STATE":"IL","ZIP":60644,"LATTITUDE":41.87288348920551,"ADDRESS":"5049 W HARRISON ST  ","YEAR":2006,"DOING_BUSINESS_AS_NAME":"GOODCITY NFP","POP_AT_RISK":303408,"BUSINESS_TYPE":"Raffles","LEGAL_NAME":"GOODCITY NFP","LONGITUDE":-87.75117316801726},
{"STATE":"IL","ZIP":60609,"LATTITUDE":41.83075573182985,"ADDRESS":"1110 W 35TH ST  ","YEAR":2006,"DOING_BUSINESS_AS_NAME":"PAWS CHICAGO","POP_AT_RISK":35468,"BUSINESS_TYPE":"Raffles","LEGAL_NAME":"PAWS CHICAGO","LONGITUDE":-87.65387376250175},
{"STATE":"IL","ZIP":60638,"LATTITUDE":41.77646068841604,"ADDRESS":"6949 W 63RD PL  ","YEAR":2006,"DOING_BUSINESS_AS_NAME":"ST. RENE CHURCH","POP_AT_RISK":35086,"BUSINESS_TYPE":"Raffles","LEGAL_NAME":"ST RENE CHURCH","LONGITUDE":-87.79542338880776},
{"STATE":"IL","ZIP":60612,"LATTITUDE":41.877535885799354,"ADDRESS":"2822 W JACKSON BLVD  ","YEAR":2006,"DOING_BUSINESS_AS_NAME":"DEBORAH'S PLACE","POP_AT_RISK":120548,"BUSINESS_TYPE":"Raffles","LEGAL_NAME":"DEBORAH'S PLACE","LONGITUDE":-87.69706304834142},
{"STATE":"IL","ZIP":60656,"LATTITUDE":41.97414651684552,"ADDRESS":"7958 W FOSTER AVE  ","YEAR":2006,"DOING_BUSINESS_AS_NAME":"ST EUGENE PARISH","POP_AT_RISK":92607,"BUSINESS_TYPE":"Raffles","LEGAL_NAME":"ST EUGENE PARISH","LONGITUDE":-87.82661094516166},
{"STATE":"IL","ZIP":60641,"LATTITUDE":41.9464246660698,"ADDRESS":"4170 W ADDISON ST  ","YEAR":2006,"DOING_BUSINESS_AS_NAME":"ST VIATOR PARISH","POP_AT_RISK":50400,"BUSINESS_TYPE":"Raffles","LEGAL_NAME":"ST VIATOR PARISH","LONGITUDE":-87.7318755779848},
{"STATE":"IL","ZIP":60631,"LATTITUDE":41.995875469571075,"ADDRESS":"6323 N NEWCASTLE AVE  ","YEAR":2006,"DOING_BUSINESS_AS_NAME":"ST THECLA SCHOOL","POP_AT_RISK":18239,"BUSINESS_TYPE":"Raffles","LEGAL_NAME":"ST. THECLA SCHOOL","LONGITUDE":-87.79675620156237},
{"STATE":"IL","ZIP":60653,"LATTITUDE":41.82083961560149,"ADDRESS":"4025 S DREXEL BLVD  1","YEAR":2006,"DOING_BUSINESS_AS_NAME":"GRANT DAY CARE INC","POP_AT_RISK":31283,"BUSINESS_TYPE":"Raffles","LEGAL_NAME":"GRANT DAY CARE INC","LONGITUDE":-87.60476869191355},
{"STATE":"IL","ZIP":60655,"LATTITUDE":41.68399181564351,"ADDRESS":"4200 W 115TH ST  ","YEAR":2006,"DOING_BUSINESS_AS_NAME":"MARIST HIGH SCHOOL","POP_AT_RISK":25840,"BUSINESS_TYPE":"Raffles","LEGAL_NAME":"MARIST HIGH SCHOOL","LONGITUDE":-87.72501727575752},
{"STATE":"IL","ZIP":60634,"LATTITUDE":41.94528537982695,"ADDRESS":"6949 W ADDISON ST  ","YEAR":2006,"DOING_BUSINESS_AS_NAME":"ST. PRISCILLA PARISH","POP_AT_RISK":118512,"BUSINESS_TYPE":"Raffles","LEGAL_NAME":"ST PRISCILLA PARISH","LONGITUDE":-87.80026504673488},
{"STATE":"IL","ZIP":60655,"LATTITUDE":41.69311327967713,"ADDRESS":"11005 S HOMAN AVE  ","YEAR":2006,"DOING_BUSINESS_AS_NAME":"ST. CHRISTINA PARISH","POP_AT_RISK":50040,"BUSINESS_TYPE":"Raffles","LEGAL_NAME":"ST CHRISTINA  PARISH","LONGITUDE":-87.70568309627774},
{"STATE":"IL","ZIP":60643,"LATTITUDE":41.721353154497784,"ADDRESS":"1500 W 95TH ST  ","YEAR":2006,"DOING_BUSINESS_AS_NAME":"HERITAGE PLAZA","POP_AT_RISK":231568,"BUSINESS_TYPE":"Raffles","LEGAL_NAME":"THIRD BAPTIST CHURCH","LONGITUDE":-87.66027200821352},
{"STATE":"IL","ZIP":60638,"LATTITUDE":41.80530932943512,"ADDRESS":"4810 S LEAMINGTON AVE  ","YEAR":2006,"DOING_BUSINESS_AS_NAME":"OUR LADY OF THE SNOWS","POP_AT_RISK":13441,"BUSINESS_TYPE":"Raffles","LEGAL_NAME":"OUR LADY OF THE SNOWS","LONGITUDE":-87.75180113361945},
{"STATE":"IL","ZIP":60623,"LATTITUDE":41.86026098144286,"ADDRESS":"1512 S PULASKI RD  ","YEAR":2006,"DOING_BUSINESS_AS_NAME":"BBF FAMILY SERVICES","POP_AT_RISK":161628,"BUSINESS_TYPE":"Raffles","LEGAL_NAME":"BETTER BOYS FOUNDATION","LONGITUDE":-87.72514260165443},
{"STATE":"IL","ZIP":60634,"LATTITUDE":41.93858857157271,"ADDRESS":"5900 W BELMONT AVE  ","YEAR":2006,"DOING_BUSINESS_AS_NAME":"ST. PATRICK HIGH SCHOOL","POP_AT_RISK":109280,"BUSINESS_TYPE":"Raffles","LEGAL_NAME":"ST PATRICK HIGH SCHOOL","LONGITUDE":-87.77384909269432},
{"STATE":"IL","ZIP":60638,"LATTITUDE":41.7804764713413,"ADDRESS":"6135 S AUSTIN AVE  ","YEAR":2006,"DOING_BUSINESS_AS_NAME":"ST. SYMPHOROSA SCHOOL","POP_AT_RISK":31564,"BUSINESS_TYPE":"Raffles","LEGAL_NAME":"SAINT SYMPHOROSA SCHOOL","LONGITUDE":-87.77144779252228},
{"STATE":"IL","ZIP":60609,"LATTITUDE":41.82702833680521,"ADDRESS":"653 W 37TH ST  ","YEAR":2006,"DOING_BUSINESS_AS_NAME":"NATIVITY OF OUR LORD CHU","POP_AT_RISK":28235,"BUSINESS_TYPE":"Raffles","LEGAL_NAME":"NATIVITY OF OUR LORD CHU","LONGITUDE":-87.64325887171155},
{"STATE":"IL","ZIP":60659,"LATTITUDE":41.99536776514439,"ADDRESS":"6239 N LEAVITT ST  ","YEAR":2006,"DOING_BUSINESS_AS_NAME":"STONE SCHOLASTIC ACADEMY","POP_AT_RISK":57999,"BUSINESS_TYPE":"Raffles","LEGAL_NAME":"STONE SCHOLASTIC ACADEMY","LONGITUDE":-87.6847563631277},
{"STATE":"IL","ZIP":60616,"LATTITUDE":41.83118026936929,"ADDRESS":"3455 S WABASH AVE  ","YEAR":2006,"DOING_BUSINESS_AS_NAME":"DE LA SALLE ALUMNI ASSOC.","POP_AT_RISK":34802,"BUSINESS_TYPE":"Raffles","LEGAL_NAME":"DE LA SALLE ALUMNI ASSOC.","LONGITUDE":-87.62501224861636},
{"STATE":"IL","ZIP":60634,"LATTITUDE":41.94488499131698,"ADDRESS":"8033 W ADDISON ST  ","YEAR":2006,"DOING_BUSINESS_AS_NAME":"ST. FRANCIS BORGIA CHURCH","POP_AT_RISK":93492,"BUSINESS_TYPE":"Raffles","LEGAL_NAME":"ST. FRANCIS BORGIA CHURCH","LONGITUDE":-87.82789364052087},
{"STATE":"IL","ZIP":60622,"LATTITUDE":41.90863641895459,"ADDRESS":"2300 W LE MOYNE ST  ","YEAR":2006,"DOING_BUSINESS_AS_NAME":"ST. ALOYSIUS CHURCH","POP_AT_RISK":140940,"BUSINESS_TYPE":"Raffles","LEGAL_NAME":"CATHOLIC BISHOP OF CHICAGO","LONGITUDE":-87.68479695687923},
{"STATE":"IL","ZIP":60645,"LATTITUDE":42.01419883821492,"ADDRESS":"2324 W CHASE AVE  ","YEAR":2006,"DOING_BUSINESS_AS_NAME":"St. Margaret Mary","POP_AT_RISK":411439,"BUSINESS_TYPE":"Raffles","LEGAL_NAME":"Catholic Bishop of Chicago","LONGITUDE":-87.68864244044346},
{"STATE":"IL","ZIP":60653,"LATTITUDE":41.81601755211549,"ADDRESS":"4315 S WABASH AVE  ","YEAR":2006,"DOING_BUSINESS_AS_NAME":"FIRST CHURCH OF DELIVERANCE","POP_AT_RISK":57406,"BUSINESS_TYPE":"Raffles","LEGAL_NAME":"FIRST CHURCH OF DELIVERANCE","LONGITUDE":-87.6244966892375},
{"STATE":"IL","ZIP":60617,"LATTITUDE":41.70995416965494,"ADDRESS":"10201 S EWING AVE  ","YEAR":2006,"DOING_BUSINESS_AS_NAME":"ST FRANCIS DE SALES PARISH","POP_AT_RISK":59181,"BUSINESS_TYPE":"Raffles","LEGAL_NAME":"ST. FRANCIS DE SALES PARISH","LONGITUDE":-87.53513815125461},
{"STATE":"IL","ZIP":60618,"LATTITUDE":41.94768023826198,"ADDRESS":"3633 N CALIFORNIA AVE  ","YEAR":2006,"DOING_BUSINESS_AS_NAME":"GORDON TECHNICAL HIGH SCHOOL","POP_AT_RISK":147738,"BUSINESS_TYPE":"Raffles","LEGAL_NAME":"GORDON TECHNICAL HIGH SCHOOL","LONGITUDE":-87.69791408596312},
{"STATE":"IL","ZIP":60629,"LATTITUDE":41.763675836234526,"ADDRESS":"7114 S HAMLIN AVE  ","YEAR":2006,"DOING_BUSINESS_AS_NAME":"QUEEN OF THE UNIVERSE","POP_AT_RISK":76850,"BUSINESS_TYPE":"Raffles","LEGAL_NAME":"QUEEN OF THE UNIVERSE CHURCH","LONGITUDE":-87.71762669036642},
{"STATE":"IL","ZIP":60629,"LATTITUDE":41.7790727247982,"ADDRESS":"2609 W 63RD ST  ","YEAR":2006,"DOING_BUSINESS_AS_NAME":"SOUTHWEST ORGANIZING PROJECT","POP_AT_RISK":104186,"BUSINESS_TYPE":"Raffles","LEGAL_NAME":"SOUTHWEST ORGANIZING PROJECT","LONGITUDE":-87.68891743213281},
{"STATE":"IL","ZIP":60632,"LATTITUDE":41.799313736534394,"ADDRESS":"5157 S CALIFORNIA AVE  ","YEAR":2006,"DOING_BUSINESS_AS_NAME":"ST. SIMON THE APOSTLE CHURCH","POP_AT_RISK":163887,"BUSINESS_TYPE":"Raffles","LEGAL_NAME":"ST. SIMON THE APOSTLE CHRUCH","LONGITUDE":-87.6938087219452},
{"STATE":"IL","ZIP":60639,"LATTITUDE":41.920510091187516,"ADDRESS":"6007 W GRAND AVE  ","YEAR":2006,"DOING_BUSINESS_AS_NAME":"BORICUA AMVETS POST NUMBER 37","POP_AT_RISK":93720,"BUSINESS_TYPE":"Raffles","LEGAL_NAME":"BORICUA AMVETS POST NUMBER 37","LONGITUDE":-87.77595491366348},
{"STATE":"IL","ZIP":60623,"LATTITUDE":41.84123803345949,"ADDRESS":"2735 S KOLIN AVE  ","YEAR":2006,"DOING_BUSINESS_AS_NAME":"GOOD SHEPHERD CATHOLIC CHURCH","POP_AT_RISK":130902,"BUSINESS_TYPE":"Raffles","LEGAL_NAME":"GOOD SHEPHERD CATHOLIC CHURCH","LONGITUDE":-87.73283963702131},
{"STATE":"IL","ZIP":60649,"LATTITUDE":41.77665367240929,"ADDRESS":"6501 S PROMONTORY DR  1ST","YEAR":2006,"DOING_BUSINESS_AS_NAME":"LA RABIDA CHILDRENS HOSPITAL","POP_AT_RISK":117450,"BUSINESS_TYPE":"Raffles","LEGAL_NAME":"LA RABIDA CHILDREN'S HOSPITAL","LONGITUDE":-87.57082460978235},
{"STATE":"IL","ZIP":60639,"LATTITUDE":41.91595538076389,"ADDRESS":"1921 N KEDVALE AVE  ","YEAR":2006,"DOING_BUSINESS_AS_NAME":"ST PHILOMENA CHURCH","POP_AT_RISK":902818,"BUSINESS_TYPE":"Raffles","LEGAL_NAME":"ST. PHILOMENA CATHOLIC CHURCH","LONGITUDE":-87.73003588302274},
{"STATE":"IL","ZIP":60629,"LATTITUDE":41.77853445561262,"ADDRESS":"4021 W 63RD ST  2B","YEAR":2006,"DOING_BUSINESS_AS_NAME":"WEST LAWN CHAMBER OF COMMERCE","POP_AT_RISK":54952,"BUSINESS_TYPE":"Raffles","LEGAL_NAME":"WEST LAWN CHAMBER OF COMMERCE","LONGITUDE":-87.72373404143067},
{"STATE":"IL","ZIP":60655,"LATTITUDE":41.71125823220511,"ADDRESS":"10001 S PULASKI RD  ","YEAR":2006,"DOING_BUSINESS_AS_NAME":"BROTHER RICE HIGH SCHOOL","POP_AT_RISK":23776,"BUSINESS_TYPE":"Raffles","LEGAL_NAME":"BROTHER RICE HIGH SCHOOL, INC.","LONGITUDE":-87.72093947340284},
{"STATE":"IL","ZIP":60637,"LATTITUDE":41.79253620872735,"ADDRESS":"1701 E 57TH DR  ","YEAR":2006,"DOING_BUSINESS_AS_NAME":"MUSEUM OF SCIENCE AND INDUSTRY","POP_AT_RISK":102375,"BUSINESS_TYPE":"Raffles","LEGAL_NAME":"MUSEUM OF SCIENCE AND INDUSTRY","LONGITUDE":-87.58379120622547},
{"STATE":"IL","ZIP":60652,"LATTITUDE":41.74337687361192,"ADDRESS":"8200 S KOSTNER AVE  ","YEAR":2006,"DOING_BUSINESS_AS_NAME":"ST. BEDE THE VENERABLE CHURCH","POP_AT_RISK":104208,"BUSINESS_TYPE":"Raffles","LEGAL_NAME":"THE CATHOLIC BISHOP OF CHICAGO","LONGITUDE":-87.73157248582065},
{"STATE":"IL","ZIP":60638,"LATTITUDE":41.796497571691084,"ADDRESS":"5252 S AUSTIN AVE  ","YEAR":2006,"DOING_BUSINESS_AS_NAME":"ST JANE DE CHANTAL","POP_AT_RISK":23021,"BUSINESS_TYPE":"Raffles","LEGAL_NAME":"CATHOLIC ARCHDIOCESE OF CHICAGO","LONGITUDE":-87.77232894377225},
{"STATE":"IL","ZIP":60636,"LATTITUDE":41.76881982288605,"ADDRESS":"6845 S WESTERN AVE  ","YEAR":2006,"DOING_BUSINESS_AS_NAME":"SOUTHWEST WOMEN WORKING TOGETHER","POP_AT_RISK":41996,"BUSINESS_TYPE":"Raffles","LEGAL_NAME":"SOUTHWEST WOMEN WORKING TOGETHER","LONGITUDE":-87.68321123191309},
{"STATE":"IL","ZIP":60622,"LATTITUDE":41.89911060064597,"ADDRESS":"3059 W AUGUSTA BLVD  ","YEAR":2006,"DOING_BUSINESS_AS_NAME":"The Children's Place Association","POP_AT_RISK":104576,"BUSINESS_TYPE":"Raffles","LEGAL_NAME":"THE CHILDREN'S PLACE ASSOCIATION","LONGITUDE":-87.70400352669111},
{"STATE":"IL","ZIP":60631,"LATTITUDE":41.987558682624794,"ADDRESS":"8765 W HIGGINS RD 4 403","YEAR":2006,"DOING_BUSINESS_AS_NAME":"ILLINOIS SPINA BIFIDA ASSOCIATION","POP_AT_RISK":35296,"BUSINESS_TYPE":"Raffles","LEGAL_NAME":"ILLINOIS SPINA BIFIDA ASSOCIATION","LONGITUDE":-87.84529632071924},
{"STATE":"IL","ZIP":60631,"LATTITUDE":41.98946579936816,"ADDRESS":"7500 W TALCOTT AVE  ","YEAR":2006,"DOING_BUSINESS_AS_NAME":"RESURRECTION HIGH SCHOOL","POP_AT_RISK":43488,"BUSINESS_TYPE":"Raffles","LEGAL_NAME":"RESURRECTION COLLEGE PREP HIGH SCHOOL","LONGITUDE":-87.81421066629487},
{"STATE":"IL","ZIP":60609,"LATTITUDE":41.806583897771226,"ADDRESS":"1949 W 48TH ST  ","YEAR":2006,"DOING_BUSINESS_AS_NAME":"San Miguel Schools","POP_AT_RISK":386768,"BUSINESS_TYPE":"Raffles","LEGAL_NAME":"SAN MIGUEL FEBRES CORDERO SCHOOL, INC.","LONGITUDE":-87.67415780271693},
{"STATE":"IL","ZIP":60655,"LATTITUDE":41.71314689252262,"ADDRESS":"3737 W 99TH ST  ","YEAR":2006,"DOING_BUSINESS_AS_NAME":"MOTHER MCAULEY LIBERAL ARTS HIGH SCHOOL","POP_AT_RISK":29932,"BUSINESS_TYPE":"Raffles","LEGAL_NAME":"MOTHER MCAULEY LIBERAL ARTS HIGH SCHOOL","LONGITUDE":-87.71531464852806},
{"STATE":"IL","ZIP":60617,"LATTITUDE":41.73792814567871,"ADDRESS":"8640 S SOUTH CHICAGO AVE  ","YEAR":2006,"DOING_BUSINESS_AS_NAME":"SOUTH EAST ALCOHOL AND DRUG ABUSE CENTER","POP_AT_RISK":215568,"BUSINESS_TYPE":"Raffles","LEGAL_NAME":"SOUTH EAST ALCOHOL AND DRUG ABUSE CENTER","LONGITUDE":-87.56692533726209},
{"STATE":"IL","ZIP":60625,"LATTITUDE":41.97941814172241,"ADDRESS":"5400 N ST LOUIS AVE  ","YEAR":2006,"DOING_BUSINESS_AS_NAME":"WINDOW TO THE WORLD COMMUNICATIONS, INC.","POP_AT_RISK":85134,"BUSINESS_TYPE":"Raffles","LEGAL_NAME":"WINDOW TO THE WORLD COMMUNICATIONS, INC.","LONGITUDE":-87.71621617812202},
{"STATE":"IL","ZIP":60616,"LATTITUDE":41.851107480190045,"ADDRESS":"2301 S LAKE SHORE DR  ","YEAR":2006,"DOING_BUSINESS_AS_NAME":"CHICAGO CONVENTION AND TOURISM BUREAU, INC.","POP_AT_RISK":44546,"BUSINESS_TYPE":"Raffles","LEGAL_NAME":"CHICAGO CONVENTION AND TOURISM BUREAU, INC.","LONGITUDE":-87.61286663254377},
{"STATE":"IL","ZIP":60632,"LATTITUDE":41.822575493498356,"ADDRESS":"3916 S ARCHER AVE  ","YEAR":2006,"DOING_BUSINESS_AS_NAME":"PARENTS ASSOCIATION FOR CEREBRAL PALSY CHILDREN","POP_AT_RISK":431271,"BUSINESS_TYPE":"Raffles","LEGAL_NAME":"PARENTS ASSOCIATION FOR CEREBRAL PALSY CHILDREN","LONGITUDE":-87.69063977353626},
{"STATE":"IL","ZIP":60619,"LATTITUDE":41.753581649965064,"ADDRESS":"7740 S EBERHART AVE  ","YEAR":2006,"DOING_BUSINESS_AS_NAME":"ST. DOROTHY SCHOOL","POP_AT_RISK":344100,"BUSINESS_TYPE":"Raffles","LEGAL_NAME":"ST. DOROTHY SCHOOL - CATHOLIC BISHOP OF CHICAGO A. CORP SOLE","LONGITUDE":-87.61270920896185},
{}]