[
  {
    "BUSINESS_TYPE": "Tobacco", 
    "LEGAL_NAME": "SOUTH SIDE FUEL CENTER PLUS IN", 
    "STATE": "IL", 
    "DOING_BUSINESS_AS_NAME": "SOUTH SIDE FUEL CTR/DUNKIN DOUGHNUTS", 
    "POP_AT_RISK": 27367, 
    "ZIP": 60609, 
    "ADDRESS": "970 W PERSHING RD", 
    "YEAR": 2020, 
    "LONGITUDE": -87.650666377, 
    "LATTITUDE": 41.823503593
  }, 
  {
    "BUSINESS_TYPE": "Tobacco", 
    "LEGAL_NAME": "WESTERN PHILLIPS 66, INC.", 
    "STATE": "IL", 
    "DOING_BUSINESS_AS_NAME": "GO LO", 
    "POP_AT_RISK": 55817, 
    "ZIP": 60609, 
    "ADDRESS": "2340 W 52ND ST", 
    "YEAR": 2020, 
    "LONGITUDE": -87.683516382, 
    "LATTITUDE": 41.798937536
  }, 
  {
    "BUSINESS_TYPE": "Tobacco", 
    "LEGAL_NAME": "F AND B PETROLEUM, LLC", 
    "STATE": "IL", 
    "DOING_BUSINESS_AS_NAME": "SHELL", 
    "POP_AT_RISK": 26216, 
    "ZIP": 60632, 
    "ADDRESS": "4647 S PULASKI RD", 
    "YEAR": 2020, 
    "LONGITUDE": -87.723453958, 
    "LATTITUDE": 41.808316516
  }, 
  {
    "BUSINESS_TYPE": "Tobacco", 
    "LEGAL_NAME": "LIS ENTERPRISES INC.", 
    "STATE": "IL", 
    "DOING_BUSINESS_AS_NAME": "LIS STORE", 
    "POP_AT_RISK": 41622, 
    "ZIP": 60630, 
    "ADDRESS": "5316 W LAWRENCE AVE 1ST", 
    "YEAR": 2020, 
    "LONGITUDE": -87.760180445, 
    "LATTITUDE": 41.967984304
  }, 
  {
    "BUSINESS_TYPE": "Tobacco", 
    "LEGAL_NAME": "K4M, INC.", 
    "STATE": "IL", 
    "DOING_BUSINESS_AS_NAME": "MARATHON GAS", 
    "POP_AT_RISK": 29130, 
    "ZIP": 60612, 
    "ADDRESS": "332-340 S SACRAMENTO BLVD 1ST", 
    "YEAR": 2020, 
    "LONGITUDE": -87.70122482, 
    "LATTITUDE": 41.876353229
  }, 
  {
    "BUSINESS_TYPE": "Tobacco", 
    "LEGAL_NAME": "RALPHS GROCERY COMPANY", 
    "STATE": "IL", 
    "DOING_BUSINESS_AS_NAME": "Food 4 Less Midwest #567", 
    "POP_AT_RISK": 51728, 
    "ZIP": 60639, 
    "ADDRESS": "4821 W NORTH AVE 1", 
    "YEAR": 2020, 
    "LONGITUDE": -87.746959936, 
    "LATTITUDE": 41.909505148
  }, 
  {
    "BUSINESS_TYPE": "Tobacco", 
    "LEGAL_NAME": "AMARJHEEL CORP.", 
    "STATE": "IL", 
    "DOING_BUSINESS_AS_NAME": "THE MARKET", 
    "POP_AT_RISK": 24933, 
    "ZIP": 60631, 
    "ADDRESS": "5615 N CUMBERLAND AVE 1ST", 
    "YEAR": 2020, 
    "LONGITUDE": -87.836434302, 
    "LATTITUDE": 41.981428164
  }, 
  {
    "BUSINESS_TYPE": "Tobacco", 
    "LEGAL_NAME": "AAHA MANAGEMENT, INC.", 
    "STATE": "IL", 
    "DOING_BUSINESS_AS_NAME": "FORD CITY NEWS STAND", 
    "POP_AT_RISK": 16758, 
    "ZIP": 60652, 
    "ADDRESS": "7601 S CICERO AVE 1 1340", 
    "YEAR": 2020, 
    "LONGITUDE": -87.741384759, 
    "LATTITUDE": 41.754660124
  }, 
  {
    "BUSINESS_TYPE": "Tobacco", 
    "LEGAL_NAME": "A.S.M. GAS, INC.", 
    "STATE": "IL", 
    "DOING_BUSINESS_AS_NAME": "CLARK", 
    "POP_AT_RISK": 52862, 
    "ZIP": 60609, 
    "ADDRESS": "1952 W 55TH BLVD", 
    "YEAR": 2020, 
    "LONGITUDE": -87.674041766, 
    "LATTITUDE": 41.79402873
  }, 
  {
    "BUSINESS_TYPE": "Tobacco", 
    "LEGAL_NAME": "YAYA MINI MART, INC.", 
    "STATE": "IL", 
    "DOING_BUSINESS_AS_NAME": "YA YA MINI MART", 
    "POP_AT_RISK": 40764, 
    "ZIP": 60608, 
    "ADDRESS": "1458 W 18TH ST 1ST", 
    "YEAR": 2020, 
    "LONGITUDE": -87.663712101, 
    "LATTITUDE": 41.857945167
  }, 
  {
    "BUSINESS_TYPE": "Tobacco", 
    "LEGAL_NAME": "RALPHS GROCERY COMPANY", 
    "STATE": "IL", 
    "DOING_BUSINESS_AS_NAME": "Food 4 Less Midwest #552", 
    "POP_AT_RISK": 40672, 
    "ZIP": 60636, 
    "ADDRESS": "7030 S ASHLAND AVE", 
    "YEAR": 2020, 
    "LONGITUDE": -87.663966886, 
    "LATTITUDE": 41.76579077
  }, 
  {
    "BUSINESS_TYPE": "Tobacco", 
    "LEGAL_NAME": "F & B FOOD MART, LLC", 
    "STATE": "IL", 
    "DOING_BUSINESS_AS_NAME": "SHELL", 
    "POP_AT_RISK": 38892, 
    "ZIP": 60608, 
    "ADDRESS": "2403 S BLUE ISLAND AVE", 
    "YEAR": 2020, 
    "LONGITUDE": -87.675416984, 
    "LATTITUDE": 41.848539187
  }, 
  {
    "BUSINESS_TYPE": "Tobacco", 
    "LEGAL_NAME": "ULTIMATE GAS & MINI MART INC.", 
    "STATE": "IL", 
    "DOING_BUSINESS_AS_NAME": "ECONOGAS & FOOD MART / BP GAS", 
    "POP_AT_RISK": 17992, 
    "ZIP": 60609, 
    "ADDRESS": "4244-4248 S WENTWORTH AVE", 
    "YEAR": 2020, 
    "LONGITUDE": -87.631358463, 
    "LATTITUDE": 41.816934278
  }, 
  {
    "BUSINESS_TYPE": "Tobacco", 
    "LEGAL_NAME": "SHIV ENTERPRISES INC.", 
    "STATE": "IL", 
    "DOING_BUSINESS_AS_NAME": "GATEWAY NEWSTANDS", 
    "POP_AT_RISK": 50511, 
    "ZIP": 60604, 
    "ADDRESS": "175 W JACKSON BLVD 1", 
    "YEAR": 2020, 
    "LONGITUDE": -87.63318903, 
    "LATTITUDE": 41.878014487
  }, 
  {
    "BUSINESS_TYPE": "Tobacco", 
    "LEGAL_NAME": "INDEPENDENCE FUEL & MINI MART, INC.", 
    "STATE": "IL", 
    "DOING_BUSINESS_AS_NAME": "BP", 
    "POP_AT_RISK": 46989, 
    "ZIP": 60624, 
    "ADDRESS": "3801-3815 W ROOSEVELT RD 1ST", 
    "YEAR": 2020, 
    "LONGITUDE": -87.720190279, 
    "LATTITUDE": 41.866129089
  }, 
  {
    "BUSINESS_TYPE": "Tobacco", 
    "LEGAL_NAME": "RALPHS GROCERY COMPANY", 
    "STATE": "IL", 
    "DOING_BUSINESS_AS_NAME": "Food 4 Less Midwest #552 Fuel Center", 
    "POP_AT_RISK": 41487, 
    "ZIP": 60636, 
    "ADDRESS": "6942-6944 S ASHLAND AVE", 
    "YEAR": 2020, 
    "LONGITUDE": -87.664000773, 
    "LATTITUDE": 41.767271689
  }, 
  {
    "BUSINESS_TYPE": "Tobacco", 
    "LEGAL_NAME": "F & B FOOD MART, LLC", 
    "STATE": "IL", 
    "DOING_BUSINESS_AS_NAME": "SHELL", 
    "POP_AT_RISK": 24259, 
    "ZIP": 60609, 
    "ADDRESS": "3501 S DAMEN AVE", 
    "YEAR": 2020, 
    "LONGITUDE": -87.675132021, 
    "LATTITUDE": 41.830300512
  }, 
  {
    "BUSINESS_TYPE": "Tobacco", 
    "LEGAL_NAME": "SUFFAH CORP.", 
    "STATE": "IL", 
    "DOING_BUSINESS_AS_NAME": "B--P GAS STATION", 
    "POP_AT_RISK": 18016, 
    "ZIP": 60638, 
    "ADDRESS": "4518-4528 S CICERO AVE 1ST", 
    "YEAR": 2020, 
    "LONGITUDE": -87.743383703, 
    "LATTITUDE": 41.810669615
  }, 
  {
    "BUSINESS_TYPE": "Tobacco", 
    "LEGAL_NAME": "MBS PETROLEUM, INC.", 
    "STATE": "IL", 
    "DOING_BUSINESS_AS_NAME": "ARCHER SHELL", 
    "POP_AT_RISK": 30725, 
    "ZIP": 60638, 
    "ADDRESS": "6434 W ARCHER AVE 1ST", 
    "YEAR": 2020, 
    "LONGITUDE": -87.78317609, 
    "LATTITUDE": 41.792425779
  }, 
  {
    "BUSINESS_TYPE": "Tobacco", 
    "LEGAL_NAME": "LIS ENTERPRISES INC.", 
    "STATE": "IL", 
    "DOING_BUSINESS_AS_NAME": "LIS STORE", 
    "POP_AT_RISK": 18922, 
    "ZIP": 60638, 
    "ADDRESS": "5713 S ARCHER AVE", 
    "YEAR": 2020, 
    "LONGITUDE": -87.754689796, 
    "LATTITUDE": 41.796791146
  }, 
  {
    "BUSINESS_TYPE": "Tobacco", 
    "LEGAL_NAME": "SUGARS PLUS, INC.", 
    "STATE": "IL", 
    "DOING_BUSINESS_AS_NAME": "SUGARS PLUS", 
    "POP_AT_RISK": 37764, 
    "ZIP": 60609, 
    "ADDRESS": "525 E 47TH ST", 
    "YEAR": 2020, 
    "LONGITUDE": -87.612879141, 
    "LATTITUDE": 41.809328945
  }, 
  {
    "BUSINESS_TYPE": "Tobacco", 
    "LEGAL_NAME": "RALPHS GROCERY COMPANY", 
    "STATE": "IL", 
    "DOING_BUSINESS_AS_NAME": "Food 4 Less Midwest #570", 
    "POP_AT_RISK": 29261, 
    "ZIP": 60620, 
    "ADDRESS": "112 W 87TH ST 1ST", 
    "YEAR": 2020, 
    "LONGITUDE": -87.627509219, 
    "LATTITUDE": 41.736380046
  }, 
  {
    "BUSINESS_TYPE": "Tobacco", 
    "LEGAL_NAME": "WELLS FOOD MART INC.", 
    "STATE": "IL", 
    "DOING_BUSINESS_AS_NAME": "55TH WELLS SHELL", 
    "POP_AT_RISK": 23347, 
    "ZIP": 60609, 
    "ADDRESS": "5458 S WELLS ST 1", 
    "YEAR": 2020, 
    "LONGITUDE": -87.631928475, 
    "LATTITUDE": 41.794560071
  }, 
  {
    "BUSINESS_TYPE": "Tobacco", 
    "LEGAL_NAME": "ARMITAGE PULASKI INCORPORATED", 
    "STATE": "IL", 
    "DOING_BUSINESS_AS_NAME": "SHELL/SMOKE & VAPE", 
    "POP_AT_RISK": 75499, 
    "ZIP": 60639, 
    "ADDRESS": "2001-2011 N PULASKI RD 1ST", 
    "YEAR": 2020, 
    "LONGITUDE": -87.72641457, 
    "LATTITUDE": 41.917216201
  }, 
  {
    "BUSINESS_TYPE": "Tobacco", 
    "LEGAL_NAME": "RALPHS GROCERY COMPANY", 
    "STATE": "IL", 
    "DOING_BUSINESS_AS_NAME": "FOOD 4 LESS - MIDWEST", 
    "POP_AT_RISK": 50841, 
    "ZIP": 60609, 
    "ADDRESS": "2050 W 47TH ST 1ST", 
    "YEAR": 2020, 
    "LONGITUDE": -87.676721775, 
    "LATTITUDE": 41.808615454
  }, 
  {
    "BUSINESS_TYPE": "Tobacco", 
    "LEGAL_NAME": "BC LIQUOR INC.", 
    "STATE": "IL", 
    "DOING_BUSINESS_AS_NAME": "SUTTON LIQUOR", 
    "POP_AT_RISK": 29296, 
    "ZIP": 60620, 
    "ADDRESS": "9041 S ASHLAND AVE 1ST", 
    "YEAR": 2020, 
    "LONGITUDE": -87.662721072, 
    "LATTITUDE": 41.729082289
  }
]