[
{"STATE":"IL","ZIP":60612,"LATTITUDE":41.88678335894974,"ADDRESS":"301 N HOYNE AVE  ","YEAR":2007,"DOING_BUSINESS_AS_NAME":"TOP STORE","POP_AT_RISK":382020,"BUSINESS_TYPE":"Tire Facility Class II (1,001 - 5,000 Tires)","LEGAL_NAME":"TOP STORE","LONGITUDE":-87.6790900422296},
{"STATE":"IL","ZIP":60644,"LATTITUDE":41.86561698574138,"ADDRESS":"5838 W ROOSEVELT RD  ","YEAR":2007,"DOING_BUSINESS_AS_NAME":"ROOSEVELT TIRE SHOP","POP_AT_RISK":576598,"BUSINESS_TYPE":"Tire Facility Class II (1,001 - 5,000 Tires)","LEGAL_NAME":"JAMES GOODMAN","LONGITUDE":-87.77069153109431},
{"STATE":"IL","ZIP":60613,"LATTITUDE":41.94992749751896,"ADDRESS":"3737 N ASHLAND AVE  ","YEAR":2007,"DOING_BUSINESS_AS_NAME":"ASHLAND TIRE & AUTO CLINIC","POP_AT_RISK":1104120,"BUSINESS_TYPE":"Tire Facility Class II (1,001 - 5,000 Tires)","LEGAL_NAME":"KENNETH PAPPAS","LONGITUDE":-87.66878767179848},
{"STATE":"IL","ZIP":60651,"LATTITUDE":41.90296073281804,"ADDRESS":"3644  -03648 W GRAND AVE 1ST ","YEAR":2007,"DOING_BUSINESS_AS_NAME":"VICTOR TIRE SERVICE","POP_AT_RISK":841365,"BUSINESS_TYPE":"Tire Facility Class II (1,001 - 5,000 Tires)","LEGAL_NAME":"OLIVIER CHACON","LONGITUDE":-87.7180346257577},
{"STATE":"IL","ZIP":60608,"LATTITUDE":41.844897032915085,"ADDRESS":"2510 W 26TH ST  ","YEAR":2007,"DOING_BUSINESS_AS_NAME":"SOTO TIRES INC","POP_AT_RISK":377703,"BUSINESS_TYPE":"Tire Facility Class II (1,001 - 5,000 Tires)","LEGAL_NAME":"SOTO TIRES INC","LONGITUDE":-87.68813335165316},
{"STATE":"IL","ZIP":60620,"LATTITUDE":41.73023756491855,"ADDRESS":"9018 S HALSTED ST  1ST","YEAR":2007,"DOING_BUSINESS_AS_NAME":"BEN'S TIRE SERVICE","POP_AT_RISK":323270,"BUSINESS_TYPE":"Tire Facility Class II (1,001 - 5,000 Tires)","LEGAL_NAME":"BENNIE BROWNLEE","LONGITUDE":-87.64360085508315},
{"STATE":"IL","ZIP":60634,"LATTITUDE":41.94636306771919,"ADDRESS":"3636 N HARLEM AVE  1ST","YEAR":2007,"DOING_BUSINESS_AS_NAME":"DEVILLE TIRE INC","POP_AT_RISK":226632,"BUSINESS_TYPE":"Tire Facility Class II (1,001 - 5,000 Tires)","LEGAL_NAME":"DEVILLE TIRE INC","LONGITUDE":-87.80719094931474},
{"STATE":"IL","ZIP":60636,"LATTITUDE":41.781322701386785,"ADDRESS":"6153 S WESTERN AVE  1","YEAR":2007,"DOING_BUSINESS_AS_NAME":"SEARS ROEBUCK & CO 1030","POP_AT_RISK":105120,"BUSINESS_TYPE":"Tire Facility Class II (1,001 - 5,000 Tires)","LEGAL_NAME":"SEARS,ROEBUCK & CO.","LONGITUDE":-87.68355312594959},
{"STATE":"IL","ZIP":60640,"LATTITUDE":41.96891329702292,"ADDRESS":"1824 W LAWRENCE AVE  1","YEAR":2007,"DOING_BUSINESS_AS_NAME":"SEARS ROEBUCK & CO #6071","POP_AT_RISK":481257,"BUSINESS_TYPE":"Tire Facility Class II (1,001 - 5,000 Tires)","LEGAL_NAME":"SEARS,ROEBUCK & CO.","LONGITUDE":-87.67559464763697},
{"STATE":"IL","ZIP":60619,"LATTITUDE":41.751536016682095,"ADDRESS":"1334 E 79TH ST  ","YEAR":2007,"DOING_BUSINESS_AS_NAME":"SEARS, ROEBUCK AND CO. #6092","POP_AT_RISK":373090,"BUSINESS_TYPE":"Tire Facility Class II (1,001 - 5,000 Tires)","LEGAL_NAME":"SEARS,ROEBUCK & CO.","LONGITUDE":-87.59170944843967},
{"STATE":"IL","ZIP":60609,"LATTITUDE":41.82368445199922,"ADDRESS":"426 W PERSHING RD  1ST","YEAR":2007,"DOING_BUSINESS_AS_NAME":"TRUCK TIRE SALES, INC","POP_AT_RISK":462195,"BUSINESS_TYPE":"Tire Facility Class II (1,001 - 5,000 Tires)","LEGAL_NAME":"TRUCK TIRE SALES INC","LONGITUDE":-87.63719418165383},
{"STATE":"IL","ZIP":60622,"LATTITUDE":41.90359031409245,"ADDRESS":"1250 W DIVISION ST 1ST ","YEAR":2007,"DOING_BUSINESS_AS_NAME":"MCGRATH LEXUS","POP_AT_RISK":546007,"BUSINESS_TYPE":"Tire Facility Class II (1,001 - 5,000 Tires)","LEGAL_NAME":"MCGRATH-COLOSIMO, LTD.","LONGITUDE":-87.65921320919513},
{"STATE":"IL","ZIP":60632,"LATTITUDE":41.79914875229354,"ADDRESS":"5301 S ARCHER AVE 1ST ","YEAR":2007,"DOING_BUSINESS_AS_NAME":"V I P TIRE CORPORATION","POP_AT_RISK":262512,"BUSINESS_TYPE":"Tire Facility Class II (1,001 - 5,000 Tires)","LEGAL_NAME":"V I P TIRE CORPORATION","LONGITUDE":-87.73928818506286},
{"STATE":"IL","ZIP":60628,"LATTITUDE":41.67644113450211,"ADDRESS":"716 E 120TH ST  ","YEAR":2007,"DOING_BUSINESS_AS_NAME":"WENTWORTH TIRE SERVICE","POP_AT_RISK":31059,"BUSINESS_TYPE":"Tire Facility Class II (1,001 - 5,000 Tires)","LEGAL_NAME":"WENTWORTH TIRE SERVICE","LONGITUDE":-87.60422029903714},
{"STATE":"IL","ZIP":60628,"LATTITUDE":41.691957617261934,"ADDRESS":"11130 S CORLISS AVE  ","YEAR":2007,"DOING_BUSINESS_AS_NAME":"WENTWORTH TIRE SERVICE INC","POP_AT_RISK":31509,"BUSINESS_TYPE":"Tire Facility Class II (1,001 - 5,000 Tires)","LEGAL_NAME":"WENTWORTH TIRE SERVICE","LONGITUDE":-87.600851137676},
{"STATE":"IL","ZIP":60614,"LATTITUDE":41.92544377898498,"ADDRESS":"1106 W FULLERTON AVE  ","YEAR":2007,"DOING_BUSINESS_AS_NAME":"FULLERTON AND SEMINARY","POP_AT_RISK":750200,"BUSINESS_TYPE":"Tire Facility Class II (1,001 - 5,000 Tires)","LEGAL_NAME":"FULLERTON-SEMINARY, INC.","LONGITUDE":-87.656314390191},
{"STATE":"IL","ZIP":60609,"LATTITUDE":41.79536064707432,"ADDRESS":"5414 S ASHLAND AVE 1 ","YEAR":2007,"DOING_BUSINESS_AS_NAME":"JC AUTO & TIRE SHOP","POP_AT_RISK":617680,"BUSINESS_TYPE":"Tire Facility Class II (1,001 - 5,000 Tires)","LEGAL_NAME":"JC AUTO & TIRE SHOP, INC.","LONGITUDE":-87.66476747111768},
{"STATE":"IL","ZIP":60634,"LATTITUDE":41.938527258824244,"ADDRESS":"6058 W BELMONT AVE  ","YEAR":2007,"DOING_BUSINESS_AS_NAME":"4 SEASONS TIRE AND AUTO INC","POP_AT_RISK":116886,"BUSINESS_TYPE":"Tire Facility Class II (1,001 - 5,000 Tires)","LEGAL_NAME":"4 SEASONS TIRE AND AUTO INC","LONGITUDE":-87.7785256015756},
{"STATE":"IL","ZIP":60636,"LATTITUDE":41.78662686098553,"ADDRESS":"2348 W 59TH ST  ","YEAR":2007,"DOING_BUSINESS_AS_NAME":"MARQUETTE FRAME & WHEEL INC","POP_AT_RISK":55285,"BUSINESS_TYPE":"Tire Facility Class II (1,001 - 5,000 Tires)","LEGAL_NAME":"MARQUETTE FRAME & WHEEL INC","LONGITUDE":-87.68304771747705},
{"STATE":"IL","ZIP":60639,"LATTITUDE":41.909544842437064,"ADDRESS":"4655 W NORTH AVE  ","YEAR":2007,"DOING_BUSINESS_AS_NAME":"BIONIC AUTO PARTS & SALE INC","POP_AT_RISK":561240,"BUSINESS_TYPE":"Tire Facility Class II (1,001 - 5,000 Tires)","LEGAL_NAME":"BIONIC AUTO PARTS & SALE INC","LONGITUDE":-87.7433839232007},
{"STATE":"IL","ZIP":60614,"LATTITUDE":41.93102100579779,"ADDRESS":"2746 N CLYBOURN AVE  ","YEAR":2007,"DOING_BUSINESS_AS_NAME":"Costco Wholesale # 380","POP_AT_RISK":275335,"BUSINESS_TYPE":"Tire Facility Class II (1,001 - 5,000 Tires)","LEGAL_NAME":"COSTCO WHOLESALE CORPORATION","LONGITUDE":-87.6768640181342},
{"STATE":"IL","ZIP":60707,"LATTITUDE":41.92365396933332,"ADDRESS":"7034 W GRAND AVE  1","YEAR":2007,"DOING_BUSINESS_AS_NAME":"GRAND TIRE & AUTO SERV INC","POP_AT_RISK":42019,"BUSINESS_TYPE":"Tire Facility Class II (1,001 - 5,000 Tires)","LEGAL_NAME":"GRAND TIRE & AUTO SERVICE INC","LONGITUDE":-87.80223515670508},
{"STATE":"IL","ZIP":60614,"LATTITUDE":41.92402630608311,"ADDRESS":"1633 W MEDILL AVE  ","YEAR":2007,"DOING_BUSINESS_AS_NAME":"CHICAGO SORTING CENTER -MEDILL","POP_AT_RISK":166041,"BUSINESS_TYPE":"Tire Facility Class II (1,001 - 5,000 Tires)","LEGAL_NAME":"ALLIED WASTE TRANSPORTATION, INC","LONGITUDE":-87.6693576007287},
{"STATE":"IL","ZIP":60624,"LATTITUDE":41.894270312925805,"ADDRESS":"750 N KILBOURN AVE  ","YEAR":2007,"DOING_BUSINESS_AS_NAME":"CHICAGO SORTING CENTER NORTHWEST","POP_AT_RISK":207234,"BUSINESS_TYPE":"Tire Facility Class II (1,001 - 5,000 Tires)","LEGAL_NAME":"ALLIED WASTE TRANSPORTATION, INC","LONGITUDE":-87.7401253990763},
{"STATE":"IL","ZIP":60623,"LATTITUDE":41.83141101971961,"ADDRESS":"3757 W 34TH ST  ","YEAR":2007,"DOING_BUSINESS_AS_NAME":"CHICAGO SORTING CENTER - 34TH ST.","POP_AT_RISK":204673,"BUSINESS_TYPE":"Tire Facility Class II (1,001 - 5,000 Tires)","LEGAL_NAME":"ALLIED WASTE TRANSPORTATION, INC","LONGITUDE":-87.71913997064854},
{"STATE":"IL","ZIP":60605,"LATTITUDE":41.86047126325852,"ADDRESS":"1550 S WABASH AVE  ","YEAR":2007,"DOING_BUSINESS_AS_NAME":"FIRESTONE","POP_AT_RISK":244188,"BUSINESS_TYPE":"Tire Facility Class II (1,001 - 5,000 Tires)","LEGAL_NAME":"BRIDGESTONE RETAIL OPERATIONS, LLC","LONGITUDE":-87.62581515314527},
{"STATE":"IL","ZIP":60629,"LATTITUDE":41.78096351001722,"ADDRESS":"6154-6160 S KEDZIE AVE  1","YEAR":2007,"DOING_BUSINESS_AS_NAME":"JUST TIRES #6151","POP_AT_RISK":474894,"BUSINESS_TYPE":"Tire Facility Class II (1,001 - 5,000 Tires)","LEGAL_NAME":"THE GOODYEAR TIRE & RUBBER COMPANY","LONGITUDE":-87.70333943846578},
{"STATE":"IL","ZIP":60640,"LATTITUDE":41.96926022285773,"ADDRESS":"4807-4819 N BROADWAY   1","YEAR":2007,"DOING_BUSINESS_AS_NAME":"Just Tires #1262","POP_AT_RISK":526715,"BUSINESS_TYPE":"Tire Facility Class II (1,001 - 5,000 Tires)","LEGAL_NAME":"THE GOODYEAR TIRE & RUBBER COMPANY","LONGITUDE":-87.65953026288018},
{"STATE":"IL","ZIP":60634,"LATTITUDE":41.93188037864371,"ADDRESS":"2819-2833 N CENTRAL AVE  1","YEAR":2007,"DOING_BUSINESS_AS_NAME":"JUST TIRES # 6162","POP_AT_RISK":468489,"BUSINESS_TYPE":"Tire Facility Class II (1,001 - 5,000 Tires)","LEGAL_NAME":"THE GOODYEAR TIRE & RUBBER COMPANY","LONGITUDE":-87.76612106798859},
{"STATE":"IL","ZIP":60652,"LATTITUDE":41.73638928135282,"ADDRESS":"3949 W COLUMBUS AVE 1ST ","YEAR":2007,"DOING_BUSINESS_AS_NAME":"WILLIAM J CASSIDY TIRE SUPPLY","POP_AT_RISK":126165,"BUSINESS_TYPE":"Tire Facility Class II (1,001 - 5,000 Tires)","LEGAL_NAME":"WM. J. CASSIDY TIRE & AUTO SUPPLY CO.","LONGITUDE":-87.72026580406488},
{}]