[
  {
    "BUSINESS_TYPE": "Street Performer", 
    "LEGAL_NAME": "Georzetta Deloney", 
    "STATE": "IL", 
    "DOING_BUSINESS_AS_NAME": "Georzetta Deloney", 
    "POP_AT_RISK": 29042, 
    "ZIP": 60628, 
    "ADDRESS": "10626 S NORMAL AVE", 
    "YEAR": 2003, 
    "LONGITUDE": -87.635542332, 
    "LATTITUDE": 41.700718633
  }, 
  {
    "BUSINESS_TYPE": "Street Performer", 
    "LEGAL_NAME": "JOHN F. YOST", 
    "STATE": "IL", 
    "DOING_BUSINESS_AS_NAME": "JOHN F. YOST", 
    "POP_AT_RISK": 38079, 
    "ZIP": 60630, 
    "ADDRESS": "5218 W CARMEN AVE", 
    "YEAR": 2003, 
    "LONGITUDE": -87.758530015, 
    "LATTITUDE": 41.973500871
  }, 
  {
    "BUSINESS_TYPE": "Street Performer", 
    "LEGAL_NAME": "LANCE D. ANDERSON", 
    "STATE": "IL", 
    "DOING_BUSINESS_AS_NAME": "LANCE D. ANDERSON", 
    "POP_AT_RISK": 8129, 
    "ZIP": 60646, 
    "ADDRESS": "7045 N LEOTI AVE", 
    "YEAR": 2003, 
    "LONGITUDE": -87.782887751, 
    "LATTITUDE": 42.009666895
  }, 
  {
    "BUSINESS_TYPE": "Street Performer", 
    "LEGAL_NAME": "ROBERTO RODRIGUEZ JR.", 
    "STATE": "IL", 
    "DOING_BUSINESS_AS_NAME": "ROBERTO RODRIGUEZ JR.", 
    "POP_AT_RISK": 45266, 
    "ZIP": 60639, 
    "ADDRESS": "2151 N MERRIMAC AVE", 
    "YEAR": 2003, 
    "LONGITUDE": -87.781518042, 
    "LATTITUDE": 41.91974601
  }, 
  {
    "BUSINESS_TYPE": "Street Performer", 
    "LEGAL_NAME": "CHARLES A MC SHANE", 
    "STATE": "IL", 
    "DOING_BUSINESS_AS_NAME": "CHARLES A MCSHANE", 
    "POP_AT_RISK": 23071, 
    "ZIP": 60631, 
    "ADDRESS": "5993 N NORTHWEST HWY", 
    "YEAR": 2003, 
    "LONGITUDE": -87.794851355, 
    "LATTITUDE": 41.990086893
  }, 
  {
    "BUSINESS_TYPE": "Street Performer", 
    "LEGAL_NAME": "HERMAN GUNN", 
    "STATE": "IL", 
    "DOING_BUSINESS_AS_NAME": "HERMAN GUNN", 
    "POP_AT_RISK": 37767, 
    "ZIP": 60624, 
    "ADDRESS": "4220 W ADAMS ST", 
    "YEAR": 2003, 
    "LONGITUDE": -87.731366726, 
    "LATTITUDE": 41.878016622
  }, 
  {
    "BUSINESS_TYPE": "Street Performer", 
    "LEGAL_NAME": "TANYA LONDON", 
    "STATE": "IL", 
    "DOING_BUSINESS_AS_NAME": "TANYA LONDON", 
    "POP_AT_RISK": 23616, 
    "ZIP": 60628, 
    "ADDRESS": "11947 S STATE ST", 
    "YEAR": 2003, 
    "LONGITUDE": -87.622470581, 
    "LATTITUDE": 41.676625512
  }, 
  {
    "BUSINESS_TYPE": "Street Performer", 
    "LEGAL_NAME": "THOMAS M SEXTON", 
    "STATE": "IL", 
    "DOING_BUSINESS_AS_NAME": "THOMAS M SEXTON", 
    "POP_AT_RISK": 12033, 
    "ZIP": 60656, 
    "ADDRESS": "8615 W SUNNYSIDE AVE", 
    "YEAR": 2003, 
    "LONGITUDE": -87.842301739, 
    "LATTITUDE": 41.961202595
  }, 
  {
    "BUSINESS_TYPE": "Street Performer", 
    "LEGAL_NAME": "SPIRO J DOUSIAS", 
    "STATE": "IL", 
    "DOING_BUSINESS_AS_NAME": "SPIRO", 
    "POP_AT_RISK": 34058, 
    "ZIP": 60632, 
    "ADDRESS": "4310 S HOMAN AVE", 
    "YEAR": 2003, 
    "LONGITUDE": -87.709296456, 
    "LATTITUDE": 41.815002206
  }, 
  {
    "BUSINESS_TYPE": "Street Performer", 
    "LEGAL_NAME": "RUFUS LUCKETT SR", 
    "STATE": "IL", 
    "DOING_BUSINESS_AS_NAME": "RUFUS LUCKETT SR", 
    "POP_AT_RISK": 37437, 
    "ZIP": 60624, 
    "ADDRESS": "438 N SPRINGFIELD AVE", 
    "YEAR": 2003, 
    "LONGITUDE": -87.723613301, 
    "LATTITUDE": 41.889176571
  }, 
  {
    "BUSINESS_TYPE": "Street Performer", 
    "LEGAL_NAME": "AMANDA MERDITH COHEN", 
    "STATE": "IL", 
    "DOING_BUSINESS_AS_NAME": "AMANDA COHEN", 
    "POP_AT_RISK": 56081, 
    "ZIP": 60659, 
    "ADDRESS": "5621 N CHRISTIANA AVE 3", 
    "YEAR": 2003, 
    "LONGITUDE": -87.712405688, 
    "LATTITUDE": 41.983679712
  }, 
  {
    "BUSINESS_TYPE": "Street Performer", 
    "LEGAL_NAME": "JUSTIN  LABNO", 
    "STATE": "IL", 
    "DOING_BUSINESS_AS_NAME": "JUSTIN  LABNO", 
    "POP_AT_RISK": 44002, 
    "ZIP": 60632, 
    "ADDRESS": "5400 S AVERS AVE", 
    "YEAR": 2003, 
    "LONGITUDE": -87.719682448, 
    "LATTITUDE": 41.795009603
  }, 
  {
    "BUSINESS_TYPE": "Street Performer", 
    "LEGAL_NAME": "RAY ALVAREZ", 
    "STATE": "IL", 
    "DOING_BUSINESS_AS_NAME": "MISSION CRISTIAN ELIM CHURCH", 
    "POP_AT_RISK": 21759, 
    "ZIP": 60634, 
    "ADDRESS": "3833 N NOTTINGHAM AVE", 
    "YEAR": 2003, 
    "LONGITUDE": -87.804576771, 
    "LATTITUDE": 41.949949366
  }, 
  {
    "BUSINESS_TYPE": "Street Performer", 
    "LEGAL_NAME": "URIK HALLIDAY", 
    "STATE": "IL", 
    "DOING_BUSINESS_AS_NAME": "URIK HALLIDAY", 
    "POP_AT_RISK": 29012, 
    "ZIP": 60630, 
    "ADDRESS": "5360 N LOWELL AVE", 
    "YEAR": 2003, 
    "LONGITUDE": -87.737136201, 
    "LATTITUDE": 41.978942515
  }, 
  {
    "BUSINESS_TYPE": "Street Performer", 
    "LEGAL_NAME": "JOSEPH H. SHIVE", 
    "STATE": "IL", 
    "DOING_BUSINESS_AS_NAME": "JOSEPH H. SHIVE", 
    "POP_AT_RISK": 21773, 
    "ZIP": 60643, 
    "ADDRESS": "10810 S HOYNE AVE", 
    "YEAR": 2003, 
    "LONGITUDE": -87.674166093, 
    "LATTITUDE": 41.696946671
  }, 
  {
    "BUSINESS_TYPE": "Street Performer", 
    "LEGAL_NAME": "JOSEPH D BOLDEN", 
    "STATE": "IL", 
    "DOING_BUSINESS_AS_NAME": "JOSEPH D BOLDEN", 
    "POP_AT_RISK": 40020, 
    "ZIP": 60617, 
    "ADDRESS": "8210 S KINGSTON AVE 1ST", 
    "YEAR": 2003, 
    "LONGITUDE": -87.562646707, 
    "LATTITUDE": 41.745952965
  }, 
  {
    "BUSINESS_TYPE": "Street Performer", 
    "LEGAL_NAME": "MICHELE J. WILLIAMS", 
    "STATE": "IL", 
    "DOING_BUSINESS_AS_NAME": "MICHELE J. WILLIAMS", 
    "POP_AT_RISK": 28178, 
    "ZIP": 60643, 
    "ADDRESS": "1237 W 97TH ST", 
    "YEAR": 2003, 
    "LONGITUDE": -87.654340916, 
    "LATTITUDE": 41.718000634
  }, 
  {
    "BUSINESS_TYPE": "Street Performer", 
    "LEGAL_NAME": "GILBERT R. CORONEL", 
    "STATE": "IL", 
    "DOING_BUSINESS_AS_NAME": "GILBERT R. CORONEL", 
    "POP_AT_RISK": 55277, 
    "ZIP": 60623, 
    "ADDRESS": "2715 S TROY ST BASEMENT", 
    "YEAR": 2003, 
    "LONGITUDE": -87.703598771, 
    "LATTITUDE": 41.842230639
  }, 
  {
    "BUSINESS_TYPE": "Street Performer", 
    "LEGAL_NAME": "BOGDAN WILODARCZYK", 
    "STATE": "IL", 
    "DOING_BUSINESS_AS_NAME": "BOGDAN WILODARCZYK", 
    "POP_AT_RISK": 55706, 
    "ZIP": 60639, 
    "ADDRESS": "2728 N MELVINA AVE", 
    "YEAR": 2003, 
    "LONGITUDE": -87.780944003, 
    "LATTITUDE": 41.93012457
  }, 
  {
    "BUSINESS_TYPE": "Street Performer", 
    "LEGAL_NAME": "RUDOLPH MITCHELL", 
    "STATE": "IL", 
    "DOING_BUSINESS_AS_NAME": "RUDOLPH  MITCHELL", 
    "POP_AT_RISK": 32387, 
    "ZIP": 60612, 
    "ADDRESS": "2715 W HARRISON ST", 
    "YEAR": 2003, 
    "LONGITUDE": -87.69432297, 
    "LATTITUDE": 41.873699001
  }, 
  {
    "BUSINESS_TYPE": "Street Performer", 
    "LEGAL_NAME": "ROBERT FOWLER", 
    "STATE": "IL", 
    "DOING_BUSINESS_AS_NAME": "ROBERT FOWLER", 
    "POP_AT_RISK": 36777, 
    "ZIP": 60637, 
    "ADDRESS": "1463 E 66TH PL", 
    "YEAR": 2003, 
    "LONGITUDE": -87.589016692, 
    "LATTITUDE": 41.774117301
  }, 
  {
    "BUSINESS_TYPE": "Street Performer", 
    "LEGAL_NAME": "LARRY LEE STEWART", 
    "STATE": "IL", 
    "DOING_BUSINESS_AS_NAME": "LARRY LEE STEWART", 
    "POP_AT_RISK": 20309, 
    "ZIP": 60628, 
    "ADDRESS": "739 E 105TH ST", 
    "YEAR": 2003, 
    "LONGITUDE": -87.604741925, 
    "LATTITUDE": 41.703684474
  }, 
  {
    "BUSINESS_TYPE": "Street Performer", 
    "LEGAL_NAME": "CAROL EPHRAIM", 
    "STATE": "IL", 
    "DOING_BUSINESS_AS_NAME": "CAROL EPHRAIM", 
    "POP_AT_RISK": 32143, 
    "ZIP": 60652, 
    "ADDRESS": "3643 W 79TH ST", 
    "YEAR": 2003, 
    "LONGITUDE": -87.713778115, 
    "LATTITUDE": 41.749455613
  }, 
  {
    "BUSINESS_TYPE": "Street Performer", 
    "LEGAL_NAME": "THOMAS J MADDEN", 
    "STATE": "IL", 
    "DOING_BUSINESS_AS_NAME": "THOMS J MADDEN", 
    "POP_AT_RISK": 9498, 
    "ZIP": 60453, 
    "ADDRESS": "4220 W 111TH ST", 
    "YEAR": 2003, 
    "LONGITUDE": -87.725334268, 
    "LATTITUDE": 41.691348286
  }, 
  {
    "BUSINESS_TYPE": "Street Performer", 
    "LEGAL_NAME": "DONATO H RAMIREZ", 
    "STATE": "IL", 
    "DOING_BUSINESS_AS_NAME": "DONATO H RAMIREZ", 
    "POP_AT_RISK": 65921, 
    "ZIP": 60623, 
    "ADDRESS": "2652 S HAMLIN AVE", 
    "YEAR": 2003, 
    "LONGITUDE": -87.719772842, 
    "LATTITUDE": 41.842740123
  }, 
  {
    "BUSINESS_TYPE": "Street Performer", 
    "LEGAL_NAME": "DALE S DUFFALA", 
    "STATE": "IL", 
    "DOING_BUSINESS_AS_NAME": "DRBLOOZ", 
    "POP_AT_RISK": 15852, 
    "ZIP": 60631, 
    "ADDRESS": "6822 N NORTHWEST HWY", 
    "YEAR": 2003, 
    "LONGITUDE": -87.819696593, 
    "LATTITUDE": 42.00487624
  }, 
  {
    "BUSINESS_TYPE": "Street Performer", 
    "LEGAL_NAME": "RAYNARD BALKCOM", 
    "STATE": "IL", 
    "DOING_BUSINESS_AS_NAME": "RAYNARD BALKCOM", 
    "POP_AT_RISK": 56385, 
    "ZIP": 60623, 
    "ADDRESS": "4145 W CERMAK RD 2ND", 
    "YEAR": 2003, 
    "LONGITUDE": -87.728956361, 
    "LATTITUDE": 41.851375635
  }, 
  {
    "BUSINESS_TYPE": "Street Performer", 
    "LEGAL_NAME": "LAURENCE A JONES", 
    "STATE": "IL", 
    "DOING_BUSINESS_AS_NAME": "LAURENCE A JONES", 
    "POP_AT_RISK": 31661, 
    "ZIP": 60620, 
    "ADDRESS": "9428 S LAFAYETTE AVE 3RD", 
    "YEAR": 2003, 
    "LONGITUDE": -87.625217064, 
    "LATTITUDE": 41.722579734
  }, 
  {
    "BUSINESS_TYPE": "Street Performer", 
    "LEGAL_NAME": "TYRONE M. MILLER SR.", 
    "STATE": "IL", 
    "DOING_BUSINESS_AS_NAME": "TYRONE M. MILLER SR.", 
    "POP_AT_RISK": 31046, 
    "ZIP": 60621, 
    "ADDRESS": "6736 S UNION AVE", 
    "YEAR": 2003, 
    "LONGITUDE": -87.641894241, 
    "LATTITUDE": 41.771410484
  }, 
  {
    "BUSINESS_TYPE": "Street Performer", 
    "LEGAL_NAME": "EDWIN D EDWARDS III", 
    "STATE": "IL", 
    "DOING_BUSINESS_AS_NAME": "EDWIN D EDWARDS III", 
    "POP_AT_RISK": 13512, 
    "ZIP": 60617, 
    "ADDRESS": "9915 S EWING AVE 2", 
    "YEAR": 2003, 
    "LONGITUDE": -87.535130206, 
    "LATTITUDE": 41.715303918
  }, 
  {
    "BUSINESS_TYPE": "Street Performer", 
    "LEGAL_NAME": "MOISES CASTRO", 
    "STATE": "IL", 
    "DOING_BUSINESS_AS_NAME": "MOISES CASTRO", 
    "POP_AT_RISK": 65391, 
    "ZIP": 60629, 
    "ADDRESS": "6047 S MOZART ST", 
    "YEAR": 2003, 
    "LONGITUDE": -87.694579379, 
    "LATTITUDE": 41.783174682
  }, 
  {
    "BUSINESS_TYPE": "Street Performer", 
    "LEGAL_NAME": "MARY A. WILLIAMS", 
    "STATE": "IL", 
    "DOING_BUSINESS_AS_NAME": "MARY A. WILLIAMS", 
    "POP_AT_RISK": 54242, 
    "ZIP": 60644, 
    "ADDRESS": "215 N LATROBE AVE", 
    "YEAR": 2003, 
    "LONGITUDE": -87.756304002, 
    "LATTITUDE": 41.884800303
  }, 
  {
    "BUSINESS_TYPE": "Street Performer", 
    "LEGAL_NAME": "TERRELL JACKSON", 
    "STATE": "IL", 
    "DOING_BUSINESS_AS_NAME": "TERRELL  JACKSON", 
    "POP_AT_RISK": 70587, 
    "ZIP": 60623, 
    "ADDRESS": "2303 S DRAKE AVE  1B", 
    "YEAR": 2003, 
    "LONGITUDE": -87.713573483, 
    "LATTITUDE": 41.849717088
  }, 
  {
    "BUSINESS_TYPE": "Street Performer", 
    "LEGAL_NAME": "TOMMIE RANDLE JR.", 
    "STATE": "IL", 
    "DOING_BUSINESS_AS_NAME": "TOMMIE RANDLE JR.", 
    "POP_AT_RISK": 37302, 
    "ZIP": 60636, 
    "ADDRESS": "1652 W MARQUETTE RD 1ST", 
    "YEAR": 2003, 
    "LONGITUDE": -87.666157661, 
    "LATTITUDE": 41.772274502
  }, 
  {
    "BUSINESS_TYPE": "Street Performer", 
    "LEGAL_NAME": "DEXTER I SIMS", 
    "STATE": "IL", 
    "DOING_BUSINESS_AS_NAME": "DEXTER  I SIMS", 
    "POP_AT_RISK": 12851, 
    "ZIP": 60620, 
    "ADDRESS": "9214 S CLAREMONT AVE", 
    "YEAR": 2003, 
    "LONGITUDE": -87.681132471, 
    "LATTITUDE": 41.725876803
  }, 
  {
    "BUSINESS_TYPE": "Street Performer", 
    "LEGAL_NAME": "SAIPH GRAVES", 
    "STATE": "IL", 
    "DOING_BUSINESS_AS_NAME": "SAIPH GRAVES", 
    "POP_AT_RISK": 46204, 
    "ZIP": 60620, 
    "ADDRESS": "8121 S LOOMIS BLVD 1ST #", 
    "YEAR": 2003, 
    "LONGITUDE": -87.658329055, 
    "LATTITUDE": 41.746132376
  }, 
  {
    "BUSINESS_TYPE": "Street Performer", 
    "LEGAL_NAME": "BYRON C. ANDERSON", 
    "STATE": "IL", 
    "DOING_BUSINESS_AS_NAME": "BYRON C. ANDERSON", 
    "POP_AT_RISK": 44715, 
    "ZIP": 60651, 
    "ADDRESS": "5304 W CRYSTAL ST", 
    "YEAR": 2003, 
    "LONGITUDE": -87.758552689, 
    "LATTITUDE": 41.903235383
  }
]