[
  {
    "BUSINESS_TYPE": "Pet Shop", 
    "LEGAL_NAME": "PETCO ANIMAL SUPPLIES STORES, INC.", 
    "STATE": "IL", 
    "DOING_BUSINESS_AS_NAME": "PETCO #869", 
    "POP_AT_RISK": 59697, 
    "ZIP": 60614, 
    "ADDRESS": "2000 N CLYBOURN AVE 1ST", 
    "YEAR": 2009, 
    "LONGITUDE": -87.659022898, 
    "LATTITUDE": 41.917581792
  }, 
  {
    "BUSINESS_TYPE": "Pet Shop", 
    "LEGAL_NAME": "MARY SOPIARZ & TARA ADLIN", 
    "STATE": "IL", 
    "DOING_BUSINESS_AS_NAME": "LET'S PET", 
    "POP_AT_RISK": 72297, 
    "ZIP": 60657, 
    "ADDRESS": "3404 N ASHLAND AVE  1", 
    "YEAR": 2009, 
    "LONGITUDE": -87.66891581, 
    "LATTITUDE": 41.943545492
  }, 
  {
    "BUSINESS_TYPE": "Pet Shop", 
    "LEGAL_NAME": "JUAN ZARATE", 
    "STATE": "IL", 
    "DOING_BUSINESS_AS_NAME": "CACHORRO PET", 
    "POP_AT_RISK": 53653, 
    "ZIP": 60632, 
    "ADDRESS": "4008 S ARCHER AVE 1", 
    "YEAR": 2009, 
    "LONGITUDE": -87.693231473, 
    "LATTITUDE": 41.820987548
  }, 
  {
    "BUSINESS_TYPE": "Pet Shop", 
    "LEGAL_NAME": "JOSE M PEREZ", 
    "STATE": "IL", 
    "DOING_BUSINESS_AS_NAME": "PARADISE DE AVES", 
    "POP_AT_RISK": 35845, 
    "ZIP": 60609, 
    "ADDRESS": "1836 W 47TH ST 1ST", 
    "YEAR": 2009, 
    "LONGITUDE": -87.671273972, 
    "LATTITUDE": 41.808652704
  }, 
  {
    "BUSINESS_TYPE": "Pet Shop", 
    "LEGAL_NAME": "PETCO ANIMAL SUPPLIES STORES, INC.", 
    "STATE": "IL", 
    "DOING_BUSINESS_AS_NAME": "PETCO #1983", 
    "POP_AT_RISK": 16113, 
    "ZIP": 60643, 
    "ADDRESS": "11720 S MARSHFIELD AVE 1", 
    "YEAR": 2009, 
    "LONGITUDE": -87.662590199, 
    "LATTITUDE": 41.68064793
  }, 
  {
    "BUSINESS_TYPE": "Pet Shop", 
    "LEGAL_NAME": "GOLDEN AQUARIUM INC.", 
    "STATE": "IL", 
    "DOING_BUSINESS_AS_NAME": "BUYER SOLUTION", 
    "POP_AT_RISK": 53875, 
    "ZIP": 60608, 
    "ADDRESS": "2516 S HALSTED ST", 
    "YEAR": 2009, 
    "LONGITUDE": -87.646615066, 
    "LATTITUDE": 41.846534043
  }, 
  {
    "BUSINESS_TYPE": "Pet Shop", 
    "LEGAL_NAME": "VALERIE DAVIS AND LAMONT E WILSON", 
    "STATE": "IL", 
    "DOING_BUSINESS_AS_NAME": "ALL ABOUT PETS", 
    "POP_AT_RISK": 24497, 
    "ZIP": 60617, 
    "ADDRESS": "10540 S EWING AVE 1ST", 
    "YEAR": 2009, 
    "LONGITUDE": -87.535431738, 
    "LATTITUDE": 41.703336347
  }, 
  {
    "BUSINESS_TYPE": "Pet Shop", 
    "LEGAL_NAME": "MARIA F. DELGADO", 
    "STATE": "IL", 
    "DOING_BUSINESS_AS_NAME": "CERMAK PETS & SUPPLYS", 
    "POP_AT_RISK": 45433, 
    "ZIP": 60632, 
    "ADDRESS": "2417 W 51ST ST 1ST", 
    "YEAR": 2009, 
    "LONGITUDE": -87.68502894, 
    "LATTITUDE": 41.801031923
  }, 
  {
    "BUSINESS_TYPE": "Pet Shop", 
    "LEGAL_NAME": "PARK PET SHOP INC.", 
    "STATE": "IL", 
    "DOING_BUSINESS_AS_NAME": "PARK PET SHOP INC", 
    "POP_AT_RISK": 20928, 
    "ZIP": 60655, 
    "ADDRESS": "10429 S KEDZIE AVE 1ST", 
    "YEAR": 2009, 
    "LONGITUDE": -87.701104046, 
    "LATTITUDE": 41.70347027
  }, 
  {
    "BUSINESS_TYPE": "Pet Shop", 
    "LEGAL_NAME": "PETSMART, INC.", 
    "STATE": "IL", 
    "DOING_BUSINESS_AS_NAME": "PETSMART", 
    "POP_AT_RISK": 32478, 
    "ZIP": 60607, 
    "ADDRESS": "1101 S CANAL ST", 
    "YEAR": 2009, 
    "LONGITUDE": -87.639098928, 
    "LATTITUDE": 41.868889711
  }, 
  {
    "BUSINESS_TYPE": "Pet Shop", 
    "LEGAL_NAME": "MICHELLE LYN NIELSEN", 
    "STATE": "IL", 
    "DOING_BUSINESS_AS_NAME": "PET BUDDIES", 
    "POP_AT_RISK": 75037, 
    "ZIP": 60625, 
    "ADDRESS": "2752 W LAWRENCE AVE 1 2", 
    "YEAR": 2009, 
    "LONGITUDE": -87.698285685, 
    "LATTITUDE": 41.968644613
  }, 
  {
    "BUSINESS_TYPE": "Pet Shop", 
    "LEGAL_NAME": "OCEAN DESIGN AQUARIUM INC", 
    "STATE": "IL", 
    "DOING_BUSINESS_AS_NAME": "OCEAN DESIGN AQUARIUM", 
    "POP_AT_RISK": 38072, 
    "ZIP": 60634, 
    "ADDRESS": "6500 W IRVING PARK RD  1", 
    "YEAR": 2009, 
    "LONGITUDE": -87.789083831, 
    "LATTITUDE": 41.952984203
  }, 
  {
    "BUSINESS_TYPE": "Pet Shop", 
    "LEGAL_NAME": "RUFF N' STUFF", 
    "STATE": "IL", 
    "DOING_BUSINESS_AS_NAME": "RUFF N STUFF", 
    "POP_AT_RISK": 62706, 
    "ZIP": 60640, 
    "ADDRESS": "5430 N CLARK ST  1", 
    "YEAR": 2009, 
    "LONGITUDE": -87.668502587, 
    "LATTITUDE": 41.980796189
  }, 
  {
    "BUSINESS_TYPE": "Pet Shop", 
    "LEGAL_NAME": "FRANK KOLODZIEJ", 
    "STATE": "IL", 
    "DOING_BUSINESS_AS_NAME": "FRANK KOLODZIEJ", 
    "POP_AT_RISK": 45225, 
    "ZIP": 60632, 
    "ADDRESS": "4222 W 55TH ST  1", 
    "YEAR": 2009, 
    "LONGITUDE": -87.729136386, 
    "LATTITUDE": 41.79326181
  }, 
  {
    "BUSINESS_TYPE": "Pet Shop", 
    "LEGAL_NAME": "JOSEPH J. BUDVAITIS", 
    "STATE": "IL", 
    "DOING_BUSINESS_AS_NAME": "PAWS AND CLAWS", 
    "POP_AT_RISK": 35542, 
    "ZIP": 60609, 
    "ADDRESS": "3512 S HALSTED ST 1ST 1", 
    "YEAR": 2009, 
    "LONGITUDE": -87.646243175, 
    "LATTITUDE": 41.830322224
  }, 
  {
    "BUSINESS_TYPE": "Pet Shop", 
    "LEGAL_NAME": "PET SUPPLIES PLUS\" CHICAGO CITY CENTER LIMITED PARTNERSHIP", 
    "STATE": "IL", 
    "DOING_BUSINESS_AS_NAME": "PET SUPPLIES \"PLUS\" STORE #53", 
    "POP_AT_RISK": 24680, 
    "ZIP": 60656, 
    "ADDRESS": "5435 N HARLEM AVE 1ST", 
    "YEAR": 2009, 
    "LONGITUDE": -87.806831118, 
    "LATTITUDE": 41.980203234
  }, 
  {
    "BUSINESS_TYPE": "Pet Shop", 
    "LEGAL_NAME": "MARTIN ZARATE", 
    "STATE": "IL", 
    "DOING_BUSINESS_AS_NAME": "SUPER PET STORE", 
    "POP_AT_RISK": 40702, 
    "ZIP": 60632, 
    "ADDRESS": "5220 S PULASKI RD 1ST C147-149", 
    "YEAR": 2009, 
    "LONGITUDE": -87.723443741, 
    "LATTITUDE": 41.79799187
  }, 
  {
    "BUSINESS_TYPE": "Pet Shop", 
    "LEGAL_NAME": "VICTORIA KRASHAK", 
    "STATE": "IL", 
    "DOING_BUSINESS_AS_NAME": "MIDWAY PET & HOBBIE", 
    "POP_AT_RISK": 18938, 
    "ZIP": 60638, 
    "ADDRESS": "5941 W 63RD ST  1", 
    "YEAR": 2009, 
    "LONGITUDE": -87.770724122, 
    "LATTITUDE": 41.777766621
  }, 
  {
    "BUSINESS_TYPE": "Pet Shop", 
    "LEGAL_NAME": "AQUARICLEAN, INC", 
    "STATE": "IL", 
    "DOING_BUSINESS_AS_NAME": "Blue Planet Aquarium Services", 
    "POP_AT_RISK": 35554, 
    "ZIP": 60630, 
    "ADDRESS": "5342 N NORTHWEST HWY", 
    "YEAR": 2009, 
    "LONGITUDE": -87.772745738, 
    "LATTITUDE": 41.977464175
  }, 
  {
    "BUSINESS_TYPE": "Pet Shop", 
    "LEGAL_NAME": "FURRY FRIENDS INC.", 
    "STATE": "IL", 
    "DOING_BUSINESS_AS_NAME": "FURRY FRIENDS INC.", 
    "POP_AT_RISK": 65371, 
    "ZIP": 60639, 
    "ADDRESS": "5311 W FULLERTON AVE", 
    "YEAR": 2009, 
    "LONGITUDE": -87.759061205, 
    "LATTITUDE": 41.923959909
  }, 
  {
    "BUSINESS_TYPE": "Pet Shop", 
    "LEGAL_NAME": "GLORIA & TRACY MCBRIDE", 
    "STATE": "IL", 
    "DOING_BUSINESS_AS_NAME": "PINK POODLE PALACE", 
    "POP_AT_RISK": 14637, 
    "ZIP": 60628, 
    "ADDRESS": "12721 S HALSTED ST 1ST", 
    "YEAR": 2009, 
    "LONGITUDE": -87.641251245, 
    "LATTITUDE": 41.662549682
  }, 
  {
    "BUSINESS_TYPE": "Pet Shop", 
    "LEGAL_NAME": "PETCO ANIMAL SUPPLIES STORES, INC.", 
    "STATE": "IL", 
    "DOING_BUSINESS_AS_NAME": "PETCO #1965", 
    "POP_AT_RISK": 65951, 
    "ZIP": 60610, 
    "ADDRESS": "440 N ORLEANS ST", 
    "YEAR": 2009, 
    "LONGITUDE": -87.637144726, 
    "LATTITUDE": 41.890341971
  }, 
  {
    "BUSINESS_TYPE": "Pet Shop", 
    "LEGAL_NAME": "DOGS AND CATS GROOMING SALON, INC.", 
    "STATE": "IL", 
    "DOING_BUSINESS_AS_NAME": "DOGS AND CATS GROOMING SALON", 
    "POP_AT_RISK": 65938, 
    "ZIP": 60640, 
    "ADDRESS": "1710 W LAWRENCE AVE 1ST", 
    "YEAR": 2009, 
    "LONGITUDE": -87.671518049, 
    "LATTITUDE": 41.968965554
  }, 
  {
    "BUSINESS_TYPE": "Pet Shop", 
    "LEGAL_NAME": "WAL-MART STORES, INC.", 
    "STATE": "IL", 
    "DOING_BUSINESS_AS_NAME": "WALMART #5402", 
    "POP_AT_RISK": 56124, 
    "ZIP": 60639, 
    "ADDRESS": "4650 W NORTH AVE", 
    "YEAR": 2009, 
    "LONGITUDE": -87.743376296, 
    "LATTITUDE": 41.909764527
  }, 
  {
    "BUSINESS_TYPE": "Pet Shop", 
    "LEGAL_NAME": "JOE'S PET SALON", 
    "STATE": "IL", 
    "DOING_BUSINESS_AS_NAME": "JOE'S PET SALON", 
    "POP_AT_RISK": 52457, 
    "ZIP": 60608, 
    "ADDRESS": "2733 W CERMAK RD 1", 
    "YEAR": 2009, 
    "LONGITUDE": -87.694349192, 
    "LATTITUDE": 41.851806335
  }, 
  {
    "BUSINESS_TYPE": "Pet Shop", 
    "LEGAL_NAME": "JACQUELINE R WILSON", 
    "STATE": "IL", 
    "DOING_BUSINESS_AS_NAME": "BLUE MAGIC PET SHOP", 
    "POP_AT_RISK": 43671, 
    "ZIP": 60649, 
    "ADDRESS": "2734 E 79TH ST 1ST", 
    "YEAR": 2009, 
    "LONGITUDE": -87.557018555, 
    "LATTITUDE": 41.751965022
  }, 
  {
    "BUSINESS_TYPE": "Pet Shop", 
    "LEGAL_NAME": "ELIZABETH M VARELA", 
    "STATE": "IL", 
    "DOING_BUSINESS_AS_NAME": "LIZ'S PET SHOP", 
    "POP_AT_RISK": 56333, 
    "ZIP": 60622, 
    "ADDRESS": "2403 W CHICAGO AVE 1ST", 
    "YEAR": 2009, 
    "LONGITUDE": -87.687039208, 
    "LATTITUDE": 41.895630349
  }, 
  {
    "BUSINESS_TYPE": "Pet Shop", 
    "LEGAL_NAME": "BIT O TROPICS INC", 
    "STATE": "IL", 
    "DOING_BUSINESS_AS_NAME": "BIT O TROPICS", 
    "POP_AT_RISK": 68079, 
    "ZIP": 60639, 
    "ADDRESS": "5550 1/2-52 W FULLERTON AVE", 
    "YEAR": 2009, 
    "LONGITUDE": -87.765616153, 
    "LATTITUDE": 41.924095643
  }, 
  {
    "BUSINESS_TYPE": "Pet Shop", 
    "LEGAL_NAME": "GLORIA L. MENDOZA", 
    "STATE": "IL", 
    "DOING_BUSINESS_AS_NAME": "ROSY'S BIRDS PETSHOP ACCESSORIES", 
    "POP_AT_RISK": 69324, 
    "ZIP": 60647, 
    "ADDRESS": "2500 N MILWAUKEE AVE 1ST 406", 
    "YEAR": 2009, 
    "LONGITUDE": -87.703827827, 
    "LATTITUDE": 41.926736598
  }, 
  {
    "BUSINESS_TYPE": "Pet Shop", 
    "LEGAL_NAME": "CARL GOLDEN", 
    "STATE": "IL", 
    "DOING_BUSINESS_AS_NAME": "CARL GOLDEN", 
    "POP_AT_RISK": 35686, 
    "ZIP": 60620, 
    "ADDRESS": "8611 S ASHLAND AVE  1", 
    "YEAR": 2009, 
    "LONGITUDE": -87.662953283, 
    "LATTITUDE": 41.737241001
  }, 
  {
    "BUSINESS_TYPE": "Pet Shop", 
    "LEGAL_NAME": "PET LUV PET CENTER INC", 
    "STATE": "IL", 
    "DOING_BUSINESS_AS_NAME": "PET LUV PET CENTER INC", 
    "POP_AT_RISK": 11047, 
    "ZIP": 60652, 
    "ADDRESS": "8057 S CICERO AVE", 
    "YEAR": 2009, 
    "LONGITUDE": -87.74110156, 
    "LATTITUDE": 41.74602292
  }, 
  {
    "BUSINESS_TYPE": "Pet Shop", 
    "LEGAL_NAME": "JULE'S PETS, LLC", 
    "STATE": "IL", 
    "DOING_BUSINESS_AS_NAME": "JULE'S PETS", 
    "POP_AT_RISK": 67319, 
    "ZIP": 60630, 
    "ADDRESS": "4445 N PULASKI RD  B & C", 
    "YEAR": 2009, 
    "LONGITUDE": -87.727713718, 
    "LATTITUDE": 41.962234812
  }, 
  {
    "BUSINESS_TYPE": "Pet Shop", 
    "LEGAL_NAME": "ANIMAL KINGDOM INC", 
    "STATE": "IL", 
    "DOING_BUSINESS_AS_NAME": "ANIMAL KINGDOM INCORPORATED", 
    "POP_AT_RISK": 60635, 
    "ZIP": 60618, 
    "ADDRESS": "2980 N MILWAUKEE AVE", 
    "YEAR": 2009, 
    "LONGITUDE": -87.717957144, 
    "LATTITUDE": 41.935364502
  }, 
  {
    "BUSINESS_TYPE": "Pet Shop", 
    "LEGAL_NAME": "DARRELL B LINDSEY", 
    "STATE": "IL", 
    "DOING_BUSINESS_AS_NAME": "TOP DOGS", 
    "POP_AT_RISK": 34985, 
    "ZIP": 60707, 
    "ADDRESS": "6919 W GRAND AVE", 
    "YEAR": 2009, 
    "LONGITUDE": -87.798843075, 
    "LATTITUDE": 41.923459733
  }, 
  {
    "BUSINESS_TYPE": "Pet Shop", 
    "LEGAL_NAME": "KIEM NGUYEN", 
    "STATE": "IL", 
    "DOING_BUSINESS_AS_NAME": "DONNA AQUATIC PET SHOP", 
    "POP_AT_RISK": 84650, 
    "ZIP": 60625, 
    "ADDRESS": "3055 W LAWRENCE AVE", 
    "YEAR": 2009, 
    "LONGITUDE": -87.705812274, 
    "LATTITUDE": 41.968367309
  }
]