[
{"STATE":"IL","ZIP":60614,"LATTITUDE":41.92606441246732,"ADDRESS":"2430-2432 N LINCOLN AVE 1ST ","YEAR":2014,"DOING_BUSINESS_AS_NAME":"LINCOLN STATION","POP_AT_RISK":356455,"BUSINESS_TYPE":"Food - Shared Kitchen - Supplemental","LEGAL_NAME":"IRIDIAN,INC","LONGITUDE":-87.64984102257678},
{"STATE":"IL","ZIP":60647,"LATTITUDE":41.91023000926717,"ADDRESS":"2325 W NORTH AVE 1ST ","YEAR":2014,"DOING_BUSINESS_AS_NAME":"NAVEEN' S CUISINE","POP_AT_RISK":562520,"BUSINESS_TYPE":"Food - Shared Kitchen - Supplemental","LEGAL_NAME":"SACHAR INC.","LONGITUDE":-87.6858503668328},
{"STATE":"IL","ZIP":60642,"LATTITUDE":41.89099763912711,"ADDRESS":"1103 W GRAND AVE 1ST ","YEAR":2014,"DOING_BUSINESS_AS_NAME":"ZULLO'S INC.","POP_AT_RISK":90260,"BUSINESS_TYPE":"Food - Shared Kitchen - Supplemental","LEGAL_NAME":"ZULLO'S INC.","LONGITUDE":-87.6547725026918},
{"STATE":"IL","ZIP":60649,"LATTITUDE":41.75888651800864,"ADDRESS":"2419-2425 E 75TH ST 1 ","YEAR":2014,"DOING_BUSINESS_AS_NAME":"THE QUARRY EVENT CENTER","POP_AT_RISK":654332,"BUSINESS_TYPE":"Food - Shared Kitchen - Supplemental","LEGAL_NAME":"UNEARTHED LLC","LONGITUDE":-87.56565795329745},
{"STATE":"IL","ZIP":60645,"LATTITUDE":42.019199894129855,"ADDRESS":"7551 N RIDGE BLVD 1 1","YEAR":2014,"DOING_BUSINESS_AS_NAME":"GREEN SPIRIT LLC","POP_AT_RISK":1064460,"BUSINESS_TYPE":"Food - Shared Kitchen - Supplemental","LEGAL_NAME":"GREEN SPIRIT LLC","LONGITUDE":-87.6844696134377},
{"STATE":"IL","ZIP":60608,"LATTITUDE":41.85045102427,"ADDRESS":"2300 S THROOP ST  ","YEAR":2014,"DOING_BUSINESS_AS_NAME":"CHICAGO SMOKE LTD","POP_AT_RISK":41244,"BUSINESS_TYPE":"Food - Shared Kitchen - Supplemental","LEGAL_NAME":"CHICAGO SMOKE LTD.","LONGITUDE":-87.65879785567869},
{"STATE":"IL","ZIP":60618,"LATTITUDE":41.939646610904056,"ADDRESS":"3207 N ELSTON AVE 1ST FLOOR 1","YEAR":2014,"DOING_BUSINESS_AS_NAME":"BULL DOG BAKERY II","POP_AT_RISK":145503,"BUSINESS_TYPE":"Food - Shared Kitchen - Supplemental","LEGAL_NAME":"PAT'S PASTRIES LLC","LONGITUDE":-87.69847901358345},
{"STATE":"IL","ZIP":60611,"LATTITUDE":41.89924859703626,"ADDRESS":"900 N MICHIGAN AVE LOWER LEVEL L320","YEAR":2014,"DOING_BUSINESS_AS_NAME":"SUR LA TABLE","POP_AT_RISK":253236,"BUSINESS_TYPE":"Food - Shared Kitchen - Supplemental","LEGAL_NAME":"SUR LA TABLE, INC.","LONGITUDE":-87.62427497820545},
{"STATE":"IL","ZIP":60614,"LATTITUDE":41.92390845485592,"ADDRESS":"2300 N LINCOLN PARK WEST   A 4","YEAR":2014,"DOING_BUSINESS_AS_NAME":"Charlie Baggs Culinary Innovations","POP_AT_RISK":99970,"BUSINESS_TYPE":"Food - Shared Kitchen - Supplemental","LEGAL_NAME":"CHARLIE BAGGS, INC.","LONGITUDE":-87.63666316560742},
{"STATE":"IL","ZIP":60608,"LATTITUDE":41.85923166317091,"ADDRESS":"2443 W 16TH ST 1ST ","YEAR":2014,"DOING_BUSINESS_AS_NAME":"CATERING OUT THE BOX","POP_AT_RISK":220548,"BUSINESS_TYPE":"Food - Shared Kitchen - Supplemental","LEGAL_NAME":"CATERING OUT THE BOX","LONGITUDE":-87.68748555402212},
{"STATE":"IL","ZIP":60607,"LATTITUDE":41.88353769911732,"ADDRESS":"116 N ABERDEEN ST  ","YEAR":2014,"DOING_BUSINESS_AS_NAME":"THE GARAGE","POP_AT_RISK":195530,"BUSINESS_TYPE":"Food - Shared Kitchen - Supplemental","LEGAL_NAME":"THE SALSA TRUCK, LLC","LONGITUDE":-87.65456046337651},
{"STATE":"IL","ZIP":60631,"LATTITUDE":41.99727682798901,"ADDRESS":"7280 W DEVON AVE 1ST ","YEAR":2014,"DOING_BUSINESS_AS_NAME":"UNFORGETTABLE EDIBLES","POP_AT_RISK":47856,"BUSINESS_TYPE":"Food - Shared Kitchen - Supplemental","LEGAL_NAME":"SHAMROCK CATERING INC","LONGITUDE":-87.80962433024467},
{"STATE":"IL","ZIP":60647,"LATTITUDE":41.92521769617991,"ADDRESS":"2409 N WESTERN AVE 1ST ","YEAR":2014,"DOING_BUSINESS_AS_NAME":"VERUCA CHOCOLATES","POP_AT_RISK":112398,"BUSINESS_TYPE":"Food - Shared Kitchen - Supplemental","LEGAL_NAME":"VERUCA CHOCOLATES CO.","LONGITUDE":-87.68750659490456},
{"STATE":"IL","ZIP":60623,"LATTITUDE":41.85017059600243,"ADDRESS":"4115 W OGDEN AVE  4","YEAR":2014,"DOING_BUSINESS_AS_NAME":"EL PICOSO IMPORTS INC.","POP_AT_RISK":400785,"BUSINESS_TYPE":"Food - Shared Kitchen - Supplemental","LEGAL_NAME":"EL PICOSO IMPORTS INC.","LONGITUDE":-87.72701196326896},
{"STATE":"IL","ZIP":60646,"LATTITUDE":41.985762969681936,"ADDRESS":"5740 N MILWAUKEE AVE 1 1","YEAR":2014,"DOING_BUSINESS_AS_NAME":"A MIDWEST KITCHEN","POP_AT_RISK":165282,"BUSINESS_TYPE":"Food - Shared Kitchen - Supplemental","LEGAL_NAME":"A MIDWEST KITCHEN, INC.","LONGITUDE":-87.77712906969982},
{"STATE":"IL","ZIP":60640,"LATTITUDE":41.964177038368376,"ADDRESS":"4527 N RAVENSWOOD AVE 1ST 106","YEAR":2014,"DOING_BUSINESS_AS_NAME":"Lucila's Homemade","POP_AT_RISK":833475,"BUSINESS_TYPE":"Food - Shared Kitchen - Supplemental","LEGAL_NAME":"LUCILA' S HOMEMADE, LLC","LONGITUDE":-87.67390421656927},
{"STATE":"IL","ZIP":60608,"LATTITUDE":41.84467072147077,"ADDRESS":"2637 S THROOP ST  ","YEAR":2014,"DOING_BUSINESS_AS_NAME":"TRIPLE A SERVICES, INC.","POP_AT_RISK":280314,"BUSINESS_TYPE":"Food - Shared Kitchen - Supplemental","LEGAL_NAME":"TRIPLE A SERVICES, INC.","LONGITUDE":-87.6549622241458},
{"STATE":"IL","ZIP":60612,"LATTITUDE":41.89275410387521,"ADDRESS":"627 N ALBANY AVE 1ST 170","YEAR":2014,"DOING_BUSINESS_AS_NAME":"MILK & HONEY GRANOLA","POP_AT_RISK":115806,"BUSINESS_TYPE":"Food - Shared Kitchen - Supplemental","LEGAL_NAME":"MILK & HONEY GRANOLA, LLC","LONGITUDE":-87.70386026922512},
{"STATE":"IL","ZIP":60608,"LATTITUDE":41.84994008002549,"ADDRESS":"2332 S BLUE ISLAND AVE GROUND ","YEAR":2014,"DOING_BUSINESS_AS_NAME":"MEXICANDY DISTRIBUTOR, INC.","POP_AT_RISK":40302,"BUSINESS_TYPE":"Food - Shared Kitchen - Supplemental","LEGAL_NAME":"MEXICANDY DISTRIBUTOR, INC.","LONGITUDE":-87.67242100722251},
{"STATE":"IL","ZIP":60623,"LATTITUDE":41.84635540148372,"ADDRESS":"2459 S HOMAN AVE 1ST 1","YEAR":2014,"DOING_BUSINESS_AS_NAME":"EL CHIVITO JALICIENSE CORP","POP_AT_RISK":512540,"BUSINESS_TYPE":"Food - Shared Kitchen - Supplemental","LEGAL_NAME":"EL CHIVITO JALICIENSE, CORP.","LONGITUDE":-87.70981611899299},
{"STATE":"IL","ZIP":60660,"LATTITUDE":41.994481856507505,"ADDRESS":"1039-1041 W GRANVILLE AVE  ","YEAR":2014,"DOING_BUSINESS_AS_NAME":"METROPOLIS COFFEE COMPANY","POP_AT_RISK":257092,"BUSINESS_TYPE":"Food - Shared Kitchen - Supplemental","LEGAL_NAME":"METROPOLIS COFFEE COMPANY LLC","LONGITUDE":-87.65710041981102},
{"STATE":"IL","ZIP":60618,"LATTITUDE":41.94254075021183,"ADDRESS":"3355-3361 N ELSTON AVE 1 ","YEAR":2014,"DOING_BUSINESS_AS_NAME":"HONEY BUTTER FRIED CHICKEN","POP_AT_RISK":157809,"BUSINESS_TYPE":"Food - Shared Kitchen - Supplemental","LEGAL_NAME":"HONEY BUTTER FRIED CHICKEN LLC","LONGITUDE":-87.70268272764137},
{"STATE":"IL","ZIP":60647,"LATTITUDE":41.917386311482865,"ADDRESS":"2745 W ARMITAGE AVE  ","YEAR":2014,"DOING_BUSINESS_AS_NAME":"KATHERINE ANNE CONFECTIONS","POP_AT_RISK":398064,"BUSINESS_TYPE":"Food - Shared Kitchen - Supplemental","LEGAL_NAME":"KATHERINE ANNE CONFECTIONS, LLC","LONGITUDE":-87.69658543262949},
{"STATE":"IL","ZIP":60624,"LATTITUDE":41.88490237870729,"ADDRESS":"3504-3518 W LAKE ST 1 1","YEAR":2014,"DOING_BUSINESS_AS_NAME":"INSPIRATION CORPORATION","POP_AT_RISK":396253,"BUSINESS_TYPE":"Food - Shared Kitchen - Supplemental","LEGAL_NAME":"INSPIRATION CORPORATION, CHICAGO","LONGITUDE":-87.71381982162445},
{"STATE":"IL","ZIP":60631,"LATTITUDE":42.00224676505933,"ADDRESS":"6701 N OLMSTED AVE 1ST ","YEAR":2014,"DOING_BUSINESS_AS_NAME":"LE FLOUR BAKE SHOP & MARKET INC.","POP_AT_RISK":37836,"BUSINESS_TYPE":"Food - Shared Kitchen - Supplemental","LEGAL_NAME":"LE FLOUR BAKE SHOP & MARKET INC.","LONGITUDE":-87.81681363623768},
{"STATE":"IL","ZIP":60625,"LATTITUDE":41.978707104958744,"ADDRESS":"5333 N LINCOLN AVE 1 ","YEAR":2014,"DOING_BUSINESS_AS_NAME":"RUTH AND PHILS GOURMET ICE CREAM","POP_AT_RISK":356232,"BUSINESS_TYPE":"Food - Shared Kitchen - Supplemental","LEGAL_NAME":"RUTH AND PHILS GOURMET ICE CREAM INC.","LONGITUDE":-87.69248157921781},
{"STATE":"IL","ZIP":60660,"LATTITUDE":41.989563447865955,"ADDRESS":"5917 N BROADWAY   ","YEAR":2014,"DOING_BUSINESS_AS_NAME":"FEARLESS FOOD KITCHEN","POP_AT_RISK":235244,"BUSINESS_TYPE":"Food - Shared Kitchen - Supplemental","LEGAL_NAME":"THE PETERSON GARDEN PROJECT, INC. NFP","LONGITUDE":-87.66010699454277},
{}]