[
{"STATE":"IL","ZIP":60645,"LATTITUDE":42.016961012809865,"ADDRESS":"7436 N WESTERN AVE 1ST ","YEAR":2011,"DOING_BUSINESS_AS_NAME":"MARK II LTD","POP_AT_RISK":448515,"BUSINESS_TYPE":"Tobacco Vending, Individual","LEGAL_NAME":"MARK II, LTD.","LONGITUDE":-87.69034725403856},
{"STATE":"IL","ZIP":60626,"LATTITUDE":42.005871902451084,"ADDRESS":"6809-6813 N SHERIDAN RD 1ST ","YEAR":2011,"DOING_BUSINESS_AS_NAME":"OASIS, THE","POP_AT_RISK":795483,"BUSINESS_TYPE":"Tobacco Vending, Individual","LEGAL_NAME":"PRATTFALL INC","LONGITUDE":-87.66085202755195},
{"STATE":"IL","ZIP":60632,"LATTITUDE":41.79800597428108,"ADDRESS":"5221 S CICERO AVE  ","YEAR":2011,"DOING_BUSINESS_AS_NAME":"SUNSET INN,INC","POP_AT_RISK":262512,"BUSINESS_TYPE":"Tobacco Vending, Individual","LEGAL_NAME":"SUNSET INN,INC","LONGITUDE":-87.7427569288057},
{"STATE":"IL","ZIP":60623,"LATTITUDE":41.840922809543144,"ADDRESS":"2758 S SPAULDING AVE  ","YEAR":2011,"DOING_BUSINESS_AS_NAME":"CARMENS PLACE","POP_AT_RISK":301120,"BUSINESS_TYPE":"Tobacco Vending, Individual","LEGAL_NAME":"VILLAGRANA INC","LONGITUDE":-87.707517430604},
{"STATE":"IL","ZIP":60630,"LATTITUDE":41.97032186228699,"ADDRESS":"4906-4908 N PULASKI RD  ","YEAR":2011,"DOING_BUSINESS_AS_NAME":"GAMBLERS","POP_AT_RISK":252812,"BUSINESS_TYPE":"Tobacco Vending, Individual","LEGAL_NAME":"GAMBLERS I, INC.","LONGITUDE":-87.72823518111367},
{"STATE":"IL","ZIP":60608,"LATTITUDE":41.84458430031092,"ADDRESS":"2600 S CALIFORNIA AVE  FACIL","YEAR":2011,"DOING_BUSINESS_AS_NAME":"DEPT OF REHABILITATION SVC\/VFP","POP_AT_RISK":235196,"BUSINESS_TYPE":"Tobacco Vending, Individual","LEGAL_NAME":"STATE OF ILLINOIS","LONGITUDE":-87.69535984321492},
{"STATE":"IL","ZIP":60630,"LATTITUDE":41.96246973487343,"ADDRESS":"4500 N ELSTON AVE 1ST ","YEAR":2011,"DOING_BUSINESS_AS_NAME":"O'DONNELLS","POP_AT_RISK":218476,"BUSINESS_TYPE":"Tobacco Vending, Individual","LEGAL_NAME":"D. O'D CORPORATION","LONGITUDE":-87.73215028038183},
{"STATE":"IL","ZIP":60643,"LATTITUDE":41.70486871150318,"ADDRESS":"10350 S WESTERN AVE  ","YEAR":2011,"DOING_BUSINESS_AS_NAME":"BREWBAKERS","POP_AT_RISK":249516,"BUSINESS_TYPE":"Tobacco Vending, Individual","LEGAL_NAME":"GORDON LOUNGE, INC","LONGITUDE":-87.68171958749872},
{"STATE":"IL","ZIP":60617,"LATTITUDE":41.72672309390813,"ADDRESS":"9273 S SOUTH CHICAGO AVE  ","YEAR":2011,"DOING_BUSINESS_AS_NAME":"ROMA'S REST","POP_AT_RISK":174664,"BUSINESS_TYPE":"Tobacco Vending, Individual","LEGAL_NAME":"PALIATSOS & SON CO.","LONGITUDE":-87.55094326211272},
{"STATE":"IL","ZIP":60605,"LATTITUDE":41.87305557644521,"ADDRESS":"701 S STATE ST  ","YEAR":2011,"DOING_BUSINESS_AS_NAME":"SOUTH LOOP CLUB INC","POP_AT_RISK":128394,"BUSINESS_TYPE":"Tobacco Vending, Individual","LEGAL_NAME":"SOUTH LOOP CLUB INC","LONGITUDE":-87.62741781254495},
{"STATE":"IL","ZIP":60640,"LATTITUDE":41.978291592499495,"ADDRESS":"1064 W BERWYN AVE  ","YEAR":2011,"DOING_BUSINESS_AS_NAME":"OLLIES","POP_AT_RISK":1268136,"BUSINESS_TYPE":"Tobacco Vending, Individual","LEGAL_NAME":"BURTONS TAP & GRILL INC","LONGITUDE":-87.65764127563683},
{"STATE":"IL","ZIP":60654,"LATTITUDE":41.89335935419248,"ADDRESS":"632 N DEARBORN ST  ","YEAR":2011,"DOING_BUSINESS_AS_NAME":"CASTLE","POP_AT_RISK":1376512,"BUSINESS_TYPE":"Tobacco Vending, Individual","LEGAL_NAME":"EXCALIBUR CHICAGO, INC.","LONGITUDE":-87.62984514678733},
{"STATE":"IL","ZIP":60661,"LATTITUDE":41.878172571606136,"ADDRESS":"233 S HALSTED ST  ","YEAR":2011,"DOING_BUSINESS_AS_NAME":"SPECTRUM SPORTS BAR & GRILL","POP_AT_RISK":210295,"BUSINESS_TYPE":"Tobacco Vending, Individual","LEGAL_NAME":"SPECTRUM SPORTS BAR & GRILL, INC.","LONGITUDE":-87.64709973557522},
{}]