[
  {
    "BUSINESS_TYPE": "Tavern", 
    "LEGAL_NAME": "EL NOCHESLENZE, INC.", 
    "STATE": "IL", 
    "DOING_BUSINESS_AS_NAME": "EL NOCHESLENZE, INC.", 
    "POP_AT_RISK": 53740, 
    "ZIP": 60609, 
    "ADDRESS": "4622 S WESTERN AVE 1ST", 
    "YEAR": 2020, 
    "LONGITUDE": -87.684611924, 
    "LATTITUDE": 41.809463801
  }, 
  {
    "BUSINESS_TYPE": "Tavern", 
    "LEGAL_NAME": "CAPARI, INC.", 
    "STATE": "IL", 
    "DOING_BUSINESS_AS_NAME": "DUFFY'S PLACE", 
    "POP_AT_RISK": 16795, 
    "ZIP": 60638, 
    "ADDRESS": "6355 S CENTRAL AVE", 
    "YEAR": 2020, 
    "LONGITUDE": -87.761513212, 
    "LATTITUDE": 41.776417683
  }, 
  {
    "BUSINESS_TYPE": "Tavern", 
    "LEGAL_NAME": "BAR 22, LLC", 
    "STATE": "IL", 
    "DOING_BUSINESS_AS_NAME": "BAR 22", 
    "POP_AT_RISK": 35264, 
    "ZIP": 60616, 
    "ADDRESS": "2244 S MICHIGAN AVE 1ST AND 2ND", 
    "YEAR": 2020, 
    "LONGITUDE": -87.623916951, 
    "LATTITUDE": 41.851579626
  }, 
  {
    "BUSINESS_TYPE": "Tavern", 
    "LEGAL_NAME": "THE LEAVITT STREET TAVERN, LLC", 
    "STATE": "IL", 
    "DOING_BUSINESS_AS_NAME": "THE LEAVITT STREET TAVERN", 
    "POP_AT_RISK": 54476, 
    "ZIP": 60647, 
    "ADDRESS": "2345 N LEAVITT ST 1", 
    "YEAR": 2020, 
    "LONGITUDE": -87.682586262, 
    "LATTITUDE": 41.924053372
  }, 
  {
    "BUSINESS_TYPE": "Tavern", 
    "LEGAL_NAME": "3529 S HALSTED INC", 
    "STATE": "IL", 
    "DOING_BUSINESS_AS_NAME": "3529 S HALSTED INC", 
    "POP_AT_RISK": 37337, 
    "ZIP": 60609, 
    "ADDRESS": "3529 S HALSTED ST 1ST", 
    "YEAR": 2020, 
    "LONGITUDE": -87.645940814, 
    "LATTITUDE": 41.829880929
  }, 
  {
    "BUSINESS_TYPE": "Tavern", 
    "LEGAL_NAME": "GUIDE INC", 
    "STATE": "IL", 
    "DOING_BUSINESS_AS_NAME": "GUIDE'S SPORTS CLUB", 
    "POP_AT_RISK": 26033, 
    "ZIP": 60638, 
    "ADDRESS": "5544 S ARCHER AVE 1ST", 
    "YEAR": 2020, 
    "LONGITUDE": -87.748297363, 
    "LATTITUDE": 41.797992787
  }, 
  {
    "BUSINESS_TYPE": "Tavern", 
    "LEGAL_NAME": "MLCL GROUP, LLC", 
    "STATE": "IL", 
    "DOING_BUSINESS_AS_NAME": "PERSONA", 
    "POP_AT_RISK": 43864, 
    "ZIP": 60607, 
    "ADDRESS": "408-412 S WELLS ST 1", 
    "YEAR": 2020, 
    "LONGITUDE": -87.633834613, 
    "LATTITUDE": 41.876603277
  }, 
  {
    "BUSINESS_TYPE": "Tavern", 
    "LEGAL_NAME": "BILL BABS, INC.", 
    "STATE": "IL", 
    "DOING_BUSINESS_AS_NAME": "KELLY'S TAVERN", 
    "POP_AT_RISK": 20203, 
    "ZIP": 60609, 
    "ADDRESS": "4403 S WALLACE ST 1ST", 
    "YEAR": 2020, 
    "LONGITUDE": -87.640668438, 
    "LATTITUDE": 41.814326117
  }
]