[
  {
    "BUSINESS_TYPE": "Outdoor Patio", 
    "LEGAL_NAME": "LIQUID WIDGETS, L.L.C.", 
    "STATE": "IL", 
    "DOING_BUSINESS_AS_NAME": "RICKY G'S", 
    "POP_AT_RISK": 53737, 
    "ZIP": 60645, 
    "ADDRESS": "7121 N WESTERN AVE", 
    "YEAR": 2006, 
    "LONGITUDE": -87.690087864, 
    "LATTITUDE": 42.011655182
  }, 
  {
    "BUSINESS_TYPE": "Outdoor Patio", 
    "LEGAL_NAME": "PORT SILVER LIMITED PARTNERSHIP", 
    "STATE": "IL", 
    "DOING_BUSINESS_AS_NAME": "THE ORIGINAL GINO'S EAST", 
    "POP_AT_RISK": 15633, 
    "ZIP": 60631, 
    "ADDRESS": "8725 W HIGGINS RD", 
    "YEAR": 2006, 
    "LONGITUDE": -87.844388665, 
    "LATTITUDE": 41.987409597
  }, 
  {
    "BUSINESS_TYPE": "Outdoor Patio", 
    "LEGAL_NAME": "MCKINNEY'S PUB, LTD.", 
    "STATE": "IL", 
    "DOING_BUSINESS_AS_NAME": "CHIEF O'NEILL'S PUB & RESTAURANT", 
    "POP_AT_RISK": 56736, 
    "ZIP": 60618, 
    "ADDRESS": "3471-3479 N ELSTON AVE 1ST", 
    "YEAR": 2006, 
    "LONGITUDE": -87.705254822, 
    "LATTITUDE": 41.944311954
  }, 
  {
    "BUSINESS_TYPE": "Outdoor Patio", 
    "LEGAL_NAME": "GIORDANOS ENTERPRISES INC", 
    "STATE": "IL", 
    "DOING_BUSINESS_AS_NAME": "GIORDANO'S RESTAURANT & PIZZER", 
    "POP_AT_RISK": 40702, 
    "ZIP": 60632, 
    "ADDRESS": "5159 S PULASKI RD", 
    "YEAR": 2006, 
    "LONGITUDE": -87.723174753, 
    "LATTITUDE": 41.798806895
  }, 
  {
    "BUSINESS_TYPE": "Outdoor Patio", 
    "LEGAL_NAME": "STRIKE TWO CORP.", 
    "STATE": "IL", 
    "DOING_BUSINESS_AS_NAME": "SEVEN TEN", 
    "POP_AT_RISK": 39918, 
    "ZIP": 60615, 
    "ADDRESS": "1055 E 55TH ST", 
    "YEAR": 2006, 
    "LONGITUDE": -87.599852031, 
    "LATTITUDE": 41.794921069
  }, 
  {
    "BUSINESS_TYPE": "Outdoor Patio", 
    "LEGAL_NAME": "GRANAT'S FIRST COUNT, INC.", 
    "STATE": "IL", 
    "DOING_BUSINESS_AS_NAME": "BOBBY G'S", 
    "POP_AT_RISK": 13444, 
    "ZIP": 60638, 
    "ADDRESS": "6843 W ARCHER AVE 1", 
    "YEAR": 2006, 
    "LONGITUDE": -87.793276429, 
    "LATTITUDE": 41.792013747
  }, 
  {
    "BUSINESS_TYPE": "Outdoor Patio", 
    "LEGAL_NAME": "TOTONY'S INC", 
    "STATE": "IL", 
    "DOING_BUSINESS_AS_NAME": "GLASS DOME HICKORY PIT", 
    "POP_AT_RISK": 52550, 
    "ZIP": 60608, 
    "ADDRESS": "2801 S HALSTED ST", 
    "YEAR": 2006, 
    "LONGITUDE": -87.64626311, 
    "LATTITUDE": 41.843418079
  }, 
  {
    "BUSINESS_TYPE": "Outdoor Patio", 
    "LEGAL_NAME": "LEVY PREMIUM FOODSERVICE LIMITED PARTNERSHIP", 
    "STATE": "IL", 
    "DOING_BUSINESS_AS_NAME": "LEVY RESTAURANTS AT GUARANTEED RATE FIELD", 
    "POP_AT_RISK": 37739, 
    "ZIP": 60616, 
    "ADDRESS": "333 W 35TH ST", 
    "YEAR": 2006, 
    "LONGITUDE": -87.635295783, 
    "LATTITUDE": 41.830783662
  }, 
  {
    "BUSINESS_TYPE": "Outdoor Patio", 
    "LEGAL_NAME": "H.T.A. INC.", 
    "STATE": "IL", 
    "DOING_BUSINESS_AS_NAME": "HAM TREE INN", 
    "POP_AT_RISK": 33756, 
    "ZIP": 60630, 
    "ADDRESS": "5333 N MILWAUKEE AVE 1ST", 
    "YEAR": 2006, 
    "LONGITUDE": -87.769236631, 
    "LATTITUDE": 41.977503479
  }, 
  {
    "BUSINESS_TYPE": "Outdoor Patio", 
    "LEGAL_NAME": "CHIPOTLE MEXICAN GRILL, INC.", 
    "STATE": "IL", 
    "DOING_BUSINESS_AS_NAME": "Chipotle Mexican Grill", 
    "POP_AT_RISK": 51822, 
    "ZIP": 60639, 
    "ADDRESS": "2640 N NARRAGANSETT AVE", 
    "YEAR": 2006, 
    "LONGITUDE": -87.785771164, 
    "LATTITUDE": 41.928562731
  }, 
  {
    "BUSINESS_TYPE": "Outdoor Patio", 
    "LEGAL_NAME": "EAT-N-PIE, INC.", 
    "STATE": "IL", 
    "DOING_BUSINESS_AS_NAME": "ANGIE'S", 
    "POP_AT_RISK": 27493, 
    "ZIP": 60652, 
    "ADDRESS": "8352 S PULASKI RD", 
    "YEAR": 2006, 
    "LONGITUDE": -87.721773481, 
    "LATTITUDE": 41.740568372
  }, 
  {
    "BUSINESS_TYPE": "Outdoor Patio", 
    "LEGAL_NAME": "4911 DIVERSEY CORP", 
    "STATE": "IL", 
    "DOING_BUSINESS_AS_NAME": "4911 DIVERSEY CORP", 
    "POP_AT_RISK": 72221, 
    "ZIP": 60639, 
    "ADDRESS": "4911 W DIVERSEY AVE 1ST", 
    "YEAR": 2006, 
    "LONGITUDE": -87.749555903, 
    "LATTITUDE": 41.931383489
  }, 
  {
    "BUSINESS_TYPE": "Outdoor Patio", 
    "LEGAL_NAME": "CAFE IL CORTILE, INC.", 
    "STATE": "IL", 
    "DOING_BUSINESS_AS_NAME": "CAFE IL CORTILE", 
    "POP_AT_RISK": 12033, 
    "ZIP": 60656, 
    "ADDRESS": "8443-8445 W LAWRENCE AVE", 
    "YEAR": 2006, 
    "LONGITUDE": -87.838385258, 
    "LATTITUDE": 41.966453173
  }, 
  {
    "BUSINESS_TYPE": "Outdoor Patio", 
    "LEGAL_NAME": "GUSTO MEXICANO INC", 
    "STATE": "IL", 
    "DOING_BUSINESS_AS_NAME": "EL CID TACOS #2", 
    "POP_AT_RISK": 74427, 
    "ZIP": 60647, 
    "ADDRESS": "2645 N KEDZIE AVE 1ST", 
    "YEAR": 2006, 
    "LONGITUDE": -87.707223234, 
    "LATTITUDE": 41.929762865
  }, 
  {
    "BUSINESS_TYPE": "Outdoor Patio", 
    "LEGAL_NAME": "HYATT CORPORATION", 
    "STATE": "IL", 
    "DOING_BUSINESS_AS_NAME": "HYATT REGENCY MCCORMICK PLACE HOTEL", 
    "POP_AT_RISK": 35622, 
    "ZIP": 60616, 
    "ADDRESS": "2233 S DR MARTIN LUTHER KING JR DR", 
    "YEAR": 2006, 
    "LONGITUDE": -87.618850804, 
    "LATTITUDE": 41.852075574
  }, 
  {
    "BUSINESS_TYPE": "Outdoor Patio", 
    "LEGAL_NAME": "CITY REFLECTIONS INC", 
    "STATE": "IL", 
    "DOING_BUSINESS_AS_NAME": "CITY REFLECTIONS INC", 
    "POP_AT_RISK": 46193, 
    "ZIP": 60632, 
    "ADDRESS": "4459 S KEDZIE AVE", 
    "YEAR": 2006, 
    "LONGITUDE": -87.703975055, 
    "LATTITUDE": 41.811853275
  }, 
  {
    "BUSINESS_TYPE": "Outdoor Patio", 
    "LEGAL_NAME": "INTER-TRACK PARTNERS L.L.C.", 
    "STATE": "IL", 
    "DOING_BUSINESS_AS_NAME": "111TH STREET OTB", 
    "POP_AT_RISK": 10503, 
    "ZIP": 60628, 
    "ADDRESS": "11203 S CORLISS AVE 1ST #", 
    "YEAR": 2006, 
    "LONGITUDE": -87.600677902, 
    "LATTITUDE": 41.690742007
  }, 
  {
    "BUSINESS_TYPE": "Outdoor Patio", 
    "LEGAL_NAME": "ERRO INC", 
    "STATE": "IL", 
    "DOING_BUSINESS_AS_NAME": "MONTROSE SALOON", 
    "POP_AT_RISK": 81213, 
    "ZIP": 60618, 
    "ADDRESS": "2933 W MONTROSE AVE 1 #", 
    "YEAR": 2006, 
    "LONGITUDE": -87.702274158, 
    "LATTITUDE": 41.961116939
  }, 
  {
    "BUSINESS_TYPE": "Outdoor Patio", 
    "LEGAL_NAME": "FIESTA MEXICO, INC.", 
    "STATE": "IL", 
    "DOING_BUSINESS_AS_NAME": "HACIENDA PUEBLO VIEJO", 
    "POP_AT_RISK": 18922, 
    "ZIP": 60638, 
    "ADDRESS": "5728 S ARCHER AVE", 
    "YEAR": 2006, 
    "LONGITUDE": -87.755430018, 
    "LATTITUDE": 41.796899999
  }, 
  {
    "BUSINESS_TYPE": "Outdoor Patio", 
    "LEGAL_NAME": "Chicago Pizza Department Corp.", 
    "STATE": "IL", 
    "DOING_BUSINESS_AS_NAME": "Cork And Kerry", 
    "POP_AT_RISK": 21523, 
    "ZIP": 60643, 
    "ADDRESS": "10614 S WESTERN AVE", 
    "YEAR": 2006, 
    "LONGITUDE": -87.681577299, 
    "LATTITUDE": 41.700415067
  }, 
  {
    "BUSINESS_TYPE": "Outdoor Patio", 
    "LEGAL_NAME": "BIG CHICKS, INC.", 
    "STATE": "IL", 
    "DOING_BUSINESS_AS_NAME": "BIG CHICKS, INC.", 
    "POP_AT_RISK": 55323, 
    "ZIP": 60640, 
    "ADDRESS": "5024 N SHERIDAN RD  1ST F", 
    "YEAR": 2006, 
    "LONGITUDE": -87.655094492, 
    "LATTITUDE": 41.974069119
  }, 
  {
    "BUSINESS_TYPE": "Outdoor Patio", 
    "LEGAL_NAME": "Bubu, Inc.", 
    "STATE": "IL", 
    "DOING_BUSINESS_AS_NAME": "CAFE LAGUARDIA WEST", 
    "POP_AT_RISK": 7538, 
    "ZIP": 60707, 
    "ADDRESS": "6818 W NORTH AVE", 
    "YEAR": 2006, 
    "LONGITUDE": -87.795620293, 
    "LATTITUDE": 41.90912536
  }, 
  {
    "BUSINESS_TYPE": "Outdoor Patio", 
    "LEGAL_NAME": "P J'S BREWERY INC", 
    "STATE": "IL", 
    "DOING_BUSINESS_AS_NAME": "P J'S BREWERY", 
    "POP_AT_RISK": 24739, 
    "ZIP": 60634, 
    "ADDRESS": "3848 N HARLEM AVE", 
    "YEAR": 2006, 
    "LONGITUDE": -87.807329446, 
    "LATTITUDE": 41.950347693
  }, 
  {
    "BUSINESS_TYPE": "Outdoor Patio", 
    "LEGAL_NAME": "WORKINGMAN'S INC", 
    "STATE": "IL", 
    "DOING_BUSINESS_AS_NAME": "WORKINGMAN'S PALACE", 
    "POP_AT_RISK": 73464, 
    "ZIP": 60639, 
    "ADDRESS": "4400 W DIVERSEY AVE 1ST", 
    "YEAR": 2006, 
    "LONGITUDE": -87.736878103, 
    "LATTITUDE": 41.931770048
  }, 
  {
    "BUSINESS_TYPE": "Outdoor Patio", 
    "LEGAL_NAME": "O'CONNOR'S PUB, INC.", 
    "STATE": "IL", 
    "DOING_BUSINESS_AS_NAME": "MARTINI CLUB", 
    "POP_AT_RISK": 55125, 
    "ZIP": 60634, 
    "ADDRESS": "5737 W IRVING PARK RD", 
    "YEAR": 2006, 
    "LONGITUDE": -87.770968001, 
    "LATTITUDE": 41.953020309
  }, 
  {
    "BUSINESS_TYPE": "Outdoor Patio", 
    "LEGAL_NAME": "LEONA'S PIZZERIA, INC.", 
    "STATE": "IL", 
    "DOING_BUSINESS_AS_NAME": "LEONA'S PIZZERIA", 
    "POP_AT_RISK": 40177, 
    "ZIP": 60607, 
    "ADDRESS": "1419 W TAYLOR ST", 
    "YEAR": 2006, 
    "LONGITUDE": -87.662414815, 
    "LATTITUDE": 41.869218054
  }, 
  {
    "BUSINESS_TYPE": "Outdoor Patio", 
    "LEGAL_NAME": "W.N.R.W.ENTERPRISES,INC", 
    "STATE": "IL", 
    "DOING_BUSINESS_AS_NAME": "BOHICA BAR & GRILL", 
    "POP_AT_RISK": 26033, 
    "ZIP": 60638, 
    "ADDRESS": "5518 S ARCHER AVE", 
    "YEAR": 2006, 
    "LONGITUDE": -87.747416514, 
    "LATTITUDE": 41.798126625
  }, 
  {
    "BUSINESS_TYPE": "Outdoor Patio", 
    "LEGAL_NAME": "ROQUETA INC", 
    "STATE": "IL", 
    "DOING_BUSINESS_AS_NAME": "LA CONDESA", 
    "POP_AT_RISK": 68068, 
    "ZIP": 60629, 
    "ADDRESS": "2908 W 59TH ST", 
    "YEAR": 2006, 
    "LONGITUDE": -87.696463426, 
    "LATTITUDE": 41.786468511
  }, 
  {
    "BUSINESS_TYPE": "Outdoor Patio", 
    "LEGAL_NAME": "KEFALOS, INC.", 
    "STATE": "IL", 
    "DOING_BUSINESS_AS_NAME": "HARD WATER BAR & GRILL", 
    "POP_AT_RISK": 42149, 
    "ZIP": 60626, 
    "ADDRESS": "7541-7545 N CLARK ST 1ST", 
    "YEAR": 2006, 
    "LONGITUDE": -87.675958148, 
    "LATTITUDE": 42.018903507
  }
]