[
  {
    "BUSINESS_TYPE": "Junk Peddler", 
    "LEGAL_NAME": "EDGAR RIVAS", 
    "STATE": "IL", 
    "DOING_BUSINESS_AS_NAME": "EDGAR RIVAS", 
    "POP_AT_RISK": 45452, 
    "ZIP": 60629, 
    "ADDRESS": "6530 S MOZART ST", 
    "YEAR": 2012, 
    "LONGITUDE": -87.694642516, 
    "LATTITUDE": 41.774509443
  }, 
  {
    "BUSINESS_TYPE": "Junk Peddler", 
    "LEGAL_NAME": "TERRANCE DARTEL COLE", 
    "STATE": "IL", 
    "DOING_BUSINESS_AS_NAME": "TERRANCE DARTEL COLE", 
    "POP_AT_RISK": 48587, 
    "ZIP": 60623, 
    "ADDRESS": "1221 S INDEPENDENCE BLVD  2A", 
    "YEAR": 2012, 
    "LONGITUDE": -87.719358476, 
    "LATTITUDE": 41.865569837
  }, 
  {
    "BUSINESS_TYPE": "Junk Peddler", 
    "LEGAL_NAME": "TRANQUILINO RAMOS JR.", 
    "STATE": "IL", 
    "DOING_BUSINESS_AS_NAME": "TRANQUILINO RAMOS JR.", 
    "POP_AT_RISK": 41314, 
    "ZIP": 60651, 
    "ADDRESS": "4208 W AUGUSTA BLVD 1ST 1", 
    "YEAR": 2012, 
    "LONGITUDE": -87.731547665, 
    "LATTITUDE": 41.899040487
  }, 
  {
    "BUSINESS_TYPE": "Junk Peddler", 
    "LEGAL_NAME": "MARCELINO ROA", 
    "STATE": "IL", 
    "DOING_BUSINESS_AS_NAME": "MARCELINO ROA", 
    "POP_AT_RISK": 44715, 
    "ZIP": 60651, 
    "ADDRESS": "5143 W POTOMAC AVE 1", 
    "YEAR": 2012, 
    "LONGITUDE": -87.755082768, 
    "LATTITUDE": 41.903961135
  }, 
  {
    "BUSINESS_TYPE": "Junk Peddler", 
    "LEGAL_NAME": "GABINO PENA", 
    "STATE": "IL", 
    "DOING_BUSINESS_AS_NAME": "GABINO PENA", 
    "POP_AT_RISK": 40844, 
    "ZIP": 60651, 
    "ADDRESS": "925 N ST LOUIS AVE", 
    "YEAR": 2012, 
    "LONGITUDE": -87.71381343, 
    "LATTITUDE": 41.898079422
  }, 
  {
    "BUSINESS_TYPE": "Junk Peddler", 
    "LEGAL_NAME": "ALBINO GONZALEZ-AGUILAR", 
    "STATE": "IL", 
    "DOING_BUSINESS_AS_NAME": "ALBINO GONZALEZ-AGUILAR", 
    "POP_AT_RISK": 30744, 
    "ZIP": 60609, 
    "ADDRESS": "913 W 50TH ST 1ST", 
    "YEAR": 2012, 
    "LONGITUDE": -87.648391311, 
    "LATTITUDE": 41.803254133
  }, 
  {
    "BUSINESS_TYPE": "Junk Peddler", 
    "LEGAL_NAME": "AGUSTIN CORREA", 
    "STATE": "IL", 
    "DOING_BUSINESS_AS_NAME": "AGUSTIN CORREA", 
    "POP_AT_RISK": 67050, 
    "ZIP": 60659, 
    "ADDRESS": "6211 N OAKLEY AVE", 
    "YEAR": 2012, 
    "LONGITUDE": -87.68717843, 
    "LATTITUDE": 41.994510361
  }, 
  {
    "BUSINESS_TYPE": "Junk Peddler", 
    "LEGAL_NAME": "ANNA DZIEDZIC", 
    "STATE": "IL", 
    "DOING_BUSINESS_AS_NAME": "ANNA DZIEDZIC", 
    "POP_AT_RISK": 14302, 
    "ZIP": 60638, 
    "ADDRESS": "5310 S MASSASOIT AVE", 
    "YEAR": 2012, 
    "LONGITUDE": -87.766208648, 
    "LATTITUDE": 41.795998374
  }, 
  {
    "BUSINESS_TYPE": "Junk Peddler", 
    "LEGAL_NAME": "DOROTEO CASTILLO", 
    "STATE": "IL", 
    "DOING_BUSINESS_AS_NAME": "DOROTEO CASTILLO", 
    "POP_AT_RISK": 75545, 
    "ZIP": 60613, 
    "ADDRESS": "834 W CUYLER AVE", 
    "YEAR": 2012, 
    "LONGITUDE": -87.651077008, 
    "LATTITUDE": 41.955794253
  }, 
  {
    "BUSINESS_TYPE": "Junk Peddler", 
    "LEGAL_NAME": "ENREST SMILEY", 
    "STATE": "IL", 
    "DOING_BUSINESS_AS_NAME": "ERNEST SMILEY", 
    "POP_AT_RISK": 37239, 
    "ZIP": 60619, 
    "ADDRESS": "7125 S VERNON AVE", 
    "YEAR": 2012, 
    "LONGITUDE": -87.613893467, 
    "LATTITUDE": 41.764962969
  }, 
  {
    "BUSINESS_TYPE": "Junk Peddler", 
    "LEGAL_NAME": "BENITO LOPEZ", 
    "STATE": "IL", 
    "DOING_BUSINESS_AS_NAME": "BENITO LOPEZ", 
    "POP_AT_RISK": 80297, 
    "ZIP": 60625, 
    "ADDRESS": "4921 N KEDZIE AVE", 
    "YEAR": 2012, 
    "LONGITUDE": -87.708398012, 
    "LATTITUDE": 41.970928695
  }, 
  {
    "BUSINESS_TYPE": "Junk Peddler", 
    "LEGAL_NAME": "DOSSARY AMOR REYES", 
    "STATE": "IL", 
    "DOING_BUSINESS_AS_NAME": "DOSSARY AMOR REYES", 
    "POP_AT_RISK": 51268, 
    "ZIP": 60634, 
    "ADDRESS": "4061 N MEADE AVE", 
    "YEAR": 2012, 
    "LONGITUDE": -87.779132864, 
    "LATTITUDE": 41.954719932
  }, 
  {
    "BUSINESS_TYPE": "Junk Peddler", 
    "LEGAL_NAME": "JOE W. BRUCE", 
    "STATE": "IL", 
    "DOING_BUSINESS_AS_NAME": "JOE W. BRUCE", 
    "POP_AT_RISK": 25806, 
    "ZIP": 60637, 
    "ADDRESS": "5718 S WABASH AVE", 
    "YEAR": 2012, 
    "LONGITUDE": -87.624128705, 
    "LATTITUDE": 41.790457585
  }, 
  {
    "BUSINESS_TYPE": "Junk Peddler", 
    "LEGAL_NAME": "GABRIEL SERRANO", 
    "STATE": "IL", 
    "DOING_BUSINESS_AS_NAME": "GABRIEL SERRANO", 
    "POP_AT_RISK": 2798, 
    "ZIP": 60633, 
    "ADDRESS": "12728 S MARQUETTE AVE", 
    "YEAR": 2012, 
    "LONGITUDE": -87.556987029, 
    "LATTITUDE": 41.663790513
  }, 
  {
    "BUSINESS_TYPE": "Junk Peddler", 
    "LEGAL_NAME": "JAMES CONWELL", 
    "STATE": "IL", 
    "DOING_BUSINESS_AS_NAME": "JAMES CONWELL", 
    "POP_AT_RISK": 57681, 
    "ZIP": 60629, 
    "ADDRESS": "3221 W 66TH ST", 
    "YEAR": 2012, 
    "LONGITUDE": -87.703878308, 
    "LATTITUDE": 41.773387575
  }, 
  {
    "BUSINESS_TYPE": "Junk Peddler", 
    "LEGAL_NAME": "CARL WORTHY", 
    "STATE": "IL", 
    "DOING_BUSINESS_AS_NAME": "CARL WORTHY", 
    "POP_AT_RISK": 33493, 
    "ZIP": 60620, 
    "ADDRESS": "9007 S MORGAN ST 1ST", 
    "YEAR": 2012, 
    "LONGITUDE": -87.648181096, 
    "LATTITUDE": 41.7302713
  }, 
  {
    "BUSINESS_TYPE": "Junk Peddler", 
    "LEGAL_NAME": "ARTURO GAMEZ MEZA", 
    "STATE": "IL", 
    "DOING_BUSINESS_AS_NAME": "ARTURO GAMEZ MEZA", 
    "POP_AT_RISK": 18213, 
    "ZIP": 60628, 
    "ADDRESS": "339 E 117TH ST 1 1", 
    "YEAR": 2012, 
    "LONGITUDE": -87.615101543, 
    "LATTITUDE": 41.681284033
  }, 
  {
    "BUSINESS_TYPE": "Junk Peddler", 
    "LEGAL_NAME": "ALFREDO GONZALEZ", 
    "STATE": "IL", 
    "DOING_BUSINESS_AS_NAME": "ALFREDO GONZALEZ", 
    "POP_AT_RISK": 53446, 
    "ZIP": 60618, 
    "ADDRESS": "2907 W ROSCOE ST BSMT B", 
    "YEAR": 2012, 
    "LONGITUDE": -87.700857572, 
    "LATTITUDE": 41.942664105
  }, 
  {
    "BUSINESS_TYPE": "Junk Peddler", 
    "LEGAL_NAME": "FERNANDO R FLORIAN", 
    "STATE": "IL", 
    "DOING_BUSINESS_AS_NAME": "FERNANDO R. FLORIAN", 
    "POP_AT_RISK": 78489, 
    "ZIP": 60618, 
    "ADDRESS": "4338 N FRANCISCO AVE 1", 
    "YEAR": 2012, 
    "LONGITUDE": -87.701038578, 
    "LATTITUDE": 41.960568979
  }, 
  {
    "BUSINESS_TYPE": "Junk Peddler", 
    "LEGAL_NAME": "ARISTEO NAVARRETE SR.", 
    "STATE": "IL", 
    "DOING_BUSINESS_AS_NAME": "WE COLLECT SCRAP METAL", 
    "POP_AT_RISK": 30396, 
    "ZIP": 60609, 
    "ADDRESS": "3628 S HOYNE AVE", 
    "YEAR": 2012, 
    "LONGITUDE": -87.677795632, 
    "LATTITUDE": 41.827651512
  }, 
  {
    "BUSINESS_TYPE": "Junk Peddler", 
    "LEGAL_NAME": "ROSARIO MALDONADO", 
    "STATE": "IL", 
    "DOING_BUSINESS_AS_NAME": "ROSARIO MALDONADO", 
    "POP_AT_RISK": 41022, 
    "ZIP": 60651, 
    "ADDRESS": "1329 N WALLER AVE", 
    "YEAR": 2012, 
    "LONGITUDE": -87.768027582, 
    "LATTITUDE": 41.904796968
  }, 
  {
    "BUSINESS_TYPE": "Junk Peddler", 
    "LEGAL_NAME": "CASIMIRO MIRON", 
    "STATE": "IL", 
    "DOING_BUSINESS_AS_NAME": "CASIMIRO MIRON", 
    "POP_AT_RISK": 27493, 
    "ZIP": 60652, 
    "ADDRESS": "4021 W 82ND PL", 
    "YEAR": 2012, 
    "LONGITUDE": -87.722861439, 
    "LATTITUDE": 41.742807258
  }, 
  {
    "BUSINESS_TYPE": "Junk Peddler", 
    "LEGAL_NAME": "WILLIE JOHNSON JR", 
    "STATE": "IL", 
    "DOING_BUSINESS_AS_NAME": "WILLIE JOHNSON JR", 
    "POP_AT_RISK": 33153, 
    "ZIP": 60620, 
    "ADDRESS": "7728 S CARPENTER ST  BSM", 
    "YEAR": 2012, 
    "LONGITUDE": -87.650323044, 
    "LATTITUDE": 41.753308535
  }, 
  {
    "BUSINESS_TYPE": "Junk Peddler", 
    "LEGAL_NAME": "IGNACIO GONZALEZ", 
    "STATE": "IL", 
    "DOING_BUSINESS_AS_NAME": "IGNACIO GONZALEZ", 
    "POP_AT_RISK": 29979, 
    "ZIP": 60617, 
    "ADDRESS": "8010 S BRANDON AVE", 
    "YEAR": 2012, 
    "LONGITUDE": -87.546945402, 
    "LATTITUDE": 41.749801558
  }, 
  {
    "BUSINESS_TYPE": "Junk Peddler", 
    "LEGAL_NAME": "TIMOTEO ROJAS", 
    "STATE": "IL", 
    "DOING_BUSINESS_AS_NAME": "TIMOTEO ROJAS", 
    "POP_AT_RISK": 44620, 
    "ZIP": 60608, 
    "ADDRESS": "1449 W 16TH ST 1 1", 
    "YEAR": 2012, 
    "LONGITUDE": -87.663305016, 
    "LATTITUDE": 41.859545459
  }, 
  {
    "BUSINESS_TYPE": "Junk Peddler", 
    "LEGAL_NAME": "MAXIMINO I GARCIA", 
    "STATE": "IL", 
    "DOING_BUSINESS_AS_NAME": "MAXIMINO I GARCIA", 
    "POP_AT_RISK": 34058, 
    "ZIP": 60632, 
    "ADDRESS": "4320 S CHRISTIANA AVE", 
    "YEAR": 2012, 
    "LONGITUDE": -87.708058502, 
    "LATTITUDE": 41.814734623
  }, 
  {
    "BUSINESS_TYPE": "Junk Peddler", 
    "LEGAL_NAME": "MARIA ZACATENCO", 
    "STATE": "IL", 
    "DOING_BUSINESS_AS_NAME": "MARIA ZACATENCO", 
    "POP_AT_RISK": 48242, 
    "ZIP": 60707, 
    "ADDRESS": "2615 N NEWCASTLE AVE 1ST", 
    "YEAR": 2012, 
    "LONGITUDE": -87.796446448, 
    "LATTITUDE": 41.92771745
  }, 
  {
    "BUSINESS_TYPE": "Junk Peddler", 
    "LEGAL_NAME": "JAMES BRYANT", 
    "STATE": "IL", 
    "DOING_BUSINESS_AS_NAME": "JAMES BRYANT", 
    "POP_AT_RISK": 49726, 
    "ZIP": 60651, 
    "ADDRESS": "935 N HAMLIN AVE 2ND", 
    "YEAR": 2012, 
    "LONGITUDE": -87.721138396, 
    "LATTITUDE": 41.89829414
  }, 
  {
    "BUSINESS_TYPE": "Junk Peddler", 
    "LEGAL_NAME": "ANGEL TROYA", 
    "STATE": "IL", 
    "DOING_BUSINESS_AS_NAME": "ANGEL TROYA", 
    "POP_AT_RISK": 61407, 
    "ZIP": 60625, 
    "ADDRESS": "4943 N LAWNDALE AVE 1", 
    "YEAR": 2012, 
    "LONGITUDE": -87.720636204, 
    "LATTITUDE": 41.971424228
  }, 
  {
    "BUSINESS_TYPE": "Junk Peddler", 
    "LEGAL_NAME": "JESUS LOPEZ", 
    "STATE": "IL", 
    "DOING_BUSINESS_AS_NAME": "JESUS LOPEZ", 
    "POP_AT_RISK": 72493, 
    "ZIP": 60623, 
    "ADDRESS": "2348 S RIDGEWAY AVE", 
    "YEAR": 2012, 
    "LONGITUDE": -87.718710164, 
    "LATTITUDE": 41.848359982
  }, 
  {
    "BUSINESS_TYPE": "Junk Peddler", 
    "LEGAL_NAME": "FELIPE FINO", 
    "STATE": "IL", 
    "DOING_BUSINESS_AS_NAME": "FELIPE FINO", 
    "POP_AT_RISK": 55196, 
    "ZIP": 60647, 
    "ADDRESS": "2509 W CORTLAND ST", 
    "YEAR": 2012, 
    "LONGITUDE": -87.690231646, 
    "LATTITUDE": 41.915626655
  }, 
  {
    "BUSINESS_TYPE": "Junk Peddler", 
    "LEGAL_NAME": "ANGEL ARROYO", 
    "STATE": "IL", 
    "DOING_BUSINESS_AS_NAME": "ANGEL ARROYO", 
    "POP_AT_RISK": 44704, 
    "ZIP": 60608, 
    "ADDRESS": "2961 S THROOP ST 1 1", 
    "YEAR": 2012, 
    "LONGITUDE": -87.650978008, 
    "LATTITUDE": 41.840031741
  }
]