[
  {
    "BUSINESS_TYPE": "Street Performer", 
    "LEGAL_NAME": "Georzetta Deloney", 
    "STATE": "IL", 
    "DOING_BUSINESS_AS_NAME": "Georzetta Deloney", 
    "POP_AT_RISK": 29042, 
    "ZIP": 60628, 
    "ADDRESS": "10626 S NORMAL AVE", 
    "YEAR": 2001, 
    "LONGITUDE": -87.635542332, 
    "LATTITUDE": 41.700718633
  }, 
  {
    "BUSINESS_TYPE": "Street Performer", 
    "LEGAL_NAME": "FRANK NAVA", 
    "STATE": "IL", 
    "DOING_BUSINESS_AS_NAME": "FRANK NAVA", 
    "POP_AT_RISK": 35625, 
    "ZIP": 60612, 
    "ADDRESS": "3048 W FRANKLIN BLVD  1ST", 
    "YEAR": 2001, 
    "LONGITUDE": -87.703564488, 
    "LATTITUDE": 41.890213322
  }, 
  {
    "BUSINESS_TYPE": "Street Performer", 
    "LEGAL_NAME": "VASIL PAVLOV NEICHEV", 
    "STATE": "IL", 
    "DOING_BUSINESS_AS_NAME": "VASIL PAVLOV NEICHEV", 
    "POP_AT_RISK": 80603, 
    "ZIP": 60625, 
    "ADDRESS": "4907 N WHIPPLE ST", 
    "YEAR": 2001, 
    "LONGITUDE": -87.704723211, 
    "LATTITUDE": 41.970563471
  }, 
  {
    "BUSINESS_TYPE": "Street Performer", 
    "LEGAL_NAME": "OCIE L DODD", 
    "STATE": "IL", 
    "DOING_BUSINESS_AS_NAME": "OCIE L DODD", 
    "POP_AT_RISK": 28234, 
    "ZIP": 60616, 
    "ADDRESS": "243 E 32ND ST 1ST", 
    "YEAR": 2001, 
    "LONGITUDE": -87.620153819, 
    "LATTITUDE": 41.836450023
  }, 
  {
    "BUSINESS_TYPE": "Street Performer", 
    "LEGAL_NAME": "JUNE CAMERON", 
    "STATE": "IL", 
    "DOING_BUSINESS_AS_NAME": "JUNE CAMERON", 
    "POP_AT_RISK": 25300, 
    "ZIP": 60621, 
    "ADDRESS": "5547 S PRINCETON AVE 1ST", 
    "YEAR": 2001, 
    "LONGITUDE": -87.632806776, 
    "LATTITUDE": 41.792822895
  }, 
  {
    "BUSINESS_TYPE": "Street Performer", 
    "LEGAL_NAME": "ALONZO TONY SMITH", 
    "STATE": "IL", 
    "DOING_BUSINESS_AS_NAME": "TONY SMITH STEEL DRUM", 
    "POP_AT_RISK": 32778, 
    "ZIP": 60619, 
    "ADDRESS": "8500 S RHODES AVE", 
    "YEAR": 2001, 
    "LONGITUDE": -87.611536197, 
    "LATTITUDE": 41.74011189
  }, 
  {
    "BUSINESS_TYPE": "Street Performer", 
    "LEGAL_NAME": "REV. DAVID KEITH WEBB", 
    "STATE": "IL", 
    "DOING_BUSINESS_AS_NAME": "REV. DAVID KEITH WEBB", 
    "POP_AT_RISK": 67244, 
    "ZIP": 60618, 
    "ADDRESS": "2450 W WARNER AVE 2 2", 
    "YEAR": 2001, 
    "LONGITUDE": -87.690568112, 
    "LATTITUDE": 41.956855192
  }, 
  {
    "BUSINESS_TYPE": "Street Performer", 
    "LEGAL_NAME": "MARY MARKS", 
    "STATE": "IL", 
    "DOING_BUSINESS_AS_NAME": "MARY MARKS", 
    "POP_AT_RISK": 27535, 
    "ZIP": 60638, 
    "ADDRESS": "6306 S ARCHER AVE", 
    "YEAR": 2001, 
    "LONGITUDE": -87.778733198, 
    "LATTITUDE": 41.793293149
  }, 
  {
    "BUSINESS_TYPE": "Street Performer", 
    "LEGAL_NAME": "JULIE MORENO", 
    "STATE": "IL", 
    "DOING_BUSINESS_AS_NAME": "JULIE MORENO", 
    "POP_AT_RISK": 51178, 
    "ZIP": 60645, 
    "ADDRESS": "6610 N CALIFORNIA AVE", 
    "YEAR": 2001, 
    "LONGITUDE": -87.699896325, 
    "LATTITUDE": 42.001573186
  }, 
  {
    "BUSINESS_TYPE": "Street Performer", 
    "LEGAL_NAME": "VICTOR JULIAN CHANCOSO", 
    "STATE": "IL", 
    "DOING_BUSINESS_AS_NAME": "ECUADOR INKAS", 
    "POP_AT_RISK": 65610, 
    "ZIP": 60641, 
    "ADDRESS": "3101 N KEATING AVE  1E", 
    "YEAR": 2001, 
    "LONGITUDE": -87.745400047, 
    "LATTITUDE": 41.937116648
  }, 
  {
    "BUSINESS_TYPE": "Street Performer", 
    "LEGAL_NAME": "MICHELLE HERRON", 
    "STATE": "IL", 
    "DOING_BUSINESS_AS_NAME": "MICHELLE HERRON", 
    "POP_AT_RISK": 24393, 
    "ZIP": 60628, 
    "ADDRESS": "11741 S YALE AVE 1ST", 
    "YEAR": 2001, 
    "LONGITUDE": -87.628589327, 
    "LATTITUDE": 41.680381836
  }, 
  {
    "BUSINESS_TYPE": "Street Performer", 
    "LEGAL_NAME": "OLEKSANDER TOKARENKO", 
    "STATE": "IL", 
    "DOING_BUSINESS_AS_NAME": "TOKARENKO OLEXANDER", 
    "POP_AT_RISK": 39462, 
    "ZIP": 60634, 
    "ADDRESS": "4029 N MELVINA AVE 1ST", 
    "YEAR": 2001, 
    "LONGITUDE": -87.781551744, 
    "LATTITUDE": 41.953943963
  }, 
  {
    "BUSINESS_TYPE": "Street Performer", 
    "LEGAL_NAME": "JOE BRINSON", 
    "STATE": "IL", 
    "DOING_BUSINESS_AS_NAME": "JOE BRINSON", 
    "POP_AT_RISK": 46279, 
    "ZIP": 60624, 
    "ADDRESS": "722 N DRAKE AVE 2ND", 
    "YEAR": 2001, 
    "LONGITUDE": -87.715209216, 
    "LATTITUDE": 41.894435923
  }, 
  {
    "BUSINESS_TYPE": "Street Performer", 
    "LEGAL_NAME": "TARAJBI DEMIROV", 
    "STATE": "IL", 
    "DOING_BUSINESS_AS_NAME": "turajbi demirov", 
    "POP_AT_RISK": 58168, 
    "ZIP": 60641, 
    "ADDRESS": "4261 W ADDISON ST", 
    "YEAR": 2001, 
    "LONGITUDE": -87.734690285, 
    "LATTITUDE": 41.946168007
  }, 
  {
    "BUSINESS_TYPE": "Street Performer", 
    "LEGAL_NAME": "TODD JAMES REICH", 
    "STATE": "IL", 
    "DOING_BUSINESS_AS_NAME": "TODD JAMES REICH", 
    "POP_AT_RISK": 57485, 
    "ZIP": 60660, 
    "ADDRESS": "5820 N SHERIDAN RD  514", 
    "YEAR": 2001, 
    "LONGITUDE": -87.655470066, 
    "LATTITUDE": 41.987984301
  }, 
  {
    "BUSINESS_TYPE": "Street Performer", 
    "LEGAL_NAME": "CINDY MITCHELL", 
    "STATE": "IL", 
    "DOING_BUSINESS_AS_NAME": "CINDY MITCHELL", 
    "POP_AT_RISK": 23928, 
    "ZIP": 60631, 
    "ADDRESS": "6566 N HARLEM AVE  1ST", 
    "YEAR": 2001, 
    "LONGITUDE": -87.806910668, 
    "LATTITUDE": 42.000575994
  }, 
  {
    "BUSINESS_TYPE": "Street Performer", 
    "LEGAL_NAME": "THOMAS JEFFERY URQUIZA", 
    "STATE": "IL", 
    "DOING_BUSINESS_AS_NAME": "URQUIZA MUSIC", 
    "POP_AT_RISK": 48835, 
    "ZIP": 60644, 
    "ADDRESS": "501 N CENTRAL AVE", 
    "YEAR": 2001, 
    "LONGITUDE": -87.765038653, 
    "LATTITUDE": 41.889383638
  }, 
  {
    "BUSINESS_TYPE": "Street Performer", 
    "LEGAL_NAME": "JOHN S CLAY", 
    "STATE": "IL", 
    "DOING_BUSINESS_AS_NAME": "JOHN S CLAY", 
    "POP_AT_RISK": 29009, 
    "ZIP": 60621, 
    "ADDRESS": "549 W 60TH ST 1ST", 
    "YEAR": 2001, 
    "LONGITUDE": -87.639547286, 
    "LATTITUDE": 41.78512551
  }, 
  {
    "BUSINESS_TYPE": "Street Performer", 
    "LEGAL_NAME": "RAPHEAL BROWN", 
    "STATE": "IL", 
    "DOING_BUSINESS_AS_NAME": "RAPHEAL BROWN", 
    "POP_AT_RISK": 32113, 
    "ZIP": 60621, 
    "ADDRESS": "7210 S PERRY AVE 1ST", 
    "YEAR": 2001, 
    "LONGITUDE": -87.628260423, 
    "LATTITUDE": 41.763263743
  }, 
  {
    "BUSINESS_TYPE": "Street Performer", 
    "LEGAL_NAME": "LIZANDRO W PENARANDA", 
    "STATE": "IL", 
    "DOING_BUSINESS_AS_NAME": "LIZANDRO W PENARANDA", 
    "POP_AT_RISK": 37439, 
    "ZIP": 60608, 
    "ADDRESS": "2011 S RACINE AVE  1ST", 
    "YEAR": 2001, 
    "LONGITUDE": -87.656188428, 
    "LATTITUDE": 41.854827564
  }, 
  {
    "BUSINESS_TYPE": "Street Performer", 
    "LEGAL_NAME": "JAMES DANIEL", 
    "STATE": "IL", 
    "DOING_BUSINESS_AS_NAME": "JAMES DANIEL", 
    "POP_AT_RISK": 29296, 
    "ZIP": 60620, 
    "ADDRESS": "9121 S JUSTINE ST 1ST", 
    "YEAR": 2001, 
    "LONGITUDE": -87.661466782, 
    "LATTITUDE": 41.727874719
  }, 
  {
    "BUSINESS_TYPE": "Street Performer", 
    "LEGAL_NAME": "RYAN MITSUO SUZUKA", 
    "STATE": "IL", 
    "DOING_BUSINESS_AS_NAME": "RYAN MITSUO SUZUKA", 
    "POP_AT_RISK": 69445, 
    "ZIP": 60601, 
    "ADDRESS": "162 N STATE ST 7TH 705", 
    "YEAR": 2001, 
    "LONGITUDE": -87.628067099, 
    "LATTITUDE": 41.884900561
  }, 
  {
    "BUSINESS_TYPE": "Street Performer", 
    "LEGAL_NAME": "CHARLES A SMITH", 
    "STATE": "IL", 
    "DOING_BUSINESS_AS_NAME": "CHARLES A SMITH", 
    "POP_AT_RISK": 32387, 
    "ZIP": 60612, 
    "ADDRESS": "2715 W HARRISON ST  1ST", 
    "YEAR": 2001, 
    "LONGITUDE": -87.69432297, 
    "LATTITUDE": 41.873699001
  }, 
  {
    "BUSINESS_TYPE": "Street Performer", 
    "LEGAL_NAME": "LARRY LEE STEWART", 
    "STATE": "IL", 
    "DOING_BUSINESS_AS_NAME": "LARRY LEE STEWART", 
    "POP_AT_RISK": 20309, 
    "ZIP": 60628, 
    "ADDRESS": "739 E 105TH ST", 
    "YEAR": 2001, 
    "LONGITUDE": -87.604741925, 
    "LATTITUDE": 41.703684474
  }, 
  {
    "BUSINESS_TYPE": "Street Performer", 
    "LEGAL_NAME": "CAROL EPHRAIM", 
    "STATE": "IL", 
    "DOING_BUSINESS_AS_NAME": "CAROL EPHRAIM", 
    "POP_AT_RISK": 32143, 
    "ZIP": 60652, 
    "ADDRESS": "3643 W 79TH ST", 
    "YEAR": 2001, 
    "LONGITUDE": -87.713778115, 
    "LATTITUDE": 41.749455613
  }, 
  {
    "BUSINESS_TYPE": "Street Performer", 
    "LEGAL_NAME": "PATRICIO AUGUSTO GABLER PINO", 
    "STATE": "IL", 
    "DOING_BUSINESS_AS_NAME": "PATRICIO AUGUSTO GABLER PINO", 
    "POP_AT_RISK": 47368, 
    "ZIP": 60626, 
    "ADDRESS": "1360 W ESTES AVE", 
    "YEAR": 2001, 
    "LONGITUDE": -87.66521686, 
    "LATTITUDE": 42.011684511
  }, 
  {
    "BUSINESS_TYPE": "Street Performer", 
    "LEGAL_NAME": "TIM PENNINGTON", 
    "STATE": "IL", 
    "DOING_BUSINESS_AS_NAME": "TIM PENNINGTON", 
    "POP_AT_RISK": 40825, 
    "ZIP": 60302, 
    "ADDRESS": "832 N TAYLOR  1ST", 
    "YEAR": 2001, 
    "LONGITUDE": -87.648287523, 
    "LATTITUDE": 41.869693963
  }, 
  {
    "BUSINESS_TYPE": "Street Performer", 
    "LEGAL_NAME": "BERNARD HAYES", 
    "STATE": "IL", 
    "DOING_BUSINESS_AS_NAME": "BERNARD HAYES", 
    "POP_AT_RISK": 63918, 
    "ZIP": 60645, 
    "ADDRESS": "6416 N LEAVITT ST  2", 
    "YEAR": 2001, 
    "LONGITUDE": -87.68517668, 
    "LATTITUDE": 41.998350496
  }, 
  {
    "BUSINESS_TYPE": "Street Performer", 
    "LEGAL_NAME": "DALE S DUFFALA", 
    "STATE": "IL", 
    "DOING_BUSINESS_AS_NAME": "DRBLOOZ", 
    "POP_AT_RISK": 15852, 
    "ZIP": 60631, 
    "ADDRESS": "6822 N NORTHWEST HWY", 
    "YEAR": 2001, 
    "LONGITUDE": -87.819696593, 
    "LATTITUDE": 42.00487624
  }, 
  {
    "BUSINESS_TYPE": "Street Performer", 
    "LEGAL_NAME": "CECIL D LOCKE", 
    "STATE": "IL", 
    "DOING_BUSINESS_AS_NAME": "CECIL D LOCKE", 
    "POP_AT_RISK": 48881, 
    "ZIP": 60609, 
    "ADDRESS": "5347 S WOOD ST 1ST", 
    "YEAR": 2001, 
    "LONGITUDE": -87.669360606, 
    "LATTITUDE": 41.796248088
  }, 
  {
    "BUSINESS_TYPE": "Street Performer", 
    "LEGAL_NAME": "EILEEN RICHMOND", 
    "STATE": "IL", 
    "DOING_BUSINESS_AS_NAME": "EILEEN RICHMOND", 
    "POP_AT_RISK": 35151, 
    "ZIP": 60617, 
    "ADDRESS": "8615 S COLFAX AVE 1ST", 
    "YEAR": 2001, 
    "LONGITUDE": -87.561023065, 
    "LATTITUDE": 41.738590951
  }, 
  {
    "BUSINESS_TYPE": "Street Performer", 
    "LEGAL_NAME": "RONALD OROZCO", 
    "STATE": "IL", 
    "DOING_BUSINESS_AS_NAME": "RONALD OROZCO", 
    "POP_AT_RISK": 58367, 
    "ZIP": 60647, 
    "ADDRESS": "2108 N WESTERN AVE 1ST", 
    "YEAR": 2001, 
    "LONGITUDE": -87.687638666, 
    "LATTITUDE": 41.920134653
  }, 
  {
    "BUSINESS_TYPE": "Street Performer", 
    "LEGAL_NAME": "BRETT FRANZ BENTELER", 
    "STATE": "IL", 
    "DOING_BUSINESS_AS_NAME": "BRETT BENTELER", 
    "POP_AT_RISK": 65079, 
    "ZIP": 60647, 
    "ADDRESS": "2444 W DIVERSEY AVE 2 REAR", 
    "YEAR": 2001, 
    "LONGITUDE": -87.689738576, 
    "LATTITUDE": 41.932265411
  }, 
  {
    "BUSINESS_TYPE": "Street Performer", 
    "LEGAL_NAME": "LEROY MIDYETTE", 
    "STATE": "IL", 
    "DOING_BUSINESS_AS_NAME": "LEROY MIDYETTE", 
    "POP_AT_RISK": 25108, 
    "ZIP": 60619, 
    "ADDRESS": "708 E 90TH PL 1ST", 
    "YEAR": 2001, 
    "LONGITUDE": -87.606662111, 
    "LATTITUDE": 41.730344933
  }, 
  {
    "BUSINESS_TYPE": "Street Performer", 
    "LEGAL_NAME": "DONALD P. BROWN", 
    "STATE": "IL", 
    "DOING_BUSINESS_AS_NAME": "DONALD P BROWN", 
    "POP_AT_RISK": 74224, 
    "ZIP": 60647, 
    "ADDRESS": "1856 N SAWYER AVE 1ST", 
    "YEAR": 2001, 
    "LONGITUDE": -87.708753871, 
    "LATTITUDE": 41.91540996
  }, 
  {
    "BUSINESS_TYPE": "Street Performer", 
    "LEGAL_NAME": "LYNETTE TUCK", 
    "STATE": "IL", 
    "DOING_BUSINESS_AS_NAME": "LYNETTE BROWN", 
    "POP_AT_RISK": 50720, 
    "ZIP": 60659, 
    "ADDRESS": "6348 N FAIRFIELD AVE 2ND", 
    "YEAR": 2001, 
    "LONGITUDE": -87.698553884, 
    "LATTITUDE": 41.997209898
  }, 
  {
    "BUSINESS_TYPE": "Street Performer", 
    "LEGAL_NAME": "CHARLES L COLEMAN", 
    "STATE": "IL", 
    "DOING_BUSINESS_AS_NAME": "CHARLES L COLEMAN", 
    "POP_AT_RISK": 38595, 
    "ZIP": 60621, 
    "ADDRESS": "6642 S HARVARD AVE  1", 
    "YEAR": 2001, 
    "LONGITUDE": -87.633400585, 
    "LATTITUDE": 41.773199942
  }, 
  {
    "BUSINESS_TYPE": "Street Performer", 
    "LEGAL_NAME": "JANE MARIE WRIGHT", 
    "STATE": "IL", 
    "DOING_BUSINESS_AS_NAME": "JANE M WRIGHT", 
    "POP_AT_RISK": 36374, 
    "ZIP": 60619, 
    "ADDRESS": "8352 S ELLIS AVE  103", 
    "YEAR": 2001, 
    "LONGITUDE": -87.60027506, 
    "LATTITUDE": 41.742452542
  }, 
  {
    "BUSINESS_TYPE": "Street Performer", 
    "LEGAL_NAME": "JOHN HASBROUCK", 
    "STATE": "IL", 
    "DOING_BUSINESS_AS_NAME": "JOHN HASBROUCK", 
    "POP_AT_RISK": 60983, 
    "ZIP": 60622, 
    "ADDRESS": "1237 N HONORE ST  1S", 
    "YEAR": 2001, 
    "LONGITUDE": -87.673168872, 
    "LATTITUDE": 41.904386801
  }, 
  {
    "BUSINESS_TYPE": "Street Performer", 
    "LEGAL_NAME": "MARCELLA REDDICK", 
    "STATE": "IL", 
    "DOING_BUSINESS_AS_NAME": "MARCELLA REDDICK", 
    "POP_AT_RISK": 27380, 
    "ZIP": 60609, 
    "ADDRESS": "842 W 54TH ST 1ST", 
    "YEAR": 2001, 
    "LONGITUDE": -87.646987462, 
    "LATTITUDE": 41.796128241
  }, 
  {
    "BUSINESS_TYPE": "Street Performer", 
    "LEGAL_NAME": "IRA GATES", 
    "STATE": "IL", 
    "DOING_BUSINESS_AS_NAME": "IRA GATES", 
    "POP_AT_RISK": 29724, 
    "ZIP": 60649, 
    "ADDRESS": "7740 S KINGSTON AVE 1ST", 
    "YEAR": 2001, 
    "LONGITUDE": -87.562789486, 
    "LATTITUDE": 41.754188901
  }, 
  {
    "BUSINESS_TYPE": "Street Performer", 
    "LEGAL_NAME": "GARRETTE ANDRE HORNE", 
    "STATE": "IL", 
    "DOING_BUSINESS_AS_NAME": "GARRETTE HORNE", 
    "POP_AT_RISK": 36742, 
    "ZIP": 60649, 
    "ADDRESS": "7114 S CORNELL AVE  1B", 
    "YEAR": 2001, 
    "LONGITUDE": -87.584905993, 
    "LATTITUDE": 41.765522914
  }, 
  {
    "BUSINESS_TYPE": "Street Performer", 
    "LEGAL_NAME": "CHARLES DOUGLAS", 
    "STATE": "IL", 
    "DOING_BUSINESS_AS_NAME": "CHARLES DOUGLAS", 
    "POP_AT_RISK": 68120, 
    "ZIP": 60657, 
    "ADDRESS": "3450 N LAKE SHORE DR  2411", 
    "YEAR": 2001, 
    "LONGITUDE": -87.641602426, 
    "LATTITUDE": 41.945101085
  }, 
  {
    "BUSINESS_TYPE": "Street Performer", 
    "LEGAL_NAME": "AKIA OMARI HARRIS", 
    "STATE": "IL", 
    "DOING_BUSINESS_AS_NAME": "AKIA HARRIS", 
    "POP_AT_RISK": 51133, 
    "ZIP": 60629, 
    "ADDRESS": "6215 S TALMAN AVE", 
    "YEAR": 2001, 
    "LONGITUDE": -87.689630411, 
    "LATTITUDE": 41.780507974
  }
]