[
{"STATE":"IL","ZIP":60615,"LATTITUDE":41.79943908295689,"ADDRESS":"1515 E 53RD ST  ","YEAR":2015,"DOING_BUSINESS_AS_NAME":"SUPREME JEWELER","POP_AT_RISK":661963,"BUSINESS_TYPE":"Secondhand Dealer (Includes Valuable Objects)","LEGAL_NAME":"RMF, INC.","LONGITUDE":-87.5884961930652},
{"STATE":"IL","ZIP":60609,"LATTITUDE":41.796234875219376,"ADDRESS":"5401 S WENTWORTH AVE 1ST ","YEAR":2015,"DOING_BUSINESS_AS_NAME":"M K JEWELRY","POP_AT_RISK":167072,"BUSINESS_TYPE":"Secondhand Dealer (Includes Valuable Objects)","LEGAL_NAME":"BYUNG K MIN","LONGITUDE":-87.63040492438661},
{"STATE":"IL","ZIP":60609,"LATTITUDE":41.81944142629576,"ADDRESS":"4100 S ASHLAND AVE  266-267","YEAR":2015,"DOING_BUSINESS_AS_NAME":"CUI BAO TAN","POP_AT_RISK":61020,"BUSINESS_TYPE":"Secondhand Dealer (Includes Valuable Objects)","LEGAL_NAME":"CUI BAO TAN","LONGITUDE":-87.6653755449091},
{"STATE":"IL","ZIP":60609,"LATTITUDE":41.809000374561755,"ADDRESS":"4666 S HALSTED ST 1 ","YEAR":2015,"DOING_BUSINESS_AS_NAME":"RAINBOW JEWELRY","POP_AT_RISK":81484,"BUSINESS_TYPE":"Secondhand Dealer (Includes Valuable Objects)","LEGAL_NAME":"HYE JUNG LEE","LONGITUDE":-87.64568964083773},
{"STATE":"IL","ZIP":60625,"LATTITUDE":41.96828935485998,"ADDRESS":"3405 W LAWRENCE AVE 1ST ","YEAR":2015,"DOING_BUSINESS_AS_NAME":"RV JEWELRY SHOP","POP_AT_RISK":701240,"BUSINESS_TYPE":"Secondhand Dealer (Includes Valuable Objects)","LEGAL_NAME":"RAUL VASQUEZ","LONGITUDE":-87.71359237562584},
{"STATE":"IL","ZIP":60617,"LATTITUDE":41.702938777167084,"ADDRESS":"10554 S EWING AVE 1 1","YEAR":2015,"DOING_BUSINESS_AS_NAME":"CASH FOR GOLD","POP_AT_RISK":104835,"BUSINESS_TYPE":"Secondhand Dealer (Includes Valuable Objects)","LEGAL_NAME":"SAMER ASHKAR","LONGITUDE":-87.53543056413862},
{"STATE":"IL","ZIP":60608,"LATTITUDE":41.83758513492085,"ADDRESS":"3115 S HALSTED ST  ","YEAR":2015,"DOING_BUSINESS_AS_NAME":"GOLD DUST COIN","POP_AT_RISK":577545,"BUSINESS_TYPE":"Secondhand Dealer (Includes Valuable Objects)","LEGAL_NAME":"MICHAEL PESHA","LONGITUDE":-87.64611924103636},
{"STATE":"IL","ZIP":60631,"LATTITUDE":42.012198711314255,"ADDRESS":"7214 N HARLEM AVE 1ST ","YEAR":2015,"DOING_BUSINESS_AS_NAME":"THE ANTIQUE & RESALE SHOPPE","POP_AT_RISK":71152,"BUSINESS_TYPE":"Secondhand Dealer (Includes Valuable Objects)","LEGAL_NAME":"SUZANNE LAZER","LONGITUDE":-87.80677987610609},
{"STATE":"IL","ZIP":60620,"LATTITUDE":41.74821708853622,"ADDRESS":"8018 S HALSTED ST  ","YEAR":2015,"DOING_BUSINESS_AS_NAME":"CRYSTAL THRIFT SHOP","POP_AT_RISK":354051,"BUSINESS_TYPE":"Secondhand Dealer (Includes Valuable Objects)","LEGAL_NAME":"WILLIE F. SHIPP","LONGITUDE":-87.64411876933347},
{"STATE":"IL","ZIP":60623,"LATTITUDE":41.85918922054039,"ADDRESS":"3206 W 16TH ST  ","YEAR":2015,"DOING_BUSINESS_AS_NAME":"CELLULAR ZONE","POP_AT_RISK":273185,"BUSINESS_TYPE":"Secondhand Dealer (Includes Valuable Objects)","LEGAL_NAME":"CELLULAR ETC INC","LONGITUDE":-87.705793970407},
{"STATE":"IL","ZIP":60618,"LATTITUDE":41.93964879909322,"ADDRESS":"2108 W BELMONT AVE 1ST ","YEAR":2015,"DOING_BUSINESS_AS_NAME":"FATHER TIME ANTIQUES","POP_AT_RISK":139263,"BUSINESS_TYPE":"Secondhand Dealer (Includes Valuable Objects)","LEGAL_NAME":"JAMES D REYNOLDS","LONGITUDE":-87.68120427770822},
{"STATE":"IL","ZIP":60608,"LATTITUDE":41.85203359123733,"ADDRESS":"2051 W CERMAK RD 1 1","YEAR":2015,"DOING_BUSINESS_AS_NAME":"VANESSA JEWELRY","POP_AT_RISK":248166,"BUSINESS_TYPE":"Secondhand Dealer (Includes Valuable Objects)","LEGAL_NAME":"MANUEL CARACHURE","LONGITUDE":-87.67786265508462},
{"STATE":"IL","ZIP":60657,"LATTITUDE":41.942024123739905,"ADDRESS":"3316 N LINCOLN AVE 1ST ","YEAR":2015,"DOING_BUSINESS_AS_NAME":"CHICAGO MUSIC EXCHANGE","POP_AT_RISK":133794,"BUSINESS_TYPE":"Secondhand Dealer (Includes Valuable Objects)","LEGAL_NAME":"REVERB MUSIC, LLC","LONGITUDE":-87.67046205528115},
{"STATE":"IL","ZIP":60659,"LATTITUDE":41.997733842713124,"ADDRESS":"2632 W DEVON AVE 1ST ","YEAR":2015,"DOING_BUSINESS_AS_NAME":"ANDAAZ JEWELS INC.","POP_AT_RISK":674311,"BUSINESS_TYPE":"Secondhand Dealer (Includes Valuable Objects)","LEGAL_NAME":"ANDAAZ JEWELS INC.","LONGITUDE":-87.69605084719481},
{"STATE":"IL","ZIP":60626,"LATTITUDE":42.01925487905087,"ADDRESS":"1511 W HOWARD ST  ","YEAR":2015,"DOING_BUSINESS_AS_NAME":"LOST ERAS ANTIQUES","POP_AT_RISK":487377,"BUSINESS_TYPE":"Secondhand Dealer (Includes Valuable Objects)","LEGAL_NAME":"CHARLOTTE A WALTER","LONGITUDE":-87.6683064019101},
{"STATE":"IL","ZIP":60622,"LATTITUDE":41.90223968395549,"ADDRESS":"1120 N ASHLAND AVE 1ST ","YEAR":2015,"DOING_BUSINESS_AS_NAME":"Dusty Groove, Inc.","POP_AT_RISK":55061,"BUSINESS_TYPE":"Secondhand Dealer (Includes Valuable Objects)","LEGAL_NAME":"DUSTY GROOVE, INC.","LONGITUDE":-87.66761198309885},
{"STATE":"IL","ZIP":60622,"LATTITUDE":41.902848099714284,"ADDRESS":"2629 W DIVISION ST 1ST ","YEAR":2015,"DOING_BUSINESS_AS_NAME":"MARIO & CESAR'S JEWELRY","POP_AT_RISK":629240,"BUSINESS_TYPE":"Secondhand Dealer (Includes Valuable Objects)","LEGAL_NAME":"CESAR'S JEWELRY INC","LONGITUDE":-87.69314410348788},
{"STATE":"IL","ZIP":60613,"LATTITUDE":41.950536989106716,"ADDRESS":"3745 N HALSTED ST 1ST ","YEAR":2015,"DOING_BUSINESS_AS_NAME":"CHAT TECH USA, INC.","POP_AT_RISK":805442,"BUSINESS_TYPE":"Secondhand Dealer (Includes Valuable Objects)","LEGAL_NAME":"CHAT TECH USA, INC.","LONGITUDE":-87.64945560189753},
{"STATE":"IL","ZIP":60638,"LATTITUDE":41.79218916857037,"ADDRESS":"6455 W ARCHER AVE  ","YEAR":2015,"DOING_BUSINESS_AS_NAME":"CHICAGO COIN CO INC","POP_AT_RISK":184350,"BUSINESS_TYPE":"Secondhand Dealer (Includes Valuable Objects)","LEGAL_NAME":"CHICAGO COIN CO INC","LONGITUDE":-87.7840169671266},
{"STATE":"IL","ZIP":60618,"LATTITUDE":41.95115137232426,"ADDRESS":"3844 N ELSTON AVE 1ST ","YEAR":2015,"DOING_BUSINESS_AS_NAME":"FAUCET SHOPPE INC","POP_AT_RISK":412854,"BUSINESS_TYPE":"Secondhand Dealer (Includes Valuable Objects)","LEGAL_NAME":"FAUCET SHOPPE, INC.","LONGITUDE":-87.71566103596996},
{"STATE":"IL","ZIP":60639,"LATTITUDE":41.90936705171328,"ADDRESS":"5255 W NORTH AVE  1","YEAR":2015,"DOING_BUSINESS_AS_NAME":"L.D.L. SALE","POP_AT_RISK":366174,"BUSINESS_TYPE":"Secondhand Dealer (Includes Valuable Objects)","LEGAL_NAME":"LAWRENCE D LE BLANC","LONGITUDE":-87.75771327745655},
{"STATE":"IL","ZIP":60609,"LATTITUDE":41.80867282251081,"ADDRESS":"1746 W 47TH ST 1ST ","YEAR":2015,"DOING_BUSINESS_AS_NAME":"N & P JEWELRY, INC.","POP_AT_RISK":322605,"BUSINESS_TYPE":"Secondhand Dealer (Includes Valuable Objects)","LEGAL_NAME":"N & P JEWELRY, INC.","LONGITUDE":-87.66926308752993},
{"STATE":"IL","ZIP":60639,"LATTITUDE":41.90997360081207,"ADDRESS":"4040 W NORTH AVE 1ST ","YEAR":2015,"DOING_BUSINESS_AS_NAME":"MADRID JEWELRY, INC.","POP_AT_RISK":515736,"BUSINESS_TYPE":"Secondhand Dealer (Includes Valuable Objects)","LEGAL_NAME":"MADRID JEWELRY, INC.","LONGITUDE":-87.72796634612723},
{"STATE":"IL","ZIP":60606,"LATTITUDE":41.879487753534356,"ADDRESS":"222 W ADAMS ST 11 110","YEAR":2015,"DOING_BUSINESS_AS_NAME":"SYDEL & SYDEL LTD","POP_AT_RISK":57500,"BUSINESS_TYPE":"Secondhand Dealer (Includes Valuable Objects)","LEGAL_NAME":"SYDEL AND SYDEL LTD.","LONGITUDE":-87.63444222788623},
{"STATE":"IL","ZIP":60620,"LATTITUDE":41.73638020184098,"ADDRESS":"120 W 87TH ST  C-2","YEAR":2015,"DOING_BUSINESS_AS_NAME":"GOLD EXPRESS JEWELERS,INC","POP_AT_RISK":220088,"BUSINESS_TYPE":"Secondhand Dealer (Includes Valuable Objects)","LEGAL_NAME":"GOLD EXPRESS JEWELERS","LONGITUDE":-87.62769923470614},
{"STATE":"IL","ZIP":60622,"LATTITUDE":41.89604998293137,"ADDRESS":"1914 W CHICAGO AVE  ","YEAR":2015,"DOING_BUSINESS_AS_NAME":"PERMANENT RECORDS LLC","POP_AT_RISK":110026,"BUSINESS_TYPE":"Secondhand Dealer (Includes Valuable Objects)","LEGAL_NAME":"PERMANENT RECORDS LLC","LONGITUDE":-87.67526671355324},
{"STATE":"IL","ZIP":60639,"LATTITUDE":41.93155227021275,"ADDRESS":"4359 W DIVERSEY AVE  ","YEAR":2015,"DOING_BUSINESS_AS_NAME":"A NEW ERA JEWERLY & COIN","POP_AT_RISK":220392,"BUSINESS_TYPE":"Secondhand Dealer (Includes Valuable Objects)","LEGAL_NAME":"BRJ FUSION CORPORATION","LONGITUDE":-87.7367500849822},
{"STATE":"IL","ZIP":60621,"LATTITUDE":41.768949204090816,"ADDRESS":"766 W 69TH ST 1ST ","YEAR":2015,"DOING_BUSINESS_AS_NAME":"E Z CASH FOR GOLD","POP_AT_RISK":284211,"BUSINESS_TYPE":"Secondhand Dealer (Includes Valuable Objects)","LEGAL_NAME":"E Z CASH FOR GOLD INC.,","LONGITUDE":-87.64436818272317},
{"STATE":"IL","ZIP":60646,"LATTITUDE":41.997218561842885,"ADDRESS":"5413-5417 W DEVON AVE 1ST ","YEAR":2015,"DOING_BUSINESS_AS_NAME":"MY SISTER'S CLOSET","POP_AT_RISK":17956,"BUSINESS_TYPE":"Secondhand Dealer (Includes Valuable Objects)","LEGAL_NAME":"MY SISTER'S CLOSET, LTD.","LONGITUDE":-87.7643229386157},
{"STATE":"IL","ZIP":60660,"LATTITUDE":41.995776976971854,"ADDRESS":"6241-6245 N BROADWAY  1 ","YEAR":2015,"DOING_BUSINESS_AS_NAME":"GREEN ELEMENT RESALE, LLC","POP_AT_RISK":1136320,"BUSINESS_TYPE":"Secondhand Dealer (Includes Valuable Objects)","LEGAL_NAME":"GREEN ELEMENT RESALE, LLC","LONGITUDE":-87.66029505305936},
{"STATE":"IL","ZIP":60618,"LATTITUDE":41.93650058930058,"ADDRESS":"3039 N MILWAUKEE AVE 1 ","YEAR":2015,"DOING_BUSINESS_AS_NAME":"LA CARIDAD CLOTHING INC","POP_AT_RISK":310850,"BUSINESS_TYPE":"Secondhand Dealer (Includes Valuable Objects)","LEGAL_NAME":"LA CARIDAD CLOTHING, INC.","LONGITUDE":-87.71935646809519},
{"STATE":"IL","ZIP":60638,"LATTITUDE":41.80588964456255,"ADDRESS":"4758 S CICERO AVE 1ST ","YEAR":2015,"DOING_BUSINESS_AS_NAME":"OLYMPIC STORE FIXTURES INC","POP_AT_RISK":215658,"BUSINESS_TYPE":"Secondhand Dealer (Includes Valuable Objects)","LEGAL_NAME":"OLYMPIC STORE FIXTURES INC","LONGITUDE":-87.74325510064476},
{"STATE":"IL","ZIP":60647,"LATTITUDE":41.92076159685186,"ADDRESS":"2139 N DAMEN AVE  C-1","YEAR":2015,"DOING_BUSINESS_AS_NAME":"RADIANCE FINE JEWELRY, INC.","POP_AT_RISK":90020,"BUSINESS_TYPE":"Secondhand Dealer (Includes Valuable Objects)","LEGAL_NAME":"RADIANCE FINE JEWELRY, INC.","LONGITUDE":-87.67758347614345},
{"STATE":"IL","ZIP":60624,"LATTITUDE":41.88078242154838,"ADDRESS":"4150 W MADISON ST 1ST ","YEAR":2015,"DOING_BUSINESS_AS_NAME":"WEST TOWN LIQUIDATORS INC","POP_AT_RISK":714272,"BUSINESS_TYPE":"Secondhand Dealer (Includes Valuable Objects)","LEGAL_NAME":"WEST TOWN LIQUIDATORS, INC.","LONGITUDE":-87.73008512020141},
{"STATE":"IL","ZIP":60613,"LATTITUDE":41.96047630495004,"ADDRESS":"4325 N RAVENSWOOD AVE 1ST ","YEAR":2015,"DOING_BUSINESS_AS_NAME":"ARCHITECTURAL ARTIFACTS, INC","POP_AT_RISK":64271,"BUSINESS_TYPE":"Secondhand Dealer (Includes Valuable Objects)","LEGAL_NAME":"ARCHITECTURAL ARTIFACTS, INC","LONGITUDE":-87.67379931767802},
{"STATE":"IL","ZIP":60613,"LATTITUDE":41.96147413317743,"ADDRESS":"1611-1615 W MONTROSE AVE  ","YEAR":2015,"DOING_BUSINESS_AS_NAME":"20TH CENTURY TV & STEREO CTR","POP_AT_RISK":73016,"BUSINESS_TYPE":"Secondhand Dealer (Includes Valuable Objects)","LEGAL_NAME":"20TH CENTURY TV & STEREO CENTER","LONGITUDE":-87.66975227638238},
{"STATE":"IL","ZIP":60610,"LATTITUDE":41.89564204325786,"ADDRESS":"730 N WELLS ST  ","YEAR":2015,"DOING_BUSINESS_AS_NAME":"DOUGLASROSIN DECORATIVE ARTS ANTIQUES","POP_AT_RISK":451308,"BUSINESS_TYPE":"Secondhand Dealer (Includes Valuable Objects)","LEGAL_NAME":"GENE DOUGLAS DECORATIVE ARTS & ANTIQUES, L.L.C.","LONGITUDE":-87.63432360280063},
{}]