[
{"STATE":"IL","ZIP":60629,"LATTITUDE":41.77909842422025,"ADDRESS":"2523 W 63RD ST 1ST ","YEAR":2009,"DOING_BUSINESS_AS_NAME":"SKIN PASSION TATTOOS","POP_AT_RISK":574332,"BUSINESS_TYPE":"Body Piercing","LEGAL_NAME":"RAJI ROSS","LONGITUDE":-87.68715094490803},
{"STATE":"IL","ZIP":60626,"LATTITUDE":42.00332557371888,"ADDRESS":"6656 N CLARK ST 1ST 1","YEAR":2009,"DOING_BUSINESS_AS_NAME":"MARS' HILL","POP_AT_RISK":329592,"BUSINESS_TYPE":"Body Piercing","LEGAL_NAME":"THOMAS J. DAVIS","LONGITUDE":-87.67256789729372},
{"STATE":"IL","ZIP":60625,"LATTITUDE":41.96842952509285,"ADDRESS":"2737 W LAWRENCE AVE 1ST ","YEAR":2009,"DOING_BUSINESS_AS_NAME":"BEE TATTOO, INC.","POP_AT_RISK":573588,"BUSINESS_TYPE":"Body Piercing","LEGAL_NAME":"BEE TATTOO, INC.","LONGITUDE":-87.69772059464243},
{"STATE":"IL","ZIP":60652,"LATTITUDE":41.74045023530922,"ADDRESS":"8356 S PULASKI RD  STORE","YEAR":2009,"DOING_BUSINESS_AS_NAME":"ETCHED IN SKIN","POP_AT_RISK":127368,"BUSINESS_TYPE":"Body Piercing","LEGAL_NAME":"MICHELLE L RYBKA","LONGITUDE":-87.72176928391136},
{"STATE":"IL","ZIP":60640,"LATTITUDE":41.962842630026145,"ADDRESS":"4439-4443 N BROADWAY   ","YEAR":2009,"DOING_BUSINESS_AS_NAME":"TATTOO FACTORY","POP_AT_RISK":69855,"BUSINESS_TYPE":"Body Piercing","LEGAL_NAME":"PAUL COLLURAFICI","LONGITUDE":-87.6556745694617},
{"STATE":"IL","ZIP":60647,"LATTITUDE":41.92673659835983,"ADDRESS":"2500 N MILWAUKEE AVE  614-615","YEAR":2009,"DOING_BUSINESS_AS_NAME":"DA HOT ZONE","POP_AT_RISK":138648,"BUSINESS_TYPE":"Body Piercing","LEGAL_NAME":"DA HOT ZONE, INC.","LONGITUDE":-87.70382782692913},
{"STATE":"IL","ZIP":60647,"LATTITUDE":41.9173234757404,"ADDRESS":"3816 W ARMITAGE AVE 1 ","YEAR":2009,"DOING_BUSINESS_AS_NAME":"DIAMOND TATTOOS","POP_AT_RISK":805392,"BUSINESS_TYPE":"Body Piercing","LEGAL_NAME":"JOSE F. RODRIGUEZ","LONGITUDE":-87.72235907727797},
{"STATE":"IL","ZIP":60608,"LATTITUDE":41.834745401604216,"ADDRESS":"3265 S ARCHER AVE 1 ","YEAR":2009,"DOING_BUSINESS_AS_NAME":"THE SHOP TATTOO STUDIO","POP_AT_RISK":133532,"BUSINESS_TYPE":"Body Piercing","LEGAL_NAME":"MARIA D. GRIMALDO","LONGITUDE":-87.67031467723689},
{"STATE":"IL","ZIP":60622,"LATTITUDE":41.895845639675336,"ADDRESS":"1855 W CHICAGO AVE  1","YEAR":2009,"DOING_BUSINESS_AS_NAME":"TOMATO TATTOO INC","POP_AT_RISK":55013,"BUSINESS_TYPE":"Body Piercing","LEGAL_NAME":"TOMATO TATTOO INC","LONGITUDE":-87.67433457498525},
{"STATE":"IL","ZIP":60632,"LATTITUDE":41.812718319632275,"ADDRESS":"4440 S ARCHER AVE 1 ","YEAR":2009,"DOING_BUSINESS_AS_NAME":"INFINITE INK CORP.","POP_AT_RISK":81980,"BUSINESS_TYPE":"Body Piercing","LEGAL_NAME":"INFINITE INK CORP.","LONGITUDE":-87.7067119867732},
{"STATE":"IL","ZIP":60607,"LATTITUDE":41.86953354394101,"ADDRESS":"1150 W TAYLOR ST 1ST ","YEAR":2009,"DOING_BUSINESS_AS_NAME":"TAYLOR STREET TATTOO AND BODY PIERCING COMPANY","POP_AT_RISK":480315,"BUSINESS_TYPE":"Body Piercing","LEGAL_NAME":"UNDERWOOD ART. CO.","LONGITUDE":-87.65626097874001},
{"STATE":"IL","ZIP":60640,"LATTITUDE":41.961910293557445,"ADDRESS":"4407 N CLARK ST 1ST FLOOR 1","YEAR":2009,"DOING_BUSINESS_AS_NAME":"MASTERMIND INK","POP_AT_RISK":333360,"BUSINESS_TYPE":"Body Piercing","LEGAL_NAME":"MASTERMIND INK, LLC","LONGITUDE":-87.66587203904609},
{"STATE":"IL","ZIP":60610,"LATTITUDE":41.903968430883985,"ADDRESS":"166 W DIVISION ST 1 ","YEAR":2009,"DOING_BUSINESS_AS_NAME":"WINDY CITY INK, LLC","POP_AT_RISK":409305,"BUSINESS_TYPE":"Body Piercing","LEGAL_NAME":"WINDY CITY INK, LLC","LONGITUDE":-87.6340742094126},
{"STATE":"IL","ZIP":60639,"LATTITUDE":41.91946387531173,"ADDRESS":"5718 W GRAND AVE 1 ","YEAR":2009,"DOING_BUSINESS_AS_NAME":"FIFTH SUN GRAPHIX, INC.","POP_AT_RISK":218468,"BUSINESS_TYPE":"Body Piercing","LEGAL_NAME":"FIFTH SUN GRAPHIX, INC","LONGITUDE":-87.76903584780901},
{"STATE":"IL","ZIP":60641,"LATTITUDE":41.93854246746509,"ADDRESS":"5331 W BELMONT AVE 1ST ","YEAR":2009,"DOING_BUSINESS_AS_NAME":"JADE DRAGON TATTOO INC","POP_AT_RISK":211032,"BUSINESS_TYPE":"Body Piercing","LEGAL_NAME":"JADE DRAGON TATTOO INC","LONGITUDE":-87.76040185146701},
{"STATE":"IL","ZIP":60630,"LATTITUDE":41.96971194683792,"ADDRESS":"4901 N ELSTON AVE 1 ","YEAR":2009,"DOING_BUSINESS_AS_NAME":"THE GALLERY OF INK","POP_AT_RISK":84230,"BUSINESS_TYPE":"Body Piercing","LEGAL_NAME":"THE GALLERY OF INK LLC","LONGITUDE":-87.7425332271635},
{"STATE":"IL","ZIP":60609,"LATTITUDE":41.82339041040023,"ADDRESS":"1848 W PERSHING RD 1 ","YEAR":2009,"DOING_BUSINESS_AS_NAME":"TINA'S SPA SALON CORP.","POP_AT_RISK":29620,"BUSINESS_TYPE":"Body Piercing","LEGAL_NAME":"TINA'S SPA SALON CORP.","LONGITUDE":-87.67194448459976},
{"STATE":"IL","ZIP":60660,"LATTITUDE":41.996093875952845,"ADDRESS":"6317 N RIDGE AVE 1 ","YEAR":2009,"DOING_BUSINESS_AS_NAME":"AEROSTUDIOS","POP_AT_RISK":222837,"BUSINESS_TYPE":"Body Piercing","LEGAL_NAME":"AEROSTUDIOS INCORPORATED","LONGITUDE":-87.67580653154624},
{"STATE":"IL","ZIP":60602,"LATTITUDE":41.88219177285317,"ADDRESS":"5 N STATE ST  ","YEAR":2009,"DOING_BUSINESS_AS_NAME":"CLAIRE'S","POP_AT_RISK":139284,"BUSINESS_TYPE":"Body Piercing","LEGAL_NAME":"CLAIRE'S BOUTIQUES, INC.","LONGITUDE":-87.6276868832079},
{"STATE":"IL","ZIP":60614,"LATTITUDE":41.92521232759425,"ADDRESS":"1730 W FULLERTON AVE  21","YEAR":2009,"DOING_BUSINESS_AS_NAME":"CLAIRE'S","POP_AT_RISK":53942,"BUSINESS_TYPE":"Body Piercing","LEGAL_NAME":"CLAIRE'S BOUTIQUES, INC.","LONGITUDE":-87.67192542513618},
{"STATE":"IL","ZIP":60639,"LATTITUDE":41.929256687663745,"ADDRESS":"2700 N NARRAGANSETT AVE  S6","YEAR":2009,"DOING_BUSINESS_AS_NAME":"CLAIRE'S #5601","POP_AT_RISK":233940,"BUSINESS_TYPE":"Body Piercing","LEGAL_NAME":"CLAIRE'S BOUTIQUES, INC.","LONGITUDE":-87.78579516503306},
{"STATE":"IL","ZIP":60661,"LATTITUDE":41.88199433820508,"ADDRESS":"500 W MADISON ST # 6696","YEAR":2009,"DOING_BUSINESS_AS_NAME":"CLAIRE'S BOUTIQUE #6696","POP_AT_RISK":63203,"BUSINESS_TYPE":"Body Piercing","LEGAL_NAME":"CLAIRE'S BOUTIQUES, INC.","LONGITUDE":-87.6397586848809},
{"STATE":"IL","ZIP":60623,"LATTITUDE":41.84776668182944,"ADDRESS":"2410 S KEDZIE AVE  ","YEAR":2009,"DOING_BUSINESS_AS_NAME":"AGELESS ARTS","POP_AT_RISK":806773,"BUSINESS_TYPE":"Body Piercing","LEGAL_NAME":"EXOTIC BODY CREATIONS INC.","LONGITUDE":-87.70528457405833},
{"STATE":"IL","ZIP":60640,"LATTITUDE":41.97272103937437,"ADDRESS":"5005 N CLARK ST  ","YEAR":2009,"DOING_BUSINESS_AS_NAME":"EAGLE LEATHERS INC","POP_AT_RISK":271155,"BUSINESS_TYPE":"Body Piercing","LEGAL_NAME":"EAGLE LEATHERS INCORPORATED","LONGITUDE":-87.66779703352901},
{"STATE":"IL","ZIP":60657,"LATTITUDE":41.940646213272494,"ADDRESS":"3228 N CLARK ST GROUND ","YEAR":2009,"DOING_BUSINESS_AS_NAME":"THE ALLEY","POP_AT_RISK":181022,"BUSINESS_TYPE":"Body Piercing","LEGAL_NAME":"RAGS 2 RICHES FASHIONS, LTD.","LONGITUDE":-87.65140950812834},
{"STATE":"IL","ZIP":60657,"LATTITUDE":41.93979110570738,"ADDRESS":"1017 W BELMONT AVE  ","YEAR":2009,"DOING_BUSINESS_AS_NAME":"THE CHICAGO TATTOOING CO INC","POP_AT_RISK":86172,"BUSINESS_TYPE":"Body Piercing","LEGAL_NAME":"THE CHICAGO TATTOOING CO INC","LONGITUDE":-87.65474668661226},
{"STATE":"IL","ZIP":60660,"LATTITUDE":41.996566735480926,"ADDRESS":"6305 N CLARK ST 1 ","YEAR":2009,"DOING_BUSINESS_AS_NAME":"GEORGE PAPAS TATTOO","POP_AT_RISK":434685,"BUSINESS_TYPE":"Body Piercing","LEGAL_NAME":"EPIDERMAL ENGRAVING EMPORIUM INC.","LONGITUDE":-87.6700921173751},
{"STATE":"IL","ZIP":60637,"LATTITUDE":41.7754442686532,"ADDRESS":"6544 S COTTAGE GROVE AVE 1ST ","YEAR":2009,"DOING_BUSINESS_AS_NAME":"TATTED UP TATTOOS & PIERCINGS INC.","POP_AT_RISK":637808,"BUSINESS_TYPE":"Body Piercing","LEGAL_NAME":"TATTED UP TATTOOS & PIERCINGS, INC.","LONGITUDE":-87.60596644239202},
{"STATE":"IL","ZIP":60617,"LATTITUDE":41.73909042472304,"ADDRESS":"8548 S STONY ISLAND AVE  ","YEAR":2009,"DOING_BUSINESS_AS_NAME":"SOUTHSIDE TATTOOS & BODY PIERCING LLC","POP_AT_RISK":293607,"BUSINESS_TYPE":"Body Piercing","LEGAL_NAME":"SOUTHSIDE TATTOOS & BODY PIERCING LLC","LONGITUDE":-87.5858420548468},
{"STATE":"IL","ZIP":60641,"LATTITUDE":41.93763137415776,"ADDRESS":"3120 N CICERO AVE  B","YEAR":2009,"DOING_BUSINESS_AS_NAME":"MYSTIC TATTOO ART & BODY PIERCING","POP_AT_RISK":65610,"BUSINESS_TYPE":"Body Piercing","LEGAL_NAME":"MYSTIC TATTOO ART & BODY PIERCING CORP.","LONGITUDE":-87.7469880315815},
{}]