[
{"STATE":"IL","ZIP":60827,"LATTITUDE":41.64661613548738,"ADDRESS":"13701 S INDIANA AVE 1ST ","YEAR":2014,"DOING_BUSINESS_AS_NAME":"TRIANGLE SERVICE","POP_AT_RISK":17826,"BUSINESS_TYPE":"Motor Vehicle Services License","LEGAL_NAME":"GUS KATSENIS","LONGITUDE":-87.61708342711016},
{"STATE":"IL","ZIP":60644,"LATTITUDE":41.86561698574138,"ADDRESS":"5838 W ROOSEVELT RD  ","YEAR":2014,"DOING_BUSINESS_AS_NAME":"ROOSEVELT TIRE SHOP","POP_AT_RISK":314508,"BUSINESS_TYPE":"Motor Vehicle Services License","LEGAL_NAME":"JAMES GOODMAN","LONGITUDE":-87.77069153109431},
{"STATE":"IL","ZIP":60637,"LATTITUDE":41.79435438087739,"ADDRESS":"359 E GARFIELD BLVD  1ST","YEAR":2014,"DOING_BUSINESS_AS_NAME":"K P C MUFFLERS","POP_AT_RISK":34529,"BUSINESS_TYPE":"Motor Vehicle Services License","LEGAL_NAME":"OSWALD C O'CONNOR","LONGITUDE":-87.61682230663318},
{"STATE":"IL","ZIP":60653,"LATTITUDE":41.816863888355286,"ADDRESS":"636 E 43RD ST 1ST ","YEAR":2014,"DOING_BUSINESS_AS_NAME":"PAUL JONES TIRE REPAIR","POP_AT_RISK":119058,"BUSINESS_TYPE":"Motor Vehicle Services License","LEGAL_NAME":"THOMAS PAUL JONES","LONGITUDE":-87.61026414566696},
{"STATE":"IL","ZIP":60615,"LATTITUDE":41.802831120070785,"ADDRESS":"5048 S CORNELL AVE 1ST ","YEAR":2014,"DOING_BUSINESS_AS_NAME":"BP","POP_AT_RISK":359410,"BUSINESS_TYPE":"Motor Vehicle Services License","LEGAL_NAME":"CORNELL AMOCO, INC.","LONGITUDE":-87.58659252529138},
{"STATE":"IL","ZIP":60605,"LATTITUDE":41.87331073325086,"ADDRESS":"700 S CLARK ST 1ST ","YEAR":2014,"DOING_BUSINESS_AS_NAME":"DOWNTOWN AUTO & TIRE SERVICE","POP_AT_RISK":42798,"BUSINESS_TYPE":"Motor Vehicle Services License","LEGAL_NAME":"ESHA KHOSHABA KENDO","LONGITUDE":-87.63078781601038},
{"STATE":"IL","ZIP":60656,"LATTITUDE":41.980383034707465,"ADDRESS":"7045 W HIGGINS AVE 1ST ","YEAR":2014,"DOING_BUSINESS_AS_NAME":"AUTOPOL CAR CARE, INC.","POP_AT_RISK":59228,"BUSINESS_TYPE":"Motor Vehicle Services License","LEGAL_NAME":"AUTOPOL CAR CARE INC","LONGITUDE":-87.80412335118584},
{"STATE":"IL","ZIP":60644,"LATTITUDE":41.8870361616709,"ADDRESS":"5835 W CORCORAN PL  1","YEAR":2014,"DOING_BUSINESS_AS_NAME":"ABLE AUTO SERVICES","POP_AT_RISK":102624,"BUSINESS_TYPE":"Motor Vehicle Services License","LEGAL_NAME":"GEORGE DIMITROPOULOS","LONGITUDE":-87.77144373090574},
{"STATE":"IL","ZIP":60646,"LATTITUDE":41.99343746173311,"ADDRESS":"6152 N PULASKI RD  ","YEAR":2014,"DOING_BUSINESS_AS_NAME":"SNAPPY CAR WASH, INC.","POP_AT_RISK":52980,"BUSINESS_TYPE":"Motor Vehicle Services License","LEGAL_NAME":"SNAPPY CAR WASH, INC.","LONGITUDE":-87.72903033512165},
{"STATE":"IL","ZIP":60623,"LATTITUDE":41.851984360096004,"ADDRESS":"2140 S KILBOURN AVE  ","YEAR":2014,"DOING_BUSINESS_AS_NAME":"EL MALECHO UPHOLSTERY UPHOLSTERY INC.","POP_AT_RISK":48526,"BUSINESS_TYPE":"Motor Vehicle Services License","LEGAL_NAME":"EL MALECHO UPHOLSTERY INC.","LONGITUDE":-87.73711445332178},
{"STATE":"IL","ZIP":60646,"LATTITUDE":41.996166547688986,"ADDRESS":"6301 N CENTRAL AVE  ","YEAR":2014,"DOING_BUSINESS_AS_NAME":"CENTRAL AND CALDWELL SERVICE","POP_AT_RISK":17956,"BUSINESS_TYPE":"Motor Vehicle Services License","LEGAL_NAME":"CENTRAL AND CALDWELL SERVICE","LONGITUDE":-87.76404923745231},
{"STATE":"IL","ZIP":60656,"LATTITUDE":41.9732901158506,"ADDRESS":"5200-5202 N WESLEY TER 1ST ","YEAR":2014,"DOING_BUSINESS_AS_NAME":"MGS CAR REPAIR & BODY WORK INC.","POP_AT_RISK":16526,"BUSINESS_TYPE":"Motor Vehicle Services License","LEGAL_NAME":"MGS CAR REPAIR & BODY WORK INC.","LONGITUDE":-87.86421548940504},
{"STATE":"IL","ZIP":60614,"LATTITUDE":41.93280849685226,"ADDRESS":"824 W DIVERSEY PKWY  ","YEAR":2014,"DOING_BUSINESS_AS_NAME":"WM J CASSIDY TIRE & AUTO","POP_AT_RISK":85329,"BUSINESS_TYPE":"Motor Vehicle Services License","LEGAL_NAME":"WM. J. CASSIDY TIRE & AUTO SUPPLY CO.","LONGITUDE":-87.65000549071719},
{"STATE":"IL","ZIP":60652,"LATTITUDE":41.73628922702488,"ADDRESS":"8601-8611 S CICERO AVE 1 ","YEAR":2014,"DOING_BUSINESS_AS_NAME":"PAISANO MUFFLERS AND AUTO SERVICE, LLC","POP_AT_RISK":23923,"BUSINESS_TYPE":"Motor Vehicle Services License","LEGAL_NAME":"PAISANO MUFFLERS AND AUTO SERVICE, LLC","LONGITUDE":-87.74078193737448},
{}]