[
{"STATE":"IL","ZIP":60628,"LATTITUDE":41.69625510199919,"ADDRESS":"10855 S HALSTED ST 1ST ","YEAR":2012,"DOING_BUSINESS_AS_NAME":"C & B AUTO SALES","POP_AT_RISK":25250,"BUSINESS_TYPE":"Motor Vehicle Repair
{"STATE":"IL","ZIP":60628,"LATTITUDE":41.72160797021744,"ADDRESS":"646 W 95TH ST 1ST ","YEAR":2012,"DOING_BUSINESS_AS_NAME":"TIREWORLD & RIMS","POP_AT_RISK":202884,"BUSINESS_TYPE":"Motor Vehicle Repair
{"STATE":"IL","ZIP":60637,"LATTITUDE":41.77561321968372,"ADDRESS":"6538 S COTTAGE GROVE AVE  ","YEAR":2012,"DOING_BUSINESS_AS_NAME":"J & S GLASS CO","POP_AT_RISK":119589,"BUSINESS_TYPE":"Motor Vehicle Repair
{"STATE":"IL","ZIP":60630,"LATTITUDE":41.982579357705184,"ADDRESS":"5570 N LYNCH AVE 1 B","YEAR":2012,"DOING_BUSINESS_AS_NAME":"TM WEST TAXI METER & SIGN SHOP","POP_AT_RISK":56464,"BUSINESS_TYPE":"Motor Vehicle Repair
{"STATE":"IL","ZIP":60628,"LATTITUDE":41.694688042592915,"ADDRESS":"10952 S MICHIGAN AVE  1","YEAR":2012,"DOING_BUSINESS_AS_NAME":"4 ACES TIRES","POP_AT_RISK":155180,"BUSINESS_TYPE":"Motor Vehicle Repair
{"STATE":"IL","ZIP":60640,"LATTITUDE":41.96683643050501,"ADDRESS":"4653 N CLARK ST 1ST ","YEAR":2012,"DOING_BUSINESS_AS_NAME":"MEDINAS TIRE SHOP","POP_AT_RISK":72533,"BUSINESS_TYPE":"Motor Vehicle Repair
{"STATE":"IL","ZIP":60631,"LATTITUDE":42.00047578589979,"ADDRESS":"6544 N MILWAUKEE AVE 1ST ","YEAR":2012,"DOING_BUSINESS_AS_NAME":"R A S TIRE SALES","POP_AT_RISK":60573,"BUSINESS_TYPE":"Motor Vehicle Repair
{"STATE":"IL","ZIP":60619,"LATTITUDE":41.75121178719044,"ADDRESS":"915 E 79TH ST 1ST ","YEAR":2012,"DOING_BUSINESS_AS_NAME":"GONZALEZ RIMS AND TIRES","POP_AT_RISK":41847,"BUSINESS_TYPE":"Motor Vehicle Repair
{"STATE":"IL","ZIP":60639,"LATTITUDE":41.93125615158966,"ADDRESS":"5946 W DIVERSEY AVE  1","YEAR":2012,"DOING_BUSINESS_AS_NAME":"DETECT-ALL SECURITY","POP_AT_RISK":111796,"BUSINESS_TYPE":"Motor Vehicle Repair
{"STATE":"IL","ZIP":60640,"LATTITUDE":41.98233782248874,"ADDRESS":"5521 N CLARK ST  1ST","YEAR":2012,"DOING_BUSINESS_AS_NAME":"OCANA TIRE SHOP #2","POP_AT_RISK":296612,"BUSINESS_TYPE":"Motor Vehicle Repair
{"STATE":"IL","ZIP":60609,"LATTITUDE":41.81633161182101,"ADDRESS":"700 W 43RD ST  ","YEAR":2012,"DOING_BUSINESS_AS_NAME":"STOKES AUTO SERVICE","POP_AT_RISK":14040,"BUSINESS_TYPE":"Motor Vehicle Repair
{"STATE":"IL","ZIP":60634,"LATTITUDE":41.937851717173146,"ADDRESS":"7517 W BELMONT AVE 1ST ","YEAR":2012,"DOING_BUSINESS_AS_NAME":"ONCE OVER CAR DETAILING","POP_AT_RISK":296681,"BUSINESS_TYPE":"Motor Vehicle Repair
{"STATE":"IL","ZIP":60643,"LATTITUDE":41.684971438520385,"ADDRESS":"1448 W 115TH ST  1","YEAR":2012,"DOING_BUSINESS_AS_NAME":"PEE WEES TIRE REPAIR","POP_AT_RISK":93948,"BUSINESS_TYPE":"Motor Vehicle Repair
{"STATE":"IL","ZIP":60617,"LATTITUDE":41.71997451296936,"ADDRESS":"9647 S EWING AVE  ","YEAR":2012,"DOING_BUSINESS_AS_NAME":"CITYWIDE RIMS & SOUNDS","POP_AT_RISK":13632,"BUSINESS_TYPE":"Motor Vehicle Repair
{"STATE":"IL","ZIP":60624,"LATTITUDE":41.8807669005056,"ADDRESS":"3515-17 W MADISON ST 1ST ","YEAR":2012,"DOING_BUSINESS_AS_NAME":"LEE TIRE REPAIR","POP_AT_RISK":156180,"BUSINESS_TYPE":"Motor Vehicle Repair
{"STATE":"IL","ZIP":60629,"LATTITUDE":41.77082263808896,"ADDRESS":"6717 S PULASKI RD  ","YEAR":2012,"DOING_BUSINESS_AS_NAME":"JS SOUND SHOP","POP_AT_RISK":81210,"BUSINESS_TYPE":"Motor Vehicle Repair
{"STATE":"IL","ZIP":60632,"LATTITUDE":41.800358082137066,"ADDRESS":"5101 S KOLMAR AVE  ","YEAR":2012,"DOING_BUSINESS_AS_NAME":"PACHECO TIRE SHOP","POP_AT_RISK":94764,"BUSINESS_TYPE":"Motor Vehicle Repair
{"STATE":"IL","ZIP":60610,"LATTITUDE":41.895653319250044,"ADDRESS":"356 W SUPERIOR ST 1ST ","YEAR":2012,"DOING_BUSINESS_AS_NAME":"River North Car Wash Inc.","POP_AT_RISK":890773,"BUSINESS_TYPE":"Motor Vehicle Repair
{"STATE":"IL","ZIP":60653,"LATTITUDE":41.816863888355286,"ADDRESS":"636 E 43RD ST 1ST ","YEAR":2012,"DOING_BUSINESS_AS_NAME":"PAUL JONES TIRE REPAIR","POP_AT_RISK":793720,"BUSINESS_TYPE":"Motor Vehicle Repair
{"STATE":"IL","ZIP":60612,"LATTITUDE":41.89090861853842,"ADDRESS":"2036 W GRAND AVE  ","YEAR":2012,"DOING_BUSINESS_AS_NAME":"QUIROGA'S DETAIL AND CAR WASH","POP_AT_RISK":45732,"BUSINESS_TYPE":"Motor Vehicle Repair
{"STATE":"IL","ZIP":60652,"LATTITUDE":41.751511587459945,"ADDRESS":"3211 W 78TH ST 1ST ","YEAR":2012,"DOING_BUSINESS_AS_NAME":"A & V AUTO GLASS INC","POP_AT_RISK":69051,"BUSINESS_TYPE":"Motor Vehicle Repair
{"STATE":"IL","ZIP":60632,"LATTITUDE":41.80458486588437,"ADDRESS":"4877 S ARCHER AVE  ","YEAR":2012,"DOING_BUSINESS_AS_NAME":"JALLOWAY'S GLASS CO.","POP_AT_RISK":30221,"BUSINESS_TYPE":"Motor Vehicle Repair
{"STATE":"IL","ZIP":60622,"LATTITUDE":41.893644225167506,"ADDRESS":"641 N ASHLAND AVE 1ST ","YEAR":2012,"DOING_BUSINESS_AS_NAME":"ORLANDO AUTO TOP","POP_AT_RISK":46623,"BUSINESS_TYPE":"Motor Vehicle Repair
{"STATE":"IL","ZIP":60614,"LATTITUDE":41.93083301378749,"ADDRESS":"2650 N CLARK ST  ","YEAR":2012,"DOING_BUSINESS_AS_NAME":"BEST BUY","POP_AT_RISK":1379397,"BUSINESS_TYPE":"Motor Vehicle Repair
{"STATE":"IL","ZIP":60622,"LATTITUDE":41.910948762561205,"ADDRESS":"1000 W NORTH AVE  E","YEAR":2012,"DOING_BUSINESS_AS_NAME":"BEST BUY","POP_AT_RISK":109390,"BUSINESS_TYPE":"Motor Vehicle Repair
{"STATE":"IL","ZIP":60607,"LATTITUDE":41.86712201727935,"ADDRESS":"555 W ROOSEVELT RD 1 ","YEAR":2012,"DOING_BUSINESS_AS_NAME":"BEST BUY","POP_AT_RISK":65642,"BUSINESS_TYPE":"Motor Vehicle Repair
{"STATE":"IL","ZIP":60646,"LATTITUDE":41.99343746173311,"ADDRESS":"6152 N PULASKI RD  ","YEAR":2012,"DOING_BUSINESS_AS_NAME":"SNAPPY CAR WASH, INC.","POP_AT_RISK":79470,"BUSINESS_TYPE":"Motor Vehicle Repair
{"STATE":"IL","ZIP":60638,"LATTITUDE":41.77628457780426,"ADDRESS":"6358 S CENTRAL AVE  1ST","YEAR":2012,"DOING_BUSINESS_AS_NAME":"DAYTON AUTO UPHOLSTERY","POP_AT_RISK":13531,"BUSINESS_TYPE":"Motor Vehicle Repair
{"STATE":"IL","ZIP":60644,"LATTITUDE":41.873299724066406,"ADDRESS":"4722 W HARRISON ST  ","YEAR":2012,"DOING_BUSINESS_AS_NAME":"SPARKY'S CAR WASH","POP_AT_RISK":45640,"BUSINESS_TYPE":"Motor Vehicle Repair
{"STATE":"IL","ZIP":60623,"LATTITUDE":41.844011645517114,"ADDRESS":"4369 W 26TH ST 1ST 1","YEAR":2012,"DOING_BUSINESS_AS_NAME":"EXPRESS AUTOMOTIVE INC","POP_AT_RISK":91804,"BUSINESS_TYPE":"Motor Vehicle Repair
{"STATE":"IL","ZIP":60643,"LATTITUDE":41.7089983869755,"ADDRESS":"10134 S WESTERN AVE  ","YEAR":2012,"DOING_BUSINESS_AS_NAME":"SPEEDWAY EXPRESS LUBE","POP_AT_RISK":24497,"BUSINESS_TYPE":"Motor Vehicle Repair
{"STATE":"IL","ZIP":60634,"LATTITUDE":41.953061306717665,"ADDRESS":"5621 W IRVING PARK RD 1 ","YEAR":2012,"DOING_BUSINESS_AS_NAME":"INTER AUTO GLASS","POP_AT_RISK":274535,"BUSINESS_TYPE":"Motor Vehicle Repair
{"STATE":"IL","ZIP":60613,"LATTITUDE":41.94865132143591,"ADDRESS":"3664 N LINCOLN AVE  1ST","YEAR":2012,"DOING_BUSINESS_AS_NAME":"LAWRENCE AUTO TRIM CO INC.","POP_AT_RISK":567180,"BUSINESS_TYPE":"Motor Vehicle Repair
{"STATE":"IL","ZIP":60638,"LATTITUDE":41.792603240395486,"ADDRESS":"5635 W 55TH ST 1ST ","YEAR":2012,"DOING_BUSINESS_AS_NAME":"A-1    SMART START OF GREATER CHICAGO","POP_AT_RISK":68475,"BUSINESS_TYPE":"Motor Vehicle Repair
{"STATE":"IL","ZIP":60616,"LATTITUDE":41.83806671096745,"ADDRESS":"349 W 31ST ST 1ST ","YEAR":2012,"DOING_BUSINESS_AS_NAME":"J & J SOFT CAR WASH INC","POP_AT_RISK":294000,"BUSINESS_TYPE":"Motor Vehicle Repair
{"STATE":"IL","ZIP":60609,"LATTITUDE":41.79746948621797,"ADDRESS":"5315 S HALSTED ST 1 1","YEAR":2012,"DOING_BUSINESS_AS_NAME":"PRO AUTO TIRE & WHEELS, INC.","POP_AT_RISK":23195,"BUSINESS_TYPE":"Motor Vehicle Repair
{"STATE":"IL","ZIP":60634,"LATTITUDE":41.952530291787475,"ADDRESS":"7413 W IRVING PARK RD  ","YEAR":2012,"DOING_BUSINESS_AS_NAME":"IRVING PARK HAND CARWASH, INC.","POP_AT_RISK":163225,"BUSINESS_TYPE":"Motor Vehicle Repair
{"STATE":"IL","ZIP":60630,"LATTITUDE":41.982409756101816,"ADDRESS":"5584 N NORTHWEST HWY 1ST FLOOR ","YEAR":2012,"DOING_BUSINESS_AS_NAME":"NEMETH GLASS OF ILLINOIS, INC.","POP_AT_RISK":55480,"BUSINESS_TYPE":"Motor Vehicle Repair
{"STATE":"IL","ZIP":60644,"LATTITUDE":41.88714112831062,"ADDRESS":"5221 - 5225 W LAKE ST  ","YEAR":2012,"DOING_BUSINESS_AS_NAME":"SPRINGMASTERS AUTO REPAIR, INC.","POP_AT_RISK":166269,"BUSINESS_TYPE":"Motor Vehicle Repair
{"STATE":"IL","ZIP":60621,"LATTITUDE":41.77887155124792,"ADDRESS":"6339 S WENTWORTH AVE  ","YEAR":2012,"DOING_BUSINESS_AS_NAME":"FRANKS AUTO GLASS","POP_AT_RISK":29225,"BUSINESS_TYPE":"Motor Vehicle Repair
{}]