[
  {
    "BUSINESS_TYPE": "Tavern", 
    "LEGAL_NAME": "EXCALIBUR CLUB, INC.", 
    "STATE": "IL", 
    "DOING_BUSINESS_AS_NAME": "EXCALIBUR CLUB", 
    "POP_AT_RISK": 26093, 
    "ZIP": 60628, 
    "ADDRESS": "451 E 111TH ST", 
    "YEAR": 2016, 
    "LONGITUDE": -87.611377369, 
    "LATTITUDE": 41.692648793
  }, 
  {
    "BUSINESS_TYPE": "Tavern", 
    "LEGAL_NAME": "R & T CHICO, INC.", 
    "STATE": "IL", 
    "DOING_BUSINESS_AS_NAME": "LONCARS", 
    "POP_AT_RISK": 17702, 
    "ZIP": 60617, 
    "ADDRESS": "3201 E 92ND ST", 
    "YEAR": 2016, 
    "LONGITUDE": -87.546817851, 
    "LATTITUDE": 41.728189267
  }, 
  {
    "BUSINESS_TYPE": "Tavern", 
    "LEGAL_NAME": "THE NEW SOME PLACE ELSE, INC.", 
    "STATE": "IL", 
    "DOING_BUSINESS_AS_NAME": "THE NEW SOME PLACE ELSE LOUNGE", 
    "POP_AT_RISK": 26744, 
    "ZIP": 60643, 
    "ADDRESS": "11043 S ASHLAND AVE 1ST", 
    "YEAR": 2016, 
    "LONGITUDE": -87.661711113, 
    "LATTITUDE": 41.692637091
  }, 
  {
    "BUSINESS_TYPE": "Tavern", 
    "LEGAL_NAME": "ROMAN MYTNIK", 
    "STATE": "IL", 
    "DOING_BUSINESS_AS_NAME": "ROMANS INN", 
    "POP_AT_RISK": 20191, 
    "ZIP": 60631, 
    "ADDRESS": "6448 N MILWAUKEE AVE 1ST", 
    "YEAR": 2016, 
    "LONGITUDE": -87.789014216, 
    "LATTITUDE": 41.998404308
  }, 
  {
    "BUSINESS_TYPE": "Tavern", 
    "LEGAL_NAME": "G H W INCORPORATED", 
    "STATE": "IL", 
    "DOING_BUSINESS_AS_NAME": "SKYBOX SPORTS BAR", 
    "POP_AT_RISK": 45153, 
    "ZIP": 60624, 
    "ADDRESS": "3601 W HARRISON ST 1ST", 
    "YEAR": 2016, 
    "LONGITUDE": -87.715777617, 
    "LATTITUDE": 41.873456801
  }, 
  {
    "BUSINESS_TYPE": "Tavern", 
    "LEGAL_NAME": "THE 9705 CORPORATION", 
    "STATE": "IL", 
    "DOING_BUSINESS_AS_NAME": "9705 CORP", 
    "POP_AT_RISK": 25334, 
    "ZIP": 60628, 
    "ADDRESS": "9705 S HALSTED ST  1", 
    "YEAR": 2016, 
    "LONGITUDE": -87.642958666, 
    "LATTITUDE": 41.717541962
  }, 
  {
    "BUSINESS_TYPE": "Tavern", 
    "LEGAL_NAME": "SUPERIOR CLUB, INC.", 
    "STATE": "IL", 
    "DOING_BUSINESS_AS_NAME": "AMBITION", 
    "POP_AT_RISK": 24839, 
    "ZIP": 60628, 
    "ADDRESS": "12001-12003 S HALSTED ST 1", 
    "YEAR": 2016, 
    "LONGITUDE": -87.641698046, 
    "LATTITUDE": 41.675902066
  }, 
  {
    "BUSINESS_TYPE": "Tavern", 
    "LEGAL_NAME": "NEW CELEBRITY LOUNGE INC", 
    "STATE": "IL", 
    "DOING_BUSINESS_AS_NAME": "NEW CELEBRITY LOUNGE INC", 
    "POP_AT_RISK": 37082, 
    "ZIP": 60617, 
    "ADDRESS": "2020-2022 E 83RD ST 1ST", 
    "YEAR": 2016, 
    "LONGITUDE": -87.574910022, 
    "LATTITUDE": 41.744456862
  }, 
  {
    "BUSINESS_TYPE": "Tavern", 
    "LEGAL_NAME": "NORTHWOODS LOUNGE INC", 
    "STATE": "IL", 
    "DOING_BUSINESS_AS_NAME": "NORTHWOODS LOUNGE", 
    "POP_AT_RISK": 24933, 
    "ZIP": 60656, 
    "ADDRESS": "5342 N CUMBERLAND AVE 1ST", 
    "YEAR": 2016, 
    "LONGITUDE": -87.836760961, 
    "LATTITUDE": 41.976805394
  }, 
  {
    "BUSINESS_TYPE": "Tavern", 
    "LEGAL_NAME": "JEANETTE WYSINGER", 
    "STATE": "IL", 
    "DOING_BUSINESS_AS_NAME": "SIXTY SIX O ONE CLUB", 
    "POP_AT_RISK": 44269, 
    "ZIP": 60636, 
    "ADDRESS": "6601 S WESTERN AVE 1ST", 
    "YEAR": 2016, 
    "LONGITUDE": -87.683344395, 
    "LATTITUDE": 41.773695811
  }, 
  {
    "BUSINESS_TYPE": "Tavern", 
    "LEGAL_NAME": "SUAVE, INC.", 
    "STATE": "IL", 
    "DOING_BUSINESS_AS_NAME": "INFINITI BAR AND GRILL", 
    "POP_AT_RISK": 14637, 
    "ZIP": 60628, 
    "ADDRESS": "12717 S HALSTED ST", 
    "YEAR": 2016, 
    "LONGITUDE": -87.641255514, 
    "LATTITUDE": 41.662677267
  }, 
  {
    "BUSINESS_TYPE": "Tavern", 
    "LEGAL_NAME": "KENNY & HELEN ROBINSON", 
    "STATE": "IL", 
    "DOING_BUSINESS_AS_NAME": "HIDIRI", 
    "POP_AT_RISK": 18513, 
    "ZIP": 60619, 
    "ADDRESS": "1008 E 93RD ST 1ST", 
    "YEAR": 2016, 
    "LONGITUDE": -87.599297643, 
    "LATTITUDE": 41.72589432
  }, 
  {
    "BUSINESS_TYPE": "Tavern", 
    "LEGAL_NAME": "ANDREA STEWART INC.", 
    "STATE": "IL", 
    "DOING_BUSINESS_AS_NAME": "GOOD TIMES SPORTS BAR", 
    "POP_AT_RISK": 36225, 
    "ZIP": 60616, 
    "ADDRESS": "200-210 E 35TH ST 2ND", 
    "YEAR": 2016, 
    "LONGITUDE": -87.621705209, 
    "LATTITUDE": 41.831169482
  }, 
  {
    "BUSINESS_TYPE": "Tavern", 
    "LEGAL_NAME": "MEE MAH, INC.", 
    "STATE": "IL", 
    "DOING_BUSINESS_AS_NAME": "MEE MAH", 
    "POP_AT_RISK": 17974, 
    "ZIP": 60646, 
    "ADDRESS": "4032 W PETERSON AVE # 1ST", 
    "YEAR": 2016, 
    "LONGITUDE": -87.729923616, 
    "LATTITUDE": 41.990229356
  }
]