[
{"STATE":"IL","ZIP":60643,"LATTITUDE":41.71868263931775,"ADDRESS":"9613 S WESTERN AVE  ","YEAR":2008,"DOING_BUSINESS_AS_NAME":"GIANNA'S PIZZA","POP_AT_RISK":141198,"BUSINESS_TYPE":"Mobile Food Dispenser","LEGAL_NAME":"G I A INC","LONGITUDE":-87.68184758141176},
{"STATE":"IL","ZIP":60628,"LATTITUDE":41.710003708194975,"ADDRESS":"10120 S EGGLESTON AVE 1ST ","YEAR":2008,"DOING_BUSINESS_AS_NAME":"C C ICE CREAM","POP_AT_RISK":229984,"BUSINESS_TYPE":"Mobile Food Dispenser","LEGAL_NAME":"CARRIE CONRAD","LONGITUDE":-87.6338096365096},
{"STATE":"IL","ZIP":60652,"LATTITUDE":41.7436629255573,"ADDRESS":"4170 W 82ND ST  ","YEAR":2008,"DOING_BUSINESS_AS_NAME":"JOSE G MELGAR","POP_AT_RISK":191052,"BUSINESS_TYPE":"Mobile Food Dispenser","LEGAL_NAME":"JOSE G MELGAR","LONGITUDE":-87.72608144283068},
{"STATE":"IL","ZIP":60629,"LATTITUDE":41.789676049517276,"ADDRESS":"5702 S CHRISTIANA AVE  ","YEAR":2008,"DOING_BUSINESS_AS_NAME":"VALES ICE CREAM","POP_AT_RISK":349098,"BUSINESS_TYPE":"Mobile Food Dispenser","LEGAL_NAME":"NATALIA A. TORRES","LONGITUDE":-87.70726926023909},
{"STATE":"IL","ZIP":60661,"LATTITUDE":41.88173751621169,"ADDRESS":"555 W MADISON ST  ","YEAR":2008,"DOING_BUSINESS_AS_NAME":"ALLSTAR SPORTS BAR & GRILL","POP_AT_RISK":109266,"BUSINESS_TYPE":"Mobile Food Dispenser","LEGAL_NAME":"W Z NO. 555, L.L.C.","LONGITUDE":-87.6418080251031},
{"STATE":"IL","ZIP":60607,"LATTITUDE":41.86951345807196,"ADDRESS":"1220 W TAYLOR ST  ","YEAR":2008,"DOING_BUSINESS_AS_NAME":"TAYLOR MADE PIZZA","POP_AT_RISK":271859,"BUSINESS_TYPE":"Mobile Food Dispenser","LEGAL_NAME":"TAYLOR MADE PIZZA INC.","LONGITUDE":-87.6575526165909},
{"STATE":"IL","ZIP":60614,"LATTITUDE":41.926453319736645,"ADDRESS":"2434-2436 N CLARK ST  ","YEAR":2008,"DOING_BUSINESS_AS_NAME":"THE PASTA BOWL COMPANY","POP_AT_RISK":378804,"BUSINESS_TYPE":"Mobile Food Dispenser","LEGAL_NAME":"THE PASTA BOWL COMPANY","LONGITUDE":-87.64116965214959},
{"STATE":"IL","ZIP":60629,"LATTITUDE":41.77873184756822,"ADDRESS":"6310 S CALIFORNIA AVE 1 ","YEAR":2008,"DOING_BUSINESS_AS_NAME":"AP DELI","POP_AT_RISK":57928,"BUSINESS_TYPE":"Mobile Food Dispenser","LEGAL_NAME":"TNT RESTAURANTS COMPANY","LONGITUDE":-87.69352927439374},
{"STATE":"IL","ZIP":60657,"LATTITUDE":41.942855635032686,"ADDRESS":"3346 N CLARK ST  ","YEAR":2008,"DOING_BUSINESS_AS_NAME":"BOLAT AFRICAN CUISINE","POP_AT_RISK":1436368,"BUSINESS_TYPE":"Mobile Food Dispenser","LEGAL_NAME":"BOLAT AFRICAN CUISINE INC.","LONGITUDE":-87.65319556965025},
{"STATE":"IL","ZIP":60610,"LATTITUDE":41.889941292993925,"ADDRESS":"23 W HUBBARD ST  ","YEAR":2008,"DOING_BUSINESS_AS_NAME":"DIRTY MARTINI BISTRO","POP_AT_RISK":441156,"BUSINESS_TYPE":"Mobile Food Dispenser","LEGAL_NAME":"SPehrson and Associates, LLC","LONGITUDE":-87.62887635482356},
{"STATE":"IL","ZIP":60619,"LATTITUDE":41.75821527134242,"ADDRESS":"205 E 75TH ST  ","YEAR":2008,"DOING_BUSINESS_AS_NAME":"SOUL VEGETERIAN EAST INCORPORATED","POP_AT_RISK":307760,"BUSINESS_TYPE":"Mobile Food Dispenser","LEGAL_NAME":"SOUL VEGETARIAN EAST INCORPORATED","LONGITUDE":-87.61966976634103},
{}]