[
{"STATE":"IL","ZIP":60623,"LATTITUDE":41.84628573429517,"ADDRESS":"2459 S LAWNDALE AVE 1ST ","YEAR":2010,"DOING_BUSINESS_AS_NAME":"LA SEGUNDA","POP_AT_RISK":1372060,"BUSINESS_TYPE":"Secondhand Dealer - Children's Products","LEGAL_NAME":"JOSE ANDRES","LONGITUDE":-87.71713708512483},
{"STATE":"IL","ZIP":60641,"LATTITUDE":41.9586754374916,"ADDRESS":"4266 N MILWAUKEE AVE 1ST ","YEAR":2010,"DOING_BUSINESS_AS_NAME":"FIRST SECONDS RESALE","POP_AT_RISK":415900,"BUSINESS_TYPE":"Secondhand Dealer - Children's Products","LEGAL_NAME":"DEBRA L GARY","LONGITUDE":-87.75295915227005},
{"STATE":"IL","ZIP":60639,"LATTITUDE":41.93121411023036,"ADDRESS":"6100 W DIVERSEY AVE 1 ","YEAR":2010,"DOING_BUSINESS_AS_NAME":"THE KIDDIE KLOSET","POP_AT_RISK":670776,"BUSINESS_TYPE":"Secondhand Dealer - Children's Products","LEGAL_NAME":"WENDY AQUINO","LONGITUDE":-87.77845847713088},
{"STATE":"IL","ZIP":60649,"LATTITUDE":41.76641488746122,"ADDRESS":"2302 E 71ST ST 1ST ","YEAR":2010,"DOING_BUSINESS_AS_NAME":"KISSANDRA STARKS","POP_AT_RISK":364815,"BUSINESS_TYPE":"Secondhand Dealer - Children's Products","LEGAL_NAME":"KISSANDRA STARKS","LONGITUDE":-87.56966009822624},
{"STATE":"IL","ZIP":60614,"LATTITUDE":41.91821840544163,"ADDRESS":"954 W ARMITAGE AVE  ","YEAR":2010,"DOING_BUSINESS_AS_NAME":"THE SECOND CHILD","POP_AT_RISK":1151480,"BUSINESS_TYPE":"Secondhand Dealer - Children's Products","LEGAL_NAME":"THE SECOND CHILD","LONGITUDE":-87.65314158811844},
{"STATE":"IL","ZIP":60625,"LATTITUDE":41.96454809579422,"ADDRESS":"4546 N WESTERN AVE 1 1","YEAR":2010,"DOING_BUSINESS_AS_NAME":"ALL NEW TO ME","POP_AT_RISK":959463,"BUSINESS_TYPE":"Secondhand Dealer - Children's Products","LEGAL_NAME":"ALL NEW TO ME LLC","LONGITUDE":-87.68892652512244},
{"STATE":"IL","ZIP":60629,"LATTITUDE":41.786152159483564,"ADDRESS":"3137 W 59TH ST 1ST ","YEAR":2010,"DOING_BUSINESS_AS_NAME":"LA SOLUCION, INC.","POP_AT_RISK":1081346,"BUSINESS_TYPE":"Secondhand Dealer - Children's Products","LEGAL_NAME":"LA SOLUCION, INC.","LONGITUDE":-87.70235519811696},
{"STATE":"IL","ZIP":60656,"LATTITUDE":41.974603344400215,"ADDRESS":"7246 W FOSTER AVE  17A","YEAR":2010,"DOING_BUSINESS_AS_NAME":"ONCE UPON A CHILD","POP_AT_RISK":125440,"BUSINESS_TYPE":"Secondhand Dealer - Children's Products","LEGAL_NAME":"TOREN CORPORATION","LONGITUDE":-87.80902108629118},
{}]