[
{"STATE":"IL","ZIP":60629,"LATTITUDE":41.77909842422025,"ADDRESS":"2523 W 63RD ST 1ST ","YEAR":2012,"DOING_BUSINESS_AS_NAME":"SKIN PASSION TATTOOS","POP_AT_RISK":574332,"BUSINESS_TYPE":"Body Piercing","LEGAL_NAME":"RAJI ROSS","LONGITUDE":-87.68715094490803},
{"STATE":"IL","ZIP":60632,"LATTITUDE":41.812718319632275,"ADDRESS":"4440 S ARCHER AVE 1 1","YEAR":2012,"DOING_BUSINESS_AS_NAME":"ARCHER AVENUE TATTOO  & BODY PIERCING","POP_AT_RISK":40990,"BUSINESS_TYPE":"Body Piercing","LEGAL_NAME":"LUIS AVITIA","LONGITUDE":-87.7067119867732},
{"STATE":"IL","ZIP":60647,"LATTITUDE":41.922330072816024,"ADDRESS":"2221 N WESTERN AVE 1ST ","YEAR":2012,"DOING_BUSINESS_AS_NAME":"REVOLUTION TATTOO","POP_AT_RISK":113712,"BUSINESS_TYPE":"Body Piercing","LEGAL_NAME":"OMAR GUTIERREZ","LONGITUDE":-87.68741548120742},
{"STATE":"IL","ZIP":60632,"LATTITUDE":41.80420720514211,"ADDRESS":"4897 S ARCHER AVE 1ST ","YEAR":2012,"DOING_BUSINESS_AS_NAME":"SOUTH INK","POP_AT_RISK":30221,"BUSINESS_TYPE":"Body Piercing","LEGAL_NAME":"STEVEN CANCINO","LONGITUDE":-87.72011736968443},
{"STATE":"IL","ZIP":60622,"LATTITUDE":41.89577571634698,"ADDRESS":"2706 W CHICAGO AVE 1ST ","YEAR":2012,"DOING_BUSINESS_AS_NAME":"FOREVER INK","POP_AT_RISK":494736,"BUSINESS_TYPE":"Body Piercing","LEGAL_NAME":"MARIO MUNOZ JR.","LONGITUDE":-87.69450806537272},
{"STATE":"IL","ZIP":60642,"LATTITUDE":41.90110296450634,"ADDRESS":"1062 N MILWAUKEE AVE 1ST ","YEAR":2012,"DOING_BUSINESS_AS_NAME":"INSIGHT STUDIOS","POP_AT_RISK":196784,"BUSINESS_TYPE":"Body Piercing","LEGAL_NAME":"HTH INCORPORATED","LONGITUDE":-87.66319844892888},
{"STATE":"IL","ZIP":60652,"LATTITUDE":41.74045023530922,"ADDRESS":"8356 S PULASKI RD  STORE","YEAR":2012,"DOING_BUSINESS_AS_NAME":"ETCHED IN SKIN","POP_AT_RISK":127368,"BUSINESS_TYPE":"Body Piercing","LEGAL_NAME":"MICHELLE L RYBKA","LONGITUDE":-87.72176928391136},
{"STATE":"IL","ZIP":60640,"LATTITUDE":41.962842630026145,"ADDRESS":"4439-4443 N BROADWAY   ","YEAR":2012,"DOING_BUSINESS_AS_NAME":"TATTOO FACTORY","POP_AT_RISK":69855,"BUSINESS_TYPE":"Body Piercing","LEGAL_NAME":"PAUL COLLURAFICI","LONGITUDE":-87.6556745694617},
{"STATE":"IL","ZIP":60647,"LATTITUDE":41.92673659835983,"ADDRESS":"2500 N MILWAUKEE AVE  614-615","YEAR":2012,"DOING_BUSINESS_AS_NAME":"DA HOT ZONE","POP_AT_RISK":138648,"BUSINESS_TYPE":"Body Piercing","LEGAL_NAME":"DA HOT ZONE, INC.","LONGITUDE":-87.70382782692913},
{"STATE":"IL","ZIP":60647,"LATTITUDE":41.9173234757404,"ADDRESS":"3816 W ARMITAGE AVE 1 ","YEAR":2012,"DOING_BUSINESS_AS_NAME":"DIAMOND TATTOOS","POP_AT_RISK":894880,"BUSINESS_TYPE":"Body Piercing","LEGAL_NAME":"JOSE F. RODRIGUEZ","LONGITUDE":-87.72235907727797},
{"STATE":"IL","ZIP":60623,"LATTITUDE":41.844515940243554,"ADDRESS":"3510 W 26TH ST 1ST ","YEAR":2012,"DOING_BUSINESS_AS_NAME":"BUMBLEBEE INK","POP_AT_RISK":210948,"BUSINESS_TYPE":"Body Piercing","LEGAL_NAME":"BUMBLEBEE INK INC.","LONGITUDE":-87.71286845086306},
{"STATE":"IL","ZIP":60640,"LATTITUDE":41.961910293557445,"ADDRESS":"4407 N CLARK ST 1ST FLOOR 1","YEAR":2012,"DOING_BUSINESS_AS_NAME":"MASTERMIND INK","POP_AT_RISK":416700,"BUSINESS_TYPE":"Body Piercing","LEGAL_NAME":"MASTERMIND INK, LLC","LONGITUDE":-87.66587203904609},
{"STATE":"IL","ZIP":60618,"LATTITUDE":41.95665252968386,"ADDRESS":"4168 N ELSTON AVE 1 ","YEAR":2012,"DOING_BUSINESS_AS_NAME":"Twisted Tattoo Studio","POP_AT_RISK":437824,"BUSINESS_TYPE":"Body Piercing","LEGAL_NAME":"Tattoo Temple Company","LONGITUDE":-87.72369697421021},
{"STATE":"IL","ZIP":60639,"LATTITUDE":41.90976452703277,"ADDRESS":"4650 W NORTH AVE  ","YEAR":2012,"DOING_BUSINESS_AS_NAME":"WALMART #5402","POP_AT_RISK":392868,"BUSINESS_TYPE":"Body Piercing","LEGAL_NAME":"WAL-MART STORES, INC.","LONGITUDE":-87.74337629570627},
{"STATE":"IL","ZIP":60620,"LATTITUDE":41.742577617335286,"ADDRESS":"8331 S STEWART AVE  ","YEAR":2012,"DOING_BUSINESS_AS_NAME":"WALMART #5781","POP_AT_RISK":205864,"BUSINESS_TYPE":"Body Piercing","LEGAL_NAME":"WAL-MART STORES, INC.","LONGITUDE":-87.6339369306883},
{"STATE":"IL","ZIP":60639,"LATTITUDE":41.91946387531173,"ADDRESS":"5718 W GRAND AVE 1 ","YEAR":2012,"DOING_BUSINESS_AS_NAME":"FIFTH SUN GRAPHIX, INC.","POP_AT_RISK":218468,"BUSINESS_TYPE":"Body Piercing","LEGAL_NAME":"FIFTH SUN GRAPHIX, INC","LONGITUDE":-87.76903584780901},
{"STATE":"IL","ZIP":60641,"LATTITUDE":41.93854246746509,"ADDRESS":"5331 W BELMONT AVE 1ST ","YEAR":2012,"DOING_BUSINESS_AS_NAME":"JADE DRAGON TATTOO INC","POP_AT_RISK":70344,"BUSINESS_TYPE":"Body Piercing","LEGAL_NAME":"JADE DRAGON TATTOO INC","LONGITUDE":-87.76040185146701},
{"STATE":"IL","ZIP":60707,"LATTITUDE":41.923340815503735,"ADDRESS":"2376 - 2378 N NEVA AVE 1ST ","YEAR":2012,"DOING_BUSINESS_AS_NAME":"DREAM CITY TATTOOS, LLC","POP_AT_RISK":231575,"BUSINESS_TYPE":"Body Piercing","LEGAL_NAME":"DREAM CITY TATTOOS, LLC","LONGITUDE":-87.80454558851432},
{"STATE":"IL","ZIP":60602,"LATTITUDE":41.88219177285317,"ADDRESS":"5 N STATE ST  ","YEAR":2012,"DOING_BUSINESS_AS_NAME":"CLAIRE'S","POP_AT_RISK":139284,"BUSINESS_TYPE":"Body Piercing","LEGAL_NAME":"CLAIRE'S BOUTIQUES, INC.","LONGITUDE":-87.6276868832079},
{"STATE":"IL","ZIP":60614,"LATTITUDE":41.92521232759425,"ADDRESS":"1730 W FULLERTON AVE  21","YEAR":2012,"DOING_BUSINESS_AS_NAME":"CLAIRE'S","POP_AT_RISK":53942,"BUSINESS_TYPE":"Body Piercing","LEGAL_NAME":"CLAIRE'S BOUTIQUES, INC.","LONGITUDE":-87.67192542513618},
{"STATE":"IL","ZIP":60661,"LATTITUDE":41.88199433820508,"ADDRESS":"500 W MADISON ST # 6696","YEAR":2012,"DOING_BUSINESS_AS_NAME":"CLAIRE'S BOUTIQUE #6696","POP_AT_RISK":189609,"BUSINESS_TYPE":"Body Piercing","LEGAL_NAME":"CLAIRE'S BOUTIQUES, INC.","LONGITUDE":-87.6397586848809},
{"STATE":"IL","ZIP":60623,"LATTITUDE":41.84776668182944,"ADDRESS":"2410 S KEDZIE AVE  ","YEAR":2012,"DOING_BUSINESS_AS_NAME":"AGELESS ARTS","POP_AT_RISK":73343,"BUSINESS_TYPE":"Body Piercing","LEGAL_NAME":"EXOTIC BODY CREATIONS INC.","LONGITUDE":-87.70528457405833},
{"STATE":"IL","ZIP":60640,"LATTITUDE":41.97272103937437,"ADDRESS":"5005-5007 N CLARK ST 1 ","YEAR":2012,"DOING_BUSINESS_AS_NAME":"EAGLE LEATHERS","POP_AT_RISK":325386,"BUSINESS_TYPE":"Body Piercing","LEGAL_NAME":"EAGLE LEATHERS INCORPORATED","LONGITUDE":-87.66779703352901},
{"STATE":"IL","ZIP":60632,"LATTITUDE":41.82091931552947,"ADDRESS":"4003 S ARCHER AVE 1 ","YEAR":2012,"DOING_BUSINESS_AS_NAME":"APOCALIPSIS NOCTURNAL","POP_AT_RISK":283240,"BUSINESS_TYPE":"Body Piercing","LEGAL_NAME":"MARIA G. & MARCO A SANDOVAL","LONGITUDE":-87.69287987743745},
{"STATE":"IL","ZIP":60657,"LATTITUDE":41.940646213272494,"ADDRESS":"3228 N CLARK ST GROUND ","YEAR":2012,"DOING_BUSINESS_AS_NAME":"THE ALLEY","POP_AT_RISK":181022,"BUSINESS_TYPE":"Body Piercing","LEGAL_NAME":"RAGS 2 RICHES FASHIONS, LTD.","LONGITUDE":-87.65140950812834},
{"STATE":"IL","ZIP":60657,"LATTITUDE":41.93979110570738,"ADDRESS":"1017 W BELMONT AVE  ","YEAR":2012,"DOING_BUSINESS_AS_NAME":"THE CHICAGO TATTOOING CO INC","POP_AT_RISK":86172,"BUSINESS_TYPE":"Body Piercing","LEGAL_NAME":"THE CHICAGO TATTOOING CO INC","LONGITUDE":-87.65474668661226},
{"STATE":"IL","ZIP":60610,"LATTITUDE":41.90395181395662,"ADDRESS":"218 W DIVISION ST 1 1","YEAR":2012,"DOING_BUSINESS_AS_NAME":"WINDY CITY TATTOO GALLERY","POP_AT_RISK":397910,"BUSINESS_TYPE":"Body Piercing","LEGAL_NAME":"WINDY CITY TATTOO GALLERY LLC","LONGITUDE":-87.63531980287914},
{"STATE":"IL","ZIP":60617,"LATTITUDE":41.7477492117195,"ADDRESS":"8100 S STONY ISLAND AVE 1ST ","YEAR":2012,"DOING_BUSINESS_AS_NAME":"INKFUL THOUGHTS ART STUDIO INC.","POP_AT_RISK":179210,"BUSINESS_TYPE":"Body Piercing","LEGAL_NAME":"INKFUL THOUGHTS ART STUDIO INC.","LONGITUDE":-87.58603741639237},
{"STATE":"IL","ZIP":60660,"LATTITUDE":41.996566735480926,"ADDRESS":"6305 N CLARK ST 1 ","YEAR":2012,"DOING_BUSINESS_AS_NAME":"GEORGE PAPAS TATTOO","POP_AT_RISK":1825677,"BUSINESS_TYPE":"Body Piercing","LEGAL_NAME":"EPIDERMAL ENGRAVING EMPORIUM INC.","LONGITUDE":-87.6700921173751},
{"STATE":"IL","ZIP":60620,"LATTITUDE":41.728908842874795,"ADDRESS":"9046 S ASHLAND AVE 1ST ","YEAR":2012,"DOING_BUSINESS_AS_NAME":"INKHART TATTOOS AND BODY PIERCING","POP_AT_RISK":263664,"BUSINESS_TYPE":"Body Piercing","LEGAL_NAME":"INKHART TATTOOS AND BODY PIERCING","LONGITUDE":-87.66300955881535},
{"STATE":"IL","ZIP":60617,"LATTITUDE":41.73909042472304,"ADDRESS":"8548 S STONY ISLAND AVE  ","YEAR":2012,"DOING_BUSINESS_AS_NAME":"SOUTHSIDE TATTOOS & BODY PIERCING LLC","POP_AT_RISK":130492,"BUSINESS_TYPE":"Body Piercing","LEGAL_NAME":"SOUTHSIDE TATTOOS & BODY PIERCING LLC","LONGITUDE":-87.5858420548468},
{"STATE":"IL","ZIP":60608,"LATTITUDE":41.8533014640748,"ADDRESS":"2150 S CANALPORT AVE 4TH 4C-16","YEAR":2012,"DOING_BUSINESS_AS_NAME":"VIVID INK GALLERY","POP_AT_RISK":568945,"BUSINESS_TYPE":"Body Piercing","LEGAL_NAME":"JAYCE THOMAS, JUSTIN WRICE, AARON HOPKINS","LONGITUDE":-87.649929695282},
{"STATE":"IL","ZIP":60634,"LATTITUDE":41.94614067741539,"ADDRESS":"3629 N HARLEM AVE 1ST ","YEAR":2012,"DOING_BUSINESS_AS_NAME":"KIDD JOE' S TAT CAVE TATTOO & BODY PIERCING","POP_AT_RISK":264404,"BUSINESS_TYPE":"Body Piercing","LEGAL_NAME":"KIDD JOE' S TAT CAVE TATTOO & BODY PIERCING LLC","LONGITUDE":-87.80688892934933},
{}]