[
  {
    "BUSINESS_TYPE": "Late Hour", 
    "LEGAL_NAME": "SAAR INC", 
    "STATE": "IL", 
    "DOING_BUSINESS_AS_NAME": "ST. PAULI'S BAR", 
    "POP_AT_RISK": 58801, 
    "ZIP": 60625, 
    "ADDRESS": "5109 N LINCOLN AVE  1", 
    "YEAR": 2019, 
    "LONGITUDE": -87.691998213, 
    "LATTITUDE": 41.974369465
  }, 
  {
    "BUSINESS_TYPE": "Late Hour", 
    "LEGAL_NAME": "MARK II, LTD.", 
    "STATE": "IL", 
    "DOING_BUSINESS_AS_NAME": "MARK II, LTD", 
    "POP_AT_RISK": 31637, 
    "ZIP": 60645, 
    "ADDRESS": "7436-7442 N WESTERN AVE 1ST", 
    "YEAR": 2019, 
    "LONGITUDE": -87.690347254, 
    "LATTITUDE": 42.016961013
  }, 
  {
    "BUSINESS_TYPE": "Late Hour", 
    "LEGAL_NAME": "COLON AND BRUNO CORPORATION", 
    "STATE": "IL", 
    "DOING_BUSINESS_AS_NAME": "THE OWL BAR", 
    "POP_AT_RISK": 66143, 
    "ZIP": 60647, 
    "ADDRESS": "2521 N MILWAUKEE AVE 1ST", 
    "YEAR": 2019, 
    "LONGITUDE": -87.704203351, 
    "LATTITUDE": 41.92725099
  }, 
  {
    "BUSINESS_TYPE": "Late Hour", 
    "LEGAL_NAME": "CLUB 2047, LLC - C2K FIRST", 
    "STATE": "IL", 
    "DOING_BUSINESS_AS_NAME": "LAS ISLAS MARIAS", 
    "POP_AT_RISK": 57691, 
    "ZIP": 60647, 
    "ADDRESS": "2043-2051 N MILWAUKEE AVE BSMT-1", 
    "YEAR": 2019, 
    "LONGITUDE": -87.689825749, 
    "LATTITUDE": 41.918447569
  }, 
  {
    "BUSINESS_TYPE": "Late Hour", 
    "LEGAL_NAME": "AS TIME GOES BY II LIMITED", 
    "STATE": "IL", 
    "DOING_BUSINESS_AS_NAME": "AS TIME GOES BY II LTD.", 
    "POP_AT_RISK": 19762, 
    "ZIP": 60634, 
    "ADDRESS": "7706 W BELMONT AVE", 
    "YEAR": 2019, 
    "LONGITUDE": -87.819283117, 
    "LATTITUDE": 41.937994149
  }, 
  {
    "BUSINESS_TYPE": "Late Hour", 
    "LEGAL_NAME": "ZIEMEK CORPORATION, INC.", 
    "STATE": "IL", 
    "DOING_BUSINESS_AS_NAME": "ZIEMEK CORP.", 
    "POP_AT_RISK": 33756, 
    "ZIP": 60630, 
    "ADDRESS": "5368 N MILWAUKEE AVE", 
    "YEAR": 2019, 
    "LONGITUDE": -87.770377202, 
    "LATTITUDE": 41.978363925
  }, 
  {
    "BUSINESS_TYPE": "Late Hour", 
    "LEGAL_NAME": "7123 W. HIGGINS RD. CORP.", 
    "STATE": "IL", 
    "DOING_BUSINESS_AS_NAME": "TEASER'S PUB", 
    "POP_AT_RISK": 24680, 
    "ZIP": 60656, 
    "ADDRESS": "7123 W HIGGINS AVE 1ST", 
    "YEAR": 2019, 
    "LONGITUDE": -87.80571278, 
    "LATTITUDE": 41.980726198
  }, 
  {
    "BUSINESS_TYPE": "Late Hour", 
    "LEGAL_NAME": "FIRESIDE PUB,INCORPORATED", 
    "STATE": "IL", 
    "DOING_BUSINESS_AS_NAME": "FIRESIDE TAVERN AND GRILL", 
    "POP_AT_RISK": 50042, 
    "ZIP": 60660, 
    "ADDRESS": "5739-5741 N RAVENSWOOD AVE 1ST", 
    "YEAR": 2019, 
    "LONGITUDE": -87.674541363, 
    "LATTITUDE": 41.986230811
  }, 
  {
    "BUSINESS_TYPE": "Late Hour", 
    "LEGAL_NAME": "THE CONCORD RESTAURANT INC", 
    "STATE": "IL", 
    "DOING_BUSINESS_AS_NAME": "SIDEKICKS", 
    "POP_AT_RISK": 46331, 
    "ZIP": 60641, 
    "ADDRESS": "4420  -04430 W MONTROSE AVE 1ST", 
    "YEAR": 2019, 
    "LONGITUDE": -87.739335861, 
    "LATTITUDE": 41.960927728
  }, 
  {
    "BUSINESS_TYPE": "Late Hour", 
    "LEGAL_NAME": "MR. B'S STUFFED PIZZA, INC.", 
    "STATE": "IL", 
    "DOING_BUSINESS_AS_NAME": "SUPAROSSA", 
    "POP_AT_RISK": 52427, 
    "ZIP": 60634, 
    "ADDRESS": "4250 N CENTRAL AVE", 
    "YEAR": 2019, 
    "LONGITUDE": -87.767320762, 
    "LATTITUDE": 41.958373846
  }, 
  {
    "BUSINESS_TYPE": "Late Hour", 
    "LEGAL_NAME": "JAF, LTD.", 
    "STATE": "IL", 
    "DOING_BUSINESS_AS_NAME": "JEFFERY PUB", 
    "POP_AT_RISK": 43909, 
    "ZIP": 60649, 
    "ADDRESS": "7041 S JEFFERY BLVD", 
    "YEAR": 2019, 
    "LONGITUDE": -87.576170828, 
    "LATTITUDE": 41.766818068
  }, 
  {
    "BUSINESS_TYPE": "Late Hour", 
    "LEGAL_NAME": "EL MEXICO MODERNO BALLROOM, INC.", 
    "STATE": "IL", 
    "DOING_BUSINESS_AS_NAME": "EL MEXICO MODERN BALLROOM INC", 
    "POP_AT_RISK": 51728, 
    "ZIP": 60639, 
    "ADDRESS": "1643-1647 N CICERO AVE 1 & 2 BANQU", 
    "YEAR": 2019, 
    "LONGITUDE": -87.74575021, 
    "LATTITUDE": 41.910931169
  }, 
  {
    "BUSINESS_TYPE": "Late Hour", 
    "LEGAL_NAME": "ESTELLE'S CAFE & PUB, LTD.", 
    "STATE": "IL", 
    "DOING_BUSINESS_AS_NAME": "ESTELLES CAFE & PUB LTD", 
    "POP_AT_RISK": 70809, 
    "ZIP": 60647, 
    "ADDRESS": "2013 W NORTH AVE 1ST", 
    "YEAR": 2019, 
    "LONGITUDE": -87.678130428, 
    "LATTITUDE": 41.910364204
  }, 
  {
    "BUSINESS_TYPE": "Late Hour", 
    "LEGAL_NAME": "2624 NORTH LINCOLN CORP.", 
    "STATE": "IL", 
    "DOING_BUSINESS_AS_NAME": "BARRELHOUSE FLAT", 
    "POP_AT_RISK": 79653, 
    "ZIP": 60614, 
    "ADDRESS": "2624 N LINCOLN AVE 1", 
    "YEAR": 2019, 
    "LONGITUDE": -87.654605569, 
    "LATTITUDE": 41.929469185
  }, 
  {
    "BUSINESS_TYPE": "Late Hour", 
    "LEGAL_NAME": "B.B.L.L. INC.", 
    "STATE": "IL", 
    "DOING_BUSINESS_AS_NAME": "CLEO'S", 
    "POP_AT_RISK": 60844, 
    "ZIP": 60622, 
    "ADDRESS": "1935 W CHICAGO AVE 1ST", 
    "YEAR": 2019, 
    "LONGITUDE": -87.676046902, 
    "LATTITUDE": 41.895818623
  }, 
  {
    "BUSINESS_TYPE": "Late Hour", 
    "LEGAL_NAME": "FENIX LOUNGE, LTD.", 
    "STATE": "IL", 
    "DOING_BUSINESS_AS_NAME": "FENIX LOUNGE LTD", 
    "POP_AT_RISK": 72320, 
    "ZIP": 60641, 
    "ADDRESS": "2906 N PULASKI RD 1ST", 
    "YEAR": 2019, 
    "LONGITUDE": -87.727183179, 
    "LATTITUDE": 41.933845776
  }, 
  {
    "BUSINESS_TYPE": "Late Hour", 
    "LEGAL_NAME": "NITE CAP, INC.", 
    "STATE": "IL", 
    "DOING_BUSINESS_AS_NAME": "NITE CAP", 
    "POP_AT_RISK": 47334, 
    "ZIP": 60641, 
    "ADDRESS": "5007-5009 W IRVING PARK RD", 
    "YEAR": 2019, 
    "LONGITUDE": -87.752531985, 
    "LATTITUDE": 41.9532425
  }, 
  {
    "BUSINESS_TYPE": "Late Hour", 
    "LEGAL_NAME": "GRAND CENTRAL CORPORATION", 
    "STATE": "IL", 
    "DOING_BUSINESS_AS_NAME": "JEREZ SPORT BAR AND GRILL", 
    "POP_AT_RISK": 54617, 
    "ZIP": 60639, 
    "ADDRESS": "5726 W GRAND AVE", 
    "YEAR": 2019, 
    "LONGITUDE": -87.769375827, 
    "LATTITUDE": 41.919526594
  }, 
  {
    "BUSINESS_TYPE": "Late Hour", 
    "LEGAL_NAME": "GORDON LOUNGE, INC", 
    "STATE": "IL", 
    "DOING_BUSINESS_AS_NAME": "BREWBAKERS", 
    "POP_AT_RISK": 22491, 
    "ZIP": 60643, 
    "ADDRESS": "10350 S WESTERN AVE", 
    "YEAR": 2019, 
    "LONGITUDE": -87.681719587, 
    "LATTITUDE": 41.704868712
  }, 
  {
    "BUSINESS_TYPE": "Late Hour", 
    "LEGAL_NAME": "PAUL AND MARC'S ENTERPRISES, LTD.", 
    "STATE": "IL", 
    "DOING_BUSINESS_AS_NAME": "GROUCHO'S BAR & GRILL", 
    "POP_AT_RISK": 27493, 
    "ZIP": 60652, 
    "ADDRESS": "8355 S PULASKI RD", 
    "YEAR": 2019, 
    "LONGITUDE": -87.721478363, 
    "LATTITUDE": 41.740515143
  }, 
  {
    "BUSINESS_TYPE": "Late Hour", 
    "LEGAL_NAME": "LAKE AND CICERO , INC.", 
    "STATE": "IL", 
    "DOING_BUSINESS_AS_NAME": "ICE HOUSE LIQUORS", 
    "POP_AT_RISK": 48121, 
    "ZIP": 60644, 
    "ADDRESS": "356 N CICERO AVE 1", 
    "YEAR": 2019, 
    "LONGITUDE": -87.74565352, 
    "LATTITUDE": 41.886851263
  }, 
  {
    "BUSINESS_TYPE": "Late Hour", 
    "LEGAL_NAME": "GENE & SOPHIE'S LOUNGE, INC.", 
    "STATE": "IL", 
    "DOING_BUSINESS_AS_NAME": "BLUE SKY RESTAURANT", 
    "POP_AT_RISK": 31737, 
    "ZIP": 60632, 
    "ADDRESS": "4807-4809 S PULASKI RD 1ST", 
    "YEAR": 2019, 
    "LONGITUDE": -87.723374962, 
    "LATTITUDE": 41.805779774
  }, 
  {
    "BUSINESS_TYPE": "Late Hour", 
    "LEGAL_NAME": "NICK'S ON WILSON, LLC", 
    "STATE": "IL", 
    "DOING_BUSINESS_AS_NAME": "NICK'S ON WILSON", 
    "POP_AT_RISK": 66513, 
    "ZIP": 60640, 
    "ADDRESS": "1140 W WILSON AVE", 
    "YEAR": 2019, 
    "LONGITUDE": -87.659158699, 
    "LATTITUDE": 41.96548895
  }, 
  {
    "BUSINESS_TYPE": "Late Hour", 
    "LEGAL_NAME": "KYMO INC", 
    "STATE": "IL", 
    "DOING_BUSINESS_AS_NAME": "ALIBIS", 
    "POP_AT_RISK": 72841, 
    "ZIP": 60645, 
    "ADDRESS": "6420 N WESTERN AVE", 
    "YEAR": 2019, 
    "LONGITUDE": -87.690051282, 
    "LATTITUDE": 41.998382026
  }, 
  {
    "BUSINESS_TYPE": "Late Hour", 
    "LEGAL_NAME": "LACOCO PIZZA AND PASTA, INC.", 
    "STATE": "IL", 
    "DOING_BUSINESS_AS_NAME": "Maddanthony's Bar & Grill /Lacoco's Pizza & Pasta", 
    "POP_AT_RISK": 41410, 
    "ZIP": 60632, 
    "ADDRESS": "3344-3352 W 47TH ST", 
    "YEAR": 2019, 
    "LONGITUDE": -87.708251604, 
    "LATTITUDE": 41.80817609
  }
]