[
{"STATE":"IL","ZIP":61802,"LATTITUDE":41.92933675905904,"ADDRESS":"2611 N LINCOLN   ","YEAR":2009,"DOING_BUSINESS_AS_NAME":"SUPERVALU INC.","POP_AT_RISK":1396044,"BUSINESS_TYPE":"Tobacco Dealer Wholesale","LEGAL_NAME":"SUPERVALU INC.","LONGITUDE":-87.65399686901772},
{"STATE":"IL","ZIP":60639,"LATTITUDE":41.9168850621269,"ADDRESS":"4545 W ARMITAGE AVE  ","YEAR":2009,"DOING_BUSINESS_AS_NAME":"A&D CANDY, INC.","POP_AT_RISK":617386,"BUSINESS_TYPE":"Tobacco Dealer Wholesale","LEGAL_NAME":"A&D CANDY, INC.","LONGITUDE":-87.74054791065527},
{"STATE":"IL","ZIP":60625,"LATTITUDE":41.968447574062616,"ADDRESS":"3620 W LAWRENCE AVE 1ST ","YEAR":2009,"DOING_BUSINESS_AS_NAME":"YASIR CORPORATION","POP_AT_RISK":67350,"BUSINESS_TYPE":"Tobacco Dealer Wholesale","LEGAL_NAME":"YASIR CORPORATION","LONGITUDE":-87.71916300284474},
{"STATE":"IL","ZIP":60618,"LATTITUDE":41.94993755652151,"ADDRESS":"3761 N ELSTON AVE  ","YEAR":2009,"DOING_BUSINESS_AS_NAME":"ELSTON SELF SERVICE","POP_AT_RISK":237640,"BUSINESS_TYPE":"Tobacco Dealer Wholesale","LEGAL_NAME":"ELSTON SELF SERVICE","LONGITUDE":-87.7134548280642},
{"STATE":"IL","ZIP":60641,"LATTITUDE":41.94037119686467,"ADDRESS":"3250 N KILPATRICK AVE 1ST ","YEAR":2009,"DOING_BUSINESS_AS_NAME":"J & B BRANDS, CORP.","POP_AT_RISK":332185,"BUSINESS_TYPE":"Tobacco Dealer Wholesale","LEGAL_NAME":"J & B BRANDS, CORP.","LONGITUDE":-87.74408596494875},
{"STATE":"WI","ZIP":53545,"LATTITUDE":42.007667271543255,"ADDRESS":"1733  MORSE ST  ","YEAR":2009,"DOING_BUSINESS_AS_NAME":"CHAMBERS & OWEN, INC.","POP_AT_RISK":1308082,"BUSINESS_TYPE":"Tobacco Dealer Wholesale","LEGAL_NAME":"CHAMBERS & OWEN, INC.","LONGITUDE":-87.67360153961387},
{"STATE":"IL","ZIP":60637,"LATTITUDE":41.76602560513521,"ADDRESS":"7047 S STATE ST  1ST","YEAR":2009,"DOING_BUSINESS_AS_NAME":"L & P WHOLESALE CANDY","POP_AT_RISK":249249,"BUSINESS_TYPE":"Tobacco Dealer Wholesale","LEGAL_NAME":"L & P WHOLESALE CANDY","LONGITUDE":-87.624776325687},
{"STATE":"IL","ZIP":60608,"LATTITUDE":41.83929995733921,"ADDRESS":"3000 S ASHLAND AVE  ","YEAR":2009,"DOING_BUSINESS_AS_NAME":"BANNER WHOLESALE GROCERS","POP_AT_RISK":220974,"BUSINESS_TYPE":"Tobacco Dealer Wholesale","LEGAL_NAME":"BANNER WHOLESALE GROCERS","LONGITUDE":-87.66593524191883},
{"STATE":"IL","ZIP":60638,"LATTITUDE":41.77443770105713,"ADDRESS":"5235 W 65TH   A","YEAR":2009,"DOING_BUSINESS_AS_NAME":"JENIN DISTRIBUTORS, INC.","POP_AT_RISK":39980,"BUSINESS_TYPE":"Tobacco Dealer Wholesale","LEGAL_NAME":"JENIN DISTRIBUTORS, INC.","LONGITUDE":-87.75328782247097},
{"STATE":"IL","ZIP":60618,"LATTITUDE":41.93739494901925,"ADDRESS":"3057 N ROCKWELL ST  ","YEAR":2009,"DOING_BUSINESS_AS_NAME":"LOS BLANCOS CIGAR CO INC","POP_AT_RISK":73666,"BUSINESS_TYPE":"Tobacco Dealer Wholesale","LEGAL_NAME":"LOS BLANCOS CIGAR CO INC","LONGITUDE":-87.69273768966114},
{"STATE":"IL","ZIP":60620,"LATTITUDE":41.7417050755653,"ADDRESS":"41 W 84TH ST  1ST","YEAR":2009,"DOING_BUSINESS_AS_NAME":"MIDWAY WHOLESALERS","POP_AT_RISK":200454,"BUSINESS_TYPE":"Tobacco Dealer Wholesale","LEGAL_NAME":"MIDWAY WHOLESALERS, INC.","LONGITUDE":-87.62597631099247},
{"STATE":"IL","ZIP":60641,"LATTITUDE":41.93916130043317,"ADDRESS":"4120 W BELMONT AVE 1ST ","YEAR":2009,"DOING_BUSINESS_AS_NAME":"EMPIRE DISTRIBUTOR INC","POP_AT_RISK":181731,"BUSINESS_TYPE":"Tobacco Dealer Wholesale","LEGAL_NAME":"EMPIRE DISTRIBUTORS, INC.","LONGITUDE":-87.73050848310972},
{"STATE":"IL","ZIP":60652,"LATTITUDE":41.74150692710327,"ADDRESS":"3636 W 83RD PL  ","YEAR":2009,"DOING_BUSINESS_AS_NAME":"NADER WHOLESALE GROCERS INC","POP_AT_RISK":137465,"BUSINESS_TYPE":"Tobacco Dealer Wholesale","LEGAL_NAME":"NADER WHOLESALE GROCERS INC","LONGITUDE":-87.7135424197768},
{"STATE":"IL","ZIP":60521,"LATTITUDE":41.85209967532158,"ADDRESS":"1901 W 22ND ST  1ST","YEAR":2009,"DOING_BUSINESS_AS_NAME":"COSTCO WHOLESALE","POP_AT_RISK":113271,"BUSINESS_TYPE":"Tobacco Dealer Wholesale","LEGAL_NAME":"COSTCO WHOLESALE CORPORATION","LONGITUDE":-87.67351036046561},
{"STATE":"IL","ZIP":60629,"LATTITUDE":41.76037749872514,"ADDRESS":"7300 S CICERO AVE  381","YEAR":2009,"DOING_BUSINESS_AS_NAME":"COSTCO WHOLESALE # 381","POP_AT_RISK":18876,"BUSINESS_TYPE":"Tobacco Dealer Wholesale","LEGAL_NAME":"COSTCO WHOLESALE CORPORATION","LONGITUDE":-87.74192003165926},
{"STATE":"IL","ZIP":60614,"LATTITUDE":41.93102100579779,"ADDRESS":"2746 N CLYBOURN AVE  ","YEAR":2009,"DOING_BUSINESS_AS_NAME":"Costco Wholesale # 380","POP_AT_RISK":220268,"BUSINESS_TYPE":"Tobacco Dealer Wholesale","LEGAL_NAME":"COSTCO WHOLESALE CORPORATION","LONGITUDE":-87.6768640181342},
{"STATE":"IL","ZIP":60622,"LATTITUDE":41.90366841772684,"ADDRESS":"1030 W DIVISION ST 1ST ","YEAR":2009,"DOING_BUSINESS_AS_NAME":"RESTAURANT DEPOT","POP_AT_RISK":769184,"BUSINESS_TYPE":"Tobacco Dealer Wholesale","LEGAL_NAME":"RESTAURANT DEPOT ENTERPR LLC","LONGITUDE":-87.65369936365693},
{"STATE":"IL","ZIP":60620,"LATTITUDE":41.75016167702497,"ADDRESS":"1841 W 79TH ST 1 #","YEAR":2009,"DOING_BUSINESS_AS_NAME":"DEARBORN WHOLESALE GROCER LP","POP_AT_RISK":267318,"BUSINESS_TYPE":"Tobacco Dealer Wholesale","LEGAL_NAME":"DEARBORN WHOLESALE GROCERS LP","LONGITUDE":-87.66988951666725},
{"STATE":"IL","ZIP":60608,"LATTITUDE":41.841114991691946,"ADDRESS":"2801 S WESTERN AVE  ","YEAR":2009,"DOING_BUSINESS_AS_NAME":"DEARBORN WHOLESALE GROCER LP","POP_AT_RISK":134356,"BUSINESS_TYPE":"Tobacco Dealer Wholesale","LEGAL_NAME":"DEARBORN WHOLESALE GROCERS LP","LONGITUDE":-87.68513203475922},
{"STATE":"IL","ZIP":60624,"LATTITUDE":41.880460999176385,"ADDRESS":"4525 W MADISON ST 1 #","YEAR":2009,"DOING_BUSINESS_AS_NAME":"DEARBORN WHOLESALE GROCER LP","POP_AT_RISK":398970,"BUSINESS_TYPE":"Tobacco Dealer Wholesale","LEGAL_NAME":"DEARBORN WHOLESALE GROCERS LP","LONGITUDE":-87.73889657725695},
{"STATE":"IL","ZIP":60613,"LATTITUDE":41.96190984490327,"ADDRESS":"918 W MONTROSE AVE 1ST #","YEAR":2009,"DOING_BUSINESS_AS_NAME":"DEARBORN WHOLESALE GROCERS INC","POP_AT_RISK":1572220,"BUSINESS_TYPE":"Tobacco Dealer Wholesale","LEGAL_NAME":"DEARBORN WHOLESALE GROCERS LP","LONGITUDE":-87.65312737854316},
{"STATE":"IL","ZIP":60619,"LATTITUDE":41.75371285104864,"ADDRESS":"7729 S STATE ST 1ST 1NORTH","YEAR":2009,"DOING_BUSINESS_AS_NAME":"EXPRESS WHOLESALE GROCERS INC","POP_AT_RISK":73032,"BUSINESS_TYPE":"Tobacco Dealer Wholesale","LEGAL_NAME":"EXPRESS WHOLESALE GROCERS INC","LONGITUDE":-87.62447915530512},
{"STATE":"IL","ZIP":60647,"LATTITUDE":41.91742276227435,"ADDRESS":"2577 W ARMITAGE AVE 1ST ","YEAR":2009,"DOING_BUSINESS_AS_NAME":"CASH & CARRY WHOLESALE","POP_AT_RISK":1170594,"BUSINESS_TYPE":"Tobacco Dealer Wholesale","LEGAL_NAME":"MIDWESTERN CASH AND CARRY, LLC","LONGITUDE":-87.69221180721557},
{"STATE":"IL","ZIP":60641,"LATTITUDE":41.96070868752564,"ADDRESS":"4419 W MONTROSE AVE 1ST ","YEAR":2009,"DOING_BUSINESS_AS_NAME":"MONTROSE KENNETH WHOLESALE CORP.","POP_AT_RISK":46331,"BUSINESS_TYPE":"Tobacco Dealer Wholesale","LEGAL_NAME":"MONTROSE KENNETH WHOLESALE CORP.","LONGITUDE":-87.73930004690341},
{"STATE":"IL","ZIP":60625,"LATTITUDE":41.96817360434256,"ADDRESS":"3823 W LAWRENCE AVE 1ST ","YEAR":2009,"DOING_BUSINESS_AS_NAME":"CAIRO INTERNATIONAL TRADING, INC.","POP_AT_RISK":71120,"BUSINESS_TYPE":"Tobacco Dealer Wholesale","LEGAL_NAME":"CAIRO INTERNATIONAL TRADING, INC.","LONGITUDE":-87.72414945415306},
{"STATE":"IL","ZIP":60625,"LATTITUDE":41.97876270062979,"ADDRESS":"5343 N KEDZIE AVE 1 ","YEAR":2009,"DOING_BUSINESS_AS_NAME":"EAST WEST TRADING CORP","POP_AT_RISK":329682,"BUSINESS_TYPE":"Tobacco Dealer Wholesale","LEGAL_NAME":"EAST-WEST TRADING CORPORATION, LTD.","LONGITUDE":-87.70860883945191},
{}]