[
  {
    "BUSINESS_TYPE": "Peddler, non-food", 
    "LEGAL_NAME": "MOSTAFA JAFRY", 
    "STATE": "IL", 
    "DOING_BUSINESS_AS_NAME": "MOSTAFA JAFRY", 
    "POP_AT_RISK": 34058, 
    "ZIP": 60632, 
    "ADDRESS": "4300 S SPAULDING AVE", 
    "YEAR": 2002, 
    "LONGITUDE": -87.706855114, 
    "LATTITUDE": 41.815317034
  }, 
  {
    "BUSINESS_TYPE": "Peddler, non-food", 
    "LEGAL_NAME": "RUBY MITCHELL", 
    "STATE": "IL", 
    "DOING_BUSINESS_AS_NAME": "RUBY MITHCHELL", 
    "POP_AT_RISK": 23928, 
    "ZIP": 60631, 
    "ADDRESS": "6566 N HARLEM AVE", 
    "YEAR": 2002, 
    "LONGITUDE": -87.806910668, 
    "LATTITUDE": 42.000575994
  }, 
  {
    "BUSINESS_TYPE": "Peddler, non-food", 
    "LEGAL_NAME": "JOSE MANUEL TORRES SR.", 
    "STATE": "IL", 
    "DOING_BUSINESS_AS_NAME": "JOSE M TORRES SR.", 
    "POP_AT_RISK": 15852, 
    "ZIP": 60631, 
    "ADDRESS": "7715 W JARLATH ST", 
    "YEAR": 2002, 
    "LONGITUDE": -87.819487912, 
    "LATTITUDE": 42.012193229
  }, 
  {
    "BUSINESS_TYPE": "Peddler, non-food", 
    "LEGAL_NAME": "MICHAEL A. BROOKS", 
    "STATE": "IL", 
    "DOING_BUSINESS_AS_NAME": "MICHAEL A. BROOKS", 
    "POP_AT_RISK": 3373, 
    "ZIP": 60827, 
    "ADDRESS": "311 E 136TH PL", 
    "YEAR": 2002, 
    "LONGITUDE": -87.614479661, 
    "LATTITUDE": 41.646929112
  }, 
  {
    "BUSINESS_TYPE": "Peddler, non-food", 
    "LEGAL_NAME": "BERNARD WROBEL", 
    "STATE": "IL", 
    "DOING_BUSINESS_AS_NAME": "BERNARD WROBEL", 
    "POP_AT_RISK": 26033, 
    "ZIP": 60638, 
    "ADDRESS": "5123 S LAVERGNE AVE 1ST", 
    "YEAR": 2002, 
    "LONGITUDE": -87.747684069, 
    "LATTITUDE": 41.799603659
  }, 
  {
    "BUSINESS_TYPE": "Peddler, non-food", 
    "LEGAL_NAME": "LIN FANG", 
    "STATE": "IL", 
    "DOING_BUSINESS_AS_NAME": "LIN FANG", 
    "POP_AT_RISK": 8845, 
    "ZIP": 60656, 
    "ADDRESS": "5300 N ORIOLE AVE", 
    "YEAR": 2002, 
    "LONGITUDE": -87.817049314, 
    "LATTITUDE": 41.976149794
  }, 
  {
    "BUSINESS_TYPE": "Peddler, non-food", 
    "LEGAL_NAME": "NAHED A HAMAD", 
    "STATE": "IL", 
    "DOING_BUSINESS_AS_NAME": "NAHED SALES", 
    "POP_AT_RISK": 38079, 
    "ZIP": 60630, 
    "ADDRESS": "5324 W CARMEN AVE 1", 
    "YEAR": 2002, 
    "LONGITUDE": -87.761248372, 
    "LATTITUDE": 41.97347096
  }, 
  {
    "BUSINESS_TYPE": "Peddler, non-food", 
    "LEGAL_NAME": "PHILLIP MARTIN JOHNSON", 
    "STATE": "IL", 
    "DOING_BUSINESS_AS_NAME": "PHILLIP MARTIN JOHNSON", 
    "POP_AT_RISK": 21409, 
    "ZIP": 60643, 
    "ADDRESS": "10212 S WALDEN PKWY # A2", 
    "YEAR": 2002, 
    "LONGITUDE": -87.669134117, 
    "LATTITUDE": 41.707676589
  }, 
  {
    "BUSINESS_TYPE": "Peddler, non-food", 
    "LEGAL_NAME": "MARY F GRECO", 
    "STATE": "IL", 
    "DOING_BUSINESS_AS_NAME": "MARY F GRECO", 
    "POP_AT_RISK": 13804, 
    "ZIP": 60656, 
    "ADDRESS": "5149 N CHESTER AVE", 
    "YEAR": 2002, 
    "LONGITUDE": -87.838268357, 
    "LATTITUDE": 41.973495077
  }, 
  {
    "BUSINESS_TYPE": "Peddler, non-food", 
    "LEGAL_NAME": "WALTER E  DITTMER", 
    "STATE": "IL", 
    "DOING_BUSINESS_AS_NAME": "WALTER DITTMER", 
    "POP_AT_RISK": 20340, 
    "ZIP": 60609, 
    "ADDRESS": "4100 S ASHLAND AVE", 
    "YEAR": 2002, 
    "LONGITUDE": -87.665375545, 
    "LATTITUDE": 41.819441426
  }, 
  {
    "BUSINESS_TYPE": "Peddler, non-food", 
    "LEGAL_NAME": "AHMED M AQRABAWI", 
    "STATE": "IL", 
    "DOING_BUSINESS_AS_NAME": "AHMED AQRABAWI", 
    "POP_AT_RISK": 14869, 
    "ZIP": 60646, 
    "ADDRESS": "4750 W GLENLAKE AVE", 
    "YEAR": 2002, 
    "LONGITUDE": -87.748016377, 
    "LATTITUDE": 41.991514729
  }, 
  {
    "BUSINESS_TYPE": "Peddler, non-food", 
    "LEGAL_NAME": "WANDA POLSAKIEWICZ", 
    "STATE": "IL", 
    "DOING_BUSINESS_AS_NAME": "WANDA POLSAKIEWICZ", 
    "POP_AT_RISK": 21514, 
    "ZIP": 60646, 
    "ADDRESS": "6307 N MELVINA AVE", 
    "YEAR": 2002, 
    "LONGITUDE": -87.782722159, 
    "LATTITUDE": 41.995306274
  }, 
  {
    "BUSINESS_TYPE": "Peddler, non-food", 
    "LEGAL_NAME": "SHARON C OREILLY", 
    "STATE": "IL", 
    "DOING_BUSINESS_AS_NAME": "SHARON C OREILLY", 
    "POP_AT_RISK": 19762, 
    "ZIP": 60634, 
    "ADDRESS": "3422 N OTTAWA AVE", 
    "YEAR": 2002, 
    "LONGITUDE": -87.818040164, 
    "LATTITUDE": 41.942046229
  }, 
  {
    "BUSINESS_TYPE": "Peddler, non-food", 
    "LEGAL_NAME": "LEONIDES TADEO", 
    "STATE": "IL", 
    "DOING_BUSINESS_AS_NAME": "LEONIDES TADEO", 
    "POP_AT_RISK": 64023, 
    "ZIP": 60645, 
    "ADDRESS": "7070 N RIDGE BLVD  3A", 
    "YEAR": 2002, 
    "LONGITUDE": -87.682712621, 
    "LATTITUDE": 42.0108243
  }
]