[
  {
    "BUSINESS_TYPE": "Peddler, non-food", 
    "LEGAL_NAME": "AHMAD A HAL GHAZO", 
    "STATE": "IL", 
    "DOING_BUSINESS_AS_NAME": "AHMAD A HAL GHAZO", 
    "POP_AT_RISK": 28748, 
    "ZIP": 60628, 
    "ADDRESS": "10122 S EGGLESTON AVE 1ST", 
    "YEAR": 2000, 
    "LONGITUDE": -87.633807969, 
    "LATTITUDE": 41.70993973
  }, 
  {
    "BUSINESS_TYPE": "Peddler, non-food", 
    "LEGAL_NAME": "ABEL ROMAN", 
    "STATE": "IL", 
    "DOING_BUSINESS_AS_NAME": "ABEL ROMAN", 
    "POP_AT_RISK": 53211, 
    "ZIP": 60608, 
    "ADDRESS": "2316 S CALIFORNIA AVE  1ST", 
    "YEAR": 2000, 
    "LONGITUDE": -87.695526104, 
    "LATTITUDE": 41.849488238
  }, 
  {
    "BUSINESS_TYPE": "Peddler, non-food", 
    "LEGAL_NAME": "WANDA POLSAKIEWICZ", 
    "STATE": "IL", 
    "DOING_BUSINESS_AS_NAME": "WANDA POLSAKIEWICZ", 
    "POP_AT_RISK": 21514, 
    "ZIP": 60646, 
    "ADDRESS": "6307 N MELVINA AVE", 
    "YEAR": 2000, 
    "LONGITUDE": -87.782722159, 
    "LATTITUDE": 41.995306274
  }, 
  {
    "BUSINESS_TYPE": "Peddler, non-food", 
    "LEGAL_NAME": "ARTHUR DELEON", 
    "STATE": "IL", 
    "DOING_BUSINESS_AS_NAME": "ARTHUR DELEON", 
    "POP_AT_RISK": 34985, 
    "ZIP": 60707, 
    "ADDRESS": "2452 N NEWCASTLE AVE 1ST", 
    "YEAR": 2000, 
    "LONGITUDE": -87.796659023, 
    "LATTITUDE": 41.925144172
  }, 
  {
    "BUSINESS_TYPE": "Peddler, non-food", 
    "LEGAL_NAME": "MICHEAL A PONCE", 
    "STATE": "IL", 
    "DOING_BUSINESS_AS_NAME": "MICHEAL A PONCE", 
    "POP_AT_RISK": 26799, 
    "ZIP": 60629, 
    "ADDRESS": "6538 S KEATING AVE  1ST", 
    "YEAR": 2000, 
    "LONGITUDE": -87.741073995, 
    "LATTITUDE": 41.773638151
  }, 
  {
    "BUSINESS_TYPE": "Peddler, non-food", 
    "LEGAL_NAME": "DEBRA FLOWERS", 
    "STATE": "IL", 
    "DOING_BUSINESS_AS_NAME": "DEBRA FLOWERS", 
    "POP_AT_RISK": 39205, 
    "ZIP": 60620, 
    "ADDRESS": "756 W 87TH ST # 1ST", 
    "YEAR": 2000, 
    "LONGITUDE": -87.643456121, 
    "LATTITUDE": 41.736224637
  }, 
  {
    "BUSINESS_TYPE": "Peddler, non-food", 
    "LEGAL_NAME": "DELORES W JETT-MELTON", 
    "STATE": "IL", 
    "DOING_BUSINESS_AS_NAME": "DELORES W JETT", 
    "POP_AT_RISK": 19511, 
    "ZIP": 60652, 
    "ADDRESS": "2804 W 81ST ST 1ST", 
    "YEAR": 2000, 
    "LONGITUDE": -87.692777477, 
    "LATTITUDE": 41.746414372
  }, 
  {
    "BUSINESS_TYPE": "Peddler, non-food", 
    "LEGAL_NAME": "KERRY W KINNON SR", 
    "STATE": "IL", 
    "DOING_BUSINESS_AS_NAME": "KERRY W KINNON SR", 
    "POP_AT_RISK": 30831, 
    "ZIP": 60617, 
    "ADDRESS": "2945 E 80TH ST  1", 
    "YEAR": 2000, 
    "LONGITUDE": -87.552300758, 
    "LATTITUDE": 41.7499921
  }, 
  {
    "BUSINESS_TYPE": "Peddler, non-food", 
    "LEGAL_NAME": "LEONIDES TADEO", 
    "STATE": "IL", 
    "DOING_BUSINESS_AS_NAME": "LEONIDES TADEO", 
    "POP_AT_RISK": 64023, 
    "ZIP": 60645, 
    "ADDRESS": "7070 N RIDGE BLVD  3A", 
    "YEAR": 2000, 
    "LONGITUDE": -87.682712621, 
    "LATTITUDE": 42.0108243
  }, 
  {
    "BUSINESS_TYPE": "Peddler, non-food", 
    "LEGAL_NAME": "MARK E HANKTON", 
    "STATE": "IL", 
    "DOING_BUSINESS_AS_NAME": "MARK E HANKTON", 
    "POP_AT_RISK": 26212, 
    "ZIP": 60617, 
    "ADDRESS": "2621 E 92ND ST # 1ST", 
    "YEAR": 2000, 
    "LONGITUDE": -87.559920705, 
    "LATTITUDE": 41.728030699
  }, 
  {
    "BUSINESS_TYPE": "Peddler, non-food", 
    "LEGAL_NAME": "TRACY A MONTGOMERY", 
    "STATE": "IL", 
    "DOING_BUSINESS_AS_NAME": "TRACY A MONTGOMERY", 
    "POP_AT_RISK": 66957, 
    "ZIP": 60639, 
    "ADDRESS": "4642 W BELDEN AVE 2", 
    "YEAR": 2000, 
    "LONGITUDE": -87.743370526, 
    "LATTITUDE": 41.922559522
  }, 
  {
    "BUSINESS_TYPE": "Peddler, non-food", 
    "LEGAL_NAME": "THEODIS SMITH", 
    "STATE": "IL", 
    "DOING_BUSINESS_AS_NAME": "THEODIS SMITH", 
    "POP_AT_RISK": 35097, 
    "ZIP": 60624, 
    "ADDRESS": "155 S PULASKI RD 1ST", 
    "YEAR": 2000, 
    "LONGITUDE": -87.725435111, 
    "LATTITUDE": 41.878093551
  }, 
  {
    "BUSINESS_TYPE": "Peddler, non-food", 
    "LEGAL_NAME": "JUAN CARRASCO", 
    "STATE": "IL", 
    "DOING_BUSINESS_AS_NAME": "JUAN CARRASCO", 
    "POP_AT_RISK": 70104, 
    "ZIP": 60618, 
    "ADDRESS": "4021 N DRAKE AVE 1ST", 
    "YEAR": 2000, 
    "LONGITUDE": -87.716460439, 
    "LATTITUDE": 41.954462243
  }, 
  {
    "BUSINESS_TYPE": "Peddler, non-food", 
    "LEGAL_NAME": "MICHAEL RANSOM", 
    "STATE": "IL", 
    "DOING_BUSINESS_AS_NAME": "MICHAEL RANSOM", 
    "POP_AT_RISK": 31553, 
    "ZIP": 60612, 
    "ADDRESS": "2852 W FILLMORE ST 1ST", 
    "YEAR": 2000, 
    "LONGITUDE": -87.698102336, 
    "LATTITUDE": 41.86841851
  }, 
  {
    "BUSINESS_TYPE": "Peddler, non-food", 
    "LEGAL_NAME": "DORIS A JOYNER", 
    "STATE": "IL", 
    "DOING_BUSINESS_AS_NAME": "DORIS A JOYNER", 
    "POP_AT_RISK": 12414, 
    "ZIP": 60628, 
    "ADDRESS": "611 W VERMONT ST # 1ST", 
    "YEAR": 2000, 
    "LONGITUDE": -87.636993478, 
    "LATTITUDE": 41.663055786
  }, 
  {
    "BUSINESS_TYPE": "Peddler, non-food", 
    "LEGAL_NAME": "ROXIE M FRAZIER", 
    "STATE": "IL", 
    "DOING_BUSINESS_AS_NAME": "ROXIE M FRAZIER", 
    "POP_AT_RISK": 37117, 
    "ZIP": 60636, 
    "ADDRESS": "6755 S THROOP ST 1ST", 
    "YEAR": 2000, 
    "LONGITUDE": -87.656548689, 
    "LATTITUDE": 41.770684019
  }, 
  {
    "BUSINESS_TYPE": "Peddler, non-food", 
    "LEGAL_NAME": "LASHAUN PRICE", 
    "STATE": "IL", 
    "DOING_BUSINESS_AS_NAME": "LASHAUN PRICE", 
    "POP_AT_RISK": 25316, 
    "ZIP": 60628, 
    "ADDRESS": "9729 S PRAIRIE AVE", 
    "YEAR": 2000, 
    "LONGITUDE": -87.617513928, 
    "LATTITUDE": 41.717307772
  }, 
  {
    "BUSINESS_TYPE": "Peddler, non-food", 
    "LEGAL_NAME": "JOHN ALI", 
    "STATE": "IL", 
    "DOING_BUSINESS_AS_NAME": "JOHN ALI", 
    "POP_AT_RISK": 74155, 
    "ZIP": 60625, 
    "ADDRESS": "4721 N LAWNDALE AVE 1ST", 
    "YEAR": 2000, 
    "LONGITUDE": -87.72051424, 
    "LATTITUDE": 41.967159089
  }, 
  {
    "BUSINESS_TYPE": "Peddler, non-food", 
    "LEGAL_NAME": "RIAZ AHMAK KHAN", 
    "STATE": "IL", 
    "DOING_BUSINESS_AS_NAME": "RIAZ AHMAD KHAN", 
    "POP_AT_RISK": 58886, 
    "ZIP": 60647, 
    "ADDRESS": "2202 N ROCKWELL ST 1ST", 
    "YEAR": 2000, 
    "LONGITUDE": -87.6929095, 
    "LATTITUDE": 41.921896313
  }, 
  {
    "BUSINESS_TYPE": "Peddler, non-food", 
    "LEGAL_NAME": "WESLEY WILEY", 
    "STATE": "IL", 
    "DOING_BUSINESS_AS_NAME": "WESLEY WILEY", 
    "POP_AT_RISK": 37860, 
    "ZIP": 60615, 
    "ADDRESS": "4800 S LAKE PARK AVE 1ST", 
    "YEAR": 2000, 
    "LONGITUDE": -87.590693109, 
    "LATTITUDE": 41.807921792
  }, 
  {
    "BUSINESS_TYPE": "Peddler, non-food", 
    "LEGAL_NAME": "FRED ADAMS", 
    "STATE": "IL", 
    "DOING_BUSINESS_AS_NAME": "FRED ADAMS", 
    "POP_AT_RISK": 34055, 
    "ZIP": 60619, 
    "ADDRESS": "7810 S MICHIGAN AVE 1ST", 
    "YEAR": 2000, 
    "LONGITUDE": -87.621562973, 
    "LATTITUDE": 41.75245297
  }, 
  {
    "BUSINESS_TYPE": "Peddler, non-food", 
    "LEGAL_NAME": "HERBERT PERRY", 
    "STATE": "IL", 
    "DOING_BUSINESS_AS_NAME": "HERBERT PERRY", 
    "POP_AT_RISK": 44533, 
    "ZIP": 60639, 
    "ADDRESS": "5832 W NORTH AVE  1", 
    "YEAR": 2000, 
    "LONGITUDE": -87.771577796, 
    "LATTITUDE": 41.909414099
  }, 
  {
    "BUSINESS_TYPE": "Peddler, non-food", 
    "LEGAL_NAME": "MORAIMA GARCIA", 
    "STATE": "IL", 
    "DOING_BUSINESS_AS_NAME": "MORAIMA GARCIA", 
    "POP_AT_RISK": 54111, 
    "ZIP": 60634, 
    "ADDRESS": "3118 N MASON AVE 1ST", 
    "YEAR": 2000, 
    "LONGITUDE": -87.775106226, 
    "LATTITUDE": 41.937236144
  }, 
  {
    "BUSINESS_TYPE": "Peddler, non-food", 
    "LEGAL_NAME": "MICHAEL F HARTFIELD", 
    "STATE": "IL", 
    "DOING_BUSINESS_AS_NAME": "MICHAEL F HARTFIELD", 
    "POP_AT_RISK": 20929, 
    "ZIP": 60617, 
    "ADDRESS": "9555 S CHAPPEL AVE 1ST", 
    "YEAR": 2000, 
    "LONGITUDE": -87.573942338, 
    "LATTITUDE": 41.720829442
  }, 
  {
    "BUSINESS_TYPE": "Peddler, non-food", 
    "LEGAL_NAME": "LESTER ROPER", 
    "STATE": "IL", 
    "DOING_BUSINESS_AS_NAME": "LESTER ROPER", 
    "POP_AT_RISK": 45010, 
    "ZIP": 60607, 
    "ADDRESS": "908 S RACINE AVE 1ST", 
    "YEAR": 2000, 
    "LONGITUDE": -87.656920332, 
    "LATTITUDE": 41.8700072
  }
]