[
{"STATE":"IL","ZIP":60608,"LATTITUDE":41.858782873632165,"ADDRESS":"1115 W 17TH ST  ","YEAR":2006,"DOING_BUSINESS_AS_NAME":"JESUS MEJIA","POP_AT_RISK":108357,"BUSINESS_TYPE":"Junk Peddler","LEGAL_NAME":"JESUS MEJIA","LONGITUDE":-87.65406443689848},
{"STATE":"IL","ZIP":60617,"LATTITUDE":41.74006767448875,"ADDRESS":"8531 S EXCHANGE AVE  ","YEAR":2006,"DOING_BUSINESS_AS_NAME":"NOHEMI LOPEZ","POP_AT_RISK":200305,"BUSINESS_TYPE":"Junk Peddler","LEGAL_NAME":"NOHEMI LOPEZ","LONGITUDE":-87.5525570733546},
{"STATE":"IL","ZIP":60608,"LATTITUDE":41.854775881944164,"ADDRESS":"2113 W CULLERTON ST  ","YEAR":2006,"DOING_BUSINESS_AS_NAME":"JESUS AGURIRRE","POP_AT_RISK":36721,"BUSINESS_TYPE":"Junk Peddler","LEGAL_NAME":"JESUS AGUIRRE","LONGITUDE":-87.67893288599146},
{"STATE":"IL","ZIP":60660,"LATTITUDE":41.98585469753,"ADDRESS":"5710 N WINTHROP AVE  ","YEAR":2006,"DOING_BUSINESS_AS_NAME":"HECTOR COSME","POP_AT_RISK":1264849,"BUSINESS_TYPE":"Junk Peddler","LEGAL_NAME":"HECTOR L COSME","LONGITUDE":-87.65823215413647},
{"STATE":"IL","ZIP":60639,"LATTITUDE":41.929695281901964,"ADDRESS":"5202 W SCHUBERT AVE 2F ","YEAR":2006,"DOING_BUSINESS_AS_NAME":"BUGET PICK UP","POP_AT_RISK":137484,"BUSINESS_TYPE":"Junk Peddler","LEGAL_NAME":"JAMES R WALLEN","LONGITUDE":-87.7565533501654},
{"STATE":"IL","ZIP":60608,"LATTITUDE":41.85498601938009,"ADDRESS":"2005 S LOOMIS ST  ","YEAR":2006,"DOING_BUSINESS_AS_NAME":"EMILIANO GARCIA","POP_AT_RISK":127191,"BUSINESS_TYPE":"Junk Peddler","LEGAL_NAME":"EMILIANO GARCIA","LONGITUDE":-87.66109059120146},
{"STATE":"IL","ZIP":60609,"LATTITUDE":41.82667191007427,"ADDRESS":"928 W 37TH PL  ","YEAR":2006,"DOING_BUSINESS_AS_NAME":"GLORIA ROLDAN","POP_AT_RISK":244926,"BUSINESS_TYPE":"Junk Peddler","LEGAL_NAME":"GLORIA F ROLDAN","LONGITUDE":-87.64884189142097},
{"STATE":"IL","ZIP":60639,"LATTITUDE":41.911043306425036,"ADDRESS":"1657 N PARKSIDE AVE 1 ","YEAR":2006,"DOING_BUSINESS_AS_NAME":"LORENA SANDOVAL","POP_AT_RISK":271250,"BUSINESS_TYPE":"Junk Peddler","LEGAL_NAME":"LORENA SANDOVAL","LONGITUDE":-87.76665426101684},
{"STATE":"IL","ZIP":60621,"LATTITUDE":41.77290461716235,"ADDRESS":"6644 S SANGAMON ST  ","YEAR":2006,"DOING_BUSINESS_AS_NAME":"LUTHER J. MOORE\/LJM DUMP TRUCK HAULING","POP_AT_RISK":525045,"BUSINESS_TYPE":"Junk Peddler","LEGAL_NAME":"LUTHER J. MOORE","LONGITUDE":-87.6483957286829},
{"STATE":"IL","ZIP":60617,"LATTITUDE":41.72036463387103,"ADDRESS":"9617 S ESCANABA AVE  ","YEAR":2006,"DOING_BUSINESS_AS_NAME":"MACRINO DE LEON","POP_AT_RISK":17749,"BUSINESS_TYPE":"Junk Peddler","LEGAL_NAME":"MACRINO DE LEON","LONGITUDE":-87.55366029763196},
{"STATE":"IL","ZIP":60707,"LATTITUDE":41.92771744983967,"ADDRESS":"2615 N NEWCASTLE AVE 1ST ","YEAR":2006,"DOING_BUSINESS_AS_NAME":"MARIA ZACATENCO","POP_AT_RISK":265790,"BUSINESS_TYPE":"Junk Peddler","LEGAL_NAME":"MARIA ZACATENCO","LONGITUDE":-87.79644644789033},
{"STATE":"IL","ZIP":60647,"LATTITUDE":41.925601772485884,"ADDRESS":"2424 N CAMPBELL AVE  ","YEAR":2006,"DOING_BUSINESS_AS_NAME":"AQUILINO ALVAREZ","POP_AT_RISK":670358,"BUSINESS_TYPE":"Junk Peddler","LEGAL_NAME":"AQUILINO ALVAREZ","LONGITUDE":-87.69025725488088},
{"STATE":"IL","ZIP":60639,"LATTITUDE":41.922842430914834,"ADDRESS":"2309 N KENNETH AVE  ","YEAR":2006,"DOING_BUSINESS_AS_NAME":"JOSE A. QUINTERO","POP_AT_RISK":67114,"BUSINESS_TYPE":"Junk Peddler","LEGAL_NAME":"JOSE A. QUINTERO","LONGITUDE":-87.73758810846465},
{"STATE":"IL","ZIP":60647,"LATTITUDE":41.910782436610525,"ADDRESS":"3721 W CONCORD PL 1ST ","YEAR":2006,"DOING_BUSINESS_AS_NAME":"JOSE LUIS AVALOS","POP_AT_RISK":136786,"BUSINESS_TYPE":"Junk Peddler","LEGAL_NAME":"JOSE LUIS AVALOS","LONGITUDE":-87.71985809372791},
{"STATE":"IL","ZIP":60618,"LATTITUDE":41.93580500973551,"ADDRESS":"3026 N ELBRIDGE AVE  ","YEAR":2006,"DOING_BUSINESS_AS_NAME":"VICTOR CASTREJON","POP_AT_RISK":63130,"BUSINESS_TYPE":"Junk Peddler","LEGAL_NAME":"VICTOR CASTREJON","LONGITUDE":-87.71649273320534},
{"STATE":"IL","ZIP":60651,"LATTITUDE":41.89887221504702,"ADDRESS":"955 N RIDGEWAY AVE  ","YEAR":2006,"DOING_BUSINESS_AS_NAME":"WILBERT BARBRE","POP_AT_RISK":197148,"BUSINESS_TYPE":"Junk Peddler","LEGAL_NAME":"WILBERT L. BARBRE","LONGITUDE":-87.7199393080049},
{"STATE":"IL","ZIP":60618,"LATTITUDE":41.96056897920127,"ADDRESS":"4338 N FRANCISCO AVE  ","YEAR":2006,"DOING_BUSINESS_AS_NAME":"SCRAP PICK-UP","POP_AT_RISK":1035132,"BUSINESS_TYPE":"Junk Peddler","LEGAL_NAME":"FERNANDO R FLORIAN","LONGITUDE":-87.70103857813962},
{"STATE":"IL","ZIP":60630,"LATTITUDE":41.970643640142136,"ADDRESS":"4821 W STRONG ST  ","YEAR":2006,"DOING_BUSINESS_AS_NAME":"FRANCISCO RODRIGUEZ","POP_AT_RISK":212590,"BUSINESS_TYPE":"Junk Peddler","LEGAL_NAME":"FRANCISCO RODRIGUEZ","LONGITUDE":-87.74875838911312},
{"STATE":"IL","ZIP":60609,"LATTITUDE":41.79837929252183,"ADDRESS":"5242 S ABERDEEN ST  ","YEAR":2006,"DOING_BUSINESS_AS_NAME":"HENRY L. REEVES, SR.","POP_AT_RISK":443475,"BUSINESS_TYPE":"Junk Peddler","LEGAL_NAME":"HENRY L REEVES, SR.","LONGITUDE":-87.65270253502555},
{"STATE":"IL","ZIP":60617,"LATTITUDE":41.695426740318695,"ADDRESS":"11001 S MACKINAW AVE  ","YEAR":2006,"DOING_BUSINESS_AS_NAME":"JOSE EMILIANO VALDEZ","POP_AT_RISK":17150,"BUSINESS_TYPE":"Junk Peddler","LEGAL_NAME":"JOSE EMILIANO VALDEZ","LONGITUDE":-87.54243890537927},
{}]