[
  {
    "BUSINESS_TYPE": "Pet Shop", 
    "LEGAL_NAME": "TROPICAL BIRD PARADISE DIVISION OF HANDICAP INC", 
    "STATE": "IL", 
    "DOING_BUSINESS_AS_NAME": "TROPICAL BIRD PARADISE DIVISION OF HANDICAP INC", 
    "POP_AT_RISK": 71600, 
    "ZIP": 60639, 
    "ADDRESS": "4337 W FULLERTON AVE 1ST", 
    "YEAR": 2003, 
    "LONGITUDE": -87.735635841, 
    "LATTITUDE": 41.924266466
  }, 
  {
    "BUSINESS_TYPE": "Pet Shop", 
    "LEGAL_NAME": "MENARDO VILLABER", 
    "STATE": "IL", 
    "DOING_BUSINESS_AS_NAME": "REEF DWELLER", 
    "POP_AT_RISK": 44191, 
    "ZIP": 60659, 
    "ADDRESS": "6023 N LINCOLN AVE  1", 
    "YEAR": 2003, 
    "LONGITUDE": -87.707954431, 
    "LATTITUDE": 41.990884431
  }, 
  {
    "BUSINESS_TYPE": "Pet Shop", 
    "LEGAL_NAME": "RAYMOND BARRERA", 
    "STATE": "IL", 
    "DOING_BUSINESS_AS_NAME": "THE ZOO SHOP", 
    "POP_AT_RISK": 29201, 
    "ZIP": 60609, 
    "ADDRESS": "2110 W 35TH ST 1ST", 
    "YEAR": 2003, 
    "LONGITUDE": -87.678304182, 
    "LATTITUDE": 41.830467569
  }, 
  {
    "BUSINESS_TYPE": "Pet Shop", 
    "LEGAL_NAME": "TROPICANA LIVING THINGS INC", 
    "STATE": "IL", 
    "DOING_BUSINESS_AS_NAME": "TROPICANA LIVING THINGS", 
    "POP_AT_RISK": 45493, 
    "ZIP": 60632, 
    "ADDRESS": "3879 S ARCHER AVE # 1ST", 
    "YEAR": 2003, 
    "LONGITUDE": -87.689516749, 
    "LATTITUDE": 41.822984836
  }, 
  {
    "BUSINESS_TYPE": "Pet Shop", 
    "LEGAL_NAME": "AFRO-AQUATICS & PET SHOP INC", 
    "STATE": "IL", 
    "DOING_BUSINESS_AS_NAME": "AFRO-AQUATICS & PET SUPPLY INC", 
    "POP_AT_RISK": 31674, 
    "ZIP": 60628, 
    "ADDRESS": "11146 S MICHIGAN AVE 1ST", 
    "YEAR": 2003, 
    "LONGITUDE": -87.621178639, 
    "LATTITUDE": 41.691216588
  }, 
  {
    "BUSINESS_TYPE": "Pet Shop", 
    "LEGAL_NAME": "RICHARD & CHARLINE DE PINTOR", 
    "STATE": "IL", 
    "DOING_BUSINESS_AS_NAME": "RICHARD & CHARLINE DE PINTOR", 
    "POP_AT_RISK": 71652, 
    "ZIP": 60618, 
    "ADDRESS": "2903 N KEDZIE AVE  1", 
    "YEAR": 2003, 
    "LONGITUDE": -87.707333017, 
    "LATTITUDE": 41.934026026
  }, 
  {
    "BUSINESS_TYPE": "Pet Shop", 
    "LEGAL_NAME": "GIRARD H VAHLE", 
    "STATE": "IL", 
    "DOING_BUSINESS_AS_NAME": "VAHLE'S PET SHOP", 
    "POP_AT_RISK": 66512, 
    "ZIP": 60625, 
    "ADDRESS": "4710 N DAMEN AVE", 
    "YEAR": 2003, 
    "LONGITUDE": -87.679291844, 
    "LATTITUDE": 41.96730629
  }, 
  {
    "BUSINESS_TYPE": "Pet Shop", 
    "LEGAL_NAME": "GREGORY WHITE", 
    "STATE": "IL", 
    "DOING_BUSINESS_AS_NAME": "WHITES SWAMP THINGS", 
    "POP_AT_RISK": 23425, 
    "ZIP": 60652, 
    "ADDRESS": "8144 S KEDZIE AVE 1ST", 
    "YEAR": 2003, 
    "LONGITUDE": -87.702402771, 
    "LATTITUDE": 41.744810966
  }, 
  {
    "BUSINESS_TYPE": "Pet Shop", 
    "LEGAL_NAME": "JOSE RONCES", 
    "STATE": "IL", 
    "DOING_BUSINESS_AS_NAME": "JOSE GROOMING PARLOR", 
    "POP_AT_RISK": 59410, 
    "ZIP": 60618, 
    "ADDRESS": "3733 N KIMBALL AVE 1ST", 
    "YEAR": 2003, 
    "LONGITUDE": -87.712646098, 
    "LATTITUDE": 41.949433203
  }, 
  {
    "BUSINESS_TYPE": "Pet Shop", 
    "LEGAL_NAME": "DEAN MARKOWSKI", 
    "STATE": "IL", 
    "DOING_BUSINESS_AS_NAME": "KING CORAL AQUARIUM", 
    "POP_AT_RISK": 47607, 
    "ZIP": 60641, 
    "ADDRESS": "5541 W MONTROSE AVE 1ST", 
    "YEAR": 2003, 
    "LONGITUDE": -87.766428861, 
    "LATTITUDE": 41.960383661
  }, 
  {
    "BUSINESS_TYPE": "Pet Shop", 
    "LEGAL_NAME": "MARIA F. DELGADO", 
    "STATE": "IL", 
    "DOING_BUSINESS_AS_NAME": "CERMAK PETS & SUPPLYS", 
    "POP_AT_RISK": 45433, 
    "ZIP": 60632, 
    "ADDRESS": "2417 W 51ST ST 1ST", 
    "YEAR": 2003, 
    "LONGITUDE": -87.68502894, 
    "LATTITUDE": 41.801031923
  }, 
  {
    "BUSINESS_TYPE": "Pet Shop", 
    "LEGAL_NAME": "PARK PET SHOP INC.", 
    "STATE": "IL", 
    "DOING_BUSINESS_AS_NAME": "PARK PET SHOP INC", 
    "POP_AT_RISK": 20928, 
    "ZIP": 60655, 
    "ADDRESS": "10429 S KEDZIE AVE 1ST", 
    "YEAR": 2003, 
    "LONGITUDE": -87.701104046, 
    "LATTITUDE": 41.70347027
  }, 
  {
    "BUSINESS_TYPE": "Pet Shop", 
    "LEGAL_NAME": "ROSA ALVAREZ", 
    "STATE": "IL", 
    "DOING_BUSINESS_AS_NAME": "CHICAGO GROOMING PARLOR", 
    "POP_AT_RISK": 54079, 
    "ZIP": 60629, 
    "ADDRESS": "6009 S PULASKI RD 1ST", 
    "YEAR": 2003, 
    "LONGITUDE": -87.722759647, 
    "LATTITUDE": 41.783798509
  }, 
  {
    "BUSINESS_TYPE": "Pet Shop", 
    "LEGAL_NAME": "R Ocean Fantasy", 
    "STATE": "IL", 
    "DOING_BUSINESS_AS_NAME": "R Ocean Fantasy", 
    "POP_AT_RISK": 17956, 
    "ZIP": 60646, 
    "ADDRESS": "5343 W DEVON AVE", 
    "YEAR": 2003, 
    "LONGITUDE": -87.762506791, 
    "LATTITUDE": 41.997223402
  }, 
  {
    "BUSINESS_TYPE": "Pet Shop", 
    "LEGAL_NAME": "RUFF N' STUFF", 
    "STATE": "IL", 
    "DOING_BUSINESS_AS_NAME": "RUFF N STUFF", 
    "POP_AT_RISK": 62706, 
    "ZIP": 60640, 
    "ADDRESS": "5430 N CLARK ST  1", 
    "YEAR": 2003, 
    "LONGITUDE": -87.668502587, 
    "LATTITUDE": 41.980796189
  }, 
  {
    "BUSINESS_TYPE": "Pet Shop", 
    "LEGAL_NAME": "JACQUELINE R WILSON", 
    "STATE": "IL", 
    "DOING_BUSINESS_AS_NAME": "BLUE MAGIC PET SHOP", 
    "POP_AT_RISK": 43671, 
    "ZIP": 60649, 
    "ADDRESS": "2734 E 79TH ST 1ST", 
    "YEAR": 2003, 
    "LONGITUDE": -87.557018555, 
    "LATTITUDE": 41.751965022
  }, 
  {
    "BUSINESS_TYPE": "Pet Shop", 
    "LEGAL_NAME": "PET SUPPLIES PLUS\" CHICAGO CITY CENTER LIMITED PARTNERSHIP", 
    "STATE": "IL", 
    "DOING_BUSINESS_AS_NAME": "PET SUPPLIES \"PLUS\" STORE #53", 
    "POP_AT_RISK": 24680, 
    "ZIP": 60656, 
    "ADDRESS": "5435 N HARLEM AVE 1ST", 
    "YEAR": 2003, 
    "LONGITUDE": -87.806831118, 
    "LATTITUDE": 41.980203234
  }, 
  {
    "BUSINESS_TYPE": "Pet Shop", 
    "LEGAL_NAME": "JULE'S 5 cent TO $1 STORES, INC", 
    "STATE": "IL", 
    "DOING_BUSINESS_AS_NAME": "JULE'S 5 cent TO $1 STORES, INC", 
    "POP_AT_RISK": 60317, 
    "ZIP": 60647, 
    "ADDRESS": "2062-2064 N MILWAUKEE AVE  1", 
    "YEAR": 2003, 
    "LONGITUDE": -87.690702926, 
    "LATTITUDE": 41.918700697
  }, 
  {
    "BUSINESS_TYPE": "Pet Shop", 
    "LEGAL_NAME": "ADOLFO MANTECA", 
    "STATE": "IL", 
    "DOING_BUSINESS_AS_NAME": "SOUTH SEAS PET SHOP", 
    "POP_AT_RISK": 76062, 
    "ZIP": 60629, 
    "ADDRESS": "6022 S KEDZIE AVE", 
    "YEAR": 2003, 
    "LONGITUDE": -87.703416441, 
    "LATTITUDE": 41.783712063
  }, 
  {
    "BUSINESS_TYPE": "Pet Shop", 
    "LEGAL_NAME": "JBO, LTD", 
    "STATE": "IL", 
    "DOING_BUSINESS_AS_NAME": "PARKVIEW PET SHOP", 
    "POP_AT_RISK": 65999, 
    "ZIP": 60614, 
    "ADDRESS": "2222 N CLARK ST", 
    "YEAR": 2003, 
    "LONGITUDE": -87.638782967, 
    "LATTITUDE": 41.922538304
  }, 
  {
    "BUSINESS_TYPE": "Pet Shop", 
    "LEGAL_NAME": "VICTORIA KRASHAK", 
    "STATE": "IL", 
    "DOING_BUSINESS_AS_NAME": "MIDWAY PET & HOBBIE", 
    "POP_AT_RISK": 18938, 
    "ZIP": 60638, 
    "ADDRESS": "5941 W 63RD ST  1", 
    "YEAR": 2003, 
    "LONGITUDE": -87.770724122, 
    "LATTITUDE": 41.777766621
  }, 
  {
    "BUSINESS_TYPE": "Pet Shop", 
    "LEGAL_NAME": "JOSE M PEREZ", 
    "STATE": "IL", 
    "DOING_BUSINESS_AS_NAME": "PARADISE DE AVES", 
    "POP_AT_RISK": 35845, 
    "ZIP": 60609, 
    "ADDRESS": "1836 W 47TH ST 1ST", 
    "YEAR": 2003, 
    "LONGITUDE": -87.671273972, 
    "LATTITUDE": 41.808652704
  }, 
  {
    "BUSINESS_TYPE": "Pet Shop", 
    "LEGAL_NAME": "FURRY FRIENDS INC.", 
    "STATE": "IL", 
    "DOING_BUSINESS_AS_NAME": "FURRY FRIENDS INC.", 
    "POP_AT_RISK": 65371, 
    "ZIP": 60639, 
    "ADDRESS": "5311 W FULLERTON AVE", 
    "YEAR": 2003, 
    "LONGITUDE": -87.759061205, 
    "LATTITUDE": 41.923959909
  }, 
  {
    "BUSINESS_TYPE": "Pet Shop", 
    "LEGAL_NAME": "GLORIA & TRACY MCBRIDE", 
    "STATE": "IL", 
    "DOING_BUSINESS_AS_NAME": "PINK POODLE PALACE", 
    "POP_AT_RISK": 14637, 
    "ZIP": 60628, 
    "ADDRESS": "12721 S HALSTED ST 1ST", 
    "YEAR": 2003, 
    "LONGITUDE": -87.641251245, 
    "LATTITUDE": 41.662549682
  }, 
  {
    "BUSINESS_TYPE": "Pet Shop", 
    "LEGAL_NAME": "HUMBERTO BRAVO & MARTHA COHEN", 
    "STATE": "IL", 
    "DOING_BUSINESS_AS_NAME": "PARADISE PET SALON", 
    "POP_AT_RISK": 68975, 
    "ZIP": 60613, 
    "ADDRESS": "3920 N BROADWAY  1ST", 
    "YEAR": 2003, 
    "LONGITUDE": -87.649950438, 
    "LATTITUDE": 41.953394437
  }, 
  {
    "BUSINESS_TYPE": "Pet Shop", 
    "LEGAL_NAME": "HYDE PARK INC.", 
    "STATE": "IL", 
    "DOING_BUSINESS_AS_NAME": "HYDE PARK PET INC.", 
    "POP_AT_RISK": 37470, 
    "ZIP": 60615, 
    "ADDRESS": "5201 S HARPER AVE  1", 
    "YEAR": 2003, 
    "LONGITUDE": -87.588992884, 
    "LATTITUDE": 41.801062202
  }, 
  {
    "BUSINESS_TYPE": "Pet Shop", 
    "LEGAL_NAME": "LOGAN SQUARE GROOMING STUDIO INC.", 
    "STATE": "IL", 
    "DOING_BUSINESS_AS_NAME": "MONROE ST GROOMING STUDIO", 
    "POP_AT_RISK": 37685, 
    "ZIP": 60607, 
    "ADDRESS": "843 W MONROE ST 1 1-A", 
    "YEAR": 2003, 
    "LONGITUDE": -87.64903115, 
    "LATTITUDE": 41.880351422
  }, 
  {
    "BUSINESS_TYPE": "Pet Shop", 
    "LEGAL_NAME": "PETCO ANIMAL SUPPLIES STORES, INC.", 
    "STATE": "IL", 
    "DOING_BUSINESS_AS_NAME": "PETCO #869", 
    "POP_AT_RISK": 59697, 
    "ZIP": 60614, 
    "ADDRESS": "2000 N CLYBOURN AVE 1ST", 
    "YEAR": 2003, 
    "LONGITUDE": -87.659022898, 
    "LATTITUDE": 41.917581792
  }, 
  {
    "BUSINESS_TYPE": "Pet Shop", 
    "LEGAL_NAME": "GRAND AQUARIUM & PET CTN INC", 
    "STATE": "IL", 
    "DOING_BUSINESS_AS_NAME": "GRAND AQUARIUM & PET CENTER", 
    "POP_AT_RISK": 54617, 
    "ZIP": 60639, 
    "ADDRESS": "5717 -5719 W GRAND AVE 1ST", 
    "YEAR": 2003, 
    "LONGITUDE": -87.769021094, 
    "LATTITUDE": 41.919235101
  }, 
  {
    "BUSINESS_TYPE": "Pet Shop", 
    "LEGAL_NAME": "OCEAN DESIGN AQUARIUM INC", 
    "STATE": "IL", 
    "DOING_BUSINESS_AS_NAME": "OCEAN DESIGN AQUARIUM", 
    "POP_AT_RISK": 38072, 
    "ZIP": 60634, 
    "ADDRESS": "6500 W IRVING PARK RD  1", 
    "YEAR": 2003, 
    "LONGITUDE": -87.789083831, 
    "LATTITUDE": 41.952984203
  }, 
  {
    "BUSINESS_TYPE": "Pet Shop", 
    "LEGAL_NAME": "AUDREY ANN FISCHER", 
    "STATE": "IL", 
    "DOING_BUSINESS_AS_NAME": "BEVERLY PET", 
    "POP_AT_RISK": 13585, 
    "ZIP": 60643, 
    "ADDRESS": "10035 S WESTERN AVE  1", 
    "YEAR": 2003, 
    "LONGITUDE": -87.68160723, 
    "LATTITUDE": 41.710804484
  }, 
  {
    "BUSINESS_TYPE": "Pet Shop", 
    "LEGAL_NAME": "ELIZABETH M VARELA", 
    "STATE": "IL", 
    "DOING_BUSINESS_AS_NAME": "LIZ'S BIRD SHOP", 
    "POP_AT_RISK": 60844, 
    "ZIP": 60622, 
    "ADDRESS": "1931 W CHICAGO AVE", 
    "YEAR": 2003, 
    "LONGITUDE": -87.675889985, 
    "LATTITUDE": 41.895821005
  }, 
  {
    "BUSINESS_TYPE": "Pet Shop", 
    "LEGAL_NAME": "BARRIER REEF AQUATICS INC", 
    "STATE": "IL", 
    "DOING_BUSINESS_AS_NAME": "BARRIER REEF AQUATICS INC", 
    "POP_AT_RISK": 18922, 
    "ZIP": 60638, 
    "ADDRESS": "5718 S ARCHER AVE # 1", 
    "YEAR": 2003, 
    "LONGITUDE": -87.754990915, 
    "LATTITUDE": 41.796967496
  }, 
  {
    "BUSINESS_TYPE": "Pet Shop", 
    "LEGAL_NAME": "ROBERT ELLMAN", 
    "STATE": "IL", 
    "DOING_BUSINESS_AS_NAME": "7 SEAS TROPAQUARIUM", 
    "POP_AT_RISK": 9426, 
    "ZIP": 60633, 
    "ADDRESS": "13311 S BRANDON AVE 1ST", 
    "YEAR": 2003, 
    "LONGITUDE": -87.545768811, 
    "LATTITUDE": 41.65330346
  }, 
  {
    "BUSINESS_TYPE": "Pet Shop", 
    "LEGAL_NAME": "CARL GOLDEN", 
    "STATE": "IL", 
    "DOING_BUSINESS_AS_NAME": "CARL GOLDEN", 
    "POP_AT_RISK": 35686, 
    "ZIP": 60620, 
    "ADDRESS": "8611 S ASHLAND AVE  1", 
    "YEAR": 2003, 
    "LONGITUDE": -87.662953283, 
    "LATTITUDE": 41.737241001
  }, 
  {
    "BUSINESS_TYPE": "Pet Shop", 
    "LEGAL_NAME": "BRIDGEPORT PET BOUTIQUE", 
    "STATE": "IL", 
    "DOING_BUSINESS_AS_NAME": "BRIDGEPORT PET BOUTIQUE", 
    "POP_AT_RISK": 37832, 
    "ZIP": 60609, 
    "ADDRESS": "824 W 35TH ST  1", 
    "YEAR": 2003, 
    "LONGITUDE": -87.647102867, 
    "LATTITUDE": 41.830847364
  }, 
  {
    "BUSINESS_TYPE": "Pet Shop", 
    "LEGAL_NAME": "DONALD GROENEWOLD", 
    "STATE": "IL", 
    "DOING_BUSINESS_AS_NAME": "PET LUV PET SHOP", 
    "POP_AT_RISK": 11047, 
    "ZIP": 60652, 
    "ADDRESS": "8057 S CICERO AVE  1ST", 
    "YEAR": 2003, 
    "LONGITUDE": -87.74110156, 
    "LATTITUDE": 41.74602292
  }, 
  {
    "BUSINESS_TYPE": "Pet Shop", 
    "LEGAL_NAME": "JUAN A. HERNANDEZ", 
    "STATE": "IL", 
    "DOING_BUSINESS_AS_NAME": "HERNANDEZ PET & SUPPLIES", 
    "POP_AT_RISK": 62331, 
    "ZIP": 60651, 
    "ADDRESS": "3853 W GRAND AVE", 
    "YEAR": 2003, 
    "LONGITUDE": -87.723395538, 
    "LATTITUDE": 41.904837555
  }, 
  {
    "BUSINESS_TYPE": "Pet Shop", 
    "LEGAL_NAME": "ANIMAL KINGDOM INC", 
    "STATE": "IL", 
    "DOING_BUSINESS_AS_NAME": "ANIMAL KINGDOM INCORPORATED", 
    "POP_AT_RISK": 60635, 
    "ZIP": 60618, 
    "ADDRESS": "2980 N MILWAUKEE AVE", 
    "YEAR": 2003, 
    "LONGITUDE": -87.717957144, 
    "LATTITUDE": 41.935364502
  }, 
  {
    "BUSINESS_TYPE": "Pet Shop", 
    "LEGAL_NAME": "JOSE RONCES", 
    "STATE": "IL", 
    "DOING_BUSINESS_AS_NAME": "GROOMING PARLOR #2", 
    "POP_AT_RISK": 44522, 
    "ZIP": 60630, 
    "ADDRESS": "4501 N MILWAUKEE AVE", 
    "YEAR": 2003, 
    "LONGITUDE": -87.755972062, 
    "LATTITUDE": 41.962557499
  }
]