[
  {
    "BUSINESS_TYPE": "Street Performer", 
    "LEGAL_NAME": "ANGELA MARKS", 
    "STATE": "IL", 
    "DOING_BUSINESS_AS_NAME": "ANGELA MARKS", 
    "POP_AT_RISK": 40046, 
    "ZIP": 60629, 
    "ADDRESS": "2446 W MARQUETTE RD", 
    "YEAR": 2012, 
    "LONGITUDE": -87.685366675, 
    "LATTITUDE": 41.772057187
  }, 
  {
    "BUSINESS_TYPE": "Street Performer", 
    "LEGAL_NAME": "MICHELLE S HERRON", 
    "STATE": "IL", 
    "DOING_BUSINESS_AS_NAME": "MICHELLE S HERRON", 
    "POP_AT_RISK": 24393, 
    "ZIP": 60628, 
    "ADDRESS": "11741 S YALE AVE", 
    "YEAR": 2012, 
    "LONGITUDE": -87.628589327, 
    "LATTITUDE": 41.680381836
  }, 
  {
    "BUSINESS_TYPE": "Street Performer", 
    "LEGAL_NAME": "EVIN R J RUSSELL", 
    "STATE": "IL", 
    "DOING_BUSINESS_AS_NAME": "EVIN R J RUSSELL", 
    "POP_AT_RISK": 7012, 
    "ZIP": 60628, 
    "ADDRESS": "629 W 129TH PL", 
    "YEAR": 2012, 
    "LONGITUDE": -87.637612929, 
    "LATTITUDE": 41.658146252
  }, 
  {
    "BUSINESS_TYPE": "Street Performer", 
    "LEGAL_NAME": "MANKWE MONIKA NDOSI", 
    "STATE": "MN", 
    "DOING_BUSINESS_AS_NAME": "MANKWE MONIKA NDOSI", 
    "POP_AT_RISK": 27040, 
    "ZIP": 55427, 
    "ADDRESS": "6411  OLYMPIA ST", 
    "YEAR": 2012, 
    "LONGITUDE": -87.818694819, 
    "LATTITUDE": 41.99704975
  }, 
  {
    "BUSINESS_TYPE": "Street Performer", 
    "LEGAL_NAME": "KENYON WOODFORK", 
    "STATE": "IL", 
    "DOING_BUSINESS_AS_NAME": "KENYON WOODFORK", 
    "POP_AT_RISK": 39739, 
    "ZIP": 60644, 
    "ADDRESS": "5601 W WEST END AVE", 
    "YEAR": 2012, 
    "LONGITUDE": -87.765081801, 
    "LATTITUDE": 41.884124701
  }, 
  {
    "BUSINESS_TYPE": "Street Performer", 
    "LEGAL_NAME": "MICHAEL SANDERS", 
    "STATE": "IL", 
    "DOING_BUSINESS_AS_NAME": "MICHAEL SANDERS", 
    "POP_AT_RISK": 6482, 
    "ZIP": 60827, 
    "ADDRESS": "13107 S LANGLEY AVE", 
    "YEAR": 2012, 
    "LONGITUDE": -87.604987789, 
    "LATTITUDE": 41.657144055
  }, 
  {
    "BUSINESS_TYPE": "Street Performer", 
    "LEGAL_NAME": "JOHN JOSEPH TAUS", 
    "STATE": "IL", 
    "DOING_BUSINESS_AS_NAME": "JOHN JOSEPH TAUS", 
    "POP_AT_RISK": 19727, 
    "ZIP": 60617, 
    "ADDRESS": "10132 S EWING AVE", 
    "YEAR": 2012, 
    "LONGITUDE": -87.535427955, 
    "LATTITUDE": 41.711009451
  }, 
  {
    "BUSINESS_TYPE": "Street Performer", 
    "LEGAL_NAME": "JEAN L. DE SAVIEU", 
    "STATE": "IL", 
    "DOING_BUSINESS_AS_NAME": "JEAN L. DE SAVIEU", 
    "POP_AT_RISK": 35321, 
    "ZIP": 60637, 
    "ADDRESS": "6230 S DORCHESTER AVE 210", 
    "YEAR": 2012, 
    "LONGITUDE": -87.591520853, 
    "LATTITUDE": 41.781431131
  }, 
  {
    "BUSINESS_TYPE": "Street Performer", 
    "LEGAL_NAME": "BRADLEY FRANK MODJESKI", 
    "STATE": "IL", 
    "DOING_BUSINESS_AS_NAME": "BRADLEY FRANK MODJESKI", 
    "POP_AT_RISK": 43722, 
    "ZIP": 60634, 
    "ADDRESS": "6742 W BELMONT AVE", 
    "YEAR": 2012, 
    "LONGITUDE": -87.795009941, 
    "LATTITUDE": 41.938278775
  }, 
  {
    "BUSINESS_TYPE": "Street Performer", 
    "LEGAL_NAME": "ABIMBOLA ADEMOSU", 
    "STATE": "IL", 
    "DOING_BUSINESS_AS_NAME": "ABIMBOLA ADEMOSU", 
    "POP_AT_RISK": 17702, 
    "ZIP": 60617, 
    "ADDRESS": "9177 S SOUTH CHICAGO AVE", 
    "YEAR": 2012, 
    "LONGITUDE": -87.553602648, 
    "LATTITUDE": 41.728633958
  }, 
  {
    "BUSINESS_TYPE": "Street Performer", 
    "LEGAL_NAME": "JOSEPH G ELLISON", 
    "STATE": "IL", 
    "DOING_BUSINESS_AS_NAME": "JOSEPH GLEN ELLISON", 
    "POP_AT_RISK": 50346, 
    "ZIP": 60639, 
    "ADDRESS": "5846 W CORTLAND ST", 
    "YEAR": 2012, 
    "LONGITUDE": -87.772230461, 
    "LATTITUDE": 41.914392708
  }, 
  {
    "BUSINESS_TYPE": "Street Performer", 
    "LEGAL_NAME": "LARRY LEE STEWART", 
    "STATE": "IL", 
    "DOING_BUSINESS_AS_NAME": "LARRY LEE STEWART", 
    "POP_AT_RISK": 20309, 
    "ZIP": 60628, 
    "ADDRESS": "739 E 105TH ST", 
    "YEAR": 2012, 
    "LONGITUDE": -87.604741925, 
    "LATTITUDE": 41.703684474
  }, 
  {
    "BUSINESS_TYPE": "Street Performer", 
    "LEGAL_NAME": "JERRY DANIEL HERNANDEZ", 
    "STATE": "IL", 
    "DOING_BUSINESS_AS_NAME": "JERRY DANIEL HERNANDEZ", 
    "POP_AT_RISK": 12033, 
    "ZIP": 60656, 
    "ADDRESS": "4623 N CHESTER AVE  201", 
    "YEAR": 2012, 
    "LONGITUDE": -87.83869228, 
    "LATTITUDE": 41.964432581
  }, 
  {
    "BUSINESS_TYPE": "Street Performer", 
    "LEGAL_NAME": "CAROL EPHRAIM", 
    "STATE": "IL", 
    "DOING_BUSINESS_AS_NAME": "CAROL EPHRAIM", 
    "POP_AT_RISK": 32143, 
    "ZIP": 60652, 
    "ADDRESS": "3643 W 79TH ST", 
    "YEAR": 2012, 
    "LONGITUDE": -87.713778115, 
    "LATTITUDE": 41.749455613
  }, 
  {
    "BUSINESS_TYPE": "Street Performer", 
    "LEGAL_NAME": "DANIEL RAYMOND SHAUGHNESSY", 
    "STATE": "IL", 
    "DOING_BUSINESS_AS_NAME": "DANIEL RAYMOND SHAUGHNESSY", 
    "POP_AT_RISK": 18938, 
    "ZIP": 60638, 
    "ADDRESS": "5811 W 64TH ST", 
    "YEAR": 2012, 
    "LONGITUDE": -87.767032207, 
    "LATTITUDE": 41.776027507
  }, 
  {
    "BUSINESS_TYPE": "Street Performer", 
    "LEGAL_NAME": "CARMEN LILY ABELSON", 
    "STATE": "IL", 
    "DOING_BUSINESS_AS_NAME": "CARMEN LILY ABELSON", 
    "POP_AT_RISK": 25132, 
    "ZIP": 60630, 
    "ADDRESS": "5144 N KILBOURN AVE", 
    "YEAR": 2012, 
    "LONGITUDE": -87.740807121, 
    "LATTITUDE": 41.974907172
  }, 
  {
    "BUSINESS_TYPE": "Street Performer", 
    "LEGAL_NAME": "ERIC PHILIP MARTIN", 
    "STATE": "IL", 
    "DOING_BUSINESS_AS_NAME": "ERIC PHILIP MARTIN", 
    "POP_AT_RISK": 28876, 
    "ZIP": 60621, 
    "ADDRESS": "305 W 65TH ST", 
    "YEAR": 2012, 
    "LONGITUDE": -87.632717928, 
    "LATTITUDE": 41.776444407
  }, 
  {
    "BUSINESS_TYPE": "Street Performer", 
    "LEGAL_NAME": "ANTONIO TORRES", 
    "STATE": "IL", 
    "DOING_BUSINESS_AS_NAME": "ANTONIO TORRES", 
    "POP_AT_RISK": 58944, 
    "ZIP": 60629, 
    "ADDRESS": "5537 S RICHMOND ST", 
    "YEAR": 2012, 
    "LONGITUDE": -87.697280637, 
    "LATTITUDE": 41.792520717
  }, 
  {
    "BUSINESS_TYPE": "Street Performer", 
    "LEGAL_NAME": "LOUIS S SIERRA II", 
    "STATE": "IL", 
    "DOING_BUSINESS_AS_NAME": "LOUIS S SIERRA II", 
    "POP_AT_RISK": 57732, 
    "ZIP": 60623, 
    "ADDRESS": "2835 W 22ND PL", 
    "YEAR": 2012, 
    "LONGITUDE": -87.696762895, 
    "LATTITUDE": 41.85085889
  }, 
  {
    "BUSINESS_TYPE": "Street Performer", 
    "LEGAL_NAME": "CECIL D LOCKE", 
    "STATE": "IL", 
    "DOING_BUSINESS_AS_NAME": "CECIL D LOCKE", 
    "POP_AT_RISK": 48881, 
    "ZIP": 60609, 
    "ADDRESS": "5347 S WOOD ST 1ST", 
    "YEAR": 2012, 
    "LONGITUDE": -87.669360606, 
    "LATTITUDE": 41.796248088
  }, 
  {
    "BUSINESS_TYPE": "Street Performer", 
    "LEGAL_NAME": "EUGENE S. LOGAN III", 
    "STATE": "IL", 
    "DOING_BUSINESS_AS_NAME": "EUGENE S. LOGAN III", 
    "POP_AT_RISK": 34293, 
    "ZIP": 60628, 
    "ADDRESS": "11008 S NORMAL AVE", 
    "YEAR": 2012, 
    "LONGITUDE": -87.635333296, 
    "LATTITUDE": 41.693982122
  }, 
  {
    "BUSINESS_TYPE": "Street Performer", 
    "LEGAL_NAME": "CYNTHIA STANLEY", 
    "STATE": "IL", 
    "DOING_BUSINESS_AS_NAME": "CYNTHIA STANLEY", 
    "POP_AT_RISK": 20643, 
    "ZIP": 60638, 
    "ADDRESS": "5218 S LATROBE AVE", 
    "YEAR": 2012, 
    "LONGITUDE": -87.75403482, 
    "LATTITUDE": 41.79774203
  }, 
  {
    "BUSINESS_TYPE": "Street Performer", 
    "LEGAL_NAME": "ANTHONY E MOSER", 
    "STATE": "IL", 
    "DOING_BUSINESS_AS_NAME": "ANTHONY E MOSER", 
    "POP_AT_RISK": 39442, 
    "ZIP": 60609, 
    "ADDRESS": "2228 W 37TH ST 1ST", 
    "YEAR": 2012, 
    "LONGITUDE": -87.681303176, 
    "LATTITUDE": 41.826785235
  }, 
  {
    "BUSINESS_TYPE": "Street Performer", 
    "LEGAL_NAME": "STELLA HAN", 
    "STATE": "IL", 
    "DOING_BUSINESS_AS_NAME": "STELLA HAN", 
    "POP_AT_RISK": 17956, 
    "ZIP": 60646, 
    "ADDRESS": "6330 N NOKOMIS AVE", 
    "YEAR": 2012, 
    "LONGITUDE": -87.760861203, 
    "LATTITUDE": 41.995693286
  }, 
  {
    "BUSINESS_TYPE": "Street Performer", 
    "LEGAL_NAME": "JORGE URIBE", 
    "STATE": "IL", 
    "DOING_BUSINESS_AS_NAME": "JORGE URIBE", 
    "POP_AT_RISK": 54952, 
    "ZIP": 60629, 
    "ADDRESS": "6331 S KARLOV AVE", 
    "YEAR": 2012, 
    "LONGITUDE": -87.725028999, 
    "LATTITUDE": 41.777624425
  }, 
  {
    "BUSINESS_TYPE": "Street Performer", 
    "LEGAL_NAME": "CORDERO TIERRE JOHNSON", 
    "STATE": "IL", 
    "DOING_BUSINESS_AS_NAME": "CORDERO TIERRE JOHNSON", 
    "POP_AT_RISK": 11876, 
    "ZIP": 60617, 
    "ADDRESS": "10218 S CRANDON AVE", 
    "YEAR": 2012, 
    "LONGITUDE": -87.567090725, 
    "LATTITUDE": 41.709267761
  }, 
  {
    "BUSINESS_TYPE": "Street Performer", 
    "LEGAL_NAME": "DAVID WALKER", 
    "STATE": "IL", 
    "DOING_BUSINESS_AS_NAME": "DAVID WALKER", 
    "POP_AT_RISK": 28159, 
    "ZIP": 60620, 
    "ADDRESS": "221 W 94TH ST", 
    "YEAR": 2012, 
    "LONGITUDE": -87.629944045, 
    "LATTITUDE": 41.723606889
  }
]