[
{"STATE":"IL","ZIP":60659,"LATTITUDE":41.98317136467581,"ADDRESS":"3220 W BRYN MAWR AVE  ","YEAR":2006,"DOING_BUSINESS_AS_NAME":"CHICAGO CYBER CAFE","POP_AT_RISK":50887,"BUSINESS_TYPE":"Retail Computing Center","LEGAL_NAME":"JAE S KIM","LONGITUDE":-87.70970863394392},
{"STATE":"IL","ZIP":60618,"LATTITUDE":41.93906998745683,"ADDRESS":"3715 W BELMONT AVE  ","YEAR":2006,"DOING_BUSINESS_AS_NAME":"RESTART","POP_AT_RISK":593622,"BUSINESS_TYPE":"Retail Computing Center","LEGAL_NAME":"RESTART, INC","LONGITUDE":-87.72034454272568},
{"STATE":"IL","ZIP":60625,"LATTITUDE":41.9795143154988,"ADDRESS":"5400 N KEDZIE AVE 1 ","YEAR":2006,"DOING_BUSINESS_AS_NAME":"PC-ZONE","POP_AT_RISK":52056,"BUSINESS_TYPE":"Retail Computing Center","LEGAL_NAME":"YOUNG H. PARK","LONGITUDE":-87.70891967012712},
{"STATE":"IL","ZIP":60625,"LATTITUDE":41.968470458084425,"ADDRESS":"3536 W LAWRENCE AVE  ","YEAR":2006,"DOING_BUSINESS_AS_NAME":"A.N.D. COMPUTING","POP_AT_RISK":701240,"BUSINESS_TYPE":"Retail Computing Center","LEGAL_NAME":"APP N DATA INC","LONGITUDE":-87.71733141454807},
{"STATE":"IL","ZIP":60639,"LATTITUDE":41.91725533462689,"ADDRESS":"4036 W ARMITAGE AVE  ","YEAR":2006,"DOING_BUSINESS_AS_NAME":"CAFE INTERNET LATINO","POP_AT_RISK":741850,"BUSINESS_TYPE":"Retail Computing Center","LEGAL_NAME":"FEDERICO BUCIO","LONGITUDE":-87.72807934485093},
{"STATE":"IL","ZIP":60628,"LATTITUDE":41.69646826664951,"ADDRESS":"10846 S HALSTED ST  ","YEAR":2006,"DOING_BUSINESS_AS_NAME":"R & R COMPUTER SERVICES","POP_AT_RISK":126250,"BUSINESS_TYPE":"Retail Computing Center","LEGAL_NAME":"ROCHELLE SMITH","LONGITUDE":-87.64265412117399},
{"STATE":"IL","ZIP":60634,"LATTITUDE":41.953134979999625,"ADDRESS":"6040 W IRVING PARK RD  ","YEAR":2006,"DOING_BUSINESS_AS_NAME":"ONE STOP BROWSING","POP_AT_RISK":256340,"BUSINESS_TYPE":"Retail Computing Center","LEGAL_NAME":"SIMS M. THOMAS","LONGITUDE":-87.77840271558046},
{"STATE":"IL","ZIP":60615,"LATTITUDE":41.79535600927198,"ADDRESS":"1744 E 55TH ST  ","YEAR":2006,"DOING_BUSINESS_AS_NAME":"FUTUREWORLD","POP_AT_RISK":58412,"BUSINESS_TYPE":"Retail Computing Center","LEGAL_NAME":"FUTUREWORLD NFP","LONGITUDE":-87.58222060804295},
{"STATE":"IL","ZIP":60632,"LATTITUDE":41.79678066332652,"ADDRESS":"5311 S KEDZIE AVE  ","YEAR":2006,"DOING_BUSINESS_AS_NAME":"COMPUTER AND NETWORK SOLUTIONS","POP_AT_RISK":188595,"BUSINESS_TYPE":"Retail Computing Center","LEGAL_NAME":"MARIA A CARABEZ","LONGITUDE":-87.70350235977779},
{"STATE":"IL","ZIP":60632,"LATTITUDE":41.801111684831604,"ADDRESS":"2740 W 51ST ST  ","YEAR":2006,"DOING_BUSINESS_AS_NAME":"PUNTO COM COMPUTER SERVICES","POP_AT_RISK":273075,"BUSINESS_TYPE":"Retail Computing Center","LEGAL_NAME":"RAFAEL GONSALES","LONGITUDE":-87.6931804151858},
{"STATE":"IL","ZIP":60608,"LATTITUDE":41.85870915813739,"ADDRESS":"1640 S BLUE ISLAND AVE  ","YEAR":2006,"DOING_BUSINESS_AS_NAME":"EFEBOS INTERNET CAFE","POP_AT_RISK":271026,"BUSINESS_TYPE":"Retail Computing Center","LEGAL_NAME":"VICENTE RAMIREZ","LONGITUDE":-87.6606040076504},
{"STATE":"IL","ZIP":60617,"LATTITUDE":41.732506625415844,"ADDRESS":"8941 S COMMERCIAL AVE  ","YEAR":2006,"DOING_BUSINESS_AS_NAME":"CHICAGOINK","POP_AT_RISK":123914,"BUSINESS_TYPE":"Retail Computing Center","LEGAL_NAME":"LUIS T RINCONENO","LONGITUDE":-87.55116606308867},
{"STATE":"IL","ZIP":60628,"LATTITUDE":41.67780269846228,"ADDRESS":"415 W 119TH ST  ","YEAR":2006,"DOING_BUSINESS_AS_NAME":"HOUSTON & ASSOCIATES COFFEE PLUS","POP_AT_RISK":279760,"BUSINESS_TYPE":"Retail Computing Center","LEGAL_NAME":"MARTIN H HOUSTON","LONGITUDE":-87.63296168371305},
{"STATE":"IL","ZIP":60645,"LATTITUDE":42.01195388843777,"ADDRESS":"2801 W TOUHY AVE  ","YEAR":2006,"DOING_BUSINESS_AS_NAME":"OFFICE MART","POP_AT_RISK":38904,"BUSINESS_TYPE":"Retail Computing Center","LEGAL_NAME":"OFFICE MART INC.","LONGITUDE":-87.69983023199094},
{"STATE":"IL","ZIP":60623,"LATTITUDE":41.85172962065736,"ADDRESS":"2917 W CERMAK RD 1 ","YEAR":2006,"DOING_BUSINESS_AS_NAME":"COMPUTER SHACK INC.","POP_AT_RISK":1347354,"BUSINESS_TYPE":"Retail Computing Center","LEGAL_NAME":"COMPUTER SHACK INC.","LONGITUDE":-87.7002971216875},
{"STATE":"IL","ZIP":60619,"LATTITUDE":41.751211574824836,"ADDRESS":"358 E 79TH ST 1 ","YEAR":2006,"DOING_BUSINESS_AS_NAME":"COMPUTERS BY THE HOUR & COPYING TOO","POP_AT_RISK":150856,"BUSINESS_TYPE":"Retail Computing Center","LEGAL_NAME":"KIERKEN CORPORATION","LONGITUDE":-87.61583018670413},
{"STATE":"IL","ZIP":60647,"LATTITUDE":41.91047576474006,"ADDRESS":"2246 W NORTH AVE  ","YEAR":2006,"DOING_BUSINESS_AS_NAME":"WINDY CITY CYBER CAFE","POP_AT_RISK":206076,"BUSINESS_TYPE":"Retail Computing Center","LEGAL_NAME":"MARY J. CORNELISSEN","LONGITUDE":-87.68421868507043},
{"STATE":"IL","ZIP":60613,"LATTITUDE":41.95418377373853,"ADDRESS":"1529A W IRVING PARK RD  ","YEAR":2006,"DOING_BUSINESS_AS_NAME":"TECH CENTRAL CAFE","POP_AT_RISK":75572,"BUSINESS_TYPE":"Retail Computing Center","LEGAL_NAME":"MOHAMMED A. SHARIFF","LONGITUDE":-87.66879773043033},
{"STATE":"IL","ZIP":60634,"LATTITUDE":41.94522171663337,"ADDRESS":"7105 W ADDISON ST  ","YEAR":2006,"DOING_BUSINESS_AS_NAME":"COMPUTER LOUNGE INC","POP_AT_RISK":195648,"BUSINESS_TYPE":"Retail Computing Center","LEGAL_NAME":"COMPUTER LOUNGE INC.","LONGITUDE":-87.80352484199379},
{"STATE":"IL","ZIP":60645,"LATTITUDE":42.01238941676102,"ADDRESS":"2358 W TOUHY AVE  ","YEAR":2006,"DOING_BUSINESS_AS_NAME":"BELLA INTERNET CAFE","POP_AT_RISK":117554,"BUSINESS_TYPE":"Retail Computing Center","LEGAL_NAME":"INTERNET WORLD, INC.","LONGITUDE":-87.68993662905656},
{"STATE":"IL","ZIP":60626,"LATTITUDE":42.002473724305595,"ADDRESS":"6624 N CLARK ST  2","YEAR":2006,"DOING_BUSINESS_AS_NAME":"LA BELLA CAFE & INTERNET","POP_AT_RISK":75948,"BUSINESS_TYPE":"Retail Computing Center","LEGAL_NAME":"INTERNET WORLD, INC.","LONGITUDE":-87.67227603034296},
{"STATE":"IL","ZIP":60619,"LATTITUDE":41.743567680303435,"ADDRESS":"33 E 83RD ST  ","YEAR":2006,"DOING_BUSINESS_AS_NAME":"MATHER'S-MORE THAN A CAFE","POP_AT_RISK":27238,"BUSINESS_TYPE":"Retail Computing Center","LEGAL_NAME":"MATHER SENIOR OPTIONS","LONGITUDE":-87.6229553664139},
{"STATE":"IL","ZIP":60634,"LATTITUDE":41.9396542640577,"ADDRESS":"3235 N CENTRAL AVE  ","YEAR":2006,"DOING_BUSINESS_AS_NAME":"MATHER'S-MORE THAN A CAFE","POP_AT_RISK":59744,"BUSINESS_TYPE":"Retail Computing Center","LEGAL_NAME":"MATHER SENIOR OPTIONS","LONGITUDE":-87.76639051535662},
{"STATE":"IL","ZIP":60656,"LATTITUDE":41.98100034161097,"ADDRESS":"7134 W HIGGINS AVE  ","YEAR":2006,"DOING_BUSINESS_AS_NAME":"MATHER'S-MORE THAN A CAFE","POP_AT_RISK":177684,"BUSINESS_TYPE":"Retail Computing Center","LEGAL_NAME":"MATHER SENIOR OPTIONS","LONGITUDE":-87.8059054660053},
{"STATE":"IL","ZIP":60614,"LATTITUDE":41.931862897921334,"ADDRESS":"2717 N CLARK ST  ","YEAR":2006,"DOING_BUSINESS_AS_NAME":"SCREENZ LINCOLN PARK LLC","POP_AT_RISK":84011,"BUSINESS_TYPE":"Retail Computing Center","LEGAL_NAME":"SCREENZ-LINCOLN, LLC.","LONGITUDE":-87.64442182823456},
{"STATE":"IL","ZIP":60634,"LATTITUDE":41.938409615150924,"ADDRESS":"5743 W BELMONT AVE  ","YEAR":2006,"DOING_BUSINESS_AS_NAME":"MAXTRON COMPUTERS CORP.","POP_AT_RISK":62328,"BUSINESS_TYPE":"Retail Computing Center","LEGAL_NAME":"MAXTRON COMPUTERS CORP.","LONGITUDE":-87.77066922415844},
{"STATE":"IL","ZIP":60619,"LATTITUDE":41.738036420101196,"ADDRESS":"8613 S COTTAGE GROVE AVE  ","YEAR":2006,"DOING_BUSINESS_AS_NAME":"DIGITAL ZONE CORPORATION","POP_AT_RISK":230634,"BUSINESS_TYPE":"Retail Computing Center","LEGAL_NAME":"DIGITAL ZONE CORPORATION","LONGITUDE":-87.60471734773098},
{"STATE":"IL","ZIP":60616,"LATTITUDE":41.8382635962444,"ADDRESS":"215 E 31ST ST 1 ","YEAR":2006,"DOING_BUSINESS_AS_NAME":"BRONZEVILLE CORPORATIUM","POP_AT_RISK":503234,"BUSINESS_TYPE":"Retail Computing Center","LEGAL_NAME":"BRONZEVILLE CORPORATIUM, INC.","LONGITUDE":-87.62123336655749},
{"STATE":"IL","ZIP":60632,"LATTITUDE":41.80915648669154,"ADDRESS":"4616 S PULASKI RD  ","YEAR":2006,"DOING_BUSINESS_AS_NAME":"CHICAGO TECHNICAL CENTERS LTD.","POP_AT_RISK":183512,"BUSINESS_TYPE":"Retail Computing Center","LEGAL_NAME":"CHICAGO TECHNICAL CENTERS LTD.","LONGITUDE":-87.72377777795968},
{"STATE":"IL","ZIP":60647,"LATTITUDE":41.92459035157692,"ADDRESS":"3235 W FULLERTON AVE  ","YEAR":2006,"DOING_BUSINESS_AS_NAME":"CHICAGO TECHNICAL CENTERS LTD.","POP_AT_RISK":399285,"BUSINESS_TYPE":"Retail Computing Center","LEGAL_NAME":"CHICAGO TECHNICAL CENTERS LTD.","LONGITUDE":-87.7089919270714},
{"STATE":"IL","ZIP":60631,"LATTITUDE":41.981143964082634,"ADDRESS":"8550 W BRYN MAWR AVE  400","YEAR":2006,"DOING_BUSINESS_AS_NAME":"NEW HORIZONS COMPUTER LEARNING","POP_AT_RISK":105845,"BUSINESS_TYPE":"Retail Computing Center","LEGAL_NAME":"NEW HORIZONS COMPUTER LEARNING","LONGITUDE":-87.84108737455419},
{"STATE":"IL","ZIP":60643,"LATTITUDE":41.72086108791959,"ADDRESS":"2307 W 95TH ST 1ST FLOOR ","YEAR":2006,"DOING_BUSINESS_AS_NAME":"FEDEX KINKO'S #1434","POP_AT_RISK":70645,"BUSINESS_TYPE":"Retail Computing Center","LEGAL_NAME":"FEDEX OFFICE AND PRINT SERVICES, INC.","LONGITUDE":-87.6799565467251},
{"STATE":"IL","ZIP":60637,"LATTITUDE":41.79135958090396,"ADDRESS":"1315 E 57TH ST  1","YEAR":2006,"DOING_BUSINESS_AS_NAME":"FEDEX OFFICE AND PRINT SVCS, INC.","POP_AT_RISK":294824,"BUSINESS_TYPE":"Retail Computing Center","LEGAL_NAME":"FEDEX OFFICE AND PRINT SERVICES, INC.","LONGITUDE":-87.59418728522255},
{"STATE":"IL","ZIP":60610,"LATTITUDE":41.890526116184645,"ADDRESS":"444 N WELLS ST 1ST ","YEAR":2006,"DOING_BUSINESS_AS_NAME":"FEDEX OFFICE AND PRINT SVCS, INC.","POP_AT_RISK":70835,"BUSINESS_TYPE":"Retail Computing Center","LEGAL_NAME":"FEDEX OFFICE AND PRINT SERVICES, INC.","LONGITUDE":-87.63418885782944},
{"STATE":"IL","ZIP":60610,"LATTITUDE":41.90401954694065,"ADDRESS":"1201 N DEARBORN ST  1","YEAR":2006,"DOING_BUSINESS_AS_NAME":"FEDEX OFFICE AND PRINT SVCS, INC.","POP_AT_RISK":523803,"BUSINESS_TYPE":"Retail Computing Center","LEGAL_NAME":"FEDEX OFFICE AND PRINT SERVICES, INC.","LONGITUDE":-87.62984192085615},
{"STATE":"IL","ZIP":60618,"LATTITUDE":41.94415210833125,"ADDRESS":"3435 N WESTERN AVE  1","YEAR":2006,"DOING_BUSINESS_AS_NAME":"FEDEX OFFICE AND PRINT SVCS, INC.","POP_AT_RISK":101630,"BUSINESS_TYPE":"Retail Computing Center","LEGAL_NAME":"FEDEX OFFICE AND PRINT SERVICES, INC.","LONGITUDE":-87.68803617300235},
{"STATE":"IL","ZIP":60614,"LATTITUDE":41.923635405719445,"ADDRESS":"2300 N CLYBOURN AVE  1ST &","YEAR":2006,"DOING_BUSINESS_AS_NAME":"FEDEX OFFICE AND PRINT SVCS, INC.","POP_AT_RISK":59074,"BUSINESS_TYPE":"Retail Computing Center","LEGAL_NAME":"FEDEX OFFICE AND PRINT SERVICES, INC.","LONGITUDE":-87.66742820257483},
{"STATE":"IL","ZIP":60607,"LATTITUDE":41.87653862860462,"ADDRESS":"843 W VAN BUREN ST 1ST ","YEAR":2006,"DOING_BUSINESS_AS_NAME":"FEDEX KINKO'S OFFICE & PRINT SERVICES #3615","POP_AT_RISK":48450,"BUSINESS_TYPE":"Retail Computing Center","LEGAL_NAME":"FEDEX OFFICE AND PRINT SERVICES, INC.","LONGITUDE":-87.64885483251508},
{}]