[
{"STATE":"IL","ZIP":60616,"LATTITUDE":41.83111926924849,"ADDRESS":"4 W 35TH ST  ","YEAR":2013,"DOING_BUSINESS_AS_NAME":"NEIGHBOR CAPITAL LLC","POP_AT_RISK":654930,"BUSINESS_TYPE":"Produce Merchant","LEGAL_NAME":"NEIGHBOR CAPITAL LLC","LONGITUDE":-87.6267791005784},
{"STATE":"IL","ZIP":60623,"LATTITUDE":41.84435110785325,"ADDRESS":"4020 W 26TH ST  ","YEAR":2013,"DOING_BUSINESS_AS_NAME":"NEIGHBOR CAPITAL LLC","POP_AT_RISK":116656,"BUSINESS_TYPE":"Produce Merchant","LEGAL_NAME":"NEIGHBOR CAPITAL LLC","LONGITUDE":-87.72545518952452},
{"STATE":"IL","ZIP":60622,"LATTITUDE":41.909679359144214,"ADDRESS":"1550 N DAMEN AVE  ","YEAR":2013,"DOING_BUSINESS_AS_NAME":"NEIGHBOR CAPITAL LLC","POP_AT_RISK":677370,"BUSINESS_TYPE":"Produce Merchant","LEGAL_NAME":"NEIGHBOR CAPITAL LLC","LONGITUDE":-87.67759021127266},
{"STATE":"IL","ZIP":60611,"LATTITUDE":41.896581755876866,"ADDRESS":"25 E CHICAGO AVE  ","YEAR":2013,"DOING_BUSINESS_AS_NAME":"NEIGHBOR CAPITAL LLC","POP_AT_RISK":1603828,"BUSINESS_TYPE":"Produce Merchant","LEGAL_NAME":"NEIGHBOR CAPITAL LLC","LONGITUDE":-87.62708766330691},
{"STATE":"IL","ZIP":60623,"LATTITUDE":41.853079854479255,"ADDRESS":"3758 W OGDEN AVE  ","YEAR":2013,"DOING_BUSINESS_AS_NAME":"NEIGHBOR CAPITAL LLC","POP_AT_RISK":67124,"BUSINESS_TYPE":"Produce Merchant","LEGAL_NAME":"NEIGHBOR CAPITAL LLC","LONGITUDE":-87.7196515404769},
{"STATE":"IL","ZIP":60640,"LATTITUDE":41.965477642842195,"ADDRESS":"4602 N BROADWAY   ","YEAR":2013,"DOING_BUSINESS_AS_NAME":"NEIGHBOR CAPITAL LLC","POP_AT_RISK":1275642,"BUSINESS_TYPE":"Produce Merchant","LEGAL_NAME":"NEIGHBOR CAPITAL LLC","LONGITUDE":-87.65768752898487},
{"STATE":"IL","ZIP":60622,"LATTITUDE":41.9032358151996,"ADDRESS":"1601 W DIVISION ST  ","YEAR":2013,"DOING_BUSINESS_AS_NAME":"NEIGHBOR CAPITAL LLC","POP_AT_RISK":275305,"BUSINESS_TYPE":"Produce Merchant","LEGAL_NAME":"NEIGHBOR CAPITAL LLC","LONGITUDE":-87.66755406759663},
{"STATE":"IL","ZIP":60651,"LATTITUDE":41.8953375905806,"ADDRESS":"3639 W CHICAGO AVE  ","YEAR":2013,"DOING_BUSINESS_AS_NAME":"NEIGHBOR CAPITAL LLC","POP_AT_RISK":593398,"BUSINESS_TYPE":"Produce Merchant","LEGAL_NAME":"NEIGHBOR CAPITAL LLC","LONGITUDE":-87.71777594423735},
{"STATE":"IL","ZIP":60614,"LATTITUDE":41.918224576213596,"ADDRESS":"944 W ARMITAGE AVE  ","YEAR":2013,"DOING_BUSINESS_AS_NAME":"NEIGHBOR CAPITAL LLC","POP_AT_RISK":921184,"BUSINESS_TYPE":"Produce Merchant","LEGAL_NAME":"NEIGHBOR CAPITAL LLC","LONGITUDE":-87.65272001132021},
{}]