[
  {
    "BUSINESS_TYPE": "Late Hour", 
    "LEGAL_NAME": "JO-KIM LOUNGE CORP.", 
    "STATE": "IL", 
    "DOING_BUSINESS_AS_NAME": "HAPPY'S BAMBOO BAR & LOUNGE", 
    "POP_AT_RISK": 67573, 
    "ZIP": 60614, 
    "ADDRESS": "2247 N LINCOLN AVE", 
    "YEAR": 2001, 
    "LONGITUDE": -87.645166361, 
    "LATTITUDE": 41.923025621
  }, 
  {
    "BUSINESS_TYPE": "Late Hour", 
    "LEGAL_NAME": "PAUL AND JOE'S LOUNGE, INC.", 
    "STATE": "IL", 
    "DOING_BUSINESS_AS_NAME": "UNDERBAR", 
    "POP_AT_RISK": 59510, 
    "ZIP": 60618, 
    "ADDRESS": "3243 N WESTERN AVE 1ST", 
    "YEAR": 2001, 
    "LONGITUDE": -87.687803475, 
    "LATTITUDE": 41.940728693
  }, 
  {
    "BUSINESS_TYPE": "Late Hour", 
    "LEGAL_NAME": "HELEN PETERS", 
    "STATE": "IL", 
    "DOING_BUSINESS_AS_NAME": "LEATHER LOUNGE", 
    "POP_AT_RISK": 34170, 
    "ZIP": 60637, 
    "ADDRESS": "401 E 69TH ST 1ST", 
    "YEAR": 2001, 
    "LONGITUDE": -87.615290699, 
    "LATTITUDE": 41.769231013
  }, 
  {
    "BUSINESS_TYPE": "Late Hour", 
    "LEGAL_NAME": "CARFER & ASSOCIATES, INC.", 
    "STATE": "IL", 
    "DOING_BUSINESS_AS_NAME": "TROPICANA D'CACHE", 
    "POP_AT_RISK": 57691, 
    "ZIP": 60647, 
    "ADDRESS": "2047 N MILWAUKEE AVE", 
    "YEAR": 2001, 
    "LONGITUDE": -87.689944658, 
    "LATTITUDE": 41.918520305
  }, 
  {
    "BUSINESS_TYPE": "Late Hour", 
    "LEGAL_NAME": "GRAND + ASHLAND TAP, INC.", 
    "STATE": "IL", 
    "DOING_BUSINESS_AS_NAME": "GRANDBAR", 
    "POP_AT_RISK": 47191, 
    "ZIP": 60622, 
    "ADDRESS": "1600 W GRAND AVE 1ST", 
    "YEAR": 2001, 
    "LONGITUDE": -87.667204058, 
    "LATTITUDE": 41.891087112
  }, 
  {
    "BUSINESS_TYPE": "Late Hour", 
    "LEGAL_NAME": "MOBY NICK, INC", 
    "STATE": "IL", 
    "DOING_BUSINESS_AS_NAME": "MOBY NICK, INC", 
    "POP_AT_RISK": 73177, 
    "ZIP": 60611, 
    "ADDRESS": "18 E BELLEVUE PL 1ST", 
    "YEAR": 2001, 
    "LONGITUDE": -87.627580407, 
    "LATTITUDE": 41.901679928
  }, 
  {
    "BUSINESS_TYPE": "Late Hour", 
    "LEGAL_NAME": "THE NEW APARTMENT LOUNGE, INC.", 
    "STATE": "IL", 
    "DOING_BUSINESS_AS_NAME": "NEW APARTMENT LOUNGE, INC", 
    "POP_AT_RISK": 35299, 
    "ZIP": 60619, 
    "ADDRESS": "502-506 E 75TH ST 1ST", 
    "YEAR": 2001, 
    "LONGITUDE": -87.612534306, 
    "LATTITUDE": 41.758565117
  }, 
  {
    "BUSINESS_TYPE": "Late Hour", 
    "LEGAL_NAME": "NICK & HOWARD, L.L.C.", 
    "STATE": "IL", 
    "DOING_BUSINESS_AS_NAME": "UNDERGROUND CHICAGO", 
    "POP_AT_RISK": 76521, 
    "ZIP": 60610, 
    "ADDRESS": "56 W ILLINOIS ST", 
    "YEAR": 2001, 
    "LONGITUDE": -87.630143101, 
    "LATTITUDE": 41.890935447
  }, 
  {
    "BUSINESS_TYPE": "Late Hour", 
    "LEGAL_NAME": "VINCENNES LOUNGE & REST INC", 
    "STATE": "IL", 
    "DOING_BUSINESS_AS_NAME": "LOOK IT OVER LOUNGE", 
    "POP_AT_RISK": 33694, 
    "ZIP": 60619, 
    "ADDRESS": "7857 S WOODLAWN AVE", 
    "YEAR": 2001, 
    "LONGITUDE": -87.595348139, 
    "LATTITUDE": 41.7515355
  }, 
  {
    "BUSINESS_TYPE": "Late Hour", 
    "LEGAL_NAME": "WERNER S RUEHLE", 
    "STATE": "IL", 
    "DOING_BUSINESS_AS_NAME": "Kinetic Playground", 
    "POP_AT_RISK": 65137, 
    "ZIP": 60640, 
    "ADDRESS": "1113 W LAWRENCE AVE 1ST", 
    "YEAR": 2001, 
    "LONGITUDE": -87.658200718, 
    "LATTITUDE": 41.968935571
  }, 
  {
    "BUSINESS_TYPE": "Late Hour", 
    "LEGAL_NAME": "WHERE'S THE DUKE, INC.", 
    "STATE": "IL", 
    "DOING_BUSINESS_AS_NAME": "BANANA JOE'S", 
    "POP_AT_RISK": 49726, 
    "ZIP": 60622, 
    "ADDRESS": "940 W WEED ST 2ND", 
    "YEAR": 2001, 
    "LONGITUDE": -87.652772439, 
    "LATTITUDE": 41.90989553
  }
]