[
  {
    "BUSINESS_TYPE": "Peddler, non-food", 
    "LEGAL_NAME": "MILTON BELL", 
    "STATE": "IL", 
    "DOING_BUSINESS_AS_NAME": "MILTON BELL", 
    "POP_AT_RISK": 22945, 
    "ZIP": 60612, 
    "ADDRESS": "300 S DAMEN AVE 19 1907", 
    "YEAR": 2001, 
    "LONGITUDE": -87.676690896, 
    "LATTITUDE": 41.877412838
  }, 
  {
    "BUSINESS_TYPE": "Peddler, non-food", 
    "LEGAL_NAME": "GREG ANDERSON", 
    "STATE": "IL", 
    "DOING_BUSINESS_AS_NAME": "GREG ANDERSON", 
    "POP_AT_RISK": 52332, 
    "ZIP": 60640, 
    "ADDRESS": "817 W LAKESIDE PL 6 602", 
    "YEAR": 2001, 
    "LONGITUDE": -87.650791893, 
    "LATTITUDE": 41.968137493
  }, 
  {
    "BUSINESS_TYPE": "Peddler, non-food", 
    "LEGAL_NAME": "SAMUEL BURTS", 
    "STATE": "IL", 
    "DOING_BUSINESS_AS_NAME": "SAMUEL BURTS", 
    "POP_AT_RISK": 30359, 
    "ZIP": 60621, 
    "ADDRESS": "611 W 70TH ST  1", 
    "YEAR": 2001, 
    "LONGITUDE": -87.640104062, 
    "LATTITUDE": 41.766971836
  }, 
  {
    "BUSINESS_TYPE": "Peddler, non-food", 
    "LEGAL_NAME": "JOSE MANUEL TORRES SR.", 
    "STATE": "IL", 
    "DOING_BUSINESS_AS_NAME": "JOSE M TORRES SR.", 
    "POP_AT_RISK": 15852, 
    "ZIP": 60631, 
    "ADDRESS": "7715 W JARLATH ST", 
    "YEAR": 2001, 
    "LONGITUDE": -87.819487912, 
    "LATTITUDE": 42.012193229
  }, 
  {
    "BUSINESS_TYPE": "Peddler, non-food", 
    "LEGAL_NAME": "JOSE PEREZ", 
    "STATE": "IL", 
    "DOING_BUSINESS_AS_NAME": "JOSE PEREZ", 
    "POP_AT_RISK": 24497, 
    "ZIP": 60617, 
    "ADDRESS": "10608 S AVENUE O  1ST", 
    "YEAR": 2001, 
    "LONGITUDE": -87.540242424, 
    "LATTITUDE": 41.702438124
  }, 
  {
    "BUSINESS_TYPE": "Peddler, non-food", 
    "LEGAL_NAME": "EDWARD CARTER", 
    "STATE": "IL", 
    "DOING_BUSINESS_AS_NAME": "EDWARD CARTER", 
    "POP_AT_RISK": 63239, 
    "ZIP": 60640, 
    "ADDRESS": "915 W WILSON AVE 1ST", 
    "YEAR": 2001, 
    "LONGITUDE": -87.653034397, 
    "LATTITUDE": 41.965346264
  }, 
  {
    "BUSINESS_TYPE": "Peddler, non-food", 
    "LEGAL_NAME": "WANDA POLSAKIEWICZ", 
    "STATE": "IL", 
    "DOING_BUSINESS_AS_NAME": "WANDA POLSAKIEWICZ", 
    "POP_AT_RISK": 21514, 
    "ZIP": 60646, 
    "ADDRESS": "6307 N MELVINA AVE", 
    "YEAR": 2001, 
    "LONGITUDE": -87.782722159, 
    "LATTITUDE": 41.995306274
  }, 
  {
    "BUSINESS_TYPE": "Peddler, non-food", 
    "LEGAL_NAME": "AHMED M AQRABAWI", 
    "STATE": "IL", 
    "DOING_BUSINESS_AS_NAME": "AHMED AQRABAWI", 
    "POP_AT_RISK": 14869, 
    "ZIP": 60646, 
    "ADDRESS": "4750 W GLENLAKE AVE", 
    "YEAR": 2001, 
    "LONGITUDE": -87.748016377, 
    "LATTITUDE": 41.991514729
  }, 
  {
    "BUSINESS_TYPE": "Peddler, non-food", 
    "LEGAL_NAME": "LASHAUN PRICE", 
    "STATE": "IL", 
    "DOING_BUSINESS_AS_NAME": "LASHAUN PRICE", 
    "POP_AT_RISK": 25316, 
    "ZIP": 60628, 
    "ADDRESS": "9729 S PRAIRIE AVE", 
    "YEAR": 2001, 
    "LONGITUDE": -87.617513928, 
    "LATTITUDE": 41.717307772
  }, 
  {
    "BUSINESS_TYPE": "Peddler, non-food", 
    "LEGAL_NAME": "ARTHUR DELEON", 
    "STATE": "IL", 
    "DOING_BUSINESS_AS_NAME": "ARTHUR DELEON", 
    "POP_AT_RISK": 34985, 
    "ZIP": 60707, 
    "ADDRESS": "2452 N NEWCASTLE AVE 1ST", 
    "YEAR": 2001, 
    "LONGITUDE": -87.796659023, 
    "LATTITUDE": 41.925144172
  }, 
  {
    "BUSINESS_TYPE": "Peddler, non-food", 
    "LEGAL_NAME": "DOUDOU PAPE MBAYE", 
    "STATE": "IL", 
    "DOING_BUSINESS_AS_NAME": "DOUDOU PAPE MBAYE", 
    "POP_AT_RISK": 65327, 
    "ZIP": 60626, 
    "ADDRESS": "1617 W COLUMBIA AVE  3C", 
    "YEAR": 2001, 
    "LONGITUDE": -87.671286886, 
    "LATTITUDE": 42.004306311
  }, 
  {
    "BUSINESS_TYPE": "Peddler, non-food", 
    "LEGAL_NAME": "MELVIN MADDOX", 
    "STATE": "IL", 
    "DOING_BUSINESS_AS_NAME": "MELVIN MADDOX", 
    "POP_AT_RISK": 22174, 
    "ZIP": 60652, 
    "ADDRESS": "3643 W 80TH ST 1ST", 
    "YEAR": 2001, 
    "LONGITUDE": -87.713853493, 
    "LATTITUDE": 41.747690396
  }, 
  {
    "BUSINESS_TYPE": "Peddler, non-food", 
    "LEGAL_NAME": "LUIS ANTONIO MARTINEZ", 
    "STATE": "IL", 
    "DOING_BUSINESS_AS_NAME": "LUIS A MARTINEZ", 
    "POP_AT_RISK": 80864, 
    "ZIP": 60647, 
    "ADDRESS": "3638 W SHAKESPEARE AVE 1", 
    "YEAR": 2001, 
    "LONGITUDE": -87.71832467, 
    "LATTITUDE": 41.920120612
  }, 
  {
    "BUSINESS_TYPE": "Peddler, non-food", 
    "LEGAL_NAME": "DEBRA FLOWERS", 
    "STATE": "IL", 
    "DOING_BUSINESS_AS_NAME": "DEBRA FLOWERS", 
    "POP_AT_RISK": 39205, 
    "ZIP": 60620, 
    "ADDRESS": "756 W 87TH ST # 1ST", 
    "YEAR": 2001, 
    "LONGITUDE": -87.643456121, 
    "LATTITUDE": 41.736224637
  }, 
  {
    "BUSINESS_TYPE": "Peddler, non-food", 
    "LEGAL_NAME": "ERNEST BRITT", 
    "STATE": "IL", 
    "DOING_BUSINESS_AS_NAME": "ERNEST L BRITT", 
    "POP_AT_RISK": 30270, 
    "ZIP": 60649, 
    "ADDRESS": "6720 S JEFFERY BLVD", 
    "YEAR": 2001, 
    "LONGITUDE": -87.576624325, 
    "LATTITUDE": 41.772797292
  }, 
  {
    "BUSINESS_TYPE": "Peddler, non-food", 
    "LEGAL_NAME": "ROBERTO MANZO", 
    "STATE": "IL", 
    "DOING_BUSINESS_AS_NAME": "ROBERTO MANZO", 
    "POP_AT_RISK": 39937, 
    "ZIP": 60609, 
    "ADDRESS": "4713 S DAMEN AVE 1ST", 
    "YEAR": 2001, 
    "LONGITUDE": -87.67452824, 
    "LATTITUDE": 41.808081662
  }, 
  {
    "BUSINESS_TYPE": "Peddler, non-food", 
    "LEGAL_NAME": "DERRICK REDMOND", 
    "STATE": "IL", 
    "DOING_BUSINESS_AS_NAME": "DERRICK REDMOND", 
    "POP_AT_RISK": 37685, 
    "ZIP": 60607, 
    "ADDRESS": "123 S GREEN ST  407", 
    "YEAR": 2001, 
    "LONGITUDE": -87.648321784, 
    "LATTITUDE": 41.879747219
  }, 
  {
    "BUSINESS_TYPE": "Peddler, non-food", 
    "LEGAL_NAME": "KERRY W KINNON SR", 
    "STATE": "IL", 
    "DOING_BUSINESS_AS_NAME": "KERRY W KINNON SR", 
    "POP_AT_RISK": 30831, 
    "ZIP": 60617, 
    "ADDRESS": "2945 E 80TH ST  1", 
    "YEAR": 2001, 
    "LONGITUDE": -87.552300758, 
    "LATTITUDE": 41.7499921
  }, 
  {
    "BUSINESS_TYPE": "Peddler, non-food", 
    "LEGAL_NAME": "JOSE ZUNIGA", 
    "STATE": "IL", 
    "DOING_BUSINESS_AS_NAME": "JOSE ZUNIGA", 
    "POP_AT_RISK": 64516, 
    "ZIP": 60629, 
    "ADDRESS": "5753 S SPAULDING AVE 1ST", 
    "YEAR": 2001, 
    "LONGITUDE": -87.70570765, 
    "LATTITUDE": 41.788289073
  }, 
  {
    "BUSINESS_TYPE": "Peddler, non-food", 
    "LEGAL_NAME": "LEONIDES TADEO", 
    "STATE": "IL", 
    "DOING_BUSINESS_AS_NAME": "LEONIDES TADEO", 
    "POP_AT_RISK": 64023, 
    "ZIP": 60645, 
    "ADDRESS": "7070 N RIDGE BLVD  3A", 
    "YEAR": 2001, 
    "LONGITUDE": -87.682712621, 
    "LATTITUDE": 42.0108243
  }, 
  {
    "BUSINESS_TYPE": "Peddler, non-food", 
    "LEGAL_NAME": "BERNARD WROBEL", 
    "STATE": "IL", 
    "DOING_BUSINESS_AS_NAME": "BERNARD WROBEL", 
    "POP_AT_RISK": 26033, 
    "ZIP": 60638, 
    "ADDRESS": "5123 S LAVERGNE AVE 1ST", 
    "YEAR": 2001, 
    "LONGITUDE": -87.747684069, 
    "LATTITUDE": 41.799603659
  }, 
  {
    "BUSINESS_TYPE": "Peddler, non-food", 
    "LEGAL_NAME": "MAE PENN", 
    "STATE": "IL", 
    "DOING_BUSINESS_AS_NAME": "MAE PENN", 
    "POP_AT_RISK": 34504, 
    "ZIP": 60615, 
    "ADDRESS": "4941 S VINCENNES AVE 1ST", 
    "YEAR": 2001, 
    "LONGITUDE": -87.613724542, 
    "LATTITUDE": 41.804561437
  }, 
  {
    "BUSINESS_TYPE": "Peddler, non-food", 
    "LEGAL_NAME": "HECTOR LOPEZ", 
    "STATE": "IL", 
    "DOING_BUSINESS_AS_NAME": "HECTOR LOPEZ", 
    "POP_AT_RISK": 61074, 
    "ZIP": 60618, 
    "ADDRESS": "2954 W WAVELAND AVE 1ST", 
    "YEAR": 2001, 
    "LONGITUDE": -87.702760544, 
    "LATTITUDE": 41.948590326
  }, 
  {
    "BUSINESS_TYPE": "Peddler, non-food", 
    "LEGAL_NAME": "MARTINA PEREZ", 
    "STATE": "IL", 
    "DOING_BUSINESS_AS_NAME": "MARTINA PEREZ", 
    "POP_AT_RISK": 53563, 
    "ZIP": 60632, 
    "ADDRESS": "4118 S ARTESIAN AVE", 
    "YEAR": 2001, 
    "LONGITUDE": -87.686130643, 
    "LATTITUDE": 41.818686296
  }, 
  {
    "BUSINESS_TYPE": "Peddler, non-food", 
    "LEGAL_NAME": "EMMETT MCKEE", 
    "STATE": "IL", 
    "DOING_BUSINESS_AS_NAME": "EMMETT MCKEE", 
    "POP_AT_RISK": 18053, 
    "ZIP": 60628, 
    "ADDRESS": "937 E 100TH ST 1ST", 
    "YEAR": 2001, 
    "LONGITUDE": -87.600361036, 
    "LATTITUDE": 41.71161367
  }, 
  {
    "BUSINESS_TYPE": "Peddler, non-food", 
    "LEGAL_NAME": "KELLY LAVANT BROWN", 
    "STATE": "IL", 
    "DOING_BUSINESS_AS_NAME": "KELLY BROWN", 
    "POP_AT_RISK": 48530, 
    "ZIP": 60651, 
    "ADDRESS": "929 N LOCKWOOD AVE", 
    "YEAR": 2001, 
    "LONGITUDE": -87.757972801, 
    "LATTITUDE": 41.897625635
  }, 
  {
    "BUSINESS_TYPE": "Peddler, non-food", 
    "LEGAL_NAME": "GARLAND ANDRE GANTT", 
    "STATE": "IL", 
    "DOING_BUSINESS_AS_NAME": "Garland's Music, Movie, Etc.", 
    "POP_AT_RISK": 34857, 
    "ZIP": 60621, 
    "ADDRESS": "7024 S PERRY AVE  2-C", 
    "YEAR": 2001, 
    "LONGITUDE": -87.628338193, 
    "LATTITUDE": 41.766507667
  }, 
  {
    "BUSINESS_TYPE": "Peddler, non-food", 
    "LEGAL_NAME": "CARYL DIANE GRAY", 
    "STATE": "IL", 
    "DOING_BUSINESS_AS_NAME": "CARYL GRAY", 
    "POP_AT_RISK": 32697, 
    "ZIP": 60623, 
    "ADDRESS": "3008 S KILDARE AVE 1ST", 
    "YEAR": 2001, 
    "LONGITUDE": -87.731829982, 
    "LATTITUDE": 41.838317286
  }, 
  {
    "BUSINESS_TYPE": "Peddler, non-food", 
    "LEGAL_NAME": "GHEORGHE NICOLAE", 
    "STATE": "IL", 
    "DOING_BUSINESS_AS_NAME": "GHEORGHE NICOLAE", 
    "POP_AT_RISK": 14956, 
    "ZIP": 60706, 
    "ADDRESS": "6920 W FOREST PRESERVE AVE 1ST", 
    "YEAR": 2001, 
    "LONGITUDE": -87.799893074, 
    "LATTITUDE": 41.957527585
  }, 
  {
    "BUSINESS_TYPE": "Peddler, non-food", 
    "LEGAL_NAME": "ANTHONY TORRES", 
    "STATE": "IL", 
    "DOING_BUSINESS_AS_NAME": "ANTHONY TORRES", 
    "POP_AT_RISK": 47779, 
    "ZIP": 60641, 
    "ADDRESS": "4954 W BERENICE AVE", 
    "YEAR": 2001, 
    "LONGITUDE": -87.751896646, 
    "LATTITUDE": 41.95072287
  }, 
  {
    "BUSINESS_TYPE": "Peddler, non-food", 
    "LEGAL_NAME": "AHMED HAMAYEL", 
    "STATE": "IL", 
    "DOING_BUSINESS_AS_NAME": "AHMED HAMAYEL", 
    "POP_AT_RISK": 52865, 
    "ZIP": 60629, 
    "ADDRESS": "3204 W 66TH PL", 
    "YEAR": 2001, 
    "LONGITUDE": -87.703264527, 
    "LATTITUDE": 41.772713161
  }, 
  {
    "BUSINESS_TYPE": "Peddler, non-food", 
    "LEGAL_NAME": "REBECCA SANCHEZ", 
    "STATE": "IL", 
    "DOING_BUSINESS_AS_NAME": "REBECCA SANCHEZ", 
    "POP_AT_RISK": 59061, 
    "ZIP": 60647, 
    "ADDRESS": "2026 W MOFFAT ST 1ST", 
    "YEAR": 2001, 
    "LONGITUDE": -87.678689833, 
    "LATTITUDE": 41.915562311
  }, 
  {
    "BUSINESS_TYPE": "Peddler, non-food", 
    "LEGAL_NAME": "MARK E HANKTON", 
    "STATE": "IL", 
    "DOING_BUSINESS_AS_NAME": "MARK E HANKTON", 
    "POP_AT_RISK": 26212, 
    "ZIP": 60617, 
    "ADDRESS": "2621 E 92ND ST # 1ST", 
    "YEAR": 2001, 
    "LONGITUDE": -87.559920705, 
    "LATTITUDE": 41.728030699
  }, 
  {
    "BUSINESS_TYPE": "Peddler, non-food", 
    "LEGAL_NAME": "IGNACIO GONZALEZ", 
    "STATE": "IL", 
    "DOING_BUSINESS_AS_NAME": "IGNACIO GONZALEZ", 
    "POP_AT_RISK": 13632, 
    "ZIP": 60617, 
    "ADDRESS": "9647 S AVENUE N  2", 
    "YEAR": 2001, 
    "LONGITUDE": -87.538765636, 
    "LATTITUDE": 41.71991682
  }, 
  {
    "BUSINESS_TYPE": "Peddler, non-food", 
    "LEGAL_NAME": "THEODIS SMITH", 
    "STATE": "IL", 
    "DOING_BUSINESS_AS_NAME": "THEODIS SMITH", 
    "POP_AT_RISK": 35097, 
    "ZIP": 60624, 
    "ADDRESS": "155 S PULASKI RD 1ST", 
    "YEAR": 2001, 
    "LONGITUDE": -87.725435111, 
    "LATTITUDE": 41.878093551
  }, 
  {
    "BUSINESS_TYPE": "Peddler, non-food", 
    "LEGAL_NAME": "ABEL ROMAN", 
    "STATE": "IL", 
    "DOING_BUSINESS_AS_NAME": "ABEL ROMAN", 
    "POP_AT_RISK": 53211, 
    "ZIP": 60608, 
    "ADDRESS": "2316 S CALIFORNIA AVE  1ST", 
    "YEAR": 2001, 
    "LONGITUDE": -87.695526104, 
    "LATTITUDE": 41.849488238
  }, 
  {
    "BUSINESS_TYPE": "Peddler, non-food", 
    "LEGAL_NAME": "JANET TABIT", 
    "STATE": "IL", 
    "DOING_BUSINESS_AS_NAME": "JANET TABIT", 
    "POP_AT_RISK": 62818, 
    "ZIP": 60640, 
    "ADDRESS": "4868 N ASHLAND AVE  1E", 
    "YEAR": 2001, 
    "LONGITUDE": -87.669640223, 
    "LATTITUDE": 41.97088234
  }, 
  {
    "BUSINESS_TYPE": "Peddler, non-food", 
    "LEGAL_NAME": "BRIAN ANDREW CAREF", 
    "STATE": "IL", 
    "DOING_BUSINESS_AS_NAME": "BRIAN ANDREW CAREF", 
    "POP_AT_RISK": 39394, 
    "ZIP": 60615, 
    "ADDRESS": "5431 S HARPER AVE 1 1W", 
    "YEAR": 2001, 
    "LONGITUDE": -87.588894515, 
    "LATTITUDE": 41.797139026
  }, 
  {
    "BUSINESS_TYPE": "Peddler, non-food", 
    "LEGAL_NAME": "WARREN CURTIS FLOWERS", 
    "STATE": "IL", 
    "DOING_BUSINESS_AS_NAME": "WARREN CURTIS FLOWERS", 
    "POP_AT_RISK": 23175, 
    "ZIP": 60643, 
    "ADDRESS": "11731 S MORGAN ST", 
    "YEAR": 2001, 
    "LONGITUDE": -87.646719724, 
    "LATTITUDE": 41.680447699
  }, 
  {
    "BUSINESS_TYPE": "Peddler, non-food", 
    "LEGAL_NAME": "EVELYN WYSINGER", 
    "STATE": "IL", 
    "DOING_BUSINESS_AS_NAME": "EVELYN WYSINGER", 
    "POP_AT_RISK": 26030, 
    "ZIP": 60628, 
    "ADDRESS": "12008 S YALE AVE 1ST", 
    "YEAR": 2001, 
    "LONGITUDE": -87.628750664, 
    "LATTITUDE": 41.675820922
  }, 
  {
    "BUSINESS_TYPE": "Peddler, non-food", 
    "LEGAL_NAME": "MICHAEL RANSOM", 
    "STATE": "IL", 
    "DOING_BUSINESS_AS_NAME": "MICHAEL RANSOM", 
    "POP_AT_RISK": 31553, 
    "ZIP": 60612, 
    "ADDRESS": "2852 W FILLMORE ST 1ST", 
    "YEAR": 2001, 
    "LONGITUDE": -87.698102336, 
    "LATTITUDE": 41.86841851
  }, 
  {
    "BUSINESS_TYPE": "Peddler, non-food", 
    "LEGAL_NAME": "ROXIE M FRAZIER", 
    "STATE": "IL", 
    "DOING_BUSINESS_AS_NAME": "ROXIE M FRAZIER", 
    "POP_AT_RISK": 37117, 
    "ZIP": 60636, 
    "ADDRESS": "6755 S THROOP ST 1ST", 
    "YEAR": 2001, 
    "LONGITUDE": -87.656548689, 
    "LATTITUDE": 41.770684019
  }, 
  {
    "BUSINESS_TYPE": "Peddler, non-food", 
    "LEGAL_NAME": "JACQUELINE CRUSOE", 
    "STATE": "IL", 
    "DOING_BUSINESS_AS_NAME": "JACQUELINE CRUSOE", 
    "POP_AT_RISK": 25672, 
    "ZIP": 60609, 
    "ADDRESS": "847 W 50TH ST", 
    "YEAR": 2001, 
    "LONGITUDE": -87.647244927, 
    "LATTITUDE": 41.803267931
  }, 
  {
    "BUSINESS_TYPE": "Peddler, non-food", 
    "LEGAL_NAME": "MIRZA ASMAT BAIG", 
    "STATE": "IL", 
    "DOING_BUSINESS_AS_NAME": "MIRZA ASMAT BAIG", 
    "POP_AT_RISK": 66487, 
    "ZIP": 60659, 
    "ADDRESS": "2151 W HIGHLAND AVE  1-N", 
    "YEAR": 2001, 
    "LONGITUDE": -87.684519116, 
    "LATTITUDE": 41.99680139
  }, 
  {
    "BUSINESS_TYPE": "Peddler, non-food", 
    "LEGAL_NAME": "EDDIE PERKINS", 
    "STATE": "IL", 
    "DOING_BUSINESS_AS_NAME": "EDDIE PERKINS", 
    "POP_AT_RISK": 40144, 
    "ZIP": 60619, 
    "ADDRESS": "7239 S DOBSON AVE", 
    "YEAR": 2001, 
    "LONGITUDE": -87.5992612, 
    "LATTITUDE": 41.762957174
  }, 
  {
    "BUSINESS_TYPE": "Peddler, non-food", 
    "LEGAL_NAME": "TYRONE FLOWERS", 
    "STATE": "IL", 
    "DOING_BUSINESS_AS_NAME": "TYRONE FLOWERS", 
    "POP_AT_RISK": 47861, 
    "ZIP": 60629, 
    "ADDRESS": "2505 W 63RD ST", 
    "YEAR": 2001, 
    "LONGITUDE": -87.686332383, 
    "LATTITUDE": 41.779110098
  }, 
  {
    "BUSINESS_TYPE": "Peddler, non-food", 
    "LEGAL_NAME": "RIAZ AHMAK KHAN", 
    "STATE": "IL", 
    "DOING_BUSINESS_AS_NAME": "RIAZ AHMAD KHAN", 
    "POP_AT_RISK": 58886, 
    "ZIP": 60647, 
    "ADDRESS": "2202 N ROCKWELL ST 1ST", 
    "YEAR": 2001, 
    "LONGITUDE": -87.6929095, 
    "LATTITUDE": 41.921896313
  }, 
  {
    "BUSINESS_TYPE": "Peddler, non-food", 
    "LEGAL_NAME": "GTD PRODUCTIONS INC", 
    "STATE": "IL", 
    "DOING_BUSINESS_AS_NAME": "GTD PRODUCTIONS INC", 
    "POP_AT_RISK": 35226, 
    "ZIP": 60619, 
    "ADDRESS": "8421 S PRAIRIE AVE", 
    "YEAR": 2001, 
    "LONGITUDE": -87.617741307, 
    "LATTITUDE": 41.741277558
  }, 
  {
    "BUSINESS_TYPE": "Peddler, non-food", 
    "LEGAL_NAME": "EDDIE DEAN RICE", 
    "STATE": "IL", 
    "DOING_BUSINESS_AS_NAME": "EDDIE DEAN RICE", 
    "POP_AT_RISK": 33887, 
    "ZIP": 60612, 
    "ADDRESS": "2434 W WARREN BLVD", 
    "YEAR": 2001, 
    "LONGITUDE": -87.687869513, 
    "LATTITUDE": 41.88218551
  }, 
  {
    "BUSINESS_TYPE": "Peddler, non-food", 
    "LEGAL_NAME": "VINCENT DAVIDSON", 
    "STATE": "IL", 
    "DOING_BUSINESS_AS_NAME": "VINCENT DAVIDSON", 
    "POP_AT_RISK": 35328, 
    "ZIP": 60628, 
    "ADDRESS": "10722 S INDIANA AVE 1ST", 
    "YEAR": 2001, 
    "LONGITUDE": -87.618577147, 
    "LATTITUDE": 41.699240112
  }, 
  {
    "BUSINESS_TYPE": "Peddler, non-food", 
    "LEGAL_NAME": "JANE MARIE WRIGHT", 
    "STATE": "IL", 
    "DOING_BUSINESS_AS_NAME": "JANE M WRIGHT", 
    "POP_AT_RISK": 36374, 
    "ZIP": 60619, 
    "ADDRESS": "8352 S ELLIS AVE  103", 
    "YEAR": 2001, 
    "LONGITUDE": -87.60027506, 
    "LATTITUDE": 41.742452542
  }, 
  {
    "BUSINESS_TYPE": "Peddler, non-food", 
    "LEGAL_NAME": "JOSE A BAUTISTA", 
    "STATE": "IL", 
    "DOING_BUSINESS_AS_NAME": "JOSE A BAUTISTA", 
    "POP_AT_RISK": 54140, 
    "ZIP": 60622, 
    "ADDRESS": "1714 W BEACH AVE 1ST", 
    "YEAR": 2001, 
    "LONGITUDE": -87.670654678, 
    "LATTITUDE": 41.907676227
  }, 
  {
    "BUSINESS_TYPE": "Peddler, non-food", 
    "LEGAL_NAME": "MARIA T CABRALES", 
    "STATE": "IL", 
    "DOING_BUSINESS_AS_NAME": "MARIA T CABRALES", 
    "POP_AT_RISK": 38889, 
    "ZIP": 60632, 
    "ADDRESS": "4413 S MOZART ST 1ST", 
    "YEAR": 2001, 
    "LONGITUDE": -87.695437441, 
    "LATTITUDE": 41.81328308
  }, 
  {
    "BUSINESS_TYPE": "Peddler, non-food", 
    "LEGAL_NAME": "JOSE ANAYA RAMIREZ", 
    "STATE": "IL", 
    "DOING_BUSINESS_AS_NAME": "JOSE R ANAYA", 
    "POP_AT_RISK": 77511, 
    "ZIP": 60625, 
    "ADDRESS": "4856 N ALBANY AVE", 
    "YEAR": 2001, 
    "LONGITUDE": -87.706229727, 
    "LATTITUDE": 41.970186678
  }, 
  {
    "BUSINESS_TYPE": "Peddler, non-food", 
    "LEGAL_NAME": "MORAIMA GARCIA", 
    "STATE": "IL", 
    "DOING_BUSINESS_AS_NAME": "MORAIMA GARCIA", 
    "POP_AT_RISK": 54111, 
    "ZIP": 60634, 
    "ADDRESS": "3118 N MASON AVE 1ST", 
    "YEAR": 2001, 
    "LONGITUDE": -87.775106226, 
    "LATTITUDE": 41.937236144
  }, 
  {
    "BUSINESS_TYPE": "Peddler, non-food", 
    "LEGAL_NAME": "MICHAEL F HARTFIELD", 
    "STATE": "IL", 
    "DOING_BUSINESS_AS_NAME": "MICHAEL F HARTFIELD", 
    "POP_AT_RISK": 20929, 
    "ZIP": 60617, 
    "ADDRESS": "9555 S CHAPPEL AVE 1ST", 
    "YEAR": 2001, 
    "LONGITUDE": -87.573942338, 
    "LATTITUDE": 41.720829442
  }, 
  {
    "BUSINESS_TYPE": "Peddler, non-food", 
    "LEGAL_NAME": "GEORGE LEE BAKER", 
    "STATE": "IL", 
    "DOING_BUSINESS_AS_NAME": "GEORGE LEE BAKER", 
    "POP_AT_RISK": 35551, 
    "ZIP": 60608, 
    "ADDRESS": "1030 W 14TH ST  303", 
    "YEAR": 2001, 
    "LONGITUDE": -87.652279487, 
    "LATTITUDE": 41.86357166
  }, 
  {
    "BUSINESS_TYPE": "Peddler, non-food", 
    "LEGAL_NAME": "DELORES WRIGHT", 
    "STATE": "IL", 
    "DOING_BUSINESS_AS_NAME": "DELORES WRIGHT", 
    "POP_AT_RISK": 66886, 
    "ZIP": 60651, 
    "ADDRESS": "3221 W DIVISION ST", 
    "YEAR": 2001, 
    "LONGITUDE": -87.707667976, 
    "LATTITUDE": 41.902713494
  }, 
  {
    "BUSINESS_TYPE": "Peddler, non-food", 
    "LEGAL_NAME": "NEMER ABED ALKADER", 
    "STATE": "IL", 
    "DOING_BUSINESS_AS_NAME": "NEMER ABED ALKADER", 
    "POP_AT_RISK": 33909, 
    "ZIP": 60634, 
    "ADDRESS": "4102 N NEENAH AVE", 
    "YEAR": 2001, 
    "LONGITUDE": -87.791132816, 
    "LATTITUDE": 41.954394722
  }
]